{
"type": "FeatureCollection",
"name": "HAVER_2_NACH",
"crs": { "type": "name", "properties": { "name": "urn:ogc:def:crs:OGC:1.3:CRS84" } },
"features": [
{"type":"Feature","properties":{"id":12398,"nach":0.61167639887975678},"geometry":{"type":"LineString","coordinates":[[0.1662561,51.6001477],[0.1652518,51.600024500000011],[0.1648796,51.5999002],[0.1645814,51.5997723],[0.1643406,51.5996818]]}},
{"type":"Feature","properties":{"id":12397,"nach":0.54842875678047764},"geometry":{"type":"LineString","coordinates":[[0.1662561,51.6001477],[0.1663758,51.5997519],[0.1664359,51.599528]]}},
{"type":"Feature","properties":{"id":37514,"nach":0.59979194528758051},"geometry":{"type":"LineString","coordinates":[[0.1668405,51.6002061],[0.1662561,51.6001477]]}},
{"type":"Feature","properties":{"id":57031,"nach":0.44831802091613915},"geometry":{"type":"LineString","coordinates":[[0.1680372,51.6026194],[0.1685764,51.6003764]]}},
{"type":"Feature","properties":{"id":9483,"nach":0.58417271568225193},"geometry":{"type":"LineString","coordinates":[[0.1681273,51.6003382],[0.1685764,51.6003764]]}},
{"type":"Feature","properties":{"id":376,"nach":0.57891942497510362},"geometry":{"type":"LineString","coordinates":[[0.1694373,51.6005],[0.1688573,51.60041480000001],[0.1685764,51.6003764]]}},
{"type":"Feature","properties":{"id":57033,"nach":0.40677913108253361},"geometry":{"type":"LineString","coordinates":[[0.1680372,51.6026194],[0.1681291,51.6026335],[0.1681371,51.602636],[0.1681476,51.6026395],[0.1681734,51.6026455],[0.1687034,51.6027422],[0.1694973,51.60288580000001]]}},
{"type":"Feature","properties":{"id":12525,"nach":0.58592278922743579},"geometry":{"type":"LineString","coordinates":[[0.1673777,51.60026830000001],[0.1681273,51.6003382]]}},
{"type":"Feature","properties":{"id":9487,"nach":0.40948397737907866},"geometry":{"type":"LineString","coordinates":[[0.1685871,51.5990045],[0.1681608,51.6002868],[0.1681273,51.6003382]]}},
{"type":"Feature","properties":{"id":9529,"nach":0.48817005753762716},"geometry":{"type":"LineString","coordinates":[[0.1699614,51.5992642],[0.1698297,51.5995383],[0.1695306,51.600245699999988],[0.1694412,51.6004596],[0.1694373,51.6005]]}},
{"type":"Feature","properties":{"id":9521,"nach":0.55684203042147817},"geometry":{"type":"LineString","coordinates":[[0.1711545,51.600811600000014],[0.1709166,51.6007528],[0.1694373,51.6005]]}},
{"type":"Feature","properties":{"id":9675,"nach":0.5265765055570123},"geometry":{"type":"LineString","coordinates":[[0.1794199,51.5949747],[0.1794801,51.5950695],[0.1796003,51.5956666],[0.1797634,51.5960612]]}},
{"type":"Feature","properties":{"id":9724,"nach":0.57455752722997633},"geometry":{"type":"LineString","coordinates":[[0.1776348,51.5952028],[0.1785985,51.5952079],[0.1791564,51.59510130000001],[0.1794199,51.5949747]]}},
{"type":"Feature","properties":{"id":23547,"nach":0.56422255069103677},"geometry":{"type":"LineString","coordinates":[[0.1752924,51.5962705],[0.1750702,51.5964585],[0.1749069,51.5965161],[0.1748185,51.596528]]}},
{"type":"Feature","properties":{"id":355,"nach":0.56093309442812622},"geometry":{"type":"LineString","coordinates":[[0.1748185,51.596528],[0.174798,51.59650220000001],[0.1747719,51.5964886],[0.1747537,51.596483500000012],[0.1747159,51.5964806]]}},
{"type":"Feature","properties":{"id":17890,"nach":0.55745449732245567},"geometry":{"type":"LineString","coordinates":[[0.1747365,51.59660190000001],[0.1747689,51.5965953],[0.1748053,51.5965745],[0.1748185,51.596555],[0.1748185,51.596528]]}},
{"type":"Feature","properties":{"id":23545,"nach":0.55686442130650837},"geometry":{"type":"LineString","coordinates":[[0.1752924,51.5962705],[0.1757756,51.5958753]]}},
{"type":"Feature","properties":{"id":23546,"nach":0.42721458798351414},"geometry":{"type":"LineString","coordinates":[[0.1752924,51.5962705],[0.1762526,51.59671130000001]]}},
{"type":"Feature","properties":{"id":23539,"nach":0.53960065814240121},"geometry":{"type":"LineString","coordinates":[[0.1750646,51.5944659],[0.1746717,51.5950479],[0.1746074,51.5953812],[0.1747083,51.596341099999989],[0.17471,51.5964474],[0.1747159,51.5964806]]}},
{"type":"Feature","properties":{"id":17888,"nach":0.52743312649622465},"geometry":{"type":"LineString","coordinates":[[0.1747159,51.5964806],[0.1746828,51.5964857],[0.1746604,51.5964943],[0.1746382,51.5965104],[0.1746262,51.59653],[0.1746254,51.5965499]]}},
{"type":"Feature","properties":{"id":56312,"nach":0.50037604946558623},"geometry":{"type":"LineString","coordinates":[[0.1728676,51.5964406],[0.1729633,51.5962891],[0.1733217,51.5956956],[0.1733668,51.595674]]}},
{"type":"Feature","properties":{"id":17891,"nach":0.55694749959086409},"geometry":{"type":"LineString","coordinates":[[0.1746254,51.5965499],[0.1745746,51.5965468],[0.1744786,51.5965409],[0.1744095,51.5965174],[0.1743036,51.596429500000013],[0.1737621,51.5959039],[0.1733668,51.595674]]}},
{"type":"Feature","properties":{"id":23923,"nach":0.56761202296992752},"geometry":{"type":"LineString","coordinates":[[0.1728305,51.595235700000011],[0.1729017,51.5953092],[0.1730239,51.5954208],[0.1733668,51.595674]]}},
{"type":"Feature","properties":{"id":56311,"nach":0.43892447714811866},"geometry":{"type":"LineString","coordinates":[[0.1728676,51.5964406],[0.1727946,51.5964982],[0.1726246,51.596566]]}},
{"type":"Feature","properties":{"id":56313,"nach":0.46204118034303687},"geometry":{"type":"LineString","coordinates":[[0.1728676,51.5964406],[0.1729102,51.5964669],[0.1730011,51.5966394]]}},
{"type":"Feature","properties":{"id":17892,"nach":0.50174507262171342},"geometry":{"type":"LineString","coordinates":[[0.1746254,51.5965499],[0.1746395,51.596573799999987],[0.1746623,51.5965896],[0.1746819,51.5965969],[0.1747149,51.5966023],[0.1747365,51.59660190000001]]}},
{"type":"Feature","properties":{"id":23922,"nach":0.55079942102607937},"geometry":{"type":"LineString","coordinates":[[0.1728305,51.595235700000011],[0.1727427,51.595111]]}},
{"type":"Feature","properties":{"id":23924,"nach":0.54114423067266859},"geometry":{"type":"LineString","coordinates":[[0.1728305,51.595235700000011],[0.1725503,51.5953173],[0.1725037,51.5953626],[0.1723784,51.5954749],[0.1720927,51.5955871]]}},
{"type":"Feature","properties":{"id":9410,"nach":0.50608703053575788},"geometry":{"type":"LineString","coordinates":[[0.1741877,51.593212700000016],[0.1741848,51.593386],[0.1740784,51.5936858],[0.1739523,51.5940017],[0.173729899999989,51.5941858],[0.1735067,51.5943511],[0.1732664,51.5944791],[0.1730518,51.594607],[0.172966,51.594703],[0.1728666,51.594799],[0.1727936,51.5949227],[0.1727427,51.595111]]}},
{"type":"Feature","properties":{"id":9390,"nach":0.51565435647191959},"geometry":{"type":"LineString","coordinates":[[0.1702642,51.5947141],[0.1704644,51.5947463],[0.1715489,51.594920600000023],[0.1717214,51.5949483],[0.172348,51.5950496],[0.1727427,51.595111]]}},
{"type":"Feature","properties":{"id":366,"nach":0.4431960557945695},"geometry":{"type":"LineString","coordinates":[[0.1710847,51.597488600000013],[0.1714551,51.5971534],[0.1721402,51.5968125],[0.1724401,51.5966475],[0.1726246,51.596566]]}},
{"type":"Feature","properties":{"id":9542,"nach":0.3998346371821781},"geometry":{"type":"LineString","coordinates":[[0.1730011,51.5966394],[0.1729449,51.5966379],[0.1728086,51.5966344],[0.1726887,51.5965948],[0.1726246,51.596566]]}},
{"type":"Feature","properties":{"id":9532,"nach":0.50227464800441468},"geometry":{"type":"LineString","coordinates":[[0.1703746,51.598398800000012],[0.1705001,51.598199799999989],[0.1706982,51.597925],[0.1709003,51.5976717],[0.1710847,51.597488600000013]]}},
{"type":"Feature","properties":{"id":23909,"nach":0.52075468241042633},"geometry":{"type":"LineString","coordinates":[[0.1703099,51.5970719],[0.1704168,51.5971103],[0.1710322,51.5974589],[0.1710847,51.597488600000013]]}},
{"type":"Feature","properties":{"id":9539,"nach":0.43843672408582279},"geometry":{"type":"LineString","coordinates":[[0.173660799999989,51.599073599999983],[0.1711155,51.5975092],[0.1710847,51.597488600000013]]}},
{"type":"Feature","properties":{"id":25870,"nach":0.4770799458624862},"geometry":{"type":"LineString","coordinates":[[0.1734098,51.5971896],[0.1730011,51.5966394]]}},
{"type":"Feature","properties":{"id":14297,"nach":0.49937026087427377},"geometry":{"type":"LineString","coordinates":[[0.1700815,51.5990128],[0.1701644,51.5988407],[0.1703746,51.598398800000012]]}},
{"type":"Feature","properties":{"id":33852,"nach":0.41628567609569678},"geometry":{"type":"LineString","coordinates":[[0.172329,51.599368],[0.171043,51.5986417],[0.1705516,51.5984507],[0.1704409,51.5984191],[0.1703746,51.598398800000012]]}},
{"type":"Feature","properties":{"id":23911,"nach":0.49639143371476979},"geometry":{"type":"LineString","coordinates":[[0.170654,51.596270099999984],[0.1704788,51.596570600000014],[0.1703531,51.59685120000001],[0.1703099,51.5970719]]}},
{"type":"Feature","properties":{"id":23928,"nach":0.43817207401105002},"geometry":{"type":"LineString","coordinates":[[0.1692682,51.5967405],[0.1697054,51.5968963],[0.1703099,51.5970719]]}},
{"type":"Feature","properties":{"id":9538,"nach":0.52316086681415386},"geometry":{"type":"LineString","coordinates":[[0.173660799999989,51.599073599999983],[0.1735458,51.5991531],[0.1734003,51.5992536],[0.1728197,51.5996547]]}},
{"type":"Feature","properties":{"id":9545,"nach":0.52632877706937586},"geometry":{"type":"LineString","coordinates":[[0.1745792,51.5984498],[0.1739263,51.5988933],[0.173660799999989,51.599073599999983]]}},
{"type":"Feature","properties":{"id":9560,"nach":0.50446633469264357},"geometry":{"type":"LineString","coordinates":[[0.174871,51.5999746],[0.1742616,51.5994628],[0.173660799999989,51.599073599999983]]}},
{"type":"Feature","properties":{"id":9530,"nach":0.44278414194097615},"geometry":{"type":"LineString","coordinates":[[0.1699614,51.5992642],[0.1704164,51.5993935],[0.1707254,51.5995374],[0.1719785,51.6002411]]}},
{"type":"Feature","properties":{"id":14295,"nach":0.50646939823120096},"geometry":{"type":"LineString","coordinates":[[0.1700815,51.5990128],[0.1699614,51.5992642]]}},
{"type":"Feature","properties":{"id":9519,"nach":0.57052961837437344},"geometry":{"type":"LineString","coordinates":[[0.1711545,51.600811600000014],[0.1712747,51.60084890000001]]}},
{"type":"Feature","properties":{"id":32642,"nach":0.54618597300635929},"geometry":{"type":"LineString","coordinates":[[0.1716326,51.6004806],[0.1712232,51.600764],[0.1711545,51.600811600000014]]}},
{"type":"Feature","properties":{"id":40039,"nach":0.47887531844673731},"geometry":{"type":"LineString","coordinates":[[0.1739759,51.6028622],[0.1743928,51.602592]]}},
{"type":"Feature","properties":{"id":10062,"nach":0.53907065151372402},"geometry":{"type":"LineString","coordinates":[[0.1737552,51.6021291],[0.1743928,51.602592]]}},
{"type":"Feature","properties":{"id":10033,"nach":0.53074875721203285},"geometry":{"type":"LineString","coordinates":[[0.1759439,51.6034352],[0.1756588,51.6033117],[0.1743928,51.602592]]}},
{"type":"Feature","properties":{"id":40040,"nach":0.43275312539427335},"geometry":{"type":"LineString","coordinates":[[0.1739759,51.6028622],[0.1738239,51.6029607],[0.1728405,51.6057557]]}},
{"type":"Feature","properties":{"id":40042,"nach":0.42209191094449611},"geometry":{"type":"LineString","coordinates":[[0.1735079,51.6026483],[0.1737196,51.6027014],[0.1737828,51.6027388],[0.1739239,51.602829],[0.1739759,51.6028622]]}},
{"type":"Feature","properties":{"id":10063,"nach":0.54308529530910021},"geometry":{"type":"LineString","coordinates":[[0.1737552,51.6021291],[0.1732831,51.601792500000023]]}},
{"type":"Feature","properties":{"id":10064,"nach":0.40587780322410832},"geometry":{"type":"LineString","coordinates":[[0.1737552,51.6021291],[0.1732402,51.602454299999984],[0.1727939,51.603014]]}},
{"type":"Feature","properties":{"id":10032,"nach":0.52867282028427731},"geometry":{"type":"LineString","coordinates":[[0.1759439,51.6034352],[0.1755576,51.6038243],[0.1754718,51.6039363],[0.1753002,51.6045547]]}},
{"type":"Feature","properties":{"id":32542,"nach":0.5583956289159544},"geometry":{"type":"LineString","coordinates":[[0.176633,51.6036258],[0.1762381,51.603538300000011],[0.1759439,51.6034352]]}},
{"type":"Feature","properties":{"id":55696,"nach":0.53638585843052677},"geometry":{"type":"LineString","coordinates":[[0.1804522,51.6038671],[0.1804535,51.6037585]]}},
{"type":"Feature","properties":{"id":55688,"nach":0.55277491411138346},"geometry":{"type":"LineString","coordinates":[[0.180639,51.6037131],[0.1804535,51.6037585]]}},
{"type":"Feature","properties":{"id":55684,"nach":0.56032009460147414},"geometry":{"type":"LineString","coordinates":[[0.180464,51.603582],[0.1804535,51.6037585]]}},
{"type":"Feature","properties":{"id":55692,"nach":0.57063461327183873},"geometry":{"type":"LineString","coordinates":[[0.1802841,51.6038019],[0.1804535,51.6037585]]}},
{"type":"Feature","properties":{"id":55699,"nach":0.4382316596938296},"geometry":{"type":"LineString","coordinates":[[0.1804522,51.6038671],[0.1806146,51.6038536],[0.1806474,51.603802]]}},
{"type":"Feature","properties":{"id":55698,"nach":0.52477882775177453},"geometry":{"type":"LineString","coordinates":[[0.1804522,51.6038671],[0.1804595,51.6038999],[0.1804707,51.6039509]]}},
{"type":"Feature","properties":{"id":55708,"nach":0.46562347897370943},"geometry":{"type":"LineString","coordinates":[[0.1803209,51.603877900000022],[0.1804522,51.6038671]]}},
{"type":"Feature","properties":{"id":55690,"nach":0.57820272501534908},"geometry":{"type":"LineString","coordinates":[[0.180639,51.6037131],[0.1806869,51.603707100000022],[0.1810814,51.6036576]]}},
{"type":"Feature","properties":{"id":55689,"nach":0.36938229352705737},"geometry":{"type":"LineString","coordinates":[[0.180639,51.6037131],[0.1806474,51.603802]]}},
{"type":"Feature","properties":{"id":55691,"nach":0.51268804080854147},"geometry":{"type":"LineString","coordinates":[[0.180639,51.6037131],[0.180631,51.6036286],[0.1805938,51.6036137],[0.18058,51.6035996],[0.1805692,51.6035824],[0.180464,51.603582]]}},
{"type":"Feature","properties":{"id":55686,"nach":0.58187774017527116},"geometry":{"type":"LineString","coordinates":[[0.180464,51.603582],[0.1804673,51.6035484],[0.1804834,51.6033826],[0.1804527,51.6030216],[0.1804124,51.6028208],[0.1803861,51.6027489]]}},
{"type":"Feature","properties":{"id":55701,"nach":0.50442451213748263},"geometry":{"type":"LineString","coordinates":[[0.1803474,51.6035816],[0.180464,51.603582]]}},
{"type":"Feature","properties":{"id":55695,"nach":0.58717364227411262},"geometry":{"type":"LineString","coordinates":[[0.1802841,51.6038019],[0.1802384,51.6038141],[0.1801532,51.6038369],[0.1800687,51.603848600000013]]}},
{"type":"Feature","properties":{"id":55705,"nach":0.54449983537582736},"geometry":{"type":"LineString","coordinates":[[0.1802402,51.603711500000017],[0.1802841,51.6038019]]}},
{"type":"Feature","properties":{"id":55709,"nach":0.47699318747409425},"geometry":{"type":"LineString","coordinates":[[0.1803209,51.603877900000022],[0.1802841,51.6038019]]}},
{"type":"Feature","properties":{"id":43950,"nach":0.50697921950439895},"geometry":{"type":"LineString","coordinates":[[0.1770019,51.5992931],[0.1762811,51.5986202]]}},
{"type":"Feature","properties":{"id":56289,"nach":0.55664719709184518},"geometry":{"type":"LineString","coordinates":[[0.176146,51.5984865],[0.1762811,51.5986202]]}},
{"type":"Feature","properties":{"id":9655,"nach":0.51143174477269271},"geometry":{"type":"LineString","coordinates":[[0.1771487,51.5983641],[0.1764754,51.5985546],[0.1763479,51.5986044],[0.1762811,51.5986202]]}},
{"type":"Feature","properties":{"id":43949,"nach":0.55498023273477126},"geometry":{"type":"LineString","coordinates":[[0.1770019,51.5992931],[0.1776348,51.5998839]]}},
{"type":"Feature","properties":{"id":43954,"nach":0.4832800713208793},"geometry":{"type":"LineString","coordinates":[[0.1777973,51.5989386],[0.1770019,51.5992931]]}},
{"type":"Feature","properties":{"id":43958,"nach":0.43149468676919384},"geometry":{"type":"LineString","coordinates":[[0.1767785,51.5992839],[0.1769272,51.599323400000017],[0.1770019,51.5992931]]}},
{"type":"Feature","properties":{"id":56291,"nach":0.33957430176409426},"geometry":{"type":"LineString","coordinates":[[0.176146,51.5984865],[0.1759931,51.5985412]]}},
{"type":"Feature","properties":{"id":56290,"nach":0.55608465782158245},"geometry":{"type":"LineString","coordinates":[[0.176146,51.5984865],[0.1760233,51.598365]]}},
{"type":"Feature","properties":{"id":43955,"nach":0.49458427632746294},"geometry":{"type":"LineString","coordinates":[[0.1777973,51.5989386],[0.1772135,51.59843450000001],[0.17718,51.5983987],[0.1771487,51.5983641]]}},
{"type":"Feature","properties":{"id":9658,"nach":0.51845919073259972},"geometry":{"type":"LineString","coordinates":[[0.1787708,51.598107400000011],[0.1783978,51.5981143],[0.1781497,51.5981352],[0.1777034,51.59822590000001],[0.1771487,51.5983641]]}},
{"type":"Feature","properties":{"id":23418,"nach":0.40442774189075731},"geometry":{"type":"LineString","coordinates":[[0.1763008,51.5982999],[0.1770005,51.5981064],[0.1771487,51.5983641]]}},
{"type":"Feature","properties":{"id":56292,"nach":0.561143917044722},"geometry":{"type":"LineString","coordinates":[[0.1787207,51.6007519],[0.1788989,51.6008594]]}},
{"type":"Feature","properties":{"id":9651,"nach":0.56331159469000436},"geometry":{"type":"LineString","coordinates":[[0.1795911,51.6005034],[0.1790333,51.6007903],[0.1789327,51.600842],[0.1788989,51.6008594]]}},
{"type":"Feature","properties":{"id":55679,"nach":0.56025022687273129},"geometry":{"type":"LineString","coordinates":[[0.1800616,51.6020556],[0.179843,51.6017124],[0.1794568,51.6012726],[0.1788989,51.6008594]]}},
{"type":"Feature","properties":{"id":56293,"nach":0.56035854681044472},"geometry":{"type":"LineString","coordinates":[[0.1787207,51.6007519],[0.1782337,51.6004329],[0.1781487,51.600355]]}},
{"type":"Feature","properties":{"id":56297,"nach":0.46442730885648159},"geometry":{"type":"LineString","coordinates":[[0.1786943,51.6008968],[0.1787671,51.6008495],[0.1786705,51.600781600000012],[0.1787207,51.6007519]]}},
{"type":"Feature","properties":{"id":9650,"nach":0.55515990554719563},"geometry":{"type":"LineString","coordinates":[[0.1795911,51.6005034],[0.1803741,51.6000993]]}},
{"type":"Feature","properties":{"id":23581,"nach":0.47101375967863152},"geometry":{"type":"LineString","coordinates":[[0.1789811,51.5999868],[0.179559,51.600476200000017],[0.1795911,51.6005034]]}},
{"type":"Feature","properties":{"id":56302,"nach":0.55649077119000778},"geometry":{"type":"LineString","coordinates":[[0.1801385,51.60221150000001],[0.1800616,51.6020556]]}},
{"type":"Feature","properties":{"id":56300,"nach":0.40435455473784515},"geometry":{"type":"LineString","coordinates":[[0.1798984,51.6021411],[0.1800046,51.6020744],[0.1800616,51.6020556]]}},
{"type":"Feature","properties":{"id":48674,"nach":0.43878620365478443},"geometry":{"type":"LineString","coordinates":[[0.1790034,51.6063216],[0.1784697,51.60687],[0.178418,51.6071431],[0.1783625,51.6078961],[0.1782981,51.6084691],[0.1781693,51.6089755],[0.1781161,51.609104800000011]]}},
{"type":"Feature","properties":{"id":17245,"nach":0.49924795764882823},"geometry":{"type":"LineString","coordinates":[[0.1856843,51.6029606],[0.1856154,51.602963],[0.1848599,51.6029891],[0.1844638,51.6030254],[0.1843447,51.603034200000018],[0.184235,51.6030441]]}},
{"type":"Feature","properties":{"id":716,"nach":0.54687511167593095},"geometry":{"type":"LineString","coordinates":[[0.1810704,51.5999814],[0.1807217,51.6000166],[0.1803741,51.6000993]]}},
{"type":"Feature","properties":{"id":9659,"nach":0.39480922889651848},"geometry":{"type":"LineString","coordinates":[[0.1787708,51.598107400000011],[0.1787657,51.5981494],[0.1787248,51.5984818],[0.1787334,51.5986417],[0.178802,51.5987377],[0.1790424,51.5989829],[0.1803312,51.6000556],[0.1803527,51.6000775],[0.1803741,51.6000993]]}},
{"type":"Feature","properties":{"id":9604,"nach":0.51348489489602311},"geometry":{"type":"LineString","coordinates":[[0.1818009,51.5999596],[0.1810704,51.5999814]]}},
{"type":"Feature","properties":{"id":9638,"nach":0.52002065282051968},"geometry":{"type":"LineString","coordinates":[[0.1816302,51.5990696],[0.1813853,51.5993205],[0.1812668,51.599471700000016],[0.1811753,51.5996425],[0.1810984,51.5998483],[0.1810735,51.5999493],[0.1810704,51.5999814]]}},
{"type":"Feature","properties":{"id":9670,"nach":0.52298912784127827},"geometry":{"type":"LineString","coordinates":[[0.1795745,51.5983005],[0.1795402,51.5982845],[0.1792874,51.5981956],[0.179055,51.5981453],[0.1787708,51.598107400000011]]}},
{"type":"Feature","properties":{"id":9606,"nach":0.5195519102141134},"geometry":{"type":"LineString","coordinates":[[0.1818009,51.5999596],[0.1818029,51.5999966],[0.181803599999989,51.600009900000011],[0.1818634,51.6006831]]}},
{"type":"Feature","properties":{"id":9631,"nach":0.44721980709633041},"geometry":{"type":"LineString","coordinates":[[0.1831101,51.5989189],[0.1833044,51.5993312],[0.1833198,51.5993965],[0.1833194,51.5994646],[0.183214,51.5996413],[0.1830762,51.5997692],[0.1829093,51.599880300000017],[0.1827427,51.5999343],[0.1825649,51.5999478],[0.1818009,51.5999596]]}},
{"type":"Feature","properties":{"id":9641,"nach":0.52062950303033029},"geometry":{"type":"LineString","coordinates":[[0.1818113,51.598916100000011],[0.1816302,51.5990696]]}},
{"type":"Feature","properties":{"id":9662,"nach":0.47939601822461758},"geometry":{"type":"LineString","coordinates":[[0.1807058,51.5987315],[0.1815885,51.599054399999986],[0.1816302,51.5990696]]}},
{"type":"Feature","properties":{"id":9634,"nach":0.47055262096167816},"geometry":{"type":"LineString","coordinates":[[0.182735,51.59816330000001],[0.1828977,51.5984579]]}},
{"type":"Feature","properties":{"id":9630,"nach":0.42287531134566936},"geometry":{"type":"LineString","coordinates":[[0.1831101,51.5989189],[0.1828977,51.5984579]]}},
{"type":"Feature","properties":{"id":9644,"nach":0.47135178852432802},"geometry":{"type":"LineString","coordinates":[[0.182085,51.5987628],[0.1825185,51.5985671],[0.1828178,51.5984809],[0.1828447,51.5984732],[0.1828977,51.5984579]]}},
{"type":"Feature","properties":{"id":9635,"nach":0.46038622293460862},"geometry":{"type":"LineString","coordinates":[[0.182735,51.59816330000001],[0.1826224,51.5979037],[0.1825939,51.597814200000016],[0.182564,51.5976149],[0.1826913,51.59642920000001]]}},
{"type":"Feature","properties":{"id":9636,"nach":0.3940771585334733},"geometry":{"type":"LineString","coordinates":[[0.1835232,51.5980117],[0.182735,51.59816330000001]]}},
{"type":"Feature","properties":{"id":23188,"nach":0.42986344469764376},"geometry":{"type":"LineString","coordinates":[[0.1844702,51.59879140000001],[0.184322,51.598794400000017],[0.1841011,51.5987691],[0.1839378,51.598765199999988],[0.1831896,51.598904],[0.1831101,51.5989189]]}},
{"type":"Feature","properties":{"id":9643,"nach":0.50666063544327067},"geometry":{"type":"LineString","coordinates":[[0.182085,51.5987628],[0.1818113,51.598916100000011]]}},
{"type":"Feature","properties":{"id":9646,"nach":0.42837853656408925},"geometry":{"type":"LineString","coordinates":[[0.1812997,51.5963385],[0.1812482,51.5975754],[0.1813169,51.5978473],[0.1815229,51.5981779],[0.1817375,51.5984391],[0.182056,51.5987358],[0.182085,51.5987628]]}},
{"type":"Feature","properties":{"id":9648,"nach":0.51286383093790378},"geometry":{"type":"LineString","coordinates":[[0.1814113,51.5962531],[0.1826565,51.5964244],[0.1826913,51.59642920000001]]}},
{"type":"Feature","properties":{"id":9647,"nach":0.44713552321455102},"geometry":{"type":"LineString","coordinates":[[0.1812997,51.5963385],[0.1813556,51.5963199],[0.1813907,51.5963016],[0.1814113,51.5962531]]}},
{"type":"Feature","properties":{"id":9649,"nach":0.53551867241340034},"geometry":{"type":"LineString","coordinates":[[0.1814113,51.5962531],[0.1813963,51.5962258],[0.1813621,51.5962021],[0.1812937,51.5961894]]}},
{"type":"Feature","properties":{"id":8856,"nach":0.47643419060404235},"geometry":{"type":"LineString","coordinates":[[0.1700801,51.6030264],[0.1686395,51.6027529],[0.1680339,51.6026332]]}},
{"type":"Feature","properties":{"id":35529,"nach":0.5133140488520318},"geometry":{"type":"LineString","coordinates":[[0.1700181,51.6046052],[0.169502,51.604399900000011]]}},
{"type":"Feature","properties":{"id":8857,"nach":0.48050290627434356},"geometry":{"type":"LineString","coordinates":[[0.1700801,51.6030264],[0.1695938,51.604314399999978],[0.169502,51.604399900000011]]}},
{"type":"Feature","properties":{"id":35528,"nach":0.50962737716370676},"geometry":{"type":"LineString","coordinates":[[0.1700181,51.6046052],[0.1711352,51.605049500000014]]}},
{"type":"Feature","properties":{"id":35531,"nach":0.39395828040483494},"geometry":{"type":"LineString","coordinates":[[0.1706338,51.6041844],[0.1706026,51.6042504],[0.1705724,51.6043046],[0.1705444,51.6043278],[0.1705189,51.6043383],[0.1704853,51.6043425],[0.1704014,51.6043425],[0.170303,51.6043441],[0.1702767,51.6043476],[0.1702505,51.6043582],[0.1702306,51.60438],[0.1702207,51.604412],[0.1702085,51.6044321],[0.1700181,51.6046052]]}},
{"type":"Feature","properties":{"id":14279,"nach":0.48785810667741042},"geometry":{"type":"LineString","coordinates":[[0.1708725,51.60152320000001],[0.170337,51.6024337],[0.1700801,51.6030264]]}},
{"type":"Feature","properties":{"id":42163,"nach":0.51168897167805638},"geometry":{"type":"LineString","coordinates":[[0.1713452,51.6051365],[0.1711352,51.605049500000014]]}},
{"type":"Feature","properties":{"id":10053,"nach":0.47091863024039393},"geometry":{"type":"LineString","coordinates":[[0.1716438,51.603568400000015],[0.1711352,51.605049500000014]]}},
{"type":"Feature","properties":{"id":42162,"nach":0.50739344140635678},"geometry":{"type":"LineString","coordinates":[[0.1713452,51.6051365],[0.1728405,51.6057557]]}},
{"type":"Feature","properties":{"id":42165,"nach":0.401501938172527},"geometry":{"type":"LineString","coordinates":[[0.1711557,51.6053221],[0.1713452,51.6051365]]}},
{"type":"Feature","properties":{"id":10055,"nach":0.47243780974670585},"geometry":{"type":"LineString","coordinates":[[0.1716438,51.603568400000015],[0.1717468,51.6032379],[0.1722789,51.6025022],[0.1729055,51.6015746]]}},
{"type":"Feature","properties":{"id":10056,"nach":0.45797973407335346},"geometry":{"type":"LineString","coordinates":[[0.1726051,51.603707],[0.1716438,51.603568400000015]]}},
{"type":"Feature","properties":{"id":8875,"nach":0.52340343644262965},"geometry":{"type":"LineString","coordinates":[[0.1731703,51.6059061],[0.1728405,51.6057557]]}},
{"type":"Feature","properties":{"id":8886,"nach":0.54246261743901913},"geometry":{"type":"LineString","coordinates":[[0.1726137,51.6062234],[0.1727597,51.6062064],[0.1729331,51.6061384],[0.1731703,51.6059061]]}},
{"type":"Feature","properties":{"id":8880,"nach":0.55049287997126728},"geometry":{"type":"LineString","coordinates":[[0.1746669,51.606455800000013],[0.1738821,51.6061951],[0.1731703,51.6059061]]}},
{"type":"Feature","properties":{"id":14280,"nach":0.50956315783602624},"geometry":{"type":"LineString","coordinates":[[0.1708725,51.60152320000001],[0.171071,51.6011856],[0.1712747,51.60084890000001]]}},
{"type":"Feature","properties":{"id":14282,"nach":0.42164135832159094},"geometry":{"type":"LineString","coordinates":[[0.1700408,51.6013594],[0.1708725,51.60152320000001]]}},
{"type":"Feature","properties":{"id":9566,"nach":0.56089253698027841},"geometry":{"type":"LineString","coordinates":[[0.17203,51.6011688],[0.171496,51.600926],[0.1712747,51.60084890000001]]}},
{"type":"Feature","properties":{"id":10050,"nach":0.55461002009232341},"geometry":{"type":"LineString","coordinates":[[0.1729055,51.6015746],[0.17203,51.6011688]]}},
{"type":"Feature","properties":{"id":31189,"nach":0.49103606030426433},"geometry":{"type":"LineString","coordinates":[[0.1727915,51.6007565],[0.1722368,51.601056800000016],[0.17203,51.6011688]]}},
{"type":"Feature","properties":{"id":43135,"nach":0.49695962459597809},"geometry":{"type":"LineString","coordinates":[[0.1747241,51.606284],[0.1753002,51.6045547]]}},
{"type":"Feature","properties":{"id":43138,"nach":0.38084695702215488},"geometry":{"type":"LineString","coordinates":[[0.1753962,51.6059592],[0.1752754,51.6063059],[0.1752281,51.606316],[0.1750551,51.6063251],[0.1749294,51.606313],[0.1747241,51.606284]]}},
{"type":"Feature","properties":{"id":23927,"nach":0.51395638907296781},"geometry":{"type":"LineString","coordinates":[[0.1692682,51.5967405],[0.1691045,51.5967609],[0.1690787,51.596764100000016],[0.1689709,51.5967786],[0.1688718,51.5967749],[0.1687202,51.5967442],[0.1684258,51.5966283],[0.168079,51.5964327],[0.1680003,51.5963802],[0.1678864,51.5964037],[0.1675002,51.5965263]]}},
{"type":"Feature","properties":{"id":26331,"nach":0.54968480551397936},"geometry":{"type":"LineString","coordinates":[[0.1708062,51.5959719],[0.1704924,51.5957378]]}},
{"type":"Feature","properties":{"id":9396,"nach":0.53821116042506012},"geometry":{"type":"LineString","coordinates":[[0.1703762,51.595609],[0.1704924,51.5957378]]}},
{"type":"Feature","properties":{"id":54545,"nach":0.47605761847351563},"geometry":{"type":"LineString","coordinates":[[0.1700086,51.59592],[0.1701225,51.5958745],[0.1702547,51.5958256],[0.1704924,51.5957378]]}},
{"type":"Feature","properties":{"id":26332,"nach":0.55677303703044967},"geometry":{"type":"LineString","coordinates":[[0.1708062,51.5959719],[0.1709828,51.5961037],[0.1710608,51.596152100000012]]}},
{"type":"Feature","properties":{"id":26334,"nach":0.40607079201771273},"geometry":{"type":"LineString","coordinates":[[0.1713036,51.5956381],[0.1710631,51.5957868],[0.1708062,51.5959719]]}},
{"type":"Feature","properties":{"id":31748,"nach":0.41330431651461175},"geometry":{"type":"LineString","coordinates":[[0.1673672,51.598580800000015],[0.1676147,51.5987265],[0.167663,51.5987634],[0.1676778,51.59878530000001],[0.1676778,51.598813],[0.1676667,51.598839600000012],[0.1675088,51.5992596]]}},
{"type":"Feature","properties":{"id":23929,"nach":0.49139905331622918},"geometry":{"type":"LineString","coordinates":[[0.1692682,51.5967405],[0.1694431,51.5966935],[0.1697492,51.596583],[0.1703846,51.5963585],[0.170654,51.596270099999984]]}},
{"type":"Feature","properties":{"id":12526,"nach":0.5182620240010567},"geometry":{"type":"LineString","coordinates":[[0.1673777,51.60026830000001],[0.16735,51.600308200000015],[0.167244,51.6006845]]}},
{"type":"Feature","properties":{"id":37515,"nach":0.59541818503914634},"geometry":{"type":"LineString","coordinates":[[0.1668405,51.6002061],[0.1670264,51.6002254],[0.1671962,51.6002462],[0.1673777,51.60026830000001]]}},
{"type":"Feature","properties":{"id":32641,"nach":0.53438752415877611},"geometry":{"type":"LineString","coordinates":[[0.1716326,51.6004806],[0.1719785,51.6002411]]}},
{"type":"Feature","properties":{"id":32644,"nach":0.41479498055980485},"geometry":{"type":"LineString","coordinates":[[0.170502,51.6000753],[0.1710598,51.6002683],[0.1716326,51.6004806]]}},
{"type":"Feature","properties":{"id":14566,"nach":0.58201200726585578},"geometry":{"type":"LineString","coordinates":[[0.1752599,51.597468],[0.1755696,51.597837500000011]]}},
{"type":"Feature","properties":{"id":23459,"nach":0.58452355313234672},"geometry":{"type":"LineString","coordinates":[[0.1760233,51.598365],[0.1756585,51.59794320000001],[0.1755696,51.597837500000011]]}},
{"type":"Feature","properties":{"id":9544,"nach":0.51881449247793188},"geometry":{"type":"LineString","coordinates":[[0.1745792,51.5984498],[0.1747073,51.5983621],[0.1752749,51.5979732],[0.1754556,51.5978731],[0.1755242,51.59784590000001],[0.1755696,51.597837500000011]]}},
{"type":"Feature","properties":{"id":25872,"nach":0.58275195461685803},"geometry":{"type":"LineString","coordinates":[[0.1750887,51.5972456],[0.1752599,51.597468]]}},
{"type":"Feature","properties":{"id":23566,"nach":0.39403235242384999},"geometry":{"type":"LineString","coordinates":[[0.1764474,51.597671300000016],[0.1768096,51.5975485],[0.176454,51.5970985],[0.1763822,51.597007700000013],[0.1759209,51.5971277],[0.175878,51.597261],[0.1753733,51.5974389],[0.1753236,51.5974513],[0.1752599,51.597468]]}},
{"type":"Feature","properties":{"id":23465,"nach":0.51954898750464829},"geometry":{"type":"LineString","coordinates":[[0.175901,51.5984122],[0.1760233,51.598365]]}},
{"type":"Feature","properties":{"id":50133,"nach":0.47511626239440086},"geometry":{"type":"LineString","coordinates":[[0.1739726,51.597880200000013],[0.17415,51.5980979],[0.1745792,51.5984498]]}},
{"type":"Feature","properties":{"id":9536,"nach":0.51577658964163065},"geometry":{"type":"LineString","coordinates":[[0.1728197,51.5996547],[0.1723432,51.5999869],[0.1719785,51.6002411]]}},
{"type":"Feature","properties":{"id":33851,"nach":0.47112602034224016},"geometry":{"type":"LineString","coordinates":[[0.172329,51.599368],[0.1728197,51.5996547]]}},
{"type":"Feature","properties":{"id":14298,"nach":0.41033086670877739},"geometry":{"type":"LineString","coordinates":[[0.169204,51.5988736],[0.1700815,51.5990128]]}},
{"type":"Feature","properties":{"id":33854,"nach":0.41072648552143404},"geometry":{"type":"LineString","coordinates":[[0.1725688,51.5991963],[0.1723641,51.5993429],[0.172329,51.599368]]}},
{"type":"Feature","properties":{"id":9558,"nach":0.39936730636571277},"geometry":{"type":"LineString","coordinates":[[0.174871,51.5999746],[0.173841,51.6004437]]}},
{"type":"Feature","properties":{"id":9563,"nach":0.50747669001365703},"geometry":{"type":"LineString","coordinates":[[0.1757293,51.6007156],[0.174871,51.5999746]]}},
{"type":"Feature","properties":{"id":50131,"nach":0.44611570819840302},"geometry":{"type":"LineString","coordinates":[[0.1739726,51.597880200000013],[0.1734098,51.5971896]]}},
{"type":"Feature","properties":{"id":25874,"nach":0.41962262390846677},"geometry":{"type":"LineString","coordinates":[[0.1750887,51.5972456],[0.1743955,51.597484],[0.174278,51.5972981],[0.1740466,51.5969878],[0.1734098,51.5971896]]}},
{"type":"Feature","properties":{"id":50132,"nach":0.40691427102703365},"geometry":{"type":"LineString","coordinates":[[0.1739726,51.597880200000013],[0.1733418,51.5980981]]}},
{"type":"Feature","properties":{"id":23425,"nach":0.55488736596105781},"geometry":{"type":"LineString","coordinates":[[0.1736503,51.6016293],[0.1732831,51.601792500000023]]}},
{"type":"Feature","properties":{"id":10052,"nach":0.56351512500015721},"geometry":{"type":"LineString","coordinates":[[0.1729055,51.6015746],[0.1731268,51.6016724],[0.1732831,51.601792500000023]]}},
{"type":"Feature","properties":{"id":23426,"nach":0.5588408848119204},"geometry":{"type":"LineString","coordinates":[[0.1736503,51.6016293],[0.1739137,51.601512299999989],[0.1742788,51.6013501]]}},
{"type":"Feature","properties":{"id":23427,"nach":0.40687969081936209},"geometry":{"type":"LineString","coordinates":[[0.1736503,51.6016293],[0.1737519,51.6017219],[0.1737596,51.6018032],[0.1737558,51.6018748],[0.1743248,51.602314699999987],[0.17484,51.6026102],[0.1756213,51.6031128],[0.1760964,51.6033587],[0.1764162,51.6034722],[0.1767639,51.6035392],[0.1772082,51.603589200000016],[0.1774081,51.6035995]]}},
{"type":"Feature","properties":{"id":23422,"nach":0.55738831784424425},"geometry":{"type":"LineString","coordinates":[[0.176853,51.600222],[0.1767593,51.6002625]]}},
{"type":"Feature","properties":{"id":9577,"nach":0.55226165734189037},"geometry":{"type":"LineString","coordinates":[[0.1765876,51.600337100000012],[0.1767593,51.6002625]]}},
{"type":"Feature","properties":{"id":9556,"nach":0.39644764189128417},"geometry":{"type":"LineString","coordinates":[[0.1755147,51.5991216],[0.1767593,51.6002625]]}},
{"type":"Feature","properties":{"id":23424,"nach":0.44860199369739617},"geometry":{"type":"LineString","coordinates":[[0.176853,51.600222],[0.1771697,51.6005064],[0.1769347,51.6006118]]}},
{"type":"Feature","properties":{"id":23423,"nach":0.5738666907041845},"geometry":{"type":"LineString","coordinates":[[0.176853,51.600222],[0.1770786,51.6001244],[0.1770852,51.6001216],[0.1771944,51.6000743]]}},
{"type":"Feature","properties":{"id":23406,"nach":0.5104060619123626},"geometry":{"type":"LineString","coordinates":[[0.1769347,51.6006118],[0.1765876,51.600337100000012]]}},
{"type":"Feature","properties":{"id":17639,"nach":0.5794198335885844},"geometry":{"type":"LineString","coordinates":[[0.1758563,51.6006596],[0.1761503,51.60053],[0.176154,51.6005283],[0.1765876,51.600337100000012]]}},
{"type":"Feature","properties":{"id":23403,"nach":0.54285589662612899},"geometry":{"type":"LineString","coordinates":[[0.1773255,51.6000177],[0.1776348,51.5998839]]}},
{"type":"Feature","properties":{"id":23586,"nach":0.56628041540501883},"geometry":{"type":"LineString","coordinates":[[0.1780783,51.6002904],[0.1776348,51.5998839]]}},
{"type":"Feature","properties":{"id":23405,"nach":0.41967100290733583},"geometry":{"type":"LineString","coordinates":[[0.1773255,51.6000177],[0.177408,51.6000814],[0.1774542,51.600107699999988],[0.1775195,51.600117200000014],[0.177608,51.6001148],[0.1776618,51.6001172],[0.1776925,51.600141100000023],[0.1777386,51.600193599999983]]}},
{"type":"Feature","properties":{"id":23461,"nach":0.54278578754732532},"geometry":{"type":"LineString","coordinates":[[0.1772407,51.6000543],[0.1773255,51.6000177]]}},
{"type":"Feature","properties":{"id":23585,"nach":0.55826585555564401},"geometry":{"type":"LineString","coordinates":[[0.1780783,51.6002904],[0.1781487,51.600355]]}},
{"type":"Feature","properties":{"id":23590,"nach":0.42160119234443144},"geometry":{"type":"LineString","coordinates":[[0.1789145,51.5999279],[0.1780783,51.6002904]]}},
{"type":"Feature","properties":{"id":17638,"nach":0.56680635945912017},"geometry":{"type":"LineString","coordinates":[[0.1758563,51.6006596],[0.1757293,51.6007156]]}},
{"type":"Feature","properties":{"id":17645,"nach":0.54878239284965724},"geometry":{"type":"LineString","coordinates":[[0.1750809,51.6009992],[0.1757293,51.6007156]]}},
{"type":"Feature","properties":{"id":17650,"nach":0.47217434036860612},"geometry":{"type":"LineString","coordinates":[[0.1760465,51.6010049],[0.1761841,51.6009442],[0.1758563,51.6006596]]}},
{"type":"Feature","properties":{"id":17646,"nach":0.55598243603360231},"geometry":{"type":"LineString","coordinates":[[0.1750809,51.6009992],[0.1742788,51.6013501]]}},
{"type":"Feature","properties":{"id":17657,"nach":0.43928809865116952},"geometry":{"type":"LineString","coordinates":[[0.1754313,51.6012762],[0.1750809,51.6009992]]}},
{"type":"Feature","properties":{"id":31188,"nach":0.42005851165737174},"geometry":{"type":"LineString","coordinates":[[0.1727915,51.6007565],[0.1729656,51.6006623]]}},
{"type":"Feature","properties":{"id":31191,"nach":0.39945196511769571},"geometry":{"type":"LineString","coordinates":[[0.1735154,51.6009666],[0.1733826,51.6010452],[0.1730319,51.6008738],[0.1727915,51.6007565]]}},
{"type":"Feature","properties":{"id":9573,"nach":0.31292621753931305},"geometry":{"type":"LineString","coordinates":[[0.1776176,51.6027308],[0.1774116,51.6028428],[0.1771112,51.6028907],[0.1768451,51.6028747],[0.1765447,51.6027948],[0.1742788,51.6013501]]}},
{"type":"Feature","properties":{"id":9585,"nach":0.37626797820308144},"geometry":{"type":"LineString","coordinates":[[0.1783125,51.6022442],[0.1784845,51.6023257],[0.1788707,51.6027521],[0.1788535,51.60289070000001],[0.1787334,51.6029547],[0.1785789,51.6029814],[0.177815,51.6028268],[0.1776176,51.6027308]]}},
{"type":"Feature","properties":{"id":9586,"nach":0.44597174376306797},"geometry":{"type":"LineString","coordinates":[[0.1783125,51.6022442],[0.1783853,51.6021786],[0.1784396,51.6021173],[0.178479,51.6020542],[0.1784998,51.6019929]]}},
{"type":"Feature","properties":{"id":9582,"nach":0.52996271042568854},"geometry":{"type":"LineString","coordinates":[[0.1780725,51.601446],[0.1782184,51.6015366],[0.1784085,51.6016663],[0.1784783,51.6017679],[0.1785058,51.6018524],[0.1785136,51.601926],[0.1784998,51.6019929]]}},
{"type":"Feature","properties":{"id":55712,"nach":0.54164415716026737},"geometry":{"type":"LineString","coordinates":[[0.1797278,51.601851400000015],[0.1793412,51.6019386],[0.1789645,51.60198530000001],[0.1784998,51.6019929]]}},
{"type":"Feature","properties":{"id":9583,"nach":0.40747394107188006},"geometry":{"type":"LineString","coordinates":[[0.1780725,51.601446],[0.1776691,51.6016912],[0.1774373,51.601744600000011],[0.1771455,51.6018938]]}},
{"type":"Feature","properties":{"id":23415,"nach":0.5262085254458414},"geometry":{"type":"LineString","coordinates":[[0.1774355,51.6009862],[0.1780725,51.601446]]}},
{"type":"Feature","properties":{"id":56298,"nach":0.57124936198161413},"geometry":{"type":"LineString","coordinates":[[0.1798984,51.6021411],[0.1797278,51.601851400000015]]}},
{"type":"Feature","properties":{"id":56296,"nach":0.51444589109429717},"geometry":{"type":"LineString","coordinates":[[0.1786943,51.6008968],[0.1787152,51.60091],[0.1791842,51.6012586],[0.1794571,51.601495],[0.1797109,51.6018174],[0.1797278,51.601851400000015]]}},
{"type":"Feature","properties":{"id":23416,"nach":0.5302296296742296},"geometry":{"type":"LineString","coordinates":[[0.1774355,51.6009862],[0.1771198,51.6007583],[0.1769347,51.6006118]]}},
{"type":"Feature","properties":{"id":23417,"nach":0.40479782143267501},"geometry":{"type":"LineString","coordinates":[[0.1774355,51.6009862],[0.1770929,51.6011727],[0.1770069,51.6012119],[0.176916,51.601256299999989],[0.1768546,51.601273],[0.1766161,51.6012873],[0.1765469,51.60131590000001],[0.1765162,51.6013708]]}},
{"type":"Feature","properties":{"id":9610,"nach":0.57958732365291254},"geometry":{"type":"LineString","coordinates":[[0.180182,51.6022997],[0.1803861,51.6027489]]}},
{"type":"Feature","properties":{"id":56335,"nach":0.51597775753170494},"geometry":{"type":"LineString","coordinates":[[0.1818483,51.6026632],[0.1812379,51.602766499999987],[0.1811597,51.6027632],[0.1808763,51.6026847],[0.1805086,51.6027343],[0.1804473,51.6027416],[0.1803861,51.6027489]]}},
{"type":"Feature","properties":{"id":9612,"nach":0.49625094459879449},"geometry":{"type":"LineString","coordinates":[[0.180182,51.6022997],[0.1802338,51.6022909],[0.1802704,51.6022848],[0.1810851,51.6021231]]}},
{"type":"Feature","properties":{"id":56301,"nach":0.57420524866987632},"geometry":{"type":"LineString","coordinates":[[0.1801385,51.60221150000001],[0.180182,51.6022997]]}},
{"type":"Feature","properties":{"id":56336,"nach":0.40617650935114497},"geometry":{"type":"LineString","coordinates":[[0.1818186,51.6025931],[0.1818483,51.6026632]]}},
{"type":"Feature","properties":{"id":56339,"nach":0.47921433105304773},"geometry":{"type":"LineString","coordinates":[[0.1822885,51.602679],[0.1819784,51.6026412],[0.1818483,51.6026632]]}},
{"type":"Feature","properties":{"id":56338,"nach":0.4027924210901565},"geometry":{"type":"LineString","coordinates":[[0.1822885,51.602679],[0.1823352,51.602684699999983],[0.1824218,51.6026889]]}},
{"type":"Feature","properties":{"id":56340,"nach":0.4027924210901565},"geometry":{"type":"LineString","coordinates":[[0.1823037,51.6026112],[0.1822885,51.602679]]}},
{"type":"Feature","properties":{"id":9594,"nach":0.40967931375177769},"geometry":{"type":"LineString","coordinates":[[0.1815248,51.6035752],[0.1815113,51.6035454],[0.1814604,51.603408800000011],[0.1814621,51.6029963]]}},
{"type":"Feature","properties":{"id":23600,"nach":0.57016018371748522},"geometry":{"type":"LineString","coordinates":[[0.1810814,51.6036576],[0.1815248,51.6035752]]}},
{"type":"Feature","properties":{"id":9596,"nach":0.56236210816952359},"geometry":{"type":"LineString","coordinates":[[0.184235,51.6030441],[0.1841624,51.6030666],[0.1815248,51.6035752]]}},
{"type":"Feature","properties":{"id":23601,"nach":0.41695038084895214},"geometry":{"type":"LineString","coordinates":[[0.1810814,51.6036576],[0.1810215,51.6034087]]}},
{"type":"Feature","properties":{"id":36140,"nach":0.52579659110383903},"geometry":{"type":"LineString","coordinates":[[0.1842238,51.602977200000012],[0.184226,51.602994600000017],[0.184235,51.6030441]]}},
{"type":"Feature","properties":{"id":36139,"nach":0.54863876776869158},"geometry":{"type":"LineString","coordinates":[[0.1842238,51.602977200000012],[0.1839347,51.6021924]]}},
{"type":"Feature","properties":{"id":36147,"nach":0.48065201866656915},"geometry":{"type":"LineString","coordinates":[[0.185683,51.6029254],[0.1852545,51.6029406],[0.1851252,51.6029122],[0.1849717,51.6029177],[0.1848823,51.602941600000015],[0.1848372,51.602951400000016],[0.1845372,51.6029672],[0.1842238,51.602977200000012]]}},
{"type":"Feature","properties":{"id":9622,"nach":0.51765186847157085},"geometry":{"type":"LineString","coordinates":[[0.183748899999989,51.601552],[0.1837943,51.6017065]]}},
{"type":"Feature","properties":{"id":9619,"nach":0.53028926456353132},"geometry":{"type":"LineString","coordinates":[[0.1839347,51.6021924],[0.1837943,51.6017065]]}},
{"type":"Feature","properties":{"id":9616,"nach":0.47201869904096144},"geometry":{"type":"LineString","coordinates":[[0.1827331,51.6018299],[0.1837193,51.6017152],[0.1837943,51.6017065]]}},
{"type":"Feature","properties":{"id":9626,"nach":0.39599043204157908},"geometry":{"type":"LineString","coordinates":[[0.1850419,51.6013714],[0.183748899999989,51.601552]]}},
{"type":"Feature","properties":{"id":9628,"nach":0.51285116224276472},"geometry":{"type":"LineString","coordinates":[[0.1830249,51.6010942],[0.1833511,51.6011795],[0.1835313,51.6012541],[0.183647699999989,51.6013359],[0.183748899999989,51.601552]]}},
{"type":"Feature","properties":{"id":42295,"nach":0.47828328562217298},"geometry":{"type":"LineString","coordinates":[[0.184939,51.6020636],[0.1839347,51.6021924]]}},
{"type":"Feature","properties":{"id":9618,"nach":0.38811693631216587},"geometry":{"type":"LineString","coordinates":[[0.1828876,51.6023097],[0.1827331,51.6018299]]}},
{"type":"Feature","properties":{"id":9617,"nach":0.39776197305953431},"geometry":{"type":"LineString","coordinates":[[0.1826816,51.6016912],[0.1827331,51.6018299]]}},
{"type":"Feature","properties":{"id":9627,"nach":0.5178474932701872},"geometry":{"type":"LineString","coordinates":[[0.1830249,51.6010942],[0.1820121,51.6008276],[0.1819503,51.6007956],[0.181897,51.60075410000001],[0.1818634,51.6006831]]}},
{"type":"Feature","properties":{"id":9607,"nach":0.46520639921540391},"geometry":{"type":"LineString","coordinates":[[0.1810851,51.6021231],[0.1808105,51.6013074],[0.1808534,51.6007956],[0.1809307,51.600737],[0.1810851,51.6007156],[0.1817312,51.6006882],[0.1818634,51.6006831]]}},
{"type":"Feature","properties":{"id":13192,"nach":0.44144152845384976},"geometry":{"type":"LineString","coordinates":[[0.1841863,51.6004275],[0.1835399,51.6004437],[0.183394,51.6005024],[0.1830525,51.60105],[0.1830249,51.6010942]]}},
{"type":"Feature","properties":{"id":9613,"nach":0.4062703164018493},"geometry":{"type":"LineString","coordinates":[[0.1819177,51.6014993],[0.1817718,51.601904500000011],[0.1817203,51.6019685],[0.1815915,51.6020218],[0.1810851,51.6021231]]}},
{"type":"Feature","properties":{"id":56304,"nach":0.46813027787946387},"geometry":{"type":"LineString","coordinates":[[0.1799575,51.6022546],[0.1801385,51.60221150000001]]}},
{"type":"Feature","properties":{"id":42294,"nach":0.40133545514286278},"geometry":{"type":"LineString","coordinates":[[0.184939,51.6020636],[0.1852651,51.6020218]]}},
{"type":"Feature","properties":{"id":42297,"nach":0.40133545514286278},"geometry":{"type":"LineString","coordinates":[[0.1848915,51.601895700000014],[0.1849099,51.6019579],[0.184939,51.6020636]]}},
{"type":"Feature","properties":{"id":13191,"nach":0.36665172413149161},"geometry":{"type":"LineString","coordinates":[[0.1841863,51.6004275],[0.1842761,51.600866399999987],[0.1843254,51.6009838]]}},
{"type":"Feature","properties":{"id":23191,"nach":0.34811447442224791},"geometry":{"type":"LineString","coordinates":[[0.1843172,51.5993607],[0.184083,51.5995497],[0.1841145,51.599915900000013],[0.1841863,51.6004275]]}},
{"type":"Feature","properties":{"id":46095,"nach":0.40721631957091364},"geometry":{"type":"LineString","coordinates":[[0.1838301,51.5978344],[0.1838625,51.5979363],[0.1841155,51.5983242],[0.1844702,51.59879140000001]]}},
{"type":"Feature","properties":{"id":48092,"nach":0.40578627912105369},"geometry":{"type":"LineString","coordinates":[[0.1845143,51.5988785],[0.1845054,51.59884490000001],[0.1844702,51.59879140000001]]}},
{"type":"Feature","properties":{"id":9664,"nach":0.40637761722078275},"geometry":{"type":"LineString","coordinates":[[0.1823297,51.5992442],[0.1818113,51.598916100000011]]}},
{"type":"Feature","properties":{"id":9663,"nach":0.39450140208247841},"geometry":{"type":"LineString","coordinates":[[0.1807058,51.5987315],[0.1806767,51.5987577],[0.1799779,51.599270800000014]]}},
{"type":"Feature","properties":{"id":9669,"nach":0.48087801962886018},"geometry":{"type":"LineString","coordinates":[[0.1795745,51.5983005],[0.1807058,51.5987315]]}},
{"type":"Feature","properties":{"id":9679,"nach":0.36680190735563112},"geometry":{"type":"LineString","coordinates":[[0.181171,51.5962691],[0.1811891,51.5963061],[0.1812452,51.5963336],[0.1812997,51.5963385]]}},
{"type":"Feature","properties":{"id":9680,"nach":0.48869286371802712},"geometry":{"type":"LineString","coordinates":[[0.1812937,51.5961894],[0.1812342,51.5962018],[0.1811919,51.5962305],[0.181171,51.5962691]]}},
{"type":"Feature","properties":{"id":9684,"nach":0.52653673399521428},"geometry":{"type":"LineString","coordinates":[[0.1819005,51.5943656],[0.1814285,51.5951921],[0.1812826,51.5956773],[0.1812937,51.5961894]]}},
{"type":"Feature","properties":{"id":23589,"nach":0.46622961436213473},"geometry":{"type":"LineString","coordinates":[[0.1789145,51.5999279],[0.1789811,51.5999868]]}},
{"type":"Feature","properties":{"id":23583,"nach":0.26308309463247492},"geometry":{"type":"LineString","coordinates":[[0.1781487,51.600355],[0.1789811,51.5999868]]}},
{"type":"Feature","properties":{"id":43953,"nach":0.41519584477212196},"geometry":{"type":"LineString","coordinates":[[0.1777973,51.5989386],[0.1781342,51.5992369]]}},
{"type":"Feature","properties":{"id":13195,"nach":0.50733948809751805},"geometry":{"type":"LineString","coordinates":[[0.1798168,51.5975342],[0.1797891,51.5976927],[0.1796861,51.5981246],[0.1795745,51.5983005]]}},
{"type":"Feature","properties":{"id":9666,"nach":0.40843954313430109},"geometry":{"type":"LineString","coordinates":[[0.1797634,51.5960612],[0.179111,51.596098499999982],[0.1788294,51.5961531],[0.1785639,51.5962525],[0.1783305,51.59635440000001]]}},
{"type":"Feature","properties":{"id":9672,"nach":0.51849497790305943},"geometry":{"type":"LineString","coordinates":[[0.1799608,51.596349099999983],[0.1798149,51.5961732],[0.1797634,51.5960612]]}},
{"type":"Feature","properties":{"id":13194,"nach":0.50977248959953736},"geometry":{"type":"LineString","coordinates":[[0.1798168,51.5975342],[0.1799865,51.5965624],[0.1799608,51.596349099999983]]}},
{"type":"Feature","properties":{"id":9678,"nach":0.48735990318179384},"geometry":{"type":"LineString","coordinates":[[0.181171,51.5962691],[0.1802183,51.5962958],[0.1799608,51.596349099999983]]}},
{"type":"Feature","properties":{"id":13197,"nach":0.41373638303135218},"geometry":{"type":"LineString","coordinates":[[0.1788395,51.597473],[0.1795521,51.5975148],[0.1798168,51.5975342]]}},
{"type":"Feature","properties":{"id":26021,"nach":0.54069944866464392},"geometry":{"type":"LineString","coordinates":[[0.1771309,51.5946847],[0.1774974,51.5948349],[0.1775661,51.5948935],[0.1776348,51.5952028]]}},
{"type":"Feature","properties":{"id":17628,"nach":0.55031186248845942},"geometry":{"type":"LineString","coordinates":[[0.1757756,51.5958753],[0.1761204,51.5955522],[0.1762601,51.595421199999983],[0.1764956,51.59528790000001],[0.176839,51.5952079],[0.1775256,51.5952079],[0.1776348,51.5952028]]}},
{"type":"Feature","properties":{"id":26022,"nach":0.41242413604156164},"geometry":{"type":"LineString","coordinates":[[0.1771309,51.5946847],[0.1766906,51.5945043],[0.1765533,51.5944296],[0.1764503,51.594115]]}},
{"type":"Feature","properties":{"id":26027,"nach":0.52755091656204423},"geometry":{"type":"LineString","coordinates":[[0.1774739,51.5943666],[0.1771309,51.5946847]]}},
{"type":"Feature","properties":{"id":17632,"nach":0.49887607788125449},"geometry":{"type":"LineString","coordinates":[[0.1763587,51.5964409],[0.1764516,51.5963559],[0.176498,51.5963134],[0.1765078,51.5962542],[0.1765224,51.596192],[0.1764589,51.5961268],[0.1757756,51.5958753]]}},
{"type":"Feature","properties":{"id":10035,"nach":0.4644616217095498},"geometry":{"type":"LineString","coordinates":[[0.1767593,51.604730600000011],[0.1753002,51.6045547]]}},
{"type":"Feature","properties":{"id":10040,"nach":0.42615083483773369},"geometry":{"type":"LineString","coordinates":[[0.176416,51.6056794],[0.1767593,51.604730600000011]]}},
{"type":"Feature","properties":{"id":10038,"nach":0.38363941557710357},"geometry":{"type":"LineString","coordinates":[[0.1775054,51.6047341],[0.1769328,51.6046461],[0.1768663,51.6046535],[0.1768108,51.604671899999985],[0.1767593,51.604730600000011]]}},
{"type":"Feature","properties":{"id":32541,"nach":0.55889969444544874},"geometry":{"type":"LineString","coordinates":[[0.176633,51.6036258],[0.176839,51.603671500000011],[0.177389,51.6037271]]}},
{"type":"Feature","properties":{"id":32544,"nach":0.41933757527037308},"geometry":{"type":"LineString","coordinates":[[0.1764556,51.603959],[0.1765567,51.603792],[0.1765891,51.6037233],[0.1766022,51.6036944],[0.176633,51.6036258]]}},
{"type":"Feature","properties":{"id":10042,"nach":0.42606360766408174},"geometry":{"type":"LineString","coordinates":[[0.1776777,51.6058873],[0.176416,51.6056794]]}},
{"type":"Feature","properties":{"id":42058,"nach":0.44341500787793853},"geometry":{"type":"LineString","coordinates":[[0.1760865,51.6064851],[0.176107,51.6064311],[0.1763645,51.60578610000001],[0.176416,51.6056794]]}},
{"type":"Feature","properties":{"id":10046,"nach":0.33893238240289064},"geometry":{"type":"LineString","coordinates":[[0.1780296,51.6053116],[0.1776777,51.6058873]]}},
{"type":"Feature","properties":{"id":10045,"nach":0.3504300801207777},"geometry":{"type":"LineString","coordinates":[[0.1774605,51.6062301],[0.1776777,51.6058873]]}},
{"type":"Feature","properties":{"id":10059,"nach":0.3786945116983978},"geometry":{"type":"LineString","coordinates":[[0.1724248,51.6041868],[0.1726051,51.603707]]}},
{"type":"Feature","properties":{"id":10060,"nach":0.37928829304112505},"geometry":{"type":"LineString","coordinates":[[0.1728197,51.6032699],[0.1726909,51.6033872],[0.1726051,51.603707]]}},
{"type":"Feature","properties":{"id":12395,"nach":0.4218756761045605},"geometry":{"type":"LineString","coordinates":[[0.1674338,51.6007139],[0.167244,51.6006845]]}},
{"type":"Feature","properties":{"id":12394,"nach":0.42250791928639936},"geometry":{"type":"LineString","coordinates":[[0.1671078,51.6006751],[0.167244,51.6006845]]}},
{"type":"Feature","properties":{"id":41654,"nach":0.42026939583173267},"geometry":{"type":"LineString","coordinates":[[0.1671322,51.6009003],[0.167156,51.60088360000001],[0.1671766,51.6008629],[0.1671878,51.6008431],[0.167244,51.6006845]]}},
{"type":"Feature","properties":{"id":37517,"nach":0.41229695135545014},"geometry":{"type":"LineString","coordinates":[[0.166997,51.6010637],[0.1668445,51.6010432],[0.166762,51.601025300000018],[0.1666919,51.6009895],[0.1666548,51.6009536],[0.166659,51.6008999],[0.1668239,51.6002828],[0.1668405,51.6002061]]}},
{"type":"Feature","properties":{"id":48666,"nach":0.51132977204170993},"geometry":{"type":"LineString","coordinates":[[0.1798576,51.6054885],[0.1797907,51.6055675]]}},
{"type":"Feature","properties":{"id":23371,"nach":0.51387420764934666},"geometry":{"type":"LineString","coordinates":[[0.179322,51.6060301],[0.1795763,51.605776],[0.1797907,51.6055675]]}},
{"type":"Feature","properties":{"id":23447,"nach":0.48223855428352713},"geometry":{"type":"LineString","coordinates":[[0.1792156,51.605428],[0.1796855,51.605542],[0.1797907,51.6055675]]}},
{"type":"Feature","properties":{"id":48670,"nach":0.46371317052089533},"geometry":{"type":"LineString","coordinates":[[0.18005,51.6055444],[0.1798576,51.6054885]]}},
{"type":"Feature","properties":{"id":56341,"nach":0.53141869161910427},"geometry":{"type":"LineString","coordinates":[[0.1801725,51.6050682],[0.1801228,51.605145899999989],[0.1799456,51.605383],[0.1798576,51.6054885]]}},
{"type":"Feature","properties":{"id":23369,"nach":0.49475481813279221},"geometry":{"type":"LineString","coordinates":[[0.179322,51.6060301],[0.1790379,51.606288500000012]]}},
{"type":"Feature","properties":{"id":23372,"nach":0.37644767699629733},"geometry":{"type":"LineString","coordinates":[[0.1800416,51.6062325],[0.179322,51.6060301]]}},
{"type":"Feature","properties":{"id":23445,"nach":0.51723540771468191},"geometry":{"type":"LineString","coordinates":[[0.1792156,51.605428],[0.1791264,51.605405500000018]]}},
{"type":"Feature","properties":{"id":23448,"nach":0.46226246339488752},"geometry":{"type":"LineString","coordinates":[[0.1790637,51.6057018],[0.1792156,51.605428]]}},
{"type":"Feature","properties":{"id":14284,"nach":0.49551662186206125},"geometry":{"type":"LineString","coordinates":[[0.1791264,51.605405500000018],[0.1787796,51.60532280000001]]}},
{"type":"Feature","properties":{"id":23437,"nach":0.46385962170487549},"geometry":{"type":"LineString","coordinates":[[0.1786886,51.6052408],[0.1787796,51.60532280000001]]}},
{"type":"Feature","properties":{"id":48663,"nach":0.38571502952844311},"geometry":{"type":"LineString","coordinates":[[0.1785636,51.605510600000017],[0.1785924,51.6054443],[0.1786161,51.6054075],[0.1786475,51.605387],[0.1787025,51.6053586],[0.1787796,51.60532280000001]]}},
{"type":"Feature","properties":{"id":23434,"nach":0.5336549411194228},"geometry":{"type":"LineString","coordinates":[[0.1792791,51.6051496],[0.1791264,51.605405500000018]]}},
{"type":"Feature","properties":{"id":23438,"nach":0.40757594852876328},"geometry":{"type":"LineString","coordinates":[[0.1786886,51.6052408],[0.1784763,51.6050345],[0.1784327,51.604978],[0.1784161,51.604933699999989]]}},
{"type":"Feature","properties":{"id":48664,"nach":0.38426987953701103},"geometry":{"type":"LineString","coordinates":[[0.1788863,51.60496590000001],[0.1788341,51.6050542],[0.1787851,51.605128800000017],[0.178739,51.6051842],[0.1786886,51.6052408]]}},
{"type":"Feature","properties":{"id":14289,"nach":0.38314018372848024},"geometry":{"type":"LineString","coordinates":[[0.1784161,51.604933699999989],[0.1776905,51.6047712]]}},
{"type":"Feature","properties":{"id":17669,"nach":0.44721173564948885},"geometry":{"type":"LineString","coordinates":[[0.1788715,51.6042109],[0.1786535,51.6045604],[0.1784161,51.604933699999989]]}},
{"type":"Feature","properties":{"id":23436,"nach":0.54380964996989767},"geometry":{"type":"LineString","coordinates":[[0.1792791,51.6051496],[0.1796458,51.6045352],[0.1795259,51.604368]]}},
{"type":"Feature","properties":{"id":23442,"nach":0.39408387458040339},"geometry":{"type":"LineString","coordinates":[[0.1797532,51.6052535],[0.1792791,51.6051496]]}},
{"type":"Feature","properties":{"id":17668,"nach":0.46951072698249113},"geometry":{"type":"LineString","coordinates":[[0.1788715,51.6042109],[0.178395,51.6041004]]}},
{"type":"Feature","properties":{"id":17672,"nach":0.50143728022637035},"geometry":{"type":"LineString","coordinates":[[0.1791786,51.6042847],[0.1788715,51.6042109]]}},
{"type":"Feature","properties":{"id":25873,"nach":0.57984332263682958},"geometry":{"type":"LineString","coordinates":[[0.1750887,51.5972456],[0.1749289,51.597024],[0.1747837,51.596721100000018],[0.1747558,51.596656],[0.1747529,51.5966492],[0.1747365,51.59660190000001]]}},
{"type":"Feature","properties":{"id":36137,"nach":0.51654820680813696},"geometry":{"type":"LineString","coordinates":[[0.185686,51.6029928],[0.1856731,51.6030924],[0.1856638,51.6031797]]}},
{"type":"Feature","properties":{"id":36136,"nach":0.41957902690860616},"geometry":{"type":"LineString","coordinates":[[0.185686,51.6029928],[0.1851138,51.603017300000012],[0.1843042,51.6030826],[0.1830929,51.6033145],[0.1821227,51.6035082],[0.1816403,51.603596],[0.181128,51.6036962],[0.1807163,51.603783],[0.1806474,51.603802]]}},
{"type":"Feature","properties":{"id":17631,"nach":0.42121662267688781},"geometry":{"type":"LineString","coordinates":[[0.1763587,51.5964409],[0.1762317,51.5963848]]}},
{"type":"Feature","properties":{"id":17633,"nach":0.42156024985199836},"geometry":{"type":"LineString","coordinates":[[0.1764784,51.596494],[0.1763587,51.5964409]]}},
{"type":"Feature","properties":{"id":17655,"nach":0.40813738929413013},"geometry":{"type":"LineString","coordinates":[[0.1762987,51.601233],[0.1760465,51.6010049]]}},
{"type":"Feature","properties":{"id":17656,"nach":0.4421792831391918},"geometry":{"type":"LineString","coordinates":[[0.1754313,51.6012762],[0.1760465,51.6010049]]}},
{"type":"Feature","properties":{"id":33817,"nach":0.40556149446245648},"geometry":{"type":"LineString","coordinates":[[0.1754744,51.6015396],[0.1756507,51.6014575],[0.1754584,51.6012986],[0.1754313,51.6012762]]}},
{"type":"Feature","properties":{"id":17674,"nach":0.59060206015673344},"geometry":{"type":"LineString","coordinates":[[0.1795259,51.604368],[0.179822,51.6038691]]}},
{"type":"Feature","properties":{"id":55676,"nach":0.60093531394716748},"geometry":{"type":"LineString","coordinates":[[0.1800687,51.603848600000013],[0.1799887,51.6038596],[0.179822,51.6038691]]}},
{"type":"Feature","properties":{"id":30535,"nach":0.55354673750603633},"geometry":{"type":"LineString","coordinates":[[0.1778672,51.6037701],[0.1792568,51.6038405],[0.179822,51.6038691]]}},
{"type":"Feature","properties":{"id":23572,"nach":0.54462961355594275},"geometry":{"type":"LineString","coordinates":[[0.1792896,51.6043113],[0.1795259,51.604368]]}},
{"type":"Feature","properties":{"id":55677,"nach":0.49277232935883453},"geometry":{"type":"LineString","coordinates":[[0.1800687,51.603848600000013],[0.1802517,51.6038981],[0.1803044,51.6039088]]}},
{"type":"Feature","properties":{"id":30536,"nach":0.54892686255242029},"geometry":{"type":"LineString","coordinates":[[0.1778672,51.6037701],[0.1777616,51.6037648],[0.177389,51.6037271]]}},
{"type":"Feature","properties":{"id":30537,"nach":0.41167658257324857},"geometry":{"type":"LineString","coordinates":[[0.1778672,51.6037701],[0.1778424,51.6039337],[0.1778256,51.6040037],[0.1777674,51.6041372],[0.177738,51.60418090000001],[0.1776562,51.6041809],[0.1775451,51.6041707]]}},
{"type":"Feature","properties":{"id":17670,"nach":0.39880687308621537},"geometry":{"type":"LineString","coordinates":[[0.1791786,51.6042847],[0.179376,51.6039694]]}},
{"type":"Feature","properties":{"id":23573,"nach":0.52597160647113805},"geometry":{"type":"LineString","coordinates":[[0.1792896,51.6043113],[0.1791786,51.6042847]]}},
{"type":"Feature","properties":{"id":17664,"nach":0.39392019065701767},"geometry":{"type":"LineString","coordinates":[[0.178395,51.6041004],[0.178465,51.6039781]]}},
{"type":"Feature","properties":{"id":17676,"nach":0.39198462938503137},"geometry":{"type":"LineString","coordinates":[[0.1781812,51.6044742],[0.178395,51.6041004]]}},
{"type":"Feature","properties":{"id":23574,"nach":0.39963371402694919},"geometry":{"type":"LineString","coordinates":[[0.1792896,51.6043113],[0.179106,51.6046406]]}},
{"type":"Feature","properties":{"id":43748,"nach":0.5422370554186583},"geometry":{"type":"LineString","coordinates":[[0.175116,51.5943898],[0.1750646,51.5944659]]}},
{"type":"Feature","properties":{"id":23540,"nach":0.4767744391624717},"geometry":{"type":"LineString","coordinates":[[0.1744439,51.5943146],[0.1750646,51.5944659]]}},
{"type":"Feature","properties":{"id":48673,"nach":0.4734770548326287},"geometry":{"type":"LineString","coordinates":[[0.1790034,51.6063216],[0.1790379,51.606288500000012]]}},
{"type":"Feature","properties":{"id":48675,"nach":0.37853423946248121},"geometry":{"type":"LineString","coordinates":[[0.1790034,51.6063216],[0.1788404,51.60626580000001],[0.178784,51.6062535],[0.1787475,51.6062561],[0.1787245,51.6062716],[0.1786713,51.6063475]]}},
{"type":"Feature","properties":{"id":19231,"nach":0.35769499580867675},"geometry":{"type":"LineString","coordinates":[[0.1802646,51.6069757],[0.1802753,51.607082300000016],[0.1801573,51.607129],[0.1799213,51.607129],[0.1795565,51.6071251],[0.179299,51.607109],[0.179237,51.6070894],[0.1791625,51.607045200000023],[0.1790948,51.6069866],[0.1790634,51.6069266],[0.179044,51.6068723],[0.1790514,51.606808800000017],[0.1790691,51.6067567],[0.1792885,51.606568199999984],[0.1793082,51.606532800000011],[0.1793094,51.6064919],[0.1792911,51.6064499],[0.1792542,51.6064127],[0.179164,51.6063505],[0.1790379,51.606288500000012]]}},
{"type":"Feature","properties":{"id":27344,"nach":0.43433564261007485},"geometry":{"type":"LineString","coordinates":[[0.1856638,51.6031797],[0.1856322,51.6034761],[0.1856429,51.6045089],[0.1855012,51.605094200000011]]}},
{"type":"Feature","properties":{"id":27350,"nach":0.47223126061090798},"geometry":{"type":"LineString","coordinates":[[0.187462,51.6046392],[0.187336,51.604599],[0.1873378,51.6045458],[0.1873092,51.6044391],[0.1872609,51.6043424],[0.1871751,51.6042758],[0.1869337,51.6042292],[0.1868425,51.6041883],[0.1866172,51.6040792],[0.1864241,51.6039393],[0.1860593,51.6036328],[0.1859252,51.6034129],[0.1857696,51.6032063],[0.1856638,51.6031797]]}},
{"type":"Feature","properties":{"id":23373,"nach":0.0},"geometry":{"type":"LineString","coordinates":[[0.1800416,51.6062325],[0.1801646,51.606082],[0.1808182,51.6062826],[0.1806931,51.6064274],[0.1800416,51.6062325]]}},
{"type":"Feature","properties":{"id":23412,"nach":0.55417339206912353},"geometry":{"type":"LineString","coordinates":[[0.1801096,51.60362030000001],[0.1802063,51.6035515]]}},
{"type":"Feature","properties":{"id":56306,"nach":0.56156333199551345},"geometry":{"type":"LineString","coordinates":[[0.1799575,51.6022546],[0.1801698,51.6026746],[0.1802869,51.6030212],[0.1803228,51.6032848],[0.1803074,51.6033993],[0.1802613,51.6034927],[0.1802063,51.6035515]]}},
{"type":"Feature","properties":{"id":55702,"nach":0.49494005524057672},"geometry":{"type":"LineString","coordinates":[[0.1803474,51.6035816],[0.1802959,51.6035801],[0.1802063,51.6035515]]}},
{"type":"Feature","properties":{"id":55704,"nach":0.53770321417540023},"geometry":{"type":"LineString","coordinates":[[0.1802402,51.603711500000017],[0.1801096,51.60362030000001]]}},
{"type":"Feature","properties":{"id":23420,"nach":0.47022749407917919},"geometry":{"type":"LineString","coordinates":[[0.1774081,51.6035995],[0.1778117,51.603620299999989],[0.1789064,51.6037205],[0.1796322,51.6037391],[0.1797435,51.603732],[0.1798619,51.6037165],[0.1799893,51.6036795],[0.1801096,51.60362030000001]]}},
{"type":"Feature","properties":{"id":56305,"nach":0.57574554866164662},"geometry":{"type":"LineString","coordinates":[[0.1799575,51.6022546],[0.1799107,51.6021619],[0.1798984,51.6021411]]}},
{"type":"Feature","properties":{"id":55706,"nach":0.33744445528962091},"geometry":{"type":"LineString","coordinates":[[0.1802402,51.603711500000017],[0.1802869,51.603676299999989],[0.180319,51.6036383],[0.1803474,51.6035816]]}},
{"type":"Feature","properties":{"id":56295,"nach":0.48571065524249935},"geometry":{"type":"LineString","coordinates":[[0.1786943,51.6008968],[0.1782846,51.6006378],[0.1779655,51.60039660000001],[0.1777386,51.600193599999983]]}},
{"type":"Feature","properties":{"id":23411,"nach":0.45140260246141967},"geometry":{"type":"LineString","coordinates":[[0.1771944,51.6000743],[0.1773734,51.600217400000012],[0.1774811,51.6002509],[0.1775926,51.6002581],[0.1776745,51.600224],[0.1777386,51.600193599999983]]}},
{"type":"Feature","properties":{"id":23462,"nach":0.56525767081766976},"geometry":{"type":"LineString","coordinates":[[0.1772407,51.6000543],[0.1771944,51.6000743]]}},
{"type":"Feature","properties":{"id":23432,"nach":0.38269071616171696},"geometry":{"type":"LineString","coordinates":[[0.1784258,51.5994951],[0.1779462,51.599685],[0.1778886,51.5996873],[0.1778436,51.5996627],[0.1776348,51.5994676],[0.1776502,51.5994461],[0.1781342,51.5992369]]}},
{"type":"Feature","properties":{"id":23588,"nach":0.42835380216438623},"geometry":{"type":"LineString","coordinates":[[0.1789145,51.5999279],[0.1784258,51.5994951]]}},
{"type":"Feature","properties":{"id":43957,"nach":0.49126180495244914},"geometry":{"type":"LineString","coordinates":[[0.1767785,51.5992839],[0.1768929,51.5993912],[0.1773312,51.5998139],[0.1772407,51.6000543]]}},
{"type":"Feature","properties":{"id":23428,"nach":0.49148666661343127},"geometry":{"type":"LineString","coordinates":[[0.177389,51.6037271],[0.1774081,51.6035995]]}},
{"type":"Feature","properties":{"id":23449,"nach":0.38649582109172759},"geometry":{"type":"LineString","coordinates":[[0.1790637,51.6057018],[0.1789995,51.605803]]}},
{"type":"Feature","properties":{"id":23450,"nach":0.3848655906067362},"geometry":{"type":"LineString","coordinates":[[0.1790637,51.6057018],[0.1792958,51.6057525]]}},
{"type":"Feature","properties":{"id":48671,"nach":0.37851771608131651},"geometry":{"type":"LineString","coordinates":[[0.18005,51.6055444],[0.180127,51.6054528],[0.1801403,51.605439800000013],[0.1801585,51.6054306],[0.180182,51.6054279],[0.1802046,51.6054311],[0.1802891,51.6054512],[0.180854,51.6056042],[0.1808808,51.60561950000001],[0.180899,51.6056376],[0.1809021,51.6056555],[0.1807682,51.6058361]]}},
{"type":"Feature","properties":{"id":48669,"nach":0.39227502272493597},"geometry":{"type":"LineString","coordinates":[[0.18005,51.6055444],[0.1799799,51.6056371]]}},
{"type":"Feature","properties":{"id":40384,"nach":0.36502734732232411},"geometry":{"type":"LineString","coordinates":[[0.181997,51.6049206],[0.1821199,51.6047526],[0.1821798,51.604699],[0.1822244,51.6046784],[0.1822999,51.6046648],[0.1823602,51.60466430000001],[0.1824281,51.6046767],[0.1825249,51.6047045],[0.1826452,51.6047413],[0.1826942,51.60476580000001],[0.1827212,51.6047902],[0.1827439,51.6048319],[0.1827462,51.6048858],[0.1827197,51.60494],[0.1822927,51.6054819]]}},
{"type":"Feature","properties":{"id":40385,"nach":0.45587282190412604},"geometry":{"type":"LineString","coordinates":[[0.181997,51.6049206],[0.1819379,51.6049896],[0.1819185,51.6049979],[0.1818835,51.6049996],[0.1803188,51.6048335]]}},
{"type":"Feature","properties":{"id":40387,"nach":0.38272974657474318},"geometry":{"type":"LineString","coordinates":[[0.181611,51.6047621],[0.1819717,51.604795],[0.1819781,51.6048622],[0.181997,51.6049206]]}},
{"type":"Feature","properties":{"id":56342,"nach":0.54218237368143263},"geometry":{"type":"LineString","coordinates":[[0.1801725,51.6050682],[0.180255,51.6049395],[0.1803188,51.6048335]]}},
{"type":"Feature","properties":{"id":55673,"nach":0.55700894158707792},"geometry":{"type":"LineString","coordinates":[[0.1804707,51.6039509],[0.1805058,51.60411],[0.1804889,51.604358200000014],[0.1804201,51.6046283],[0.1803188,51.6048335]]}},
{"type":"Feature","properties":{"id":56344,"nach":0.39348487612500388},"geometry":{"type":"LineString","coordinates":[[0.1808974,51.6052838],[0.1803032,51.6051071],[0.1801725,51.6050682]]}},
{"type":"Feature","properties":{"id":55683,"nach":0.50616462095534176},"geometry":{"type":"LineString","coordinates":[[0.1803044,51.6039088],[0.180374,51.6039264],[0.1804707,51.6039509]]}},
{"type":"Feature","properties":{"id":43956,"nach":0.50908605847028376},"geometry":{"type":"LineString","coordinates":[[0.1767785,51.5992839],[0.1759931,51.5985412]]}},
{"type":"Feature","properties":{"id":23464,"nach":0.50890182275849027},"geometry":{"type":"LineString","coordinates":[[0.175901,51.5984122],[0.1759931,51.5985412]]}},
{"type":"Feature","properties":{"id":23466,"nach":0.42081135275146658},"geometry":{"type":"LineString","coordinates":[[0.175901,51.5984122],[0.1757972,51.5984218],[0.1752014,51.5987728]]}},
{"type":"Feature","properties":{"id":43749,"nach":0.54497586922253849},"geometry":{"type":"LineString","coordinates":[[0.175116,51.5943898],[0.1752296,51.5942215],[0.1754192,51.593997199999983]]}},
{"type":"Feature","properties":{"id":43751,"nach":0.40530918474284811},"geometry":{"type":"LineString","coordinates":[[0.1757739,51.594562800000013],[0.1755379,51.5944997],[0.1753939,51.5944641],[0.1752701,51.594430900000013],[0.175116,51.5943898]]}},
{"type":"Feature","properties":{"id":23542,"nach":0.39420633457796161},"geometry":{"type":"LineString","coordinates":[[0.1744439,51.5943146],[0.1743309,51.5944264],[0.1741487,51.5945915]]}},
{"type":"Feature","properties":{"id":23543,"nach":0.40174657862569108},"geometry":{"type":"LineString","coordinates":[[0.1745419,51.5942175],[0.1744439,51.5943146]]}},
{"type":"Feature","properties":{"id":23914,"nach":0.54349030752626959},"geometry":{"type":"LineString","coordinates":[[0.1710608,51.596152100000012],[0.1709378,51.596225699999984],[0.1708243,51.596239500000017],[0.170654,51.596270099999984]]}},
{"type":"Feature","properties":{"id":23916,"nach":0.53601280320931455},"geometry":{"type":"LineString","coordinates":[[0.1712212,51.5959963],[0.1710608,51.596152100000012]]}},
{"type":"Feature","properties":{"id":23920,"nach":0.53086737380547688},"geometry":{"type":"LineString","coordinates":[[0.1720927,51.5955871],[0.1718158,51.595665],[0.1715476,51.5957917],[0.1712212,51.5959963]]}},
{"type":"Feature","properties":{"id":23925,"nach":0.41488914647168257},"geometry":{"type":"LineString","coordinates":[[0.1715068,51.596143],[0.1713261,51.5960543],[0.1712212,51.5959963]]}},
{"type":"Feature","properties":{"id":23926,"nach":0.40745070287796625},"geometry":{"type":"LineString","coordinates":[[0.1718799,51.5959855],[0.1719674,51.5959402],[0.1720198,51.5959022],[0.1720665,51.5958026],[0.172084,51.595701200000015],[0.1720927,51.5955871]]}},
{"type":"Feature","properties":{"id":55700,"nach":0.41973281511412197},"geometry":{"type":"LineString","coordinates":[[0.1802837,51.6039476],[0.1803044,51.6039088]]}},
{"type":"Feature","properties":{"id":55707,"nach":0.51547322312955068},"geometry":{"type":"LineString","coordinates":[[0.1803209,51.603877900000022],[0.1803044,51.6039088]]}}
]
}
