{
"type": "FeatureCollection",
"name": "HARRO_31",
"crs": { "type": "name", "properties": { "name": "urn:ogc:def:crs:OGC:1.3:CRS84" } },
"features": [
{ "type": "Feature", "properties": { "osm_id": 2385265484, "name": null, "amenity": "bench", "man_made": null, "leisure": null, "playground": null, "memorial": null }, "geometry": { "type": "Point", "coordinates": [ -0.3400668, 51.5740223 ] } },
{ "type": "Feature", "properties": { "osm_id": 2385265479, "name": null, "amenity": "bench", "man_made": null, "leisure": null, "playground": null, "memorial": null }, "geometry": { "type": "Point", "coordinates": [ -0.3395438, 51.5742189 ] } },
{ "type": "Feature", "properties": { "osm_id": 2385265482, "name": null, "amenity": "bench", "man_made": null, "leisure": null, "playground": null, "memorial": null }, "geometry": { "type": "Point", "coordinates": [ -0.3394436, 51.5743323 ] } },
{ "type": "Feature", "properties": { "osm_id": 322702189, "name": null, "amenity": "bench", "man_made": null, "leisure": null, "playground": null, "memorial": null }, "geometry": { "type": "Point", "coordinates": [ -0.3408799, 51.5745184 ] } },
{ "type": "Feature", "properties": { "osm_id": 2385259557, "name": null, "amenity": "bench", "man_made": null, "leisure": null, "playground": null, "memorial": null }, "geometry": { "type": "Point", "coordinates": [ -0.3423317, 51.5748452 ] } },
{ "type": "Feature", "properties": { "osm_id": 322702191, "name": null, "amenity": "bench", "man_made": null, "leisure": null, "playground": null, "memorial": null }, "geometry": { "type": "Point", "coordinates": [ -0.3412938, 51.5753641 ] } }
]
}
