{
"type": "FeatureCollection",
"name": "NEWHA_40_cycling",
"crs": { "type": "name", "properties": { "name": "urn:ogc:def:crs:OGC:1.3:CRS84" } },
"features": [
{"type":"Feature","properties":{"highway":"cycleway","name":null,"category":"Dedicated cycleway"},"geometry":{"type":"MultiLineString","coordinates":[[[0.0068025,51.5189371],[0.0067855,51.5189453],[0.0067675,51.5189538],[0.006621,51.5190236]]]}},
{"type":"Feature","properties":{"highway":"cycleway","name":null,"category":"Dedicated cycleway"},"geometry":{"type":"MultiLineString","coordinates":[[[0.006621,51.5190236],[0.0068346,51.5191875],[0.0068502,51.5191982],[0.0069212,51.5192181],[0.0069844,51.5192303],[0.0070604,51.5192343],[0.0081714,51.5192562],[0.0084114,51.5194987],[0.0084469,51.5195064],[0.0085842,51.5195123],[0.0089489,51.5195238],[0.0090875,51.5196685],[0.0091145,51.5196751]]]}},
{"type":"Feature","properties":{"highway":"cycleway","name":null,"category":"Dedicated cycleway"},"geometry":{"type":"MultiLineString","coordinates":[[[0.0077742,51.5172903],[0.0077665,51.517256],[0.0077719,51.5172459],[0.0077879,51.5172162],[0.0077973,51.5171896],[0.0078135,51.5171441],[0.0078299,51.5170443],[0.0078317,51.5169627],[0.0077641,51.5168752],[0.0077414,51.5168543],[0.0077184,51.5168303]]]}},
{"type":"Feature","properties":{"highway":"cycleway","name":null,"category":"Dedicated cycleway"},"geometry":{"type":"MultiLineString","coordinates":[[[0.0051839,51.5111701],[0.0049356,51.5110324],[0.0048088,51.5109622],[0.0046136,51.5107704],[0.0044476,51.510601],[0.0043149,51.5105374],[0.004145,51.5104694],[0.0039664,51.5104099],[0.0037408,51.510376]]]}},
{"type":"Feature","properties":{"highway":"cycleway","name":"East India Dock Road","category":"Dedicated cycleway"},"geometry":{"type":"MultiLineString","coordinates":[[[0.0021248,51.513622],[0.0020644,51.5135653],[0.0018879,51.5133772],[0.001842,51.5133247],[0.0018141,51.5132731],[0.0017562,51.5131418],[0.0017198,51.5130946],[0.0016399,51.5130295],[0.0015809,51.5129945],[0.0015071,51.5129657],[0.0013866,51.5129257],[0.0013274,51.5129039],[0.0012389,51.5128619],[0.0010596,51.5127835],[0.0008973,51.5127226],[0.0007829,51.5126916],[0.000622,51.5126549],[0.0004905,51.5126231],[0.0004208,51.5125972],[0.0003601,51.5125663]]]}},
{"type":"Feature","properties":{"highway":"cycleway","name":"Barking Road","category":"Dedicated cycleway"},"geometry":{"type":"MultiLineString","coordinates":[[[0.0058401,51.5148317],[0.0056826,51.5147939],[0.0056044,51.5147722],[0.005517,51.5147491],[0.0051603,51.5146433],[0.004945,51.5145759],[0.0046869,51.5145084],[0.0039304,51.5143515]]]}},
{"type":"Feature","properties":{"highway":"cycleway","name":"Leamouth Road","category":"Dedicated cycleway"},"geometry":{"type":"MultiLineString","coordinates":[[[0.0003433,51.5111013],[0.0003552,51.5111308],[0.0003647,51.5111814],[0.0003701,51.5112282],[0.0003606,51.5112777],[0.0003504,51.5113114],[0.0003433,51.511335],[0.0003164,51.5114051],[0.0003004,51.5114486],[0.0001539,51.5117315]]]}},
{"type":"Feature","properties":{"highway":"cycleway","name":"Barking Road","category":"Dedicated cycleway"},"geometry":{"type":"MultiLineString","coordinates":[[[0.0039304,51.5143515],[0.0033221,51.514222],[0.0029604,51.5141094],[0.0026417,51.5139773],[0.0024505,51.5138633]]]}},
{"type":"Feature","properties":{"highway":"cycleway","name":null,"category":"Dedicated cycleway"},"geometry":{"type":"MultiLineString","coordinates":[[[0.0024505,51.5138633],[0.0025055,51.5138392]]]}},
{"type":"Feature","properties":{"highway":"cycleway","name":"The Blue Bridge","category":"Dedicated cycleway"},"geometry":{"type":"MultiLineString","coordinates":[[[0.004194,51.5137758],[0.0032213,51.5139893]]]}},
{"type":"Feature","properties":{"highway":"cycleway","name":null,"category":"Dedicated cycleway"},"geometry":{"type":"MultiLineString","coordinates":[[[0.0042531,51.5138291],[0.004194,51.5137758]]]}},
{"type":"Feature","properties":{"highway":"cycleway","name":"Silvosia Wharf","category":"Dedicated cycleway"},"geometry":{"type":"MultiLineString","coordinates":[[[0.001849,51.5118166],[0.0020278,51.5120863],[0.0025146,51.5127739],[0.0024718,51.5131395],[0.0024758,51.5131971],[0.0026139,51.51349],[0.0026212,51.5135679],[0.0026071,51.5136691],[0.002575,51.5137474],[0.0025538,51.5137909],[0.0025055,51.5138392]]]}},
{"type":"Feature","properties":{"highway":"cycleway","name":null,"category":"Dedicated cycleway"},"geometry":{"type":"MultiLineString","coordinates":[[[0.0025055,51.5138392],[0.0026069,51.5138952],[0.0027069,51.5139391],[0.0027782,51.5139674],[0.0028936,51.5139963],[0.0030232,51.5140046],[0.003152,51.5139997],[0.0032213,51.5139893]]]}},
{"type":"Feature","properties":{"highway":"path","name":null,"category":"Shared path"},"geometry":{"type":"MultiLineString","coordinates":[[[0.0015143,51.5165864],[0.0005481,51.5169878],[-0.0007141,51.5175038],[-0.0013524,51.5178042],[-0.0017811,51.5180092]]]}},
{"type":"Feature","properties":{"highway":"cycleway","name":"Leamouth Road","category":"Dedicated cycleway"},"geometry":{"type":"MultiLineString","coordinates":[[[-0.0000336,51.5118132],[-0.000007,51.511855],[0.0000093,51.5118959],[0.0000105,51.511931],[-0.0000083,51.5119844],[-0.0001798,51.5123491],[-0.0002066,51.5123916],[-0.0002441,51.5124267],[-0.0003357,51.5124907]]]}},
{"type":"Feature","properties":{"highway":"cycleway","name":null,"category":"Dedicated cycleway"},"geometry":{"type":"MultiLineString","coordinates":[[[-0.0003357,51.5124907],[-0.0003704,51.5125053],[-0.0004529,51.5125324],[-0.0005477,51.5125402],[-0.0006506,51.5125396],[-0.0007776,51.5125275]]]}},
{"type":"Feature","properties":{"highway":"cycleway","name":"Barking Road","category":"Dedicated cycleway"},"geometry":{"type":"MultiLineString","coordinates":[[[0.0072793,51.5151122],[0.0072392,51.5151078],[0.0071854,51.5151018]]]}},
{"type":"Feature","properties":{"highway":"cycleway","name":null,"category":"Dedicated cycleway"},"geometry":{"type":"MultiLineString","coordinates":[[[0.0153288,51.5173747],[0.0153212,51.517361],[0.0153136,51.5173473]]]}},
{"type":"Feature","properties":{"highway":"cycleway","name":null,"category":"Dedicated cycleway"},"geometry":{"type":"MultiLineString","coordinates":[[[0.0163937,51.5173284],[0.0164954,51.5173302],[0.0166594,51.517333],[0.0167142,51.5173339],[0.0171841,51.5173443]]]}},
{"type":"Feature","properties":{"highway":"cycleway","name":null,"category":"Dedicated cycleway"},"geometry":{"type":"MultiLineString","coordinates":[[[0.0154224,51.5173777],[0.0155406,51.5173579],[0.0156755,51.5173451],[0.0158568,51.5173351],[0.0162086,51.5173267],[0.0163937,51.5173284]]]}},
{"type":"Feature","properties":{"highway":"cycleway","name":null,"category":"Dedicated cycleway"},"geometry":{"type":"MultiLineString","coordinates":[[[0.0074668,51.5151329],[0.0074626,51.5151489]]]}},
{"type":"Feature","properties":{"highway":"cycleway","name":null,"category":"Dedicated cycleway"},"geometry":{"type":"MultiLineString","coordinates":[[[0.0082173,51.5160445],[0.00822,51.5160634],[0.0082228,51.5160823]]]}},
{"type":"Feature","properties":{"highway":"cycleway","name":null,"category":"Dedicated cycleway"},"geometry":{"type":"MultiLineString","coordinates":[[[0.0074589,51.5154911],[0.0074217,51.5155474],[0.0073886,51.5155974]]]}},
{"type":"Feature","properties":{"highway":"cycleway","name":"Petra Way","category":"Dedicated cycleway"},"geometry":{"type":"MultiLineString","coordinates":[[[0.0090001,51.5155132],[0.0091411,51.5155408],[0.0094582,51.5155974],[0.0096634,51.5156341],[0.0099098,51.5156817],[0.0104845,51.5157903],[0.0111014,51.5159056]]]}},
{"type":"Feature","properties":{"highway":"cycleway","name":null,"category":"Dedicated cycleway"},"geometry":{"type":"MultiLineString","coordinates":[[[0.0053998,51.5143505],[0.005432,51.5143692],[0.0055269,51.5144052],[0.0056028,51.5144358],[0.0057774,51.5145098],[0.0059365,51.5145716],[0.0061256,51.5146141],[0.0063361,51.5146392],[0.0064957,51.5146383],[0.0067572,51.5145924],[0.0068472,51.5145684]]]}},
{"type":"Feature","properties":{"highway":"cycleway","name":null,"category":"Dedicated cycleway"},"geometry":{"type":"MultiLineString","coordinates":[[[0.0072144,51.5144283],[0.0073339,51.5143337],[0.0074693,51.5142344],[0.0077349,51.5139598],[0.0078408,51.5138296],[0.0080283,51.5135987],[0.0081763,51.5132948],[0.0083112,51.5130177]]]}},
{"type":"Feature","properties":{"highway":"cycleway","name":null,"category":"Dedicated cycleway"},"geometry":{"type":"MultiLineString","coordinates":[[[0.0068472,51.5145684],[0.0070787,51.5144874],[0.0071371,51.5144665],[0.0072144,51.5144283]]]}},
{"type":"Feature","properties":{"highway":"cycleway","name":"East India Dock Road","category":"Dedicated cycleway"},"geometry":{"type":"MultiLineString","coordinates":[[[-0.0007776,51.5125275],[-0.0042342,51.5118859],[-0.0045295,51.5118171],[-0.0045709,51.5118097]]]}},
{"type":"Feature","properties":{"highway":"cycleway","name":"Newham Way","category":"Dedicated cycleway"},"geometry":{"type":"MultiLineString","coordinates":[[[0.0117038,51.5160064],[0.0117127,51.5159937],[0.0117216,51.515981]]]}},
{"type":"Feature","properties":{"highway":"cycleway","name":null,"category":"Dedicated cycleway"},"geometry":{"type":"MultiLineString","coordinates":[[[0.0007884,51.5133816],[0.0008984,51.5134782],[0.0011322,51.513695],[0.0013909,51.5139234],[0.0015935,51.5140581],[0.0018255,51.5141891],[0.002084,51.5143137],[0.0022811,51.5143984]]]}},
{"type":"Feature","properties":{"highway":"cycleway","name":"Silvertown Way","category":"Dedicated cycleway"},"geometry":{"type":"MultiLineString","coordinates":[[[0.0085097,51.5147318],[0.0084815,51.5147701],[0.0084278,51.5148406],[0.0083899,51.5148806],[0.0083151,51.5149443],[0.0083019,51.5149476],[0.008274,51.5149505]]]}},
{"type":"Feature","properties":{"highway":"cycleway","name":"Silvertown Way","category":"Dedicated cycleway"},"geometry":{"type":"MultiLineString","coordinates":[[[0.0081618,51.5149585],[0.008133,51.5149621],[0.0080931,51.5149717],[0.0080339,51.5150051]]]}},
{"type":"Feature","properties":{"highway":"cycleway","name":null,"category":"Dedicated cycleway"},"geometry":{"type":"MultiLineString","coordinates":[[[0.0074286,51.5152339],[0.0073908,51.5153679],[0.0074751,51.5154673],[0.0074589,51.5154911]]]}},
{"type":"Feature","properties":{"highway":"cycleway","name":null,"category":"Dedicated cycleway"},"geometry":{"type":"MultiLineString","coordinates":[[[0.0075956,51.5159273],[0.0076562,51.5159161],[0.0077079,51.5159066]]]}},
{"type":"Feature","properties":{"highway":"cycleway","name":null,"category":"Dedicated cycleway"},"geometry":{"type":"MultiLineString","coordinates":[[[0.0075525,51.515032],[0.0075101,51.5150315],[0.0074668,51.5151329]]]}},
{"type":"Feature","properties":{"highway":"cycleway","name":null,"category":"Dedicated cycleway"},"geometry":{"type":"MultiLineString","coordinates":[[[0.0082228,51.5160823],[0.0082285,51.5161217]]]}},
{"type":"Feature","properties":{"highway":"cycleway","name":"Silvertown Way","category":"Dedicated cycleway"},"geometry":{"type":"MultiLineString","coordinates":[[[0.008274,51.5149505],[0.0082127,51.5149549],[0.0081618,51.5149585]]]}},
{"type":"Feature","properties":{"highway":"cycleway","name":null,"category":"Dedicated cycleway"},"geometry":{"type":"MultiLineString","coordinates":[[[0.0079156,51.5158494],[0.0079601,51.515867],[0.0080046,51.5158847]]]}},
{"type":"Feature","properties":{"highway":"cycleway","name":null,"category":"Dedicated cycleway"},"geometry":{"type":"MultiLineString","coordinates":[[[0.0074519,51.5156893],[0.0074801,51.5157368],[0.0075361,51.5158778]]]}},
{"type":"Feature","properties":{"highway":"cycleway","name":null,"category":"Dedicated cycleway"},"geometry":{"type":"MultiLineString","coordinates":[[[0.0077079,51.5159066],[0.0078349,51.5158517],[0.0078616,51.5158435],[0.0078869,51.5158423],[0.0079156,51.5158494]]]}},
{"type":"Feature","properties":{"highway":"cycleway","name":null,"category":"Dedicated cycleway"},"geometry":{"type":"MultiLineString","coordinates":[[[0.0080046,51.5158847],[0.0081689,51.5159497],[0.0081898,51.515958],[0.0081999,51.5159678],[0.0082066,51.5159804],[0.0082173,51.5160445]]]}},
{"type":"Feature","properties":{"highway":"cycleway","name":null,"category":"Dedicated cycleway"},"geometry":{"type":"MultiLineString","coordinates":[[[0.0076756,51.5150309],[0.0076144,51.5150314],[0.0075525,51.515032]]]}},
{"type":"Feature","properties":{"highway":"cycleway","name":null,"category":"Dedicated cycleway"},"geometry":{"type":"MultiLineString","coordinates":[[[-0.0003014,51.5127013],[-0.0003126,51.512722],[-0.0003668,51.5127175],[-0.000412,51.5127128],[-0.0004204,51.5127296]]]}},
{"type":"Feature","properties":{"highway":"cycleway","name":null,"category":"Dedicated cycleway"},"geometry":{"type":"MultiLineString","coordinates":[[[0.0002001,51.5125799],[0.0001267,51.5125904]]]}},
{"type":"Feature","properties":{"highway":"cycleway","name":null,"category":"Dedicated cycleway"},"geometry":{"type":"MultiLineString","coordinates":[[[-0.0002787,51.5126094],[-0.0002897,51.5126541],[-0.0003014,51.5127013]]]}},
{"type":"Feature","properties":{"highway":"cycleway","name":null,"category":"Dedicated cycleway"},"geometry":{"type":"MultiLineString","coordinates":[[[0.0001267,51.5125904],[0.0000633,51.5125823],[0.0000105,51.5125756]]]}},
{"type":"Feature","properties":{"highway":"cycleway","name":null,"category":"Dedicated cycleway"},"geometry":{"type":"MultiLineString","coordinates":[[[-0.0002356,51.5125555],[-0.0002787,51.5126094]]]}},
{"type":"Feature","properties":{"highway":"cycleway","name":null,"category":"Dedicated cycleway"},"geometry":{"type":"MultiLineString","coordinates":[[[0.0003549,51.5133243],[0.0003755,51.5133575]]]}},
{"type":"Feature","properties":{"highway":"cycleway","name":null,"category":"Dedicated cycleway"},"geometry":{"type":"MultiLineString","coordinates":[[[0.0003383,51.5132769],[0.0003549,51.5133243]]]}},
{"type":"Feature","properties":{"highway":"cycleway","name":null,"category":"Dedicated cycleway"},"geometry":{"type":"MultiLineString","coordinates":[[[-0.0004964,51.5128853],[-0.0004355,51.5129011],[-0.0003106,51.5129268],[-0.0002035,51.5129533],[-0.0001337,51.5129832],[-0.0000173,51.5130358],[0.0003094,51.5132264],[0.000327,51.5132513],[0.0003383,51.5132769],[0.0003884,51.5132876]]]}},
{"type":"Feature","properties":{"highway":"cycleway","name":null,"category":"Dedicated cycleway"},"geometry":{"type":"MultiLineString","coordinates":[[[0.0006464,51.5133407],[0.0005701,51.5133237]]]}},
{"type":"Feature","properties":{"highway":"cycleway","name":null,"category":"Dedicated cycleway"},"geometry":{"type":"MultiLineString","coordinates":[[[-0.0001913,51.5125472],[-0.0002356,51.5125555],[-0.000257,51.5125506]]]}},
{"type":"Feature","properties":{"highway":"cycleway","name":null,"category":"Dedicated cycleway"},"geometry":{"type":"MultiLineString","coordinates":[[[-0.0008824,51.5127214],[-0.0008524,51.5127854]]]}},
{"type":"Feature","properties":{"highway":"cycleway","name":"East India Dock Road","category":"Dedicated cycleway"},"geometry":{"type":"MultiLineString","coordinates":[[[0.0003601,51.5125663],[0.0003238,51.5125364],[0.0002931,51.5125457]]]}},
{"type":"Feature","properties":{"highway":"cycleway","name":null,"category":"Dedicated cycleway"},"geometry":{"type":"MultiLineString","coordinates":[[[-0.000257,51.5125506],[-0.0002861,51.5125285],[-0.0003151,51.5125064]]]}},
{"type":"Feature","properties":{"highway":"cycleway","name":null,"category":"Dedicated cycleway"},"geometry":{"type":"MultiLineString","coordinates":[[[-0.0004204,51.5127296],[-0.0004326,51.5127561],[-0.0004462,51.5127856]]]}},
{"type":"Feature","properties":{"highway":"cycleway","name":null,"category":"Dedicated cycleway"},"geometry":{"type":"MultiLineString","coordinates":[[[0.0002931,51.5125457],[0.000252,51.5125608],[0.0002001,51.5125799]]]}},
{"type":"Feature","properties":{"highway":"cycleway","name":null,"category":"Dedicated cycleway"},"geometry":{"type":"MultiLineString","coordinates":[[[-0.0004854,51.512861],[-0.0004964,51.5128853]]]}},
{"type":"Feature","properties":{"highway":"cycleway","name":null,"category":"Dedicated cycleway"},"geometry":{"type":"MultiLineString","coordinates":[[[0.0038044,51.5206584],[0.0039126,51.5206652]]]}},
{"type":"Feature","properties":{"highway":"cycleway","name":null,"category":"Dedicated cycleway"},"geometry":{"type":"MultiLineString","coordinates":[[[0.0037051,51.5206521],[0.0036871,51.5207225]]]}},
{"type":"Feature","properties":{"highway":"cycleway","name":null,"category":"Dedicated cycleway"},"geometry":{"type":"MultiLineString","coordinates":[[[0.0039126,51.5206652],[0.0039194,51.5206123]]]}},
{"type":"Feature","properties":{"highway":"cycleway","name":null,"category":"Dedicated cycleway"},"geometry":{"type":"MultiLineString","coordinates":[[[0.0039076,51.5207092],[0.0039126,51.5206652]]]}},
{"type":"Feature","properties":{"highway":"cycleway","name":null,"category":"Dedicated cycleway"},"geometry":{"type":"MultiLineString","coordinates":[[[0.0037051,51.5206521],[0.0038044,51.5206584]]]}},
{"type":"Feature","properties":{"highway":"cycleway","name":"Star Lane","category":"Dedicated cycleway"},"geometry":{"type":"MultiLineString","coordinates":[[[0.004781,51.5207699],[0.0048147,51.5207656]]]}},
{"type":"Feature","properties":{"highway":"cycleway","name":null,"category":"Dedicated cycleway"},"geometry":{"type":"MultiLineString","coordinates":[[[0.0049158,51.5207023],[0.0049167,51.5206568],[0.0048391,51.5206587]]]}},
{"type":"Feature","properties":{"highway":"cycleway","name":null,"category":"Dedicated cycleway"},"geometry":{"type":"MultiLineString","coordinates":[[[0.0082285,51.5161217],[0.0083636,51.5161178],[0.0084567,51.5161115],[0.0085662,51.5161064],[0.0090259,51.5163108],[0.009038,51.5163162]]]}},
{"type":"Feature","properties":{"highway":"cycleway","name":null,"category":"Dedicated cycleway"},"geometry":{"type":"MultiLineString","coordinates":[[[0.0067086,51.5154465],[0.0070247,51.5155083],[0.0072064,51.5155474]]]}},
{"type":"Feature","properties":{"highway":"cycleway","name":null,"category":"Dedicated cycleway"},"geometry":{"type":"MultiLineString","coordinates":[[[0.0077184,51.5168303],[0.0077197,51.5167381],[0.0076873,51.5166552],[0.0076796,51.5166335],[0.0076697,51.516612],[0.0076566,51.516574],[0.0077081,51.5164135],[0.0077492,51.5162609],[0.0077718,51.5162138],[0.0078163,51.5161766],[0.0079107,51.5161379],[0.0080136,51.5161283],[0.0082285,51.5161217]]]}},
{"type":"Feature","properties":{"highway":"cycleway","name":null,"category":"Dedicated cycleway"},"geometry":{"type":"MultiLineString","coordinates":[[[0.006195,51.5153963],[0.0062274,51.5153968]]]}},
{"type":"Feature","properties":{"highway":"cycleway","name":"Barking Road","category":"Dedicated cycleway"},"geometry":{"type":"MultiLineString","coordinates":[[[0.0024505,51.5138633],[0.0022746,51.5137445],[0.0021248,51.513622]]]}},
{"type":"Feature","properties":{"highway":"cycleway","name":null,"category":"Dedicated cycleway"},"geometry":{"type":"MultiLineString","coordinates":[[[0.006621,51.5190236],[0.0064225,51.5191228],[0.0061972,51.5191882]]]}},
{"type":"Feature","properties":{"highway":"cycleway","name":null,"category":"Dedicated cycleway"},"geometry":{"type":"MultiLineString","coordinates":[[[0.0005089,51.5133111],[0.0004609,51.5133008]]]}},
{"type":"Feature","properties":{"highway":"cycleway","name":null,"category":"Dedicated cycleway"},"geometry":{"type":"MultiLineString","coordinates":[[[0.0004609,51.5133008],[0.0004312,51.5132945]]]}},
{"type":"Feature","properties":{"highway":"cycleway","name":null,"category":"Dedicated cycleway"},"geometry":{"type":"MultiLineString","coordinates":[[[-0.0000575,51.5125646],[-0.0001135,51.5125573],[-0.0001913,51.5125472]]]}},
{"type":"Feature","properties":{"highway":"cycleway","name":null,"category":"Dedicated cycleway"},"geometry":{"type":"MultiLineString","coordinates":[[[-0.0004462,51.5127856],[-0.0004562,51.5128059]]]}},
{"type":"Feature","properties":{"highway":"cycleway","name":null,"category":"Dedicated cycleway"},"geometry":{"type":"MultiLineString","coordinates":[[[0.0000105,51.5125756],[-0.0000575,51.5125646]]]}},
{"type":"Feature","properties":{"highway":"cycleway","name":null,"category":"Dedicated cycleway"},"geometry":{"type":"MultiLineString","coordinates":[[[-0.0004562,51.5128059],[-0.0004679,51.5128279],[-0.0004854,51.512861]]]}},
{"type":"Feature","properties":{"highway":"cycleway","name":null,"category":"Dedicated cycleway"},"geometry":{"type":"MultiLineString","coordinates":[[[-0.0003151,51.5125064],[-0.0003357,51.5124907]]]}},
{"type":"Feature","properties":{"highway":"cycleway","name":null,"category":"Dedicated cycleway"},"geometry":{"type":"MultiLineString","coordinates":[[[0.0056768,51.5152486],[0.0059762,51.515301]]]}},
{"type":"Feature","properties":{"highway":"cycleway","name":null,"category":"Dedicated cycleway"},"geometry":{"type":"MultiLineString","coordinates":[[[0.0054139,51.5151972],[0.0055593,51.515226],[0.0056768,51.5152486]]]}},
{"type":"Feature","properties":{"highway":"cycleway","name":null,"category":"Dedicated cycleway"},"geometry":{"type":"MultiLineString","coordinates":[[[0.0062274,51.5153968],[0.0063437,51.5154151],[0.0064297,51.5154285]]]}},
{"type":"Feature","properties":{"highway":"cycleway","name":null,"category":"Dedicated cycleway"},"geometry":{"type":"MultiLineString","coordinates":[[[0.0074626,51.5151489],[0.007446,51.5151905],[0.0074286,51.5152339]]]}},
{"type":"Feature","properties":{"highway":"cycleway","name":"Silvertown Way","category":"Dedicated cycleway"},"geometry":{"type":"MultiLineString","coordinates":[[[0.0077538,51.5150862],[0.0077271,51.5150666],[0.0077014,51.5150325],[0.0076756,51.5150309]]]}},
{"type":"Feature","properties":{"highway":"cycleway","name":"Silvertown Way","category":"Dedicated cycleway"},"geometry":{"type":"MultiLineString","coordinates":[[[0.0080211,51.5150165],[0.0079551,51.5150594],[0.0078883,51.5150923],[0.0078413,51.5150999],[0.0078031,51.5150971],[0.0078006,51.5150969],[0.0077538,51.5150862]]]}},
{"type":"Feature","properties":{"highway":"cycleway","name":null,"category":"Dedicated cycleway"},"geometry":{"type":"MultiLineString","coordinates":[[[0.0069234,51.5146705],[0.0069139,51.5146393],[0.0068776,51.5146379],[0.0068472,51.5145684]]]}},
{"type":"Feature","properties":{"highway":"cycleway","name":null,"category":"Dedicated cycleway"},"geometry":{"type":"MultiLineString","coordinates":[[[0.0061149,51.5148629],[0.0061213,51.5148462]]]}},
{"type":"Feature","properties":{"highway":"cycleway","name":null,"category":"Dedicated cycleway"},"geometry":{"type":"MultiLineString","coordinates":[[[0.0061213,51.5148462],[0.0060759,51.5148214],[0.0060429,51.5148012],[0.0054518,51.5145576]]]}},
{"type":"Feature","properties":{"highway":"path","name":null,"category":"Shared path"},"geometry":{"type":"MultiLineString","coordinates":[[[0.0101457,51.5093449],[0.0098238,51.5094551],[0.0093625,51.5095786],[0.0088475,51.5096888],[0.0084023,51.5097556],[0.008134,51.509819],[0.0078122,51.5098908],[0.0075836,51.5099478],[0.0070778,51.5101366],[0.0069796,51.5102853],[0.007016,51.5103659],[0.0072413,51.5107565],[0.0075203,51.5110036],[0.007928,51.5115545],[0.0080996,51.511875],[0.0082337,51.5122956],[0.0083142,51.5127196],[0.0083112,51.5130177]]]}},
{"type":"Feature","properties":{"highway":"cycleway","name":null,"category":"Dedicated cycleway"},"geometry":{"type":"MultiLineString","coordinates":[[[0.0118546,51.5158903],[0.0117594,51.5159068],[0.0117245,51.5159773]]]}},
{"type":"Feature","properties":{"highway":"cycleway","name":null,"category":"Dedicated cycleway"},"geometry":{"type":"MultiLineString","coordinates":[[[0.0054518,51.5145576],[0.0053266,51.5145007],[0.0052974,51.5145229]]]}},
{"type":"Feature","properties":{"highway":"cycleway","name":null,"category":"Dedicated cycleway"},"geometry":{"type":"MultiLineString","coordinates":[[[0.0035714,51.5208192],[0.0035836,51.5207777],[0.0035876,51.520764]]]}},
{"type":"Feature","properties":{"highway":"cycleway","name":null,"category":"Dedicated cycleway"},"geometry":{"type":"MultiLineString","coordinates":[[[0.0036871,51.5207225],[0.0036687,51.5207366],[0.0036358,51.520748],[0.0035876,51.520764]]]}},
{"type":"Feature","properties":{"highway":"cycleway","name":"Sorrel Lane","category":"Dedicated cycleway"},"geometry":{"type":"MultiLineString","coordinates":[[[-0.0001257,51.5117588],[-0.0000701,51.5117885],[-0.0000336,51.5118132]]]}},
{"type":"Feature","properties":{"highway":"cycleway","name":"Leamouth Road","category":"Dedicated cycleway"},"geometry":{"type":"MultiLineString","coordinates":[[[0.0005119,51.5118663],[0.000548,51.5118087],[0.0005834,51.5117481],[0.0006174,51.5116899],[0.0006698,51.5115741],[0.000805,51.5113179],[0.0008246,51.5112984],[0.0008701,51.5112669],[0.0009036,51.511247],[0.000971,51.5112152],[0.0010159,51.5112016],[0.0010948,51.5111949],[0.0011812,51.5112011],[0.001247,51.511215]]]}},
{"type":"Feature","properties":{"highway":"cycleway","name":null,"category":"Dedicated cycleway"},"geometry":{"type":"MultiLineString","coordinates":[[[0.0001539,51.5117315],[0.0000959,51.5117502],[0.0000715,51.5117581]]]}},
{"type":"Feature","properties":{"highway":"cycleway","name":"Barking Road","category":"Dedicated cycleway"},"geometry":{"type":"MultiLineString","coordinates":[[[0.0061046,51.5148856],[0.0058401,51.5148317]]]}},
{"type":"Feature","properties":{"highway":"cycleway","name":"Barking Road","category":"Dedicated cycleway"},"geometry":{"type":"MultiLineString","coordinates":[[[0.0071854,51.5151018],[0.0070553,51.5150773],[0.0067234,51.5150092],[0.006472,51.5149576],[0.0063458,51.5149337],[0.0062071,51.514906]]]}},
{"type":"Feature","properties":{"highway":"cycleway","name":null,"category":"Dedicated cycleway"},"geometry":{"type":"MultiLineString","coordinates":[[[0.0050309,51.5114011],[0.0049855,51.5112671],[0.0049356,51.5110324]]]}},
{"type":"Feature","properties":{"highway":"path","name":null,"category":"Shared path"},"geometry":{"type":"MultiLineString","coordinates":[[[0.0077973,51.5171896],[0.0078515,51.5171663],[0.0084644,51.5167979],[0.0084854,51.5167677]]]}},
{"type":"Feature","properties":{"highway":"cycleway","name":null,"category":"Dedicated cycleway"},"geometry":{"type":"MultiLineString","coordinates":[[[0.0076919,51.5168711],[0.0077184,51.5168303]]]}},
{"type":"Feature","properties":{"highway":"cycleway","name":"Manor Road","category":"Dedicated cycleway"},"geometry":{"type":"MultiLineString","coordinates":[[[0.0075682,51.5159605],[0.0075748,51.5159781],[0.0076098,51.516072],[0.0076183,51.5161544],[0.0076209,51.5161799],[0.0076132,51.5162917],[0.0076038,51.5163745],[0.0075759,51.5164312],[0.0075611,51.516464],[0.0075077,51.5165823],[0.0074356,51.5166814]]]}},
{"type":"Feature","properties":{"highway":"cycleway","name":null,"category":"Dedicated cycleway"},"geometry":{"type":"MultiLineString","coordinates":[[[0.0075582,51.5159335],[0.0075956,51.5159273]]]}},
{"type":"Feature","properties":{"highway":"cycleway","name":null,"category":"Dedicated cycleway"},"geometry":{"type":"MultiLineString","coordinates":[[[0.006865,51.5189068],[0.0068025,51.5189371]]]}},
{"type":"Feature","properties":{"highway":"cycleway","name":null,"category":"Dedicated cycleway"},"geometry":{"type":"MultiLineString","coordinates":[[[0.009038,51.5163162],[0.0090903,51.5163386]]]}},
{"type":"Feature","properties":{"highway":"cycleway","name":null,"category":"Dedicated cycleway"},"geometry":{"type":"MultiLineString","coordinates":[[[0.0091145,51.5196751],[0.0091873,51.5196804],[0.0094253,51.5196817],[0.0095051,51.5196764],[0.0096902,51.5196703],[0.0097365,51.5197],[0.0097473,51.5197068]]]}},
{"type":"Feature","properties":{"highway":"cycleway","name":null,"category":"Dedicated cycleway"},"geometry":{"type":"MultiLineString","coordinates":[[[0.0082416,51.5192577],[0.0081714,51.5192562]]]}},
{"type":"Feature","properties":{"highway":"track","name":null,"category":"Track"},"geometry":{"type":"MultiLineString","coordinates":[[[0.008506,51.5192634],[0.0082416,51.5192577]]]}},
{"type":"Feature","properties":{"highway":"cycleway","name":null,"category":"Dedicated cycleway"},"geometry":{"type":"MultiLineString","coordinates":[[[0.0061046,51.5148856],[0.0061149,51.5148629]]]}},
{"type":"Feature","properties":{"highway":"cycleway","name":null,"category":"Dedicated cycleway"},"geometry":{"type":"MultiLineString","coordinates":[[[0.0073886,51.5155974],[0.0073768,51.5156126]]]}},
{"type":"Feature","properties":{"highway":"cycleway","name":null,"category":"Dedicated cycleway"},"geometry":{"type":"MultiLineString","coordinates":[[[0.0022811,51.5143984],[0.002324,51.5144186],[0.0027734,51.5145889],[0.0031209,51.514692],[0.00364,51.5148173],[0.0042838,51.51496],[0.0047585,51.515062],[0.0054139,51.5151972]]]}},
{"type":"Feature","properties":{"highway":"cycleway","name":null,"category":"Dedicated cycleway"},"geometry":{"type":"MultiLineString","coordinates":[[[-0.0008513,51.5128093],[-0.0004964,51.5128853]]]}},
{"type":"Feature","properties":{"highway":"cycleway","name":null,"category":"Dedicated cycleway"},"geometry":{"type":"MultiLineString","coordinates":[[[0.0006464,51.5133407],[0.0007225,51.5133549],[0.0007688,51.5133719],[0.0007884,51.5133816]]]}},
{"type":"Feature","properties":{"highway":"cycleway","name":null,"category":"Dedicated cycleway"},"geometry":{"type":"MultiLineString","coordinates":[[[0.0072064,51.5155474],[0.0073139,51.5155885]]]}},
{"type":"Feature","properties":{"highway":"cycleway","name":"Wharfside Road","category":"Dedicated cycleway"},"geometry":{"type":"MultiLineString","coordinates":[[[0.0056041,51.5156468],[0.0055728,51.5156441],[0.0055553,51.515628]]]}},
{"type":"Feature","properties":{"highway":"cycleway","name":"Wharfside Road","category":"Dedicated cycleway"},"geometry":{"type":"MultiLineString","coordinates":[[[0.0055553,51.515628],[0.0055866,51.5155894]]]}},
{"type":"Feature","properties":{"highway":"cycleway","name":"Wharfside Road","category":"Dedicated cycleway"},"geometry":{"type":"MultiLineString","coordinates":[[[0.0056441,51.515652],[0.0056041,51.5156468]]]}},
{"type":"Feature","properties":{"highway":"cycleway","name":null,"category":"Dedicated cycleway"},"geometry":{"type":"MultiLineString","coordinates":[[[-0.0008524,51.5127854],[-0.0008517,51.5127932],[-0.0008513,51.5128093]]]}},
{"type":"Feature","properties":{"highway":"cycleway","name":null,"category":"Dedicated cycleway"},"geometry":{"type":"MultiLineString","coordinates":[[[0.011664,51.5114838],[0.011633,51.5114693]]]}},
{"type":"Feature","properties":{"highway":"cycleway","name":null,"category":"Dedicated cycleway"},"geometry":{"type":"MultiLineString","coordinates":[[[0.015295,51.5173155],[0.0151918,51.5173419],[0.0151531,51.5173859]]]}},
{"type":"Feature","properties":{"highway":"cycleway","name":null,"category":"Dedicated cycleway"},"geometry":{"type":"MultiLineString","coordinates":[[[0.0153136,51.5173473],[0.015295,51.5173155]]]}},
{"type":"Feature","properties":{"highway":"cycleway","name":null,"category":"Dedicated cycleway"},"geometry":{"type":"MultiLineString","coordinates":[[[0.0153391,51.5173947],[0.0153288,51.5173747]]]}},
{"type":"Feature","properties":{"highway":"cycleway","name":null,"category":"Dedicated cycleway"},"geometry":{"type":"MultiLineString","coordinates":[[[0.0153391,51.5173947],[0.0154224,51.5173777]]]}},
{"type":"Feature","properties":{"highway":"cycleway","name":null,"category":"Dedicated cycleway"},"geometry":{"type":"MultiLineString","coordinates":[[[0.0005701,51.5133237],[0.0005089,51.5133111]]]}},
{"type":"Feature","properties":{"highway":"cycleway","name":null,"category":"Dedicated cycleway"},"geometry":{"type":"MultiLineString","coordinates":[[[0.0004312,51.5132945],[0.0003884,51.5132876]]]}},
{"type":"Feature","properties":{"highway":"cycleway","name":"Petra Way","category":"Dedicated cycleway"},"geometry":{"type":"MultiLineString","coordinates":[[[0.0111014,51.5159056],[0.0114712,51.5159777],[0.0116879,51.5160244],[0.0117038,51.5160064]]]}},
{"type":"Feature","properties":{"highway":"cycleway","name":"Newham Way","category":"Dedicated cycleway"},"geometry":{"type":"MultiLineString","coordinates":[[[0.0117899,51.5159905],[0.0117245,51.5159773]]]}},
{"type":"Feature","properties":{"highway":"cycleway","name":null,"category":"Dedicated cycleway"},"geometry":{"type":"MultiLineString","coordinates":[[[0.0117245,51.5159773],[0.0117216,51.515981]]]}},
{"type":"Feature","properties":{"highway":"cycleway","name":"Newham Way","category":"Dedicated cycleway"},"geometry":{"type":"MultiLineString","coordinates":[[[0.0148639,51.5165864],[0.0138778,51.5164085],[0.0131281,51.5162825],[0.0126936,51.5161848],[0.0122175,51.5160764],[0.0117899,51.5159905]]]}},
{"type":"Feature","properties":{"highway":"cycleway","name":"Newham Way","category":"Dedicated cycleway"},"geometry":{"type":"MultiLineString","coordinates":[[[0.0149875,51.5166089],[0.0149337,51.516599],[0.0148639,51.5165864]]]}},
{"type":"Feature","properties":{"highway":"cycleway","name":"Newham Way","category":"Dedicated cycleway"},"geometry":{"type":"MultiLineString","coordinates":[[[0.0169361,51.5168918],[0.0168979,51.5169082],[0.0168536,51.5169162],[0.0167974,51.5169151],[0.0166968,51.5169051],[0.0161335,51.5168291],[0.0158246,51.5167773],[0.0157338,51.516749],[0.0151868,51.5166458],[0.0149875,51.5166089]]]}},
{"type":"Feature","properties":{"highway":"cycleway","name":null,"category":"Dedicated cycleway"},"geometry":{"type":"MultiLineString","coordinates":[[[0.0105011,51.5128079],[0.0105458,51.5127579],[0.010594,51.5127037]]]}},
{"type":"Feature","properties":{"highway":"cycleway","name":null,"category":"Dedicated cycleway"},"geometry":{"type":"MultiLineString","coordinates":[[[0.0062517,51.5156168],[0.0063135,51.5156145],[0.0063329,51.5156136]]]}},
{"type":"Feature","properties":{"highway":"cycleway","name":"Stephenson Street","category":"Dedicated cycleway"},"geometry":{"type":"MultiLineString","coordinates":[[[0.0063329,51.5156136],[0.0064463,51.5154292]]]}},
{"type":"Feature","properties":{"highway":"cycleway","name":"Silvertown Way","category":"Dedicated cycleway"},"geometry":{"type":"MultiLineString","coordinates":[[[0.0094354,51.5136496],[0.0094108,51.5137214]]]}},
{"type":"Feature","properties":{"highway":"cycleway","name":"Silvertown Way","category":"Dedicated cycleway"},"geometry":{"type":"MultiLineString","coordinates":[[[0.0114365,51.5113331],[0.0113942,51.5113776],[0.0112831,51.5114946],[0.0112271,51.5115552],[0.0112023,51.5115812],[0.0109617,51.5118548],[0.0108873,51.5119072],[0.0108373,51.5119605],[0.0107394,51.512065],[0.010526,51.5123135],[0.0103536,51.5125137],[0.0103199,51.5125529],[0.0102936,51.5125832],[0.0102838,51.5125945],[0.0101263,51.512776],[0.0098356,51.5131363],[0.009532,51.5135096],[0.0094774,51.5135767],[0.0094541,51.5136067]]]}},
{"type":"Feature","properties":{"highway":"cycleway","name":"Terry Spinks Place","category":"Dedicated cycleway"},"geometry":{"type":"MultiLineString","coordinates":[[[0.0086993,51.5150507],[0.0087338,51.5149292],[0.0088087,51.5148201]]]}},
{"type":"Feature","properties":{"highway":"cycleway","name":"Terry Spinks Place","category":"Dedicated cycleway"},"geometry":{"type":"MultiLineString","coordinates":[[[0.0087131,51.5152886],[0.0087009,51.515148],[0.0086993,51.5150507]]]}},
{"type":"Feature","properties":{"highway":"cycleway","name":null,"category":"Dedicated cycleway"},"geometry":{"type":"MultiLineString","coordinates":[[[0.0048391,51.5206587],[0.0047984,51.5207095]]]}},
{"type":"Feature","properties":{"highway":"cycleway","name":null,"category":"Dedicated cycleway"},"geometry":{"type":"MultiLineString","coordinates":[[[0.0048147,51.5207656],[0.0048119,51.5207559],[0.0047984,51.5207095]]]}},
{"type":"Feature","properties":{"highway":"path","name":null,"category":"Shared path"},"geometry":{"type":"MultiLineString","coordinates":[[[0.0005481,51.5169878],[0.0006079,51.5170499]]]}},
{"type":"Feature","properties":{"highway":"path","name":null,"category":"Shared path"},"geometry":{"type":"MultiLineString","coordinates":[[[0.0002022,51.5173479],[0.0007244,51.5171328]]]}},
{"type":"Feature","properties":{"highway":"cycleway","name":"Silvertown Way","category":"Dedicated cycleway"},"geometry":{"type":"MultiLineString","coordinates":[[[0.0115154,51.5114455],[0.0115739,51.5113764],[0.0116071,51.5113326],[0.0116365,51.5112939],[0.0116072,51.5112339]]]}},
{"type":"Feature","properties":{"highway":"cycleway","name":null,"category":"Dedicated cycleway"},"geometry":{"type":"MultiLineString","coordinates":[[[0.0114626,51.5112829],[0.011443,51.5112778]]]}},
{"type":"Feature","properties":{"highway":"cycleway","name":null,"category":"Dedicated cycleway"},"geometry":{"type":"MultiLineString","coordinates":[[[0.0114795,51.5112873],[0.0114626,51.5112829]]]}},
{"type":"Feature","properties":{"highway":"cycleway","name":null,"category":"Dedicated cycleway"},"geometry":{"type":"MultiLineString","coordinates":[[[0.0115912,51.5113819],[0.0115739,51.5113764],[0.0115042,51.5113545],[0.0114365,51.5113331]]]}},
{"type":"Feature","properties":{"highway":"cycleway","name":null,"category":"Dedicated cycleway"},"geometry":{"type":"MultiLineString","coordinates":[[[0.0116058,51.5113865],[0.0115912,51.5113819]]]}},
{"type":"Feature","properties":{"highway":"cycleway","name":"Silvertown Way","category":"Dedicated cycleway"},"geometry":{"type":"MultiLineString","coordinates":[[[0.011633,51.5114693],[0.0115915,51.5114452],[0.0115943,51.5114016],[0.0116058,51.5113865]]]}},
{"type":"Feature","properties":{"highway":"cycleway","name":null,"category":"Dedicated cycleway"},"geometry":{"type":"MultiLineString","coordinates":[[[0.011626,51.51136],[0.0116161,51.5113456]]]}},
{"type":"Feature","properties":{"highway":"cycleway","name":null,"category":"Dedicated cycleway"},"geometry":{"type":"MultiLineString","coordinates":[[[0.0116161,51.5113456],[0.0116071,51.5113326]]]}},
{"type":"Feature","properties":{"highway":"cycleway","name":"Silvertown Way","category":"Dedicated cycleway"},"geometry":{"type":"MultiLineString","coordinates":[[[0.0116518,51.511181],[0.0115623,51.5111983],[0.0115316,51.5112313],[0.0114795,51.5112873]]]}},
{"type":"Feature","properties":{"highway":"cycleway","name":"Silvertown Way","category":"Dedicated cycleway"},"geometry":{"type":"MultiLineString","coordinates":[[[0.0105092,51.5126591],[0.0105389,51.5126256],[0.0106195,51.5125275],[0.0106782,51.5124606],[0.0107689,51.512357],[0.0107713,51.5123322],[0.0107876,51.5122872],[0.0108067,51.5122643],[0.0108414,51.5122227],[0.010876,51.5121858],[0.0109311,51.5121287],[0.0109903,51.5120908],[0.0110476,51.5120472],[0.0111059,51.512],[0.0111604,51.5119417],[0.0112354,51.5118615],[0.0112575,51.5118436],[0.0113209,51.5117923],[0.0114137,51.5117172],[0.0114893,51.511656]]]}},
{"type":"Feature","properties":{"highway":"cycleway","name":"Silvertown Way","category":"Dedicated cycleway"},"geometry":{"type":"MultiLineString","coordinates":[[[0.0113727,51.5114889],[0.0115154,51.5114455]]]}},
{"type":"Feature","properties":{"highway":"cycleway","name":null,"category":"Dedicated cycleway"},"geometry":{"type":"MultiLineString","coordinates":[[[0.0105528,51.5126302],[0.0105389,51.5126256],[0.0104409,51.512593],[0.0103199,51.5125529],[0.010313,51.5125506]]]}},
{"type":"Feature","properties":{"highway":"cycleway","name":"Manor Road","category":"Dedicated cycleway"},"geometry":{"type":"MultiLineString","coordinates":[[[0.0073762,51.5167501],[0.0073463,51.5167846],[0.0073306,51.5168026],[0.0071709,51.5169345]]]}},
{"type":"Feature","properties":{"highway":"cycleway","name":"Manor Road","category":"Dedicated cycleway"},"geometry":{"type":"MultiLineString","coordinates":[[[0.0074356,51.5166814],[0.0073762,51.5167501]]]}},
{"type":"Feature","properties":{"highway":"cycleway","name":null,"category":"Dedicated cycleway"},"geometry":{"type":"MultiLineString","coordinates":[[[0.0114893,51.511656],[0.0115047,51.5116554],[0.0115162,51.5116549]]]}},
{"type":"Feature","properties":{"highway":"cycleway","name":null,"category":"Dedicated cycleway"},"geometry":{"type":"MultiLineString","coordinates":[[[0.0115162,51.5116549],[0.0115325,51.5116418],[0.0115448,51.5116319],[0.0115959,51.5116096],[0.0116291,51.5115996]]]}},
{"type":"Feature","properties":{"highway":"cycleway","name":null,"category":"Dedicated cycleway"},"geometry":{"type":"MultiLineString","coordinates":[[[0.0117521,51.5116141],[0.0117911,51.5116018]]]}},
{"type":"Feature","properties":{"highway":"cycleway","name":null,"category":"Dedicated cycleway"},"geometry":{"type":"MultiLineString","coordinates":[[[0.011738,51.5116185],[0.0117521,51.5116141]]]}},
{"type":"Feature","properties":{"highway":"cycleway","name":null,"category":"Dedicated cycleway"},"geometry":{"type":"MultiLineString","coordinates":[[[0.0116291,51.5115996],[0.0117057,51.5116027],[0.011738,51.5116185]]]}},
{"type":"Feature","properties":{"highway":"cycleway","name":"Silvertown Way","category":"Dedicated cycleway"},"geometry":{"type":"MultiLineString","coordinates":[[[0.0115321,51.5115155],[0.0115154,51.5114455]]]}},
{"type":"Feature","properties":{"highway":"cycleway","name":null,"category":"Dedicated cycleway"},"geometry":{"type":"MultiLineString","coordinates":[[[0.0113815,51.5113639],[0.0113942,51.5113776]]]}},
{"type":"Feature","properties":{"highway":"cycleway","name":null,"category":"Dedicated cycleway"},"geometry":{"type":"MultiLineString","coordinates":[[[0.0113748,51.5113566],[0.0113815,51.5113639]]]}},
{"type":"Feature","properties":{"highway":"cycleway","name":"Silvertown Way","category":"Dedicated cycleway"},"geometry":{"type":"MultiLineString","coordinates":[[[0.0114795,51.5112873],[0.0114365,51.5113331]]]}},
{"type":"Feature","properties":{"highway":"cycleway","name":"Silvertown Way","category":"Dedicated cycleway"},"geometry":{"type":"MultiLineString","coordinates":[[[0.0115454,51.5115712],[0.0115321,51.5115155]]]}},
{"type":"Feature","properties":{"highway":"cycleway","name":"Shirley Street","category":"Dedicated cycleway"},"geometry":{"type":"MultiLineString","coordinates":[[[0.0118096,51.5115568],[0.0117597,51.5115324],[0.0117099,51.5115056],[0.0116906,51.5114962]]]}},
{"type":"Feature","properties":{"highway":"cycleway","name":"Silvertown Way","category":"Dedicated cycleway"},"geometry":{"type":"MultiLineString","coordinates":[[[0.0116058,51.5113865],[0.011626,51.51136]]]}},
{"type":"Feature","properties":{"highway":"cycleway","name":null,"category":"Dedicated cycleway"},"geometry":{"type":"MultiLineString","coordinates":[[[0.0116906,51.5114962],[0.011664,51.5114838]]]}},
{"type":"Feature","properties":{"highway":"cycleway","name":"Silvertown Way","category":"Dedicated cycleway"},"geometry":{"type":"MultiLineString","coordinates":[[[0.0088504,51.514721],[0.0091566,51.5143246],[0.0092814,51.5141624],[0.0093802,51.514034],[0.0095145,51.5138641],[0.0095523,51.5138163],[0.0096758,51.513663],[0.0096889,51.5136467],[0.009699,51.5136342],[0.0097319,51.5135934],[0.0101149,51.513118],[0.0103412,51.5128485],[0.0103724,51.512815]]]}},
{"type":"Feature","properties":{"highway":"cycleway","name":null,"category":"Dedicated cycleway"},"geometry":{"type":"MultiLineString","coordinates":[[[0.0117911,51.5116018],[0.0118044,51.5115694]]]}},
{"type":"Feature","properties":{"highway":"cycleway","name":"Shirley Street","category":"Dedicated cycleway"},"geometry":{"type":"MultiLineString","coordinates":[[[0.0118044,51.5115694],[0.0118096,51.5115568]]]}},
{"type":"Feature","properties":{"highway":"cycleway","name":"Silvertown Way","category":"Dedicated cycleway"},"geometry":{"type":"MultiLineString","coordinates":[[[0.0114893,51.511656],[0.0115155,51.5116348],[0.0115379,51.5116151],[0.0115447,51.5116001],[0.0115472,51.5115791],[0.0115454,51.5115712]]]}},
{"type":"Feature","properties":{"highway":"cycleway","name":null,"category":"Dedicated cycleway"},"geometry":{"type":"MultiLineString","coordinates":[[[0.0114365,51.5113331],[0.0114218,51.5113285]]]}},
{"type":"Feature","properties":{"highway":"cycleway","name":"Barking Road","category":"Dedicated cycleway"},"geometry":{"type":"MultiLineString","coordinates":[[[0.0074668,51.5151329],[0.0072793,51.5151122]]]}},
{"type":"Feature","properties":{"highway":"cycleway","name":null,"category":"Dedicated cycleway"},"geometry":{"type":"MultiLineString","coordinates":[[[0.0059762,51.515301],[0.0061397,51.5153553]]]}},
{"type":"Feature","properties":{"highway":"cycleway","name":"Silvertown Way","category":"Dedicated cycleway"},"geometry":{"type":"MultiLineString","coordinates":[[[0.0088633,51.5147428],[0.0088504,51.514721]]]}},
{"type":"Feature","properties":{"highway":"cycleway","name":"Silvertown Way","category":"Dedicated cycleway"},"geometry":{"type":"MultiLineString","coordinates":[[[0.0088504,51.5147593],[0.0088633,51.5147428]]]}},
{"type":"Feature","properties":{"highway":"cycleway","name":"Silvertown Way","category":"Dedicated cycleway"},"geometry":{"type":"MultiLineString","coordinates":[[[0.0094108,51.5137214],[0.0093961,51.5137487],[0.009387,51.5137642],[0.0093398,51.513823],[0.009317,51.5138514],[0.009304,51.5138633],[0.0092943,51.5138662],[0.0092681,51.5138749],[0.0092555,51.5138833],[0.0089415,51.5142409],[0.0087115,51.5144736],[0.0086591,51.5145265],[0.0085673,51.5146422],[0.0085658,51.5146565]]]}},
{"type":"Feature","properties":{"highway":"cycleway","name":null,"category":"Dedicated cycleway"},"geometry":{"type":"MultiLineString","coordinates":[[[0.0106794,51.5128205],[0.0106843,51.5128041],[0.0106939,51.5127717]]]}},
{"type":"Feature","properties":{"highway":"cycleway","name":null,"category":"Dedicated cycleway"},"geometry":{"type":"MultiLineString","coordinates":[[[0.0106084,51.5128405],[0.0106794,51.5128205]]]}},
{"type":"Feature","properties":{"highway":"cycleway","name":"Silvertown Way","category":"Dedicated cycleway"},"geometry":{"type":"MultiLineString","coordinates":[[[0.0103724,51.512815],[0.0104509,51.5127256],[0.0105092,51.5126591]]]}},
{"type":"Feature","properties":{"highway":"cycleway","name":"Silvertown Way","category":"Dedicated cycleway"},"geometry":{"type":"MultiLineString","coordinates":[[[0.0080339,51.5150051],[0.0080211,51.5150165]]]}},
{"type":"Feature","properties":{"highway":"cycleway","name":null,"category":"Dedicated cycleway"},"geometry":{"type":"MultiLineString","coordinates":[[[0.0072704,51.5169824],[0.007219,51.5169576],[0.0071814,51.5169395]]]}},
{"type":"Feature","properties":{"highway":"cycleway","name":null,"category":"Dedicated cycleway"},"geometry":{"type":"MultiLineString","coordinates":[[[0.0072756,51.5169849],[0.0072704,51.5169824]]]}},
{"type":"Feature","properties":{"highway":"cycleway","name":null,"category":"Dedicated cycleway"},"geometry":{"type":"MultiLineString","coordinates":[[[0.0075361,51.5158778],[0.0075582,51.5159335]]]}},
{"type":"Feature","properties":{"highway":"cycleway","name":null,"category":"Dedicated cycleway"},"geometry":{"type":"MultiLineString","coordinates":[[[0.0075582,51.5159335],[0.0075682,51.5159605]]]}},
{"type":"Feature","properties":{"highway":"cycleway","name":null,"category":"Dedicated cycleway"},"geometry":{"type":"MultiLineString","coordinates":[[[0.0073768,51.5156126],[0.007401,51.5156299],[0.0074177,51.515648],[0.0074519,51.5156893]]]}},
{"type":"Feature","properties":{"highway":"cycleway","name":null,"category":"Dedicated cycleway"},"geometry":{"type":"MultiLineString","coordinates":[[[0.0073139,51.5155885],[0.0073768,51.5156126]]]}},
{"type":"Feature","properties":{"highway":"cycleway","name":null,"category":"Dedicated cycleway"},"geometry":{"type":"MultiLineString","coordinates":[[[0.0064463,51.5154292],[0.0064927,51.5154141],[0.0066562,51.5154363],[0.0067086,51.5154465]]]}},
{"type":"Feature","properties":{"highway":"cycleway","name":null,"category":"Dedicated cycleway"},"geometry":{"type":"MultiLineString","coordinates":[[[0.0085391,51.5147405],[0.0086575,51.5147755],[0.0087603,51.5148058]]]}},
{"type":"Feature","properties":{"highway":"cycleway","name":"Silvertown Way","category":"Dedicated cycleway"},"geometry":{"type":"MultiLineString","coordinates":[[[0.0085658,51.5146565],[0.0085568,51.514668],[0.0085097,51.5147318]]]}},
{"type":"Feature","properties":{"highway":"cycleway","name":"Silvertown Way","category":"Dedicated cycleway"},"geometry":{"type":"MultiLineString","coordinates":[[[0.0088087,51.5148201],[0.0088504,51.5147593]]]}},
{"type":"Feature","properties":{"highway":"cycleway","name":null,"category":"Dedicated cycleway"},"geometry":{"type":"MultiLineString","coordinates":[[[0.0085097,51.5147318],[0.0085327,51.5147386],[0.0085391,51.5147405]]]}},
{"type":"Feature","properties":{"highway":"cycleway","name":null,"category":"Dedicated cycleway"},"geometry":{"type":"MultiLineString","coordinates":[[[0.0087603,51.5148058],[0.008765,51.5148072],[0.0088087,51.5148201]]]}},
{"type":"Feature","properties":{"highway":"cycleway","name":"Silvertown Way","category":"Dedicated cycleway"},"geometry":{"type":"MultiLineString","coordinates":[[[0.0094541,51.5136067],[0.0094354,51.5136496]]]}},
{"type":"Feature","properties":{"highway":"cycleway","name":null,"category":"Dedicated cycleway"},"geometry":{"type":"MultiLineString","coordinates":[[[0.0071814,51.5169395],[0.0071709,51.5169345]]]}},
{"type":"Feature","properties":{"highway":"cycleway","name":"Terry Spinks Place","category":"Dedicated cycleway"},"geometry":{"type":"MultiLineString","coordinates":[[[0.0090001,51.5155132],[0.0089753,51.5155027],[0.0088037,51.5153495],[0.0087643,51.5153164],[0.0087131,51.5152886]]]}},
{"type":"Feature","properties":{"highway":"cycleway","name":"Barking Road","category":"Dedicated cycleway"},"geometry":{"type":"MultiLineString","coordinates":[[[0.0062071,51.514906],[0.0061046,51.5148856]]]}},
{"type":"Feature","properties":{"highway":"cycleway","name":null,"category":"Dedicated cycleway"},"geometry":{"type":"MultiLineString","coordinates":[[[0.0103536,51.5125137],[0.0103298,51.5125114]]]}},
{"type":"Feature","properties":{"highway":"cycleway","name":null,"category":"Dedicated cycleway"},"geometry":{"type":"MultiLineString","coordinates":[[[0.0102729,51.5125794],[0.0102838,51.5125945]]]}},
{"type":"Feature","properties":{"highway":"cycleway","name":"Stephenson Street","category":"Dedicated cycleway"},"geometry":{"type":"MultiLineString","coordinates":[[[0.0039194,51.5206123],[0.0039316,51.5205116],[0.0039362,51.5204742]]]}},
{"type":"Feature","properties":{"highway":"cycleway","name":null,"category":"Dedicated cycleway"},"geometry":{"type":"MultiLineString","coordinates":[[[0.0038677,51.5205077],[0.0038037,51.5205039]]]}},
{"type":"Feature","properties":{"highway":"cycleway","name":null,"category":"Dedicated cycleway"},"geometry":{"type":"MultiLineString","coordinates":[[[0.0061397,51.5153553],[0.006195,51.5153963]]]}},
{"type":"Feature","properties":{"highway":"cycleway","name":null,"category":"Dedicated cycleway"},"geometry":{"type":"MultiLineString","coordinates":[[[0.0039316,51.5205116],[0.0038677,51.5205077]]]}},
{"type":"Feature","properties":{"highway":"cycleway","name":null,"category":"Dedicated cycleway"},"geometry":{"type":"MultiLineString","coordinates":[[[0.0097473,51.5197068],[0.0097777,51.5197289]]]}},
{"type":"Feature","properties":{"highway":"cycleway","name":null,"category":"Dedicated cycleway"},"geometry":{"type":"MultiLineString","coordinates":[[[0.0098077,51.51975],[0.0097777,51.5197289]]]}},
{"type":"Feature","properties":{"highway":"cycleway","name":"Silvosia Wharf","category":"Dedicated cycleway"},"geometry":{"type":"MultiLineString","coordinates":[[[0.0016953,51.5110844],[0.0017255,51.5113113],[0.0018125,51.5117218],[0.0018099,51.5117437],[0.0018204,51.511768],[0.001849,51.5118166]]]}},
{"type":"Feature","properties":{"highway":"cycleway","name":null,"category":"Dedicated cycleway"},"geometry":{"type":"MultiLineString","coordinates":[[[0.0064297,51.5154285],[0.0064463,51.5154292]]]}},
{"type":"Feature","properties":{"highway":"cycle_lane_on_street","name":"Silvertown Way","category":"Cycle lane on street"},"geometry":{"type":"MultiLineString","coordinates":[[[0.0119749,51.5108008],[0.0124659,51.510224]]]}},
{"type":"Feature","properties":{"highway":"cycle_lane_on_street","name":"Silvertown Way","category":"Cycle lane on street"},"geometry":{"type":"MultiLineString","coordinates":[[[0.0117359,51.5110817],[0.0118254,51.5109765],[0.0119401,51.5108417]]]}}
]
}
