{
"type": "FeatureCollection",
"name": "71f923ad93ce_foliage",
"crs": { "type": "name", "properties": { "name": "urn:ogc:def:crs:OGC:1.3:CRS84" } },
"features": [
{ "type": "Feature", "properties": { "max_height": 4.3857498168945312, "mean_height": 0.49082764983177185, "std_height": 0.90309596061706543, "count_pixels": 42, "percent_cover": 0.73684210526315785, "percent_above_0.1m": 38.095238095238095, "low_level_<0.5": 9.5238095238095237, "mid_level_0.5-2": 21.428571428571427, "tall_2+": 7.1428571428571423 }, "geometry": { "type": "Point", "coordinates": [ -0.078692987959351, 51.501678755225967 ] } },
{ "type": "Feature", "properties": { "max_height": 1.3387501239776611, "mean_height": 0.077285930514335632, "std_height": 0.25835806131362915, "count_pixels": 42, "percent_cover": 0.73684210526315785, "percent_above_0.1m": 9.5238095238095237, "low_level_<0.5": 0.0, "mid_level_0.5-2": 7.1428571428571423, "tall_2+": 0.0 }, "geometry": { "type": "Point", "coordinates": [ -0.078493471736209, 51.501675484187956 ] } },
{ "type": "Feature", "properties": { "max_height": 11.472250938415527, "mean_height": 0.70251893997192383, "std_height": 1.8472999334335327, "count_pixels": 40, "percent_cover": 0.70175438596491224, "percent_above_0.1m": 42.5, "low_level_<0.5": 12.5, "mid_level_0.5-2": 22.5, "tall_2+": 7.5 }, "geometry": { "type": "Point", "coordinates": [ -0.078293955550969, 51.501672212811236 ] } },
{ "type": "Feature", "properties": { "max_height": 3.3032505512237549, "mean_height": 0.68535023927688599, "std_height": 0.88981896638870239, "count_pixels": 40, "percent_cover": 0.70175438596491224, "percent_above_0.1m": 52.5, "low_level_<0.5": 7.5, "mid_level_0.5-2": 35.0, "tall_2+": 10.0 }, "geometry": { "type": "Point", "coordinates": [ -0.078094439403641, 51.501668941095787 ] } },
{ "type": "Feature", "properties": { "max_height": 0.57700014114379883, "mean_height": 0.057916823774576187, "std_height": 0.11093178391456604, "count_pixels": 42, "percent_cover": 0.73684210526315785, "percent_above_0.1m": 23.809523809523807, "low_level_<0.5": 11.904761904761903, "mid_level_0.5-2": 2.3809523809523809, "tall_2+": 0.0 }, "geometry": { "type": "Point", "coordinates": [ -0.078987725312767, 51.501791499680678 ] } },
{ "type": "Feature", "properties": { "max_height": 3.5302503108978271, "mean_height": 0.5620657205581665, "std_height": 0.85394966602325439, "count_pixels": 42, "percent_cover": 0.73684210526315785, "percent_above_0.1m": 50.0, "low_level_<0.5": 16.666666666666664, "mid_level_0.5-2": 23.809523809523807, "tall_2+": 9.5238095238095237 }, "geometry": { "type": "Point", "coordinates": [ -0.078788208558006, 51.501788229129822 ] } },
{ "type": "Feature", "properties": { "max_height": 2.2045004367828369, "mean_height": 0.21893469989299774, "std_height": 0.47143611311912537, "count_pixels": 42, "percent_cover": 0.73684210526315785, "percent_above_0.1m": 23.809523809523807, "low_level_<0.5": 0.0, "mid_level_0.5-2": 19.047619047619047, "tall_2+": 2.3809523809523809 }, "geometry": { "type": "Point", "coordinates": [ -0.078588691841137, 51.501784958240243 ] } },
{ "type": "Feature", "properties": { "max_height": 6.8940005302429199, "mean_height": 0.75802403688430786, "std_height": 1.6639417409896851, "count_pixels": 42, "percent_cover": 0.73684210526315785, "percent_above_0.1m": 26.190476190476193, "low_level_<0.5": 4.7619047619047619, "mid_level_0.5-2": 7.1428571428571423, "tall_2+": 14.285714285714285 }, "geometry": { "type": "Point", "coordinates": [ -0.078389175162177, 51.501781687011913 ] } },
{ "type": "Feature", "properties": { "max_height": 15.401000022888184, "mean_height": 2.5912845134735107, "std_height": 3.6348333358764648, "count_pixels": 44, "percent_cover": 0.77192982456140358, "percent_above_0.1m": 61.363636363636367, "low_level_<0.5": 6.8181818181818175, "mid_level_0.5-2": 15.909090909090908, "tall_2+": 38.636363636363633 }, "geometry": { "type": "Point", "coordinates": [ -0.078189658521112, 51.501778415444868 ] } },
{ "type": "Feature", "properties": { "max_height": 9.412501335144043, "mean_height": 2.7943005561828613, "std_height": 2.4561588764190674, "count_pixels": 40, "percent_cover": 0.70175438596491224, "percent_above_0.1m": 82.5, "low_level_<0.5": 7.5, "mid_level_0.5-2": 17.5, "tall_2+": 55.000000000000007 }, "geometry": { "type": "Point", "coordinates": [ -0.077990141917961, 51.501775143539113 ] } },
{ "type": "Feature", "properties": { "max_height": 5.4577503204345703, "mean_height": 0.31178426742553711, "std_height": 1.0041083097457886, "count_pixels": 44, "percent_cover": 0.77192982456140358, "percent_above_0.1m": 27.27272727272727, "low_level_<0.5": 15.909090909090908, "mid_level_0.5-2": 4.5454545454545459, "tall_2+": 4.5454545454545459 }, "geometry": { "type": "Point", "coordinates": [ -0.079282464147341, 51.501904243433422 ] } },
{ "type": "Feature", "properties": { "max_height": 2.7732505798339844, "mean_height": 0.22203591465950012, "std_height": 0.48412910103797913, "count_pixels": 42, "percent_cover": 0.73684210526315785, "percent_above_0.1m": 45.238095238095241, "low_level_<0.5": 26.190476190476193, "mid_level_0.5-2": 7.1428571428571423, "tall_2+": 2.3809523809523809 }, "geometry": { "type": "Point", "coordinates": [ -0.079082946860968, 51.501900973369722 ] } },
{ "type": "Feature", "properties": { "max_height": 0.092000007629394531, "mean_height": 0.0036311319563537836, "std_height": 0.014476276934146881, "count_pixels": 42, "percent_cover": 0.73684210526315785, "percent_above_0.1m": 0.0, "low_level_<0.5": 0.0, "mid_level_0.5-2": 0.0, "tall_2+": 0.0 }, "geometry": { "type": "Point", "coordinates": [ -0.07888342961248, 51.501897702967291 ] } },
{ "type": "Feature", "properties": { "max_height": 2.309499979019165, "mean_height": 0.19431564211845398, "std_height": 0.46475565433502197, "count_pixels": 42, "percent_cover": 0.73684210526315785, "percent_above_0.1m": 23.809523809523807, "low_level_<0.5": 11.904761904761903, "mid_level_0.5-2": 9.5238095238095237, "tall_2+": 2.3809523809523809 }, "geometry": { "type": "Point", "coordinates": [ -0.078683912401892, 51.501894432226109 ] } },
{ "type": "Feature", "properties": { "max_height": 0.080250263214111328, "mean_height": 0.006726384162902832, "std_height": 0.017023179680109024, "count_pixels": 42, "percent_cover": 0.73684210526315785, "percent_above_0.1m": 0.0, "low_level_<0.5": 0.0, "mid_level_0.5-2": 0.0, "tall_2+": 0.0 }, "geometry": { "type": "Point", "coordinates": [ -0.078484395229195, 51.501891161146219 ] } },
{ "type": "Feature", "properties": { "max_height": 15.44050121307373, "mean_height": 4.3548941612243652, "std_height": 3.8661401271820068, "count_pixels": 40, "percent_cover": 0.70175438596491224, "percent_above_0.1m": 85.0, "low_level_<0.5": 5.0, "mid_level_0.5-2": 12.5, "tall_2+": 67.5 }, "geometry": { "type": "Point", "coordinates": [ -0.078284878094405, 51.501887889727591 ] } },
{ "type": "Feature", "properties": { "max_height": 14.416250228881836, "mean_height": 5.9099817276000977, "std_height": 3.6345796585083008, "count_pixels": 40, "percent_cover": 0.70175438596491224, "percent_above_0.1m": 95.0, "low_level_<0.5": 0.0, "mid_level_0.5-2": 7.5, "tall_2+": 85.0 }, "geometry": { "type": "Point", "coordinates": [ -0.07808536099752, 51.501884617970227 ] } },
{ "type": "Feature", "properties": { "max_height": 4.4682507514953613, "mean_height": 0.80751264095306396, "std_height": 1.2652331590652466, "count_pixels": 40, "percent_cover": 0.70175438596491224, "percent_above_0.1m": 35.0, "low_level_<0.5": 0.0, "mid_level_0.5-2": 12.5, "tall_2+": 22.5 }, "geometry": { "type": "Point", "coordinates": [ -0.077885843938546, 51.501881345874132 ] } },
{ "type": "Feature", "properties": { "max_height": 28.085750579833984, "mean_height": 7.8508634567260742, "std_height": 9.4116830825805664, "count_pixels": 40, "percent_cover": 0.70175438596491224, "percent_above_0.1m": 62.5, "low_level_<0.5": 2.5, "mid_level_0.5-2": 12.5, "tall_2+": 47.5 }, "geometry": { "type": "Point", "coordinates": [ -0.079377686645105, 51.502013716907669 ] } },
{ "type": "Feature", "properties": { "max_height": 24.998752593994141, "mean_height": 5.6875877380371094, "std_height": 8.0713663101196289, "count_pixels": 40, "percent_cover": 0.70175438596491224, "percent_above_0.1m": 50.0, "low_level_<0.5": 5.0, "mid_level_0.5-2": 2.5, "tall_2+": 40.0 }, "geometry": { "type": "Point", "coordinates": [ -0.079178168864997, 51.502010446992387 ] } },
{ "type": "Feature", "properties": { "max_height": 0.016500234603881836, "mean_height": 0.0012680178042501211, "std_height": 0.0031615348998457193, "count_pixels": 42, "percent_cover": 0.73684210526315785, "percent_above_0.1m": 0.0, "low_level_<0.5": 0.0, "mid_level_0.5-2": 0.0, "tall_2+": 0.0 }, "geometry": { "type": "Point", "coordinates": [ -0.078978651122786, 51.50200717673836 ] } },
{ "type": "Feature", "properties": { "max_height": 2.9942505359649658, "mean_height": 0.34082168340682983, "std_height": 0.7524489164352417, "count_pixels": 42, "percent_cover": 0.73684210526315785, "percent_above_0.1m": 21.428571428571427, "low_level_<0.5": 0.0, "mid_level_0.5-2": 16.666666666666664, "tall_2+": 4.7619047619047619 }, "geometry": { "type": "Point", "coordinates": [ -0.078779133418464, 51.502003906145603 ] } },
{ "type": "Feature", "properties": { "max_height": 16.241001129150391, "mean_height": 6.7700719833374023, "std_height": 6.4519596099853516, "count_pixels": 42, "percent_cover": 0.73684210526315785, "percent_above_0.1m": 59.523809523809526, "low_level_<0.5": 0.0, "mid_level_0.5-2": 2.3809523809523809, "tall_2+": 57.142857142857139 }, "geometry": { "type": "Point", "coordinates": [ -0.07857961575204, 51.502000635214124 ] } },
{ "type": "Feature", "properties": { "max_height": 19.937000274658203, "mean_height": 12.038412094116211, "std_height": 5.7058405876159668, "count_pixels": 42, "percent_cover": 0.73684210526315785, "percent_above_0.1m": 90.476190476190482, "low_level_<0.5": 0.0, "mid_level_0.5-2": 2.3809523809523809, "tall_2+": 88.095238095238088 }, "geometry": { "type": "Point", "coordinates": [ -0.07838009812352, 51.501997363943914 ] } },
{ "type": "Feature", "properties": { "max_height": 20.144750595092773, "mean_height": 6.7924208641052246, "std_height": 6.017582893371582, "count_pixels": 44, "percent_cover": 0.77192982456140358, "percent_above_0.1m": 88.63636363636364, "low_level_<0.5": 9.0909090909090917, "mid_level_0.5-2": 13.636363636363635, "tall_2+": 65.909090909090907 }, "geometry": { "type": "Point", "coordinates": [ -0.078180580532898, 51.501994092334954 ] } },
{ "type": "Feature", "properties": { "max_height": 13.835750579833984, "mean_height": 2.9156880378723145, "std_height": 3.9559404850006104, "count_pixels": 40, "percent_cover": 0.70175438596491224, "percent_above_0.1m": 67.5, "low_level_<0.5": 7.5, "mid_level_0.5-2": 22.5, "tall_2+": 35.0 }, "geometry": { "type": "Point", "coordinates": [ -0.077981062980188, 51.501990820387277 ] } },
{ "type": "Feature", "properties": { "max_height": 31.583501815795898, "mean_height": 24.667566299438477, "std_height": 3.7830452919006348, "count_pixels": 44, "percent_cover": 0.77192982456140358, "percent_above_0.1m": 100.0, "low_level_<0.5": 0.0, "mid_level_0.5-2": 0.0, "tall_2+": 100.0 }, "geometry": { "type": "Point", "coordinates": [ -0.079273391324864, 51.502119920548644 ] } },
{ "type": "Feature", "properties": { "max_height": 23.902252197265625, "mean_height": 7.3611612319946289, "std_height": 8.9952707290649414, "count_pixels": 42, "percent_cover": 0.73684210526315785, "percent_above_0.1m": 47.619047619047613, "low_level_<0.5": 0.0, "mid_level_0.5-2": 0.0, "tall_2+": 47.619047619047613 }, "geometry": { "type": "Point", "coordinates": [ -0.079073873088921, 51.502116650443043 ] } },
{ "type": "Feature", "properties": { "max_height": 0.086000204086303711, "mean_height": 0.0016787279164418578, "std_height": 0.013628614135086536, "count_pixels": 42, "percent_cover": 0.73684210526315785, "percent_above_0.1m": 0.0, "low_level_<0.5": 0.0, "mid_level_0.5-2": 0.0, "tall_2+": 0.0 }, "geometry": { "type": "Point", "coordinates": [ -0.07887435489087, 51.502113379998704 ] } },
{ "type": "Feature", "properties": { "max_height": 19.224750518798828, "mean_height": 3.6538100242614746, "std_height": 5.9658708572387695, "count_pixels": 42, "percent_cover": 0.73684210526315785, "percent_above_0.1m": 64.285714285714292, "low_level_<0.5": 11.904761904761903, "mid_level_0.5-2": 21.428571428571427, "tall_2+": 30.952380952380953 }, "geometry": { "type": "Point", "coordinates": [ -0.078674836730713, 51.502110109215636 ] } },
{ "type": "Feature", "properties": { "max_height": 20.021751403808594, "mean_height": 13.612310409545898, "std_height": 4.680382251739502, "count_pixels": 42, "percent_cover": 0.73684210526315785, "percent_above_0.1m": 95.238095238095227, "low_level_<0.5": 0.0, "mid_level_0.5-2": 2.3809523809523809, "tall_2+": 92.857142857142861 }, "geometry": { "type": "Point", "coordinates": [ -0.078475318608451, 51.502106838093837 ] } },
{ "type": "Feature", "properties": { "max_height": 17.236251831054688, "mean_height": 9.1315507888793945, "std_height": 5.7672686576843262, "count_pixels": 40, "percent_cover": 0.70175438596491224, "percent_above_0.1m": 95.0, "low_level_<0.5": 5.0, "mid_level_0.5-2": 10.0, "tall_2+": 80.0 }, "geometry": { "type": "Point", "coordinates": [ -0.078275800524101, 51.502103566633302 ] } },
{ "type": "Feature", "properties": { "max_height": 11.596250534057617, "mean_height": 3.8842754364013672, "std_height": 4.1336669921875, "count_pixels": 40, "percent_cover": 0.70175438596491224, "percent_above_0.1m": 87.5, "low_level_<0.5": 10.0, "mid_level_0.5-2": 35.0, "tall_2+": 42.5 }, "geometry": { "type": "Point", "coordinates": [ -0.07807628247765, 51.502100294834037 ] } },
{ "type": "Feature", "properties": { "max_height": 19.326501846313477, "mean_height": 7.4109940528869629, "std_height": 4.8610191345214844, "count_pixels": 40, "percent_cover": 0.70175438596491224, "percent_above_0.1m": 87.5, "low_level_<0.5": 2.5, "mid_level_0.5-2": 0.0, "tall_2+": 80.0 }, "geometry": { "type": "Point", "coordinates": [ -0.077876764469115, 51.502097022696049 ] } },
{ "type": "Feature", "properties": { "max_height": 16.618501663208008, "mean_height": 6.1281943321228027, "std_height": 5.5676755905151367, "count_pixels": 40, "percent_cover": 0.70175438596491224, "percent_above_0.1m": 77.5, "low_level_<0.5": 7.5, "mid_level_0.5-2": 5.0, "tall_2+": 65.0 }, "geometry": { "type": "Point", "coordinates": [ -0.079368614240567, 51.502229394038515 ] } },
{ "type": "Feature", "properties": { "max_height": 28.46550178527832, "mean_height": 23.508739471435547, "std_height": 4.1345443725585938, "count_pixels": 40, "percent_cover": 0.70175438596491224, "percent_above_0.1m": 100.0, "low_level_<0.5": 0.0, "mid_level_0.5-2": 0.0, "tall_2+": 100.0 }, "geometry": { "type": "Point", "coordinates": [ -0.07916909551089, 51.502226124081339 ] } },
{ "type": "Feature", "properties": { "max_height": 5.0240006446838379, "mean_height": 0.28081560134887695, "std_height": 1.0423765182495117, "count_pixels": 42, "percent_cover": 0.73684210526315785, "percent_above_0.1m": 9.5238095238095237, "low_level_<0.5": 0.0, "mid_level_0.5-2": 4.7619047619047619, "tall_2+": 4.7619047619047619 }, "geometry": { "type": "Point", "coordinates": [ -0.078969576819108, 51.502222853785419 ] } },
{ "type": "Feature", "properties": { "max_height": 0.0032501220703125, "mean_height": 0.00026799383340403438, "std_height": 0.00085457490058615804, "count_pixels": 42, "percent_cover": 0.73684210526315785, "percent_above_0.1m": 0.0, "low_level_<0.5": 0.0, "mid_level_0.5-2": 0.0, "tall_2+": 0.0 }, "geometry": { "type": "Point", "coordinates": [ -0.078770058165216, 51.502219583150783 ] } },
{ "type": "Feature", "properties": { "max_height": 13.785751342773438, "mean_height": 1.8420240879058838, "std_height": 2.8890776634216309, "count_pixels": 42, "percent_cover": 0.73684210526315785, "percent_above_0.1m": 59.523809523809526, "low_level_<0.5": 2.3809523809523809, "mid_level_0.5-2": 19.047619047619047, "tall_2+": 33.333333333333329 }, "geometry": { "type": "Point", "coordinates": [ -0.078570539549219, 51.502216312177381 ] } },
{ "type": "Feature", "properties": { "max_height": 24.985002517700195, "mean_height": 4.8365182876586914, "std_height": 7.5882449150085449, "count_pixels": 42, "percent_cover": 0.73684210526315785, "percent_above_0.1m": 66.666666666666657, "low_level_<0.5": 14.285714285714285, "mid_level_0.5-2": 14.285714285714285, "tall_2+": 35.714285714285715 }, "geometry": { "type": "Point", "coordinates": [ -0.078371020971125, 51.502213040865271 ] } },
{ "type": "Feature", "properties": { "max_height": 21.460250854492188, "mean_height": 3.4630968570709229, "std_height": 5.3826375007629395, "count_pixels": 44, "percent_cover": 0.77192982456140358, "percent_above_0.1m": 50.0, "low_level_<0.5": 4.5454545454545459, "mid_level_0.5-2": 9.0909090909090917, "tall_2+": 36.363636363636367 }, "geometry": { "type": "Point", "coordinates": [ -0.078171502430938, 51.502209769214417 ] } },
{ "type": "Feature", "properties": { "max_height": 7.6195001602172852, "mean_height": 2.7393002510070801, "std_height": 2.0683047771453857, "count_pixels": 40, "percent_cover": 0.70175438596491224, "percent_above_0.1m": 95.0, "low_level_<0.5": 15.0, "mid_level_0.5-2": 20.0, "tall_2+": 60.0 }, "geometry": { "type": "Point", "coordinates": [ -0.07797198392866, 51.502206497224833 ] } },
{ "type": "Feature", "properties": { "max_height": 20.532501220703125, "mean_height": 11.254940986633301, "std_height": 4.9959197044372559, "count_pixels": 42, "percent_cover": 0.73684210526315785, "percent_above_0.1m": 95.238095238095227, "low_level_<0.5": 0.0, "mid_level_0.5-2": 0.0, "tall_2+": 95.238095238095227 }, "geometry": { "type": "Point", "coordinates": [ -0.077772465464292, 51.502203224896498 ] } },
{ "type": "Feature", "properties": { "max_height": 18.377500534057617, "mean_height": 3.0588867664337158, "std_height": 4.5110249519348145, "count_pixels": 44, "percent_cover": 0.77192982456140358, "percent_above_0.1m": 65.909090909090907, "low_level_<0.5": 4.5454545454545459, "mid_level_0.5-2": 20.454545454545457, "tall_2+": 38.636363636363633 }, "geometry": { "type": "Point", "coordinates": [ -0.079264318388701, 51.50233559765325 ] } },
{ "type": "Feature", "properties": { "max_height": 14.764749526977539, "mean_height": 1.9038574695587158, "std_height": 3.6693811416625977, "count_pixels": 42, "percent_cover": 0.73684210526315785, "percent_above_0.1m": 42.857142857142854, "low_level_<0.5": 9.5238095238095237, "mid_level_0.5-2": 11.904761904761903, "tall_2+": 21.428571428571427 }, "geometry": { "type": "Point", "coordinates": [ -0.07906479920318, 51.502332327505762 ] } },
{ "type": "Feature", "properties": { "max_height": 0.029500246047973633, "mean_height": 0.0017561004497110844, "std_height": 0.0058907456696033478, "count_pixels": 42, "percent_cover": 0.73684210526315785, "percent_above_0.1m": 0.0, "low_level_<0.5": 0.0, "mid_level_0.5-2": 0.0, "tall_2+": 0.0 }, "geometry": { "type": "Point", "coordinates": [ -0.078865280055551, 51.502329057019523 ] } },
{ "type": "Feature", "properties": { "max_height": 0.0345001220703125, "mean_height": 0.0030001741833984852, "std_height": 0.0070040421560406685, "count_pixels": 42, "percent_cover": 0.73684210526315785, "percent_above_0.1m": 0.0, "low_level_<0.5": 0.0, "mid_level_0.5-2": 0.0, "tall_2+": 0.0 }, "geometry": { "type": "Point", "coordinates": [ -0.078665760945816, 51.502325786194547 ] } },
{ "type": "Feature", "properties": { "max_height": 26.763250350952148, "mean_height": 14.069582939147949, "std_height": 8.4423274993896484, "count_pixels": 42, "percent_cover": 0.73684210526315785, "percent_above_0.1m": 95.238095238095227, "low_level_<0.5": 4.7619047619047619, "mid_level_0.5-2": 2.3809523809523809, "tall_2+": 88.095238095238088 }, "geometry": { "type": "Point", "coordinates": [ -0.078466241873983, 51.502322515030855 ] } },
{ "type": "Feature", "properties": { "max_height": 26.597251892089844, "mean_height": 18.888769149780273, "std_height": 6.6618862152099609, "count_pixels": 40, "percent_cover": 0.70175438596491224, "percent_above_0.1m": 100.0, "low_level_<0.5": 0.0, "mid_level_0.5-2": 5.0, "tall_2+": 95.0 }, "geometry": { "type": "Point", "coordinates": [ -0.078266722840052, 51.502319243528412 ] } },
{ "type": "Feature", "properties": { "max_height": 4.0125007629394531, "mean_height": 0.8527752161026001, "std_height": 1.1103492975234985, "count_pixels": 40, "percent_cover": 0.70175438596491224, "percent_above_0.1m": 62.5, "low_level_<0.5": 10.0, "mid_level_0.5-2": 27.5, "tall_2+": 20.0 }, "geometry": { "type": "Point", "coordinates": [ -0.078067203844028, 51.502315971687231 ] } },
{ "type": "Feature", "properties": { "max_height": 19.618499755859375, "mean_height": 7.7070379257202148, "std_height": 7.651146411895752, "count_pixels": 40, "percent_cover": 0.70175438596491224, "percent_above_0.1m": 75.0, "low_level_<0.5": 2.5, "mid_level_0.5-2": 10.0, "tall_2+": 60.0 }, "geometry": { "type": "Point", "coordinates": [ -0.077867684885916, 51.502312699507328 ] } },
{ "type": "Feature", "properties": { "max_height": 27.522500991821289, "mean_height": 17.965644836425781, "std_height": 8.7404489517211914, "count_pixels": 40, "percent_cover": 0.70175438596491224, "percent_above_0.1m": 97.5, "low_level_<0.5": 0.0, "mid_level_0.5-2": 5.0, "tall_2+": 92.5 }, "geometry": { "type": "Point", "coordinates": [ -0.079160022043095, 51.502441801159684 ] } },
{ "type": "Feature", "properties": { "max_height": 20.162500381469727, "mean_height": 2.7156550884246826, "std_height": 5.8048720359802246, "count_pixels": 42, "percent_cover": 0.73684210526315785, "percent_above_0.1m": 21.428571428571427, "low_level_<0.5": 0.0, "mid_level_0.5-2": 2.3809523809523809, "tall_2+": 19.047619047619047 }, "geometry": { "type": "Point", "coordinates": [ -0.078960502401723, 51.502438530821877 ] } },
{ "type": "Feature", "properties": { "max_height": 0.055250167846679688, "mean_height": 0.0076906452886760235, "std_height": 0.015475296415388584, "count_pixels": 42, "percent_cover": 0.73684210526315785, "percent_above_0.1m": 0.0, "low_level_<0.5": 0.0, "mid_level_0.5-2": 0.0, "tall_2+": 0.0 }, "geometry": { "type": "Point", "coordinates": [ -0.078760982798251, 51.502435260145319 ] } },
{ "type": "Feature", "properties": { "max_height": 22.109752655029297, "mean_height": 3.2260477542877197, "std_height": 6.3044157028198242, "count_pixels": 42, "percent_cover": 0.73684210526315785, "percent_above_0.1m": 28.571428571428569, "low_level_<0.5": 0.0, "mid_level_0.5-2": 4.7619047619047619, "tall_2+": 23.809523809523807 }, "geometry": { "type": "Point", "coordinates": [ -0.078561463232671, 51.502431989130038 ] } },
{ "type": "Feature", "properties": { "max_height": 29.484500885009766, "mean_height": 19.252780914306641, "std_height": 5.0444183349609375, "count_pixels": 42, "percent_cover": 0.73684210526315785, "percent_above_0.1m": 100.0, "low_level_<0.5": 0.0, "mid_level_0.5-2": 0.0, "tall_2+": 100.0 }, "geometry": { "type": "Point", "coordinates": [ -0.078361943704999, 51.502428717776006 ] } },
{ "type": "Feature", "properties": { "max_height": 15.600001335144043, "mean_height": 3.5061423778533936, "std_height": 4.4780259132385254, "count_pixels": 44, "percent_cover": 0.77192982456140358, "percent_above_0.1m": 59.090909090909093, "low_level_<0.5": 9.0909090909090917, "mid_level_0.5-2": 4.5454545454545459, "tall_2+": 45.454545454545453 }, "geometry": { "type": "Point", "coordinates": [ -0.078162424215229, 51.502425446083251 ] } },
{ "type": "Feature", "properties": { "max_height": 25.267751693725586, "mean_height": 14.623500823974609, "std_height": 5.181828498840332, "count_pixels": 44, "percent_cover": 0.77192982456140358, "percent_above_0.1m": 100.0, "low_level_<0.5": 0.0, "mid_level_0.5-2": 0.0, "tall_2+": 100.0 }, "geometry": { "type": "Point", "coordinates": [ -0.079255245338855, 51.502551274747219 ] } },
{ "type": "Feature", "properties": { "max_height": 26.640750885009766, "mean_height": 12.498350143432617, "std_height": 8.3976116180419922, "count_pixels": 42, "percent_cover": 0.73684210526315785, "percent_above_0.1m": 85.714285714285708, "low_level_<0.5": 2.3809523809523809, "mid_level_0.5-2": 0.0, "tall_2+": 83.333333333333343 }, "geometry": { "type": "Point", "coordinates": [ -0.079055725203741, 51.502548004557823 ] } },
{ "type": "Feature", "properties": { "max_height": 0.12750005722045898, "mean_height": 0.017464468255639076, "std_height": 0.033467900007963181, "count_pixels": 42, "percent_cover": 0.73684210526315785, "percent_above_0.1m": 4.7619047619047619, "low_level_<0.5": 0.0, "mid_level_0.5-2": 0.0, "tall_2+": 0.0 }, "geometry": { "type": "Point", "coordinates": [ -0.078856205106524, 51.502544734029712 ] } },
{ "type": "Feature", "properties": { "max_height": 3.7732508182525635, "mean_height": 0.41907161474227905, "std_height": 0.81163173913955688, "count_pixels": 42, "percent_cover": 0.73684210526315785, "percent_above_0.1m": 38.095238095238095, "low_level_<0.5": 11.904761904761903, "mid_level_0.5-2": 16.666666666666664, "tall_2+": 7.1428571428571423 }, "geometry": { "type": "Point", "coordinates": [ -0.0786566850472, 51.502541463162842 ] } },
{ "type": "Feature", "properties": { "max_height": 26.839250564575195, "mean_height": 14.717781066894531, "std_height": 8.7080821990966797, "count_pixels": 42, "percent_cover": 0.73684210526315785, "percent_above_0.1m": 90.476190476190482, "low_level_<0.5": 0.0, "mid_level_0.5-2": 4.7619047619047619, "tall_2+": 83.333333333333343 }, "geometry": { "type": "Point", "coordinates": [ -0.078457165025779, 51.502538191957235 ] } },
{ "type": "Feature", "properties": { "max_height": 24.468502044677734, "mean_height": 14.978307723999023, "std_height": 6.8778567314147949, "count_pixels": 40, "percent_cover": 0.70175438596491224, "percent_above_0.1m": 97.5, "low_level_<0.5": 2.5, "mid_level_0.5-2": 5.0, "tall_2+": 90.0 }, "geometry": { "type": "Point", "coordinates": [ -0.078257645042261, 51.502534920412877 ] } },
{ "type": "Feature", "properties": { "max_height": 11.893750190734863, "mean_height": 2.5858254432678223, "std_height": 3.7825822830200195, "count_pixels": 40, "percent_cover": 0.70175438596491224, "percent_above_0.1m": 62.5, "low_level_<0.5": 5.0, "mid_level_0.5-2": 12.5, "tall_2+": 37.5 }, "geometry": { "type": "Point", "coordinates": [ -0.079150948461604, 51.502657478227384 ] } },
{ "type": "Feature", "properties": { "max_height": 12.743500709533691, "mean_height": 1.0388989448547363, "std_height": 2.8517529964447021, "count_pixels": 42, "percent_cover": 0.73684210526315785, "percent_above_0.1m": 21.428571428571427, "low_level_<0.5": 4.7619047619047619, "mid_level_0.5-2": 4.7619047619047619, "tall_2+": 11.904761904761903 }, "geometry": { "type": "Point", "coordinates": [ -0.078951427870639, 51.502654207847698 ] } },
{ "type": "Feature", "properties": { "max_height": 13.196001052856445, "mean_height": 1.4062798023223877, "std_height": 3.2555508613586426, "count_pixels": 42, "percent_cover": 0.73684210526315785, "percent_above_0.1m": 35.714285714285715, "low_level_<0.5": 11.904761904761903, "mid_level_0.5-2": 7.1428571428571423, "tall_2+": 16.666666666666664 }, "geometry": { "type": "Point", "coordinates": [ -0.0785523868024, 51.50264766607205 ] } },
{ "type": "Feature", "properties": { "max_height": 25.213752746582031, "mean_height": 16.424619674682617, "std_height": 6.7375359535217285, "count_pixels": 42, "percent_cover": 0.73684210526315785, "percent_above_0.1m": 97.61904761904762, "low_level_<0.5": 0.0, "mid_level_0.5-2": 0.0, "tall_2+": 97.61904761904762 }, "geometry": { "type": "Point", "coordinates": [ -0.078352866325131, 51.502644394676111 ] } }
]
}
