{
"type": "FeatureCollection",
"name": "2e5d5a737206_foliage",
"crs": { "type": "name", "properties": { "name": "urn:ogc:def:crs:OGC:1.3:CRS84" } },
"features": [
{ "type": "Feature", "properties": { "max_height": 9.4737548828125, "mean_height": 3.6928350925445557, "std_height": 3.982388973236084, "count_pixels": 42, "percent_cover": 0.33018867924528306, "percent_above_0.1m": 57.142857142857139, "low_level_<0.5": 2.3809523809523809, "mid_level_0.5-2": 7.1428571428571423, "tall_2+": 47.619047619047613 }, "geometry": { "type": "Point", "coordinates": [ 0.021902029335009, 51.578645456926168 ] } },
{ "type": "Feature", "properties": { "max_height": 13.725753784179688, "mean_height": 7.459251880645752, "std_height": 2.8886902332305908, "count_pixels": 43, "percent_cover": 0.33805031446540884, "percent_above_0.1m": 100.0, "low_level_<0.5": 0.0, "mid_level_0.5-2": 4.6511627906976747, "tall_2+": 95.348837209302332 }, "geometry": { "type": "Point", "coordinates": [ 0.022101862103589, 51.578642010492317 ] } },
{ "type": "Feature", "properties": { "max_height": 14.20574951171875, "mean_height": 7.6497635841369629, "std_height": 3.7790038585662842, "count_pixels": 42, "percent_cover": 0.33018867924528306, "percent_above_0.1m": 100.0, "low_level_<0.5": 0.0, "mid_level_0.5-2": 9.5238095238095237, "tall_2+": 90.476190476190482 }, "geometry": { "type": "Point", "coordinates": [ 0.022301694831631, 51.578638563717831 ] } },
{ "type": "Feature", "properties": { "max_height": 13.025503158569336, "mean_height": 5.4486074447631836, "std_height": 3.6358747482299805, "count_pixels": 38, "percent_cover": 0.29874213836477992, "percent_above_0.1m": 100.0, "low_level_<0.5": 0.0, "mid_level_0.5-2": 21.052631578947366, "tall_2+": 78.94736842105263 }, "geometry": { "type": "Point", "coordinates": [ 0.022501527519142, 51.57863511660274 ] } },
{ "type": "Feature", "properties": { "max_height": 7.4007530212402344, "mean_height": 2.4045312404632568, "std_height": 2.146822452545166, "count_pixels": 42, "percent_cover": 0.33018867924528306, "percent_above_0.1m": 90.476190476190482, "low_level_<0.5": 9.5238095238095237, "mid_level_0.5-2": 35.714285714285715, "tall_2+": 42.857142857142854 }, "geometry": { "type": "Point", "coordinates": [ 0.022701360166111, 51.578631669146993 ] } },
{ "type": "Feature", "properties": { "max_height": 6.5572509765625, "mean_height": 1.0264774560928345, "std_height": 1.6010178327560425, "count_pixels": 42, "percent_cover": 0.33018867924528306, "percent_above_0.1m": 57.142857142857139, "low_level_<0.5": 9.5238095238095237, "mid_level_0.5-2": 23.809523809523807, "tall_2+": 19.047619047619047 }, "geometry": { "type": "Point", "coordinates": [ 0.021806893760136, 51.578755006461648 ] } },
{ "type": "Feature", "properties": { "max_height": 15.767501831054688, "mean_height": 10.051234245300293, "std_height": 3.9737935066223145, "count_pixels": 41, "percent_cover": 0.32232704402515727, "percent_above_0.1m": 100.0, "low_level_<0.5": 0.0, "mid_level_0.5-2": 4.8780487804878048, "tall_2+": 95.121951219512198 }, "geometry": { "type": "Point", "coordinates": [ 0.022006727033635, 51.578751560193247 ] } },
{ "type": "Feature", "properties": { "max_height": 16.257001876831055, "mean_height": 12.643520355224609, "std_height": 2.2406377792358398, "count_pixels": 41, "percent_cover": 0.32232704402515727, "percent_above_0.1m": 100.0, "low_level_<0.5": 0.0, "mid_level_0.5-2": 0.0, "tall_2+": 100.0 }, "geometry": { "type": "Point", "coordinates": [ 0.022206560266612, 51.57874811358419 ] } },
{ "type": "Feature", "properties": { "max_height": 17.169002532958984, "mean_height": 9.1206502914428711, "std_height": 4.5169920921325684, "count_pixels": 42, "percent_cover": 0.33018867924528306, "percent_above_0.1m": 97.61904761904762, "low_level_<0.5": 0.0, "mid_level_0.5-2": 4.7619047619047619, "tall_2+": 92.857142857142861 }, "geometry": { "type": "Point", "coordinates": [ 0.022406393459045, 51.578744666634513 ] } },
{ "type": "Feature", "properties": { "max_height": 13.933502197265625, "mean_height": 4.9762930870056152, "std_height": 3.997469425201416, "count_pixels": 42, "percent_cover": 0.33018867924528306, "percent_above_0.1m": 97.61904761904762, "low_level_<0.5": 4.7619047619047619, "mid_level_0.5-2": 26.190476190476193, "tall_2+": 66.666666666666657 }, "geometry": { "type": "Point", "coordinates": [ 0.022606226610947, 51.578741219344217 ] } },
{ "type": "Feature", "properties": { "max_height": 2.8682498931884766, "mean_height": 0.725178062915802, "std_height": 0.73336344957351685, "count_pixels": 41, "percent_cover": 0.32232704402515727, "percent_above_0.1m": 78.048780487804876, "low_level_<0.5": 24.390243902439025, "mid_level_0.5-2": 39.024390243902438, "tall_2+": 9.7560975609756095 }, "geometry": { "type": "Point", "coordinates": [ 0.022806059722306, 51.578737771713264 ] } },
{ "type": "Feature", "properties": { "max_height": 13.238250732421875, "mean_height": 4.9650135040283203, "std_height": 3.6169309616088867, "count_pixels": 42, "percent_cover": 0.33018867924528306, "percent_above_0.1m": 88.095238095238088, "low_level_<0.5": 2.3809523809523809, "mid_level_0.5-2": 7.1428571428571423, "tall_2+": 78.571428571428569 }, "geometry": { "type": "Point", "coordinates": [ 0.021911591499314, 51.578861109811974 ] } },
{ "type": "Feature", "properties": { "max_height": 15.824501037597656, "mean_height": 10.748391151428223, "std_height": 2.5090556144714355, "count_pixels": 43, "percent_cover": 0.33805031446540884, "percent_above_0.1m": 100.0, "low_level_<0.5": 0.0, "mid_level_0.5-2": 0.0, "tall_2+": 100.0 }, "geometry": { "type": "Point", "coordinates": [ 0.022111425237213, 51.578857663368382 ] } },
{ "type": "Feature", "properties": { "max_height": 12.221752166748047, "mean_height": 6.892341136932373, "std_height": 3.2635433673858643, "count_pixels": 42, "percent_cover": 0.33018867924528306, "percent_above_0.1m": 100.0, "low_level_<0.5": 2.3809523809523809, "mid_level_0.5-2": 7.1428571428571423, "tall_2+": 90.476190476190482 }, "geometry": { "type": "Point", "coordinates": [ 0.02231125893458, 51.578854216584126 ] } },
{ "type": "Feature", "properties": { "max_height": 14.354249954223633, "mean_height": 7.5663161277770996, "std_height": 3.6381406784057617, "count_pixels": 38, "percent_cover": 0.29874213836477992, "percent_above_0.1m": 100.0, "low_level_<0.5": 0.0, "mid_level_0.5-2": 10.526315789473683, "tall_2+": 89.473684210526315 }, "geometry": { "type": "Point", "coordinates": [ 0.022511092591412, 51.578850769459237 ] } },
{ "type": "Feature", "properties": { "max_height": 14.184001922607422, "mean_height": 8.101954460144043, "std_height": 5.1673426628112793, "count_pixels": 42, "percent_cover": 0.33018867924528306, "percent_above_0.1m": 95.238095238095227, "low_level_<0.5": 9.5238095238095237, "mid_level_0.5-2": 4.7619047619047619, "tall_2+": 76.19047619047619 }, "geometry": { "type": "Point", "coordinates": [ 0.022710926207709, 51.57884732199372 ] } },
{ "type": "Feature", "properties": { "max_height": 15.60400390625, "mean_height": 5.0342812538146973, "std_height": 4.6767325401306152, "count_pixels": 42, "percent_cover": 0.33018867924528306, "percent_above_0.1m": 85.714285714285708, "low_level_<0.5": 11.904761904761903, "mid_level_0.5-2": 14.285714285714285, "tall_2+": 59.523809523809526 }, "geometry": { "type": "Point", "coordinates": [ 0.022910759783456, 51.578843874187577 ] } },
{ "type": "Feature", "properties": { "max_height": 3.1600017547607422, "mean_height": 0.83322179317474365, "std_height": 0.9387853741645813, "count_pixels": 42, "percent_cover": 0.33018867924528306, "percent_above_0.1m": 69.047619047619051, "low_level_<0.5": 11.904761904761903, "mid_level_0.5-2": 40.476190476190474, "tall_2+": 11.904761904761903 }, "geometry": { "type": "Point", "coordinates": [ 0.023110593318656, 51.578840426040777 ] } },
{ "type": "Feature", "properties": { "max_height": 3.1082515716552734, "mean_height": 0.4806857705116272, "std_height": 0.8170769214630127, "count_pixels": 42, "percent_cover": 0.33018867924528306, "percent_above_0.1m": 40.476190476190474, "low_level_<0.5": 11.904761904761903, "mid_level_0.5-2": 19.047619047619047, "tall_2+": 9.5238095238095237 }, "geometry": { "type": "Point", "coordinates": [ 0.023310426813309, 51.578836977553358 ] } },
{ "type": "Feature", "properties": { "max_height": 9.5252513885498047, "mean_height": 6.1623854637145996, "std_height": 3.1029579639434814, "count_pixels": 41, "percent_cover": 0.32232704402515727, "percent_above_0.1m": 87.804878048780495, "low_level_<0.5": 0.0, "mid_level_0.5-2": 2.4390243902439024, "tall_2+": 85.365853658536579 }, "geometry": { "type": "Point", "coordinates": [ 0.023510260267403, 51.578833528725298 ] } },
{ "type": "Feature", "properties": { "max_height": 11.228250503540039, "mean_height": 6.1148109436035156, "std_height": 4.2868466377258301, "count_pixels": 42, "percent_cover": 0.33018867924528306, "percent_above_0.1m": 76.19047619047619, "low_level_<0.5": 4.7619047619047619, "mid_level_0.5-2": 0.0, "tall_2+": 71.428571428571431 }, "geometry": { "type": "Point", "coordinates": [ 0.023909927053907, 51.578826630047274 ] } },
{ "type": "Feature", "properties": { "max_height": 8.3165016174316406, "mean_height": 0.93097758293151855, "std_height": 1.87743079662323, "count_pixels": 42, "percent_cover": 0.33018867924528306, "percent_above_0.1m": 30.952380952380953, "low_level_<0.5": 4.7619047619047619, "mid_level_0.5-2": 4.7619047619047619, "tall_2+": 19.047619047619047 }, "geometry": { "type": "Point", "coordinates": [ 0.02181645550061, 51.578970659348549 ] } },
{ "type": "Feature", "properties": { "max_height": 14.1197509765625, "mean_height": 6.1694278717041016, "std_height": 3.4810199737548828, "count_pixels": 41, "percent_cover": 0.32232704402515727, "percent_above_0.1m": 100.0, "low_level_<0.5": 2.4390243902439024, "mid_level_0.5-2": 12.195121951219512, "tall_2+": 85.365853658536579 }, "geometry": { "type": "Point", "coordinates": [ 0.022016289743439, 51.578967213070371 ] } },
{ "type": "Feature", "properties": { "max_height": 17.431501388549805, "mean_height": 13.447813034057617, "std_height": 2.6967875957489014, "count_pixels": 41, "percent_cover": 0.32232704402515727, "percent_above_0.1m": 100.0, "low_level_<0.5": 0.0, "mid_level_0.5-2": 0.0, "tall_2+": 100.0 }, "geometry": { "type": "Point", "coordinates": [ 0.022216123945742, 51.578963766451572 ] } },
{ "type": "Feature", "properties": { "max_height": 16.557498931884766, "mean_height": 10.437156677246094, "std_height": 3.5635180473327637, "count_pixels": 42, "percent_cover": 0.33018867924528306, "percent_above_0.1m": 100.0, "low_level_<0.5": 0.0, "mid_level_0.5-2": 4.7619047619047619, "tall_2+": 95.238095238095227 }, "geometry": { "type": "Point", "coordinates": [ 0.022415958107509, 51.578960319492118 ] } },
{ "type": "Feature", "properties": { "max_height": 14.156002044677734, "mean_height": 10.941792488098145, "std_height": 1.8139107227325439, "count_pixels": 42, "percent_cover": 0.33018867924528306, "percent_above_0.1m": 100.0, "low_level_<0.5": 0.0, "mid_level_0.5-2": 0.0, "tall_2+": 100.0 }, "geometry": { "type": "Point", "coordinates": [ 0.022615792228737, 51.57895687219203 ] } },
{ "type": "Feature", "properties": { "max_height": 17.949502944946289, "mean_height": 14.61186408996582, "std_height": 1.7679020166397095, "count_pixels": 41, "percent_cover": 0.32232704402515727, "percent_above_0.1m": 100.0, "low_level_<0.5": 0.0, "mid_level_0.5-2": 0.0, "tall_2+": 100.0 }, "geometry": { "type": "Point", "coordinates": [ 0.022815626309424, 51.578953424551301 ] } },
{ "type": "Feature", "properties": { "max_height": 14.790252685546875, "mean_height": 7.6979479789733887, "std_height": 4.2803802490234375, "count_pixels": 42, "percent_cover": 0.33018867924528306, "percent_above_0.1m": 100.0, "low_level_<0.5": 0.0, "mid_level_0.5-2": 9.5238095238095237, "tall_2+": 90.476190476190482 }, "geometry": { "type": "Point", "coordinates": [ 0.023015460349565, 51.57894997656993 ] } },
{ "type": "Feature", "properties": { "max_height": 15.941249847412109, "mean_height": 9.4684247970581055, "std_height": 4.3813133239746094, "count_pixels": 42, "percent_cover": 0.33018867924528306, "percent_above_0.1m": 100.0, "low_level_<0.5": 2.3809523809523809, "mid_level_0.5-2": 7.1428571428571423, "tall_2+": 90.476190476190482 }, "geometry": { "type": "Point", "coordinates": [ 0.023215294349156, 51.578946528247954 ] } },
{ "type": "Feature", "properties": { "max_height": 10.348751068115234, "mean_height": 4.8299655914306641, "std_height": 2.4270317554473877, "count_pixels": 42, "percent_cover": 0.33018867924528306, "percent_above_0.1m": 100.0, "low_level_<0.5": 2.3809523809523809, "mid_level_0.5-2": 7.1428571428571423, "tall_2+": 90.476190476190482 }, "geometry": { "type": "Point", "coordinates": [ 0.023415128308195, 51.578943079585301 ] } },
{ "type": "Feature", "properties": { "max_height": 11.546501159667969, "mean_height": 3.8729121685028076, "std_height": 3.3157799243927002, "count_pixels": 42, "percent_cover": 0.33018867924528306, "percent_above_0.1m": 78.571428571428569, "low_level_<0.5": 2.3809523809523809, "mid_level_0.5-2": 11.904761904761903, "tall_2+": 64.285714285714292 }, "geometry": { "type": "Point", "coordinates": [ 0.02361496222667, 51.578939630582035 ] } },
{ "type": "Feature", "properties": { "max_height": 11.644502639770508, "mean_height": 3.0378363132476807, "std_height": 3.4694356918334961, "count_pixels": 38, "percent_cover": 0.29874213836477992, "percent_above_0.1m": 60.526315789473685, "low_level_<0.5": 2.6315789473684208, "mid_level_0.5-2": 7.8947368421052628, "tall_2+": 50.0 }, "geometry": { "type": "Point", "coordinates": [ 0.023814796104585, 51.578936181238106 ] } },
{ "type": "Feature", "properties": { "max_height": 12.264751434326172, "mean_height": 5.6452035903930664, "std_height": 4.6690545082092285, "count_pixels": 42, "percent_cover": 0.33018867924528306, "percent_above_0.1m": 76.19047619047619, "low_level_<0.5": 2.3809523809523809, "mid_level_0.5-2": 9.5238095238095237, "tall_2+": 61.904761904761905 }, "geometry": { "type": "Point", "coordinates": [ 0.024014629941939, 51.578932731553564 ] } },
{ "type": "Feature", "properties": { "max_height": 10.842752456665039, "mean_height": 2.6401557922363281, "std_height": 3.17840576171875, "count_pixels": 42, "percent_cover": 0.33018867924528306, "percent_above_0.1m": 57.142857142857139, "low_level_<0.5": 0.0, "mid_level_0.5-2": 7.1428571428571423, "tall_2+": 50.0 }, "geometry": { "type": "Point", "coordinates": [ 0.021921153785288, 51.579076762690192 ] } },
{ "type": "Feature", "properties": { "max_height": 17.351499557495117, "mean_height": 12.038187980651855, "std_height": 3.4902479648590088, "count_pixels": 43, "percent_cover": 0.33805031446540884, "percent_above_0.1m": 100.0, "low_level_<0.5": 0.0, "mid_level_0.5-2": 2.3255813953488373, "tall_2+": 97.674418604651152 }, "geometry": { "type": "Point", "coordinates": [ 0.022120988492523, 51.579073316236808 ] } },
{ "type": "Feature", "properties": { "max_height": 17.548252105712891, "mean_height": 11.919328689575195, "std_height": 4.2780647277832031, "count_pixels": 42, "percent_cover": 0.33018867924528306, "percent_above_0.1m": 100.0, "low_level_<0.5": 0.0, "mid_level_0.5-2": 0.0, "tall_2+": 100.0 }, "geometry": { "type": "Point", "coordinates": [ 0.022320823159225, 51.579069869442797 ] } },
{ "type": "Feature", "properties": { "max_height": 16.306751251220703, "mean_height": 12.031667709350586, "std_height": 2.4733855724334717, "count_pixels": 38, "percent_cover": 0.29874213836477992, "percent_above_0.1m": 100.0, "low_level_<0.5": 0.0, "mid_level_0.5-2": 0.0, "tall_2+": 100.0 }, "geometry": { "type": "Point", "coordinates": [ 0.022520657785395, 51.579066422308152 ] } },
{ "type": "Feature", "properties": { "max_height": 16.340251922607422, "mean_height": 8.3996982574462891, "std_height": 3.3675203323364258, "count_pixels": 42, "percent_cover": 0.33018867924528306, "percent_above_0.1m": 100.0, "low_level_<0.5": 2.3809523809523809, "mid_level_0.5-2": 2.3809523809523809, "tall_2+": 95.238095238095227 }, "geometry": { "type": "Point", "coordinates": [ 0.022720492371022, 51.579062974832851 ] } },
{ "type": "Feature", "properties": { "max_height": 15.605503082275391, "mean_height": 9.5241622924804688, "std_height": 2.8190896511077881, "count_pixels": 42, "percent_cover": 0.33018867924528306, "percent_above_0.1m": 100.0, "low_level_<0.5": 0.0, "mid_level_0.5-2": 0.0, "tall_2+": 100.0 }, "geometry": { "type": "Point", "coordinates": [ 0.022920326916104, 51.579059527016916 ] } },
{ "type": "Feature", "properties": { "max_height": 15.780002593994141, "mean_height": 7.7696924209594727, "std_height": 3.2888424396514893, "count_pixels": 42, "percent_cover": 0.33018867924528306, "percent_above_0.1m": 97.61904761904762, "low_level_<0.5": 0.0, "mid_level_0.5-2": 2.3809523809523809, "tall_2+": 95.238095238095227 }, "geometry": { "type": "Point", "coordinates": [ 0.023120161420635, 51.579056078860333 ] } },
{ "type": "Feature", "properties": { "max_height": 16.100254058837891, "mean_height": 8.8952579498291016, "std_height": 3.8981606960296631, "count_pixels": 42, "percent_cover": 0.33018867924528306, "percent_above_0.1m": 100.0, "low_level_<0.5": 0.0, "mid_level_0.5-2": 2.3809523809523809, "tall_2+": 97.61904761904762 }, "geometry": { "type": "Point", "coordinates": [ 0.023319995884617, 51.579052630363144 ] } },
{ "type": "Feature", "properties": { "max_height": 17.155254364013672, "mean_height": 12.421483993530273, "std_height": 3.1143398284912109, "count_pixels": 41, "percent_cover": 0.32232704402515727, "percent_above_0.1m": 100.0, "low_level_<0.5": 0.0, "mid_level_0.5-2": 0.0, "tall_2+": 100.0 }, "geometry": { "type": "Point", "coordinates": [ 0.023519830308046, 51.579049181525299 ] } },
{ "type": "Feature", "properties": { "max_height": 14.773002624511719, "mean_height": 6.234947681427002, "std_height": 4.0485997200012207, "count_pixels": 42, "percent_cover": 0.33018867924528306, "percent_above_0.1m": 92.857142857142861, "low_level_<0.5": 0.0, "mid_level_0.5-2": 9.5238095238095237, "tall_2+": 83.333333333333343 }, "geometry": { "type": "Point", "coordinates": [ 0.023719664690906, 51.579045732346799 ] } },
{ "type": "Feature", "properties": { "max_height": 19.952001571655273, "mean_height": 9.223841667175293, "std_height": 5.8768701553344727, "count_pixels": 42, "percent_cover": 0.33018867924528306, "percent_above_0.1m": 88.095238095238088, "low_level_<0.5": 0.0, "mid_level_0.5-2": 4.7619047619047619, "tall_2+": 83.333333333333343 }, "geometry": { "type": "Point", "coordinates": [ 0.02391949903321, 51.579042282827672 ] } },
{ "type": "Feature", "properties": { "max_height": 9.0665016174316406, "mean_height": 0.68084651231765747, "std_height": 1.8738362789154053, "count_pixels": 42, "percent_cover": 0.33018867924528306, "percent_above_0.1m": 19.047619047619047, "low_level_<0.5": 4.7619047619047619, "mid_level_0.5-2": 0.0, "tall_2+": 14.285714285714285 }, "geometry": { "type": "Point", "coordinates": [ 0.024119333334937, 51.579038832967903 ] } },
{ "type": "Feature", "properties": { "max_height": 7.3415031433105469, "mean_height": 0.61384886503219604, "std_height": 1.4802447557449341, "count_pixels": 41, "percent_cover": 0.32232704402515727, "percent_above_0.1m": 31.707317073170731, "low_level_<0.5": 12.195121951219512, "mid_level_0.5-2": 12.195121951219512, "tall_2+": 7.3170731707317067 }, "geometry": { "type": "Point", "coordinates": [ 0.024319167596101, 51.579035382767501 ] } },
{ "type": "Feature", "properties": { "max_height": 17.406002044677734, "mean_height": 7.7197027206420898, "std_height": 5.364532470703125, "count_pixels": 41, "percent_cover": 0.32232704402515727, "percent_above_0.1m": 85.365853658536579, "low_level_<0.5": 0.0, "mid_level_0.5-2": 4.8780487804878048, "tall_2+": 80.487804878048792 }, "geometry": { "type": "Point", "coordinates": [ 0.022025852574924, 51.579182865939899 ] } },
{ "type": "Feature", "properties": { "max_height": 15.49675178527832, "mean_height": 7.4643611907958984, "std_height": 4.4545140266418457, "count_pixels": 41, "percent_cover": 0.32232704402515727, "percent_above_0.1m": 97.560975609756099, "low_level_<0.5": 0.0, "mid_level_0.5-2": 12.195121951219512, "tall_2+": 85.365853658536579 }, "geometry": { "type": "Point", "coordinates": [ 0.022225687746566, 51.579179419311323 ] } },
{ "type": "Feature", "properties": { "max_height": 15.164501190185547, "mean_height": 7.7713232040405273, "std_height": 3.6249234676361084, "count_pixels": 42, "percent_cover": 0.33018867924528306, "percent_above_0.1m": 97.61904761904762, "low_level_<0.5": 2.3809523809523809, "mid_level_0.5-2": 2.3809523809523809, "tall_2+": 92.857142857142861 }, "geometry": { "type": "Point", "coordinates": [ 0.022425522877673, 51.579175972342107 ] } },
{ "type": "Feature", "properties": { "max_height": 14.843254089355469, "mean_height": 6.8160190582275391, "std_height": 3.4558098316192627, "count_pixels": 42, "percent_cover": 0.33018867924528306, "percent_above_0.1m": 100.0, "low_level_<0.5": 2.3809523809523809, "mid_level_0.5-2": 4.7619047619047619, "tall_2+": 90.476190476190482 }, "geometry": { "type": "Point", "coordinates": [ 0.022625357968242, 51.579172525032234 ] } },
{ "type": "Feature", "properties": { "max_height": 14.848751068115234, "mean_height": 7.0834403038024902, "std_height": 3.431232213973999, "count_pixels": 41, "percent_cover": 0.32232704402515727, "percent_above_0.1m": 100.0, "low_level_<0.5": 0.0, "mid_level_0.5-2": 0.0, "tall_2+": 100.0 }, "geometry": { "type": "Point", "coordinates": [ 0.022825193018269, 51.579169077381728 ] } },
{ "type": "Feature", "properties": { "max_height": 16.073501586914062, "mean_height": 3.4994001388549805, "std_height": 4.1414356231689453, "count_pixels": 42, "percent_cover": 0.33018867924528306, "percent_above_0.1m": 66.666666666666657, "low_level_<0.5": 4.7619047619047619, "mid_level_0.5-2": 11.904761904761903, "tall_2+": 50.0 }, "geometry": { "type": "Point", "coordinates": [ 0.023025028027748, 51.579165629390594 ] } },
{ "type": "Feature", "properties": { "max_height": 20.15925407409668, "mean_height": 10.709680557250977, "std_height": 3.5632390975952148, "count_pixels": 42, "percent_cover": 0.33018867924528306, "percent_above_0.1m": 100.0, "low_level_<0.5": 0.0, "mid_level_0.5-2": 0.0, "tall_2+": 100.0 }, "geometry": { "type": "Point", "coordinates": [ 0.023224862996675, 51.579162181058813 ] } },
{ "type": "Feature", "properties": { "max_height": 16.244752883911133, "mean_height": 8.73565673828125, "std_height": 3.6306498050689697, "count_pixels": 42, "percent_cover": 0.33018867924528306, "percent_above_0.1m": 100.0, "low_level_<0.5": 0.0, "mid_level_0.5-2": 7.1428571428571423, "tall_2+": 92.857142857142861 }, "geometry": { "type": "Point", "coordinates": [ 0.02342469792505, 51.579158732386389 ] } },
{ "type": "Feature", "properties": { "max_height": 11.728252410888672, "mean_height": 3.7865376472473145, "std_height": 3.2392792701721191, "count_pixels": 42, "percent_cover": 0.33018867924528306, "percent_above_0.1m": 90.476190476190482, "low_level_<0.5": 7.1428571428571423, "mid_level_0.5-2": 16.666666666666664, "tall_2+": 64.285714285714292 }, "geometry": { "type": "Point", "coordinates": [ 0.023624532812867, 51.579155283373318 ] } },
{ "type": "Feature", "properties": { "max_height": 17.695749282836914, "mean_height": 10.708494186401367, "std_height": 4.0523557662963867, "count_pixels": 38, "percent_cover": 0.29874213836477992, "percent_above_0.1m": 100.0, "low_level_<0.5": 0.0, "mid_level_0.5-2": 0.0, "tall_2+": 100.0 }, "geometry": { "type": "Point", "coordinates": [ 0.023824367660116, 51.579151834019619 ] } },
{ "type": "Feature", "properties": { "max_height": 13.766002655029297, "mean_height": 3.5687692165374756, "std_height": 4.3028049468994141, "count_pixels": 42, "percent_cover": 0.33018867924528306, "percent_above_0.1m": 54.761904761904766, "low_level_<0.5": 2.3809523809523809, "mid_level_0.5-2": 4.7619047619047619, "tall_2+": 47.619047619047613 }, "geometry": { "type": "Point", "coordinates": [ 0.024024202466804, 51.579148384325286 ] } },
{ "type": "Feature", "properties": { "max_height": 0.021251678466796875, "mean_height": 0.003608431201428175, "std_height": 0.0064412602223455906, "count_pixels": 42, "percent_cover": 0.33018867924528306, "percent_above_0.1m": 0.0, "low_level_<0.5": 0.0, "mid_level_0.5-2": 0.0, "tall_2+": 0.0 }, "geometry": { "type": "Point", "coordinates": [ 0.024224037232919, 51.579144934290291 ] } },
{ "type": "Feature", "properties": { "max_height": 0.023502349853515625, "mean_height": 0.0045905341394245625, "std_height": 0.0059698531404137611, "count_pixels": 42, "percent_cover": 0.33018867924528306, "percent_above_0.1m": 0.0, "low_level_<0.5": 0.0, "mid_level_0.5-2": 0.0, "tall_2+": 0.0 }, "geometry": { "type": "Point", "coordinates": [ 0.024423871958459, 51.579141483914675 ] } },
{ "type": "Feature", "properties": { "max_height": 9.5527496337890625, "mean_height": 1.6781797409057617, "std_height": 2.6160635948181152, "count_pixels": 42, "percent_cover": 0.33018867924528306, "percent_above_0.1m": 59.523809523809526, "low_level_<0.5": 11.904761904761903, "mid_level_0.5-2": 23.809523809523807, "tall_2+": 23.809523809523807 }, "geometry": { "type": "Point", "coordinates": [ 0.02462370664342, 51.579138033198412 ] } },
{ "type": "Feature", "properties": { "max_height": 5.0972518920898438, "mean_height": 0.24152500927448273, "std_height": 0.87829011678695679, "count_pixels": 42, "percent_cover": 0.33018867924528306, "percent_above_0.1m": 11.904761904761903, "low_level_<0.5": 0.0, "mid_level_0.5-2": 7.1428571428571423, "tall_2+": 4.7619047619047619 }, "geometry": { "type": "Point", "coordinates": [ 0.021930716192937, 51.579292415560808 ] } },
{ "type": "Feature", "properties": { "max_height": 14.727752685546875, "mean_height": 5.6906466484069824, "std_height": 4.2024450302124023, "count_pixels": 43, "percent_cover": 0.33805031446540884, "percent_above_0.1m": 90.697674418604649, "low_level_<0.5": 2.3255813953488373, "mid_level_0.5-2": 11.627906976744185, "tall_2+": 76.744186046511629 }, "geometry": { "type": "Point", "coordinates": [ 0.02213055186952, 51.579288969097654 ] } },
{ "type": "Feature", "properties": { "max_height": 13.073751449584961, "mean_height": 7.9657464027404785, "std_height": 3.2206156253814697, "count_pixels": 42, "percent_cover": 0.33018867924528306, "percent_above_0.1m": 100.0, "low_level_<0.5": 2.3809523809523809, "mid_level_0.5-2": 0.0, "tall_2+": 97.61904761904762 }, "geometry": { "type": "Point", "coordinates": [ 0.022330387505572, 51.579285522293887 ] } },
{ "type": "Feature", "properties": { "max_height": 14.513504028320312, "mean_height": 11.292383193969727, "std_height": 2.4084641933441162, "count_pixels": 38, "percent_cover": 0.29874213836477992, "percent_above_0.1m": 100.0, "low_level_<0.5": 0.0, "mid_level_0.5-2": 0.0, "tall_2+": 100.0 }, "geometry": { "type": "Point", "coordinates": [ 0.022530223101084, 51.579282075149436 ] } },
{ "type": "Feature", "properties": { "max_height": 13.259502410888672, "mean_height": 7.0610256195068359, "std_height": 2.7061483860015869, "count_pixels": 42, "percent_cover": 0.33018867924528306, "percent_above_0.1m": 97.61904761904762, "low_level_<0.5": 0.0, "mid_level_0.5-2": 2.3809523809523809, "tall_2+": 95.238095238095227 }, "geometry": { "type": "Point", "coordinates": [ 0.022730058656058, 51.579278627664372 ] } },
{ "type": "Feature", "properties": { "max_height": 16.582500457763672, "mean_height": 8.7156267166137695, "std_height": 3.9007763862609863, "count_pixels": 42, "percent_cover": 0.33018867924528306, "percent_above_0.1m": 97.61904761904762, "low_level_<0.5": 0.0, "mid_level_0.5-2": 0.0, "tall_2+": 97.61904761904762 }, "geometry": { "type": "Point", "coordinates": [ 0.022929894170482, 51.579275179838667 ] } },
{ "type": "Feature", "properties": { "max_height": 17.727500915527344, "mean_height": 8.7275428771972656, "std_height": 5.145164966583252, "count_pixels": 42, "percent_cover": 0.33018867924528306, "percent_above_0.1m": 90.476190476190482, "low_level_<0.5": 2.3809523809523809, "mid_level_0.5-2": 2.3809523809523809, "tall_2+": 85.714285714285708 }, "geometry": { "type": "Point", "coordinates": [ 0.023129729644362, 51.579271731672307 ] } },
{ "type": "Feature", "properties": { "max_height": 19.886753082275391, "mean_height": 9.5723648071289062, "std_height": 4.5078802108764648, "count_pixels": 42, "percent_cover": 0.33018867924528306, "percent_above_0.1m": 100.0, "low_level_<0.5": 2.3809523809523809, "mid_level_0.5-2": 2.3809523809523809, "tall_2+": 95.238095238095227 }, "geometry": { "type": "Point", "coordinates": [ 0.023329565077687, 51.579268283165305 ] } },
{ "type": "Feature", "properties": { "max_height": 11.300750732421875, "mean_height": 6.1057085990905762, "std_height": 2.1430938243865967, "count_pixels": 41, "percent_cover": 0.32232704402515727, "percent_above_0.1m": 100.0, "low_level_<0.5": 0.0, "mid_level_0.5-2": 2.4390243902439024, "tall_2+": 97.560975609756099 }, "geometry": { "type": "Point", "coordinates": [ 0.023529400470456, 51.579264834317677 ] } },
{ "type": "Feature", "properties": { "max_height": 9.3535022735595703, "mean_height": 1.9357279539108276, "std_height": 2.9137177467346191, "count_pixels": 42, "percent_cover": 0.33018867924528306, "percent_above_0.1m": 52.380952380952387, "low_level_<0.5": 9.5238095238095237, "mid_level_0.5-2": 7.1428571428571423, "tall_2+": 30.952380952380953 }, "geometry": { "type": "Point", "coordinates": [ 0.023729235822663, 51.579261385129413 ] } },
{ "type": "Feature", "properties": { "max_height": 11.3072509765625, "mean_height": 4.6279363632202148, "std_height": 3.58219313621521, "count_pixels": 42, "percent_cover": 0.33018867924528306, "percent_above_0.1m": 83.333333333333343, "low_level_<0.5": 4.7619047619047619, "mid_level_0.5-2": 7.1428571428571423, "tall_2+": 69.047619047619051 }, "geometry": { "type": "Point", "coordinates": [ 0.023929071134305, 51.579257935600481 ] } },
{ "type": "Feature", "properties": { "max_height": 6.7690029144287109, "mean_height": 0.57850736379623413, "std_height": 1.4862068891525269, "count_pixels": 42, "percent_cover": 0.33018867924528306, "percent_above_0.1m": 16.666666666666664, "low_level_<0.5": 0.0, "mid_level_0.5-2": 4.7619047619047619, "tall_2+": 11.904761904761903 }, "geometry": { "type": "Point", "coordinates": [ 0.024128906405375, 51.579254485730935 ] } },
{ "type": "Feature", "properties": { "max_height": 12.677249908447266, "mean_height": 2.9522635936737061, "std_height": 3.872352123260498, "count_pixels": 41, "percent_cover": 0.32232704402515727, "percent_above_0.1m": 48.780487804878049, "low_level_<0.5": 0.0, "mid_level_0.5-2": 7.3170731707317067, "tall_2+": 41.463414634146339 }, "geometry": { "type": "Point", "coordinates": [ 0.024328741635878, 51.579251035520713 ] } },
{ "type": "Feature", "properties": { "max_height": 13.307750701904297, "mean_height": 3.0211977958679199, "std_height": 3.8847012519836426, "count_pixels": 42, "percent_cover": 0.33018867924528306, "percent_above_0.1m": 52.380952380952387, "low_level_<0.5": 4.7619047619047619, "mid_level_0.5-2": 7.1428571428571423, "tall_2+": 40.476190476190474 }, "geometry": { "type": "Point", "coordinates": [ 0.024528576825798, 51.579247584969877 ] } },
{ "type": "Feature", "properties": { "max_height": 5.6592521667480469, "mean_height": 0.55124521255493164, "std_height": 1.2324306964874268, "count_pixels": 41, "percent_cover": 0.32232704402515727, "percent_above_0.1m": 21.951219512195124, "low_level_<0.5": 2.4390243902439024, "mid_level_0.5-2": 9.7560975609756095, "tall_2+": 9.7560975609756095 }, "geometry": { "type": "Point", "coordinates": [ 0.022035415528087, 51.57939851880181 ] } },
{ "type": "Feature", "properties": { "max_height": 10.378000259399414, "mean_height": 3.5498425960540771, "std_height": 2.9897537231445312, "count_pixels": 41, "percent_cover": 0.32232704402515727, "percent_above_0.1m": 85.365853658536579, "low_level_<0.5": 7.3170731707317067, "mid_level_0.5-2": 21.951219512195124, "tall_2+": 56.09756097560976 }, "geometry": { "type": "Point", "coordinates": [ 0.022235251669081, 51.579395072163479 ] } },
{ "type": "Feature", "properties": { "max_height": 15.954000473022461, "mean_height": 10.25203800201416, "std_height": 2.8258953094482422, "count_pixels": 42, "percent_cover": 0.33018867924528306, "percent_above_0.1m": 100.0, "low_level_<0.5": 0.0, "mid_level_0.5-2": 0.0, "tall_2+": 100.0 }, "geometry": { "type": "Point", "coordinates": [ 0.022435087769545, 51.579391625184478 ] } },
{ "type": "Feature", "properties": { "max_height": 12.153003692626953, "mean_height": 2.9861679077148438, "std_height": 3.766923189163208, "count_pixels": 42, "percent_cover": 0.33018867924528306, "percent_above_0.1m": 64.285714285714292, "low_level_<0.5": 7.1428571428571423, "mid_level_0.5-2": 16.666666666666664, "tall_2+": 40.476190476190474 }, "geometry": { "type": "Point", "coordinates": [ 0.022634923829465, 51.579388177864828 ] } },
{ "type": "Feature", "properties": { "max_height": 11.789752960205078, "mean_height": 5.805757999420166, "std_height": 2.8678522109985352, "count_pixels": 41, "percent_cover": 0.32232704402515727, "percent_above_0.1m": 95.121951219512198, "low_level_<0.5": 0.0, "mid_level_0.5-2": 4.8780487804878048, "tall_2+": 90.243902439024396 }, "geometry": { "type": "Point", "coordinates": [ 0.02283475984884, 51.579384730204552 ] } },
{ "type": "Feature", "properties": { "max_height": 11.18950080871582, "mean_height": 1.9003645181655884, "std_height": 3.1259720325469971, "count_pixels": 42, "percent_cover": 0.33018867924528306, "percent_above_0.1m": 42.857142857142854, "low_level_<0.5": 2.3809523809523809, "mid_level_0.5-2": 11.904761904761903, "tall_2+": 28.571428571428569 }, "geometry": { "type": "Point", "coordinates": [ 0.02303459582767, 51.579381282203634 ] } },
{ "type": "Feature", "properties": { "max_height": 12.335250854492188, "mean_height": 1.5488169193267822, "std_height": 2.6688945293426514, "count_pixels": 42, "percent_cover": 0.33018867924528306, "percent_above_0.1m": 50.0, "low_level_<0.5": 9.5238095238095237, "mid_level_0.5-2": 16.666666666666664, "tall_2+": 21.428571428571427 }, "geometry": { "type": "Point", "coordinates": [ 0.023234431765951, 51.579377833862083 ] } },
{ "type": "Feature", "properties": { "max_height": 13.019752502441406, "mean_height": 5.4107518196105957, "std_height": 2.8327922821044922, "count_pixels": 42, "percent_cover": 0.33018867924528306, "percent_above_0.1m": 100.0, "low_level_<0.5": 0.0, "mid_level_0.5-2": 16.666666666666664, "tall_2+": 83.333333333333343 }, "geometry": { "type": "Point", "coordinates": [ 0.023434267663674, 51.579374385179854 ] } },
{ "type": "Feature", "properties": { "max_height": 14.630752563476562, "mean_height": 3.0717036724090576, "std_height": 4.2984228134155273, "count_pixels": 42, "percent_cover": 0.33018867924528306, "percent_above_0.1m": 73.80952380952381, "low_level_<0.5": 7.1428571428571423, "mid_level_0.5-2": 16.666666666666664, "tall_2+": 40.476190476190474 }, "geometry": { "type": "Point", "coordinates": [ 0.023634103520838, 51.579370936157012 ] } },
{ "type": "Feature", "properties": { "max_height": 8.2842521667480469, "mean_height": 1.9303433895111084, "std_height": 2.1937425136566162, "count_pixels": 38, "percent_cover": 0.29874213836477992, "percent_above_0.1m": 65.789473684210535, "low_level_<0.5": 2.6315789473684208, "mid_level_0.5-2": 23.684210526315788, "tall_2+": 39.473684210526315 }, "geometry": { "type": "Point", "coordinates": [ 0.023833939337438, 51.579367486793529 ] } },
{ "type": "Feature", "properties": { "max_height": 5.3810005187988281, "mean_height": 0.21065621078014374, "std_height": 0.87137991189956665, "count_pixels": 42, "percent_cover": 0.33018867924528306, "percent_above_0.1m": 9.5238095238095237, "low_level_<0.5": 0.0, "mid_level_0.5-2": 7.1428571428571423, "tall_2+": 2.3809523809523809 }, "geometry": { "type": "Point", "coordinates": [ 0.02403377511347, 51.579364037089384 ] } },
{ "type": "Feature", "properties": { "max_height": 0.062000274658203125, "mean_height": 0.0091738477349281311, "std_height": 0.01422431692481041, "count_pixels": 42, "percent_cover": 0.33018867924528306, "percent_above_0.1m": 0.0, "low_level_<0.5": 0.0, "mid_level_0.5-2": 0.0, "tall_2+": 0.0 }, "geometry": { "type": "Point", "coordinates": [ 0.024233610848931, 51.579360587044597 ] } },
{ "type": "Feature", "properties": { "max_height": 14.354499816894531, "mean_height": 3.1644120216369629, "std_height": 4.2188806533813477, "count_pixels": 42, "percent_cover": 0.33018867924528306, "percent_above_0.1m": 54.761904761904766, "low_level_<0.5": 7.1428571428571423, "mid_level_0.5-2": 4.7619047619047619, "tall_2+": 42.857142857142854 }, "geometry": { "type": "Point", "coordinates": [ 0.02443344654382, 51.579357136659183 ] } },
{ "type": "Feature", "properties": { "max_height": 9.5762500762939453, "mean_height": 1.5240012407302856, "std_height": 2.8361258506774902, "count_pixels": 43, "percent_cover": 0.33805031446540884, "percent_above_0.1m": 37.209302325581397, "low_level_<0.5": 2.3255813953488373, "mid_level_0.5-2": 6.9767441860465116, "tall_2+": 23.255813953488371 }, "geometry": { "type": "Point", "coordinates": [ 0.022140115368205, 51.579504621950889 ] } },
{ "type": "Feature", "properties": { "max_height": 11.607749938964844, "mean_height": 2.9113998413085938, "std_height": 2.9688525199890137, "count_pixels": 42, "percent_cover": 0.33018867924528306, "percent_above_0.1m": 71.428571428571431, "low_level_<0.5": 2.3809523809523809, "mid_level_0.5-2": 19.047619047619047, "tall_2+": 50.0 }, "geometry": { "type": "Point", "coordinates": [ 0.022339951973614, 51.579501175137324 ] } },
{ "type": "Feature", "properties": { "max_height": 14.875499725341797, "mean_height": 7.3535013198852539, "std_height": 4.4521808624267578, "count_pixels": 38, "percent_cover": 0.29874213836477992, "percent_above_0.1m": 92.10526315789474, "low_level_<0.5": 0.0, "mid_level_0.5-2": 7.8947368421052628, "tall_2+": 84.210526315789465 }, "geometry": { "type": "Point", "coordinates": [ 0.022539788538489, 51.579497727983124 ] } },
{ "type": "Feature", "properties": { "max_height": 11.723001480102539, "mean_height": 5.9050555229187012, "std_height": 3.2394466400146484, "count_pixels": 42, "percent_cover": 0.33018867924528306, "percent_above_0.1m": 100.0, "low_level_<0.5": 7.1428571428571423, "mid_level_0.5-2": 9.5238095238095237, "tall_2+": 83.333333333333343 }, "geometry": { "type": "Point", "coordinates": [ 0.022739625062814, 51.579494280488277 ] } },
{ "type": "Feature", "properties": { "max_height": 15.822504043579102, "mean_height": 8.2058343887329102, "std_height": 3.9609537124633789, "count_pixels": 42, "percent_cover": 0.33018867924528306, "percent_above_0.1m": 100.0, "low_level_<0.5": 2.3809523809523809, "mid_level_0.5-2": 0.0, "tall_2+": 97.61904761904762 }, "geometry": { "type": "Point", "coordinates": [ 0.022939461546604, 51.579490832652795 ] } },
{ "type": "Feature", "properties": { "max_height": 13.493253707885742, "mean_height": 4.0457572937011719, "std_height": 3.4719381332397461, "count_pixels": 42, "percent_cover": 0.33018867924528306, "percent_above_0.1m": 76.19047619047619, "low_level_<0.5": 0.0, "mid_level_0.5-2": 16.666666666666664, "tall_2+": 59.523809523809526 }, "geometry": { "type": "Point", "coordinates": [ 0.023139297989834, 51.57948738447665 ] } },
{ "type": "Feature", "properties": { "max_height": 17.46150016784668, "mean_height": 9.5108108520507812, "std_height": 3.6507117748260498, "count_pixels": 42, "percent_cover": 0.33018867924528306, "percent_above_0.1m": 100.0, "low_level_<0.5": 0.0, "mid_level_0.5-2": 0.0, "tall_2+": 100.0 }, "geometry": { "type": "Point", "coordinates": [ 0.023339134392515, 51.579483935959878 ] } },
{ "type": "Feature", "properties": { "max_height": 15.605253219604492, "mean_height": 6.2890872955322266, "std_height": 4.2678141593933105, "count_pixels": 41, "percent_cover": 0.32232704402515727, "percent_above_0.1m": 95.121951219512198, "low_level_<0.5": 0.0, "mid_level_0.5-2": 12.195121951219512, "tall_2+": 82.926829268292678 }, "geometry": { "type": "Point", "coordinates": [ 0.023538970754639, 51.579480487102451 ] } },
{ "type": "Feature", "properties": { "max_height": 13.790500640869141, "mean_height": 5.9039421081542969, "std_height": 4.8063993453979492, "count_pixels": 42, "percent_cover": 0.33018867924528306, "percent_above_0.1m": 78.571428571428569, "low_level_<0.5": 2.3809523809523809, "mid_level_0.5-2": 7.1428571428571423, "tall_2+": 66.666666666666657 }, "geometry": { "type": "Point", "coordinates": [ 0.0237388070762, 51.57947703790439 ] } },
{ "type": "Feature", "properties": { "max_height": 9.5232505798339844, "mean_height": 1.7874418497085571, "std_height": 2.8036346435546875, "count_pixels": 42, "percent_cover": 0.33018867924528306, "percent_above_0.1m": 42.857142857142854, "low_level_<0.5": 2.3809523809523809, "mid_level_0.5-2": 7.1428571428571423, "tall_2+": 33.333333333333329 }, "geometry": { "type": "Point", "coordinates": [ 0.023938643357197, 51.579473588365687 ] } },
{ "type": "Feature", "properties": { "max_height": 0.089000701904296875, "mean_height": 0.0052631921134889126, "std_height": 0.015214288607239723, "count_pixels": 42, "percent_cover": 0.33018867924528306, "percent_above_0.1m": 0.0, "low_level_<0.5": 0.0, "mid_level_0.5-2": 0.0, "tall_2+": 0.0 }, "geometry": { "type": "Point", "coordinates": [ 0.024138479597622, 51.579470138486315 ] } },
{ "type": "Feature", "properties": { "max_height": 1.1837501525878906, "mean_height": 0.046141508966684341, "std_height": 0.1867048442363739, "count_pixels": 41, "percent_cover": 0.32232704402515727, "percent_above_0.1m": 7.3170731707317067, "low_level_<0.5": 2.4390243902439024, "mid_level_0.5-2": 2.4390243902439024, "tall_2+": 0.0 }, "geometry": { "type": "Point", "coordinates": [ 0.024338315797474, 51.579466688266322 ] } },
{ "type": "Feature", "properties": { "max_height": 7.6115016937255859, "mean_height": 1.0230549573898315, "std_height": 1.494118332862854, "count_pixels": 42, "percent_cover": 0.33018867924528306, "percent_above_0.1m": 57.142857142857139, "low_level_<0.5": 14.285714285714285, "mid_level_0.5-2": 23.809523809523807, "tall_2+": 19.047619047619047 }, "geometry": { "type": "Point", "coordinates": [ 0.022444652783122, 51.579607278019239 ] } },
{ "type": "Feature", "properties": { "max_height": 15.091754913330078, "mean_height": 6.8504652976989746, "std_height": 4.0150365829467773, "count_pixels": 42, "percent_cover": 0.33018867924528306, "percent_above_0.1m": 100.0, "low_level_<0.5": 0.0, "mid_level_0.5-2": 19.047619047619047, "tall_2+": 80.952380952380949 }, "geometry": { "type": "Point", "coordinates": [ 0.022644489812406, 51.579603830689841 ] } },
{ "type": "Feature", "properties": { "max_height": 13.963001251220703, "mean_height": 5.9743490219116211, "std_height": 3.9564287662506104, "count_pixels": 41, "percent_cover": 0.32232704402515727, "percent_above_0.1m": 100.0, "low_level_<0.5": 7.3170731707317067, "mid_level_0.5-2": 9.7560975609756095, "tall_2+": 80.487804878048792 }, "geometry": { "type": "Point", "coordinates": [ 0.022844326801144, 51.579600383019766 ] } },
{ "type": "Feature", "properties": { "max_height": 12.831501007080078, "mean_height": 5.3633823394775391, "std_height": 3.498445987701416, "count_pixels": 42, "percent_cover": 0.33018867924528306, "percent_above_0.1m": 97.61904761904762, "low_level_<0.5": 0.0, "mid_level_0.5-2": 16.666666666666664, "tall_2+": 80.952380952380949 }, "geometry": { "type": "Point", "coordinates": [ 0.023044163749338, 51.579596935009072 ] } },
{ "type": "Feature", "properties": { "max_height": 12.250753402709961, "mean_height": 4.3201146125793457, "std_height": 3.1485433578491211, "count_pixels": 42, "percent_cover": 0.33018867924528306, "percent_above_0.1m": 92.857142857142861, "low_level_<0.5": 7.1428571428571423, "mid_level_0.5-2": 14.285714285714285, "tall_2+": 71.428571428571431 }, "geometry": { "type": "Point", "coordinates": [ 0.02324400065698, 51.579593486657721 ] } },
{ "type": "Feature", "properties": { "max_height": 16.862251281738281, "mean_height": 6.7374124526977539, "std_height": 4.2782421112060547, "count_pixels": 42, "percent_cover": 0.33018867924528306, "percent_above_0.1m": 100.0, "low_level_<0.5": 2.3809523809523809, "mid_level_0.5-2": 4.7619047619047619, "tall_2+": 92.857142857142861 }, "geometry": { "type": "Point", "coordinates": [ 0.023443837524064, 51.579590037965737 ] } },
{ "type": "Feature", "properties": { "max_height": 11.765249252319336, "mean_height": 3.3908467292785645, "std_height": 3.7145686149597168, "count_pixels": 42, "percent_cover": 0.33018867924528306, "percent_above_0.1m": 69.047619047619051, "low_level_<0.5": 4.7619047619047619, "mid_level_0.5-2": 11.904761904761903, "tall_2+": 52.380952380952387 }, "geometry": { "type": "Point", "coordinates": [ 0.023643674350587, 51.579586588933076 ] } },
{ "type": "Feature", "properties": { "max_height": 8.6717529296875, "mean_height": 1.0830273628234863, "std_height": 2.1472494602203369, "count_pixels": 38, "percent_cover": 0.29874213836477992, "percent_above_0.1m": 34.210526315789473, "low_level_<0.5": 2.6315789473684208, "mid_level_0.5-2": 13.157894736842104, "tall_2+": 18.421052631578945 }, "geometry": { "type": "Point", "coordinates": [ 0.023843511136546, 51.579583139559809 ] } },
{ "type": "Feature", "properties": { "max_height": 0.20174980163574219, "mean_height": 0.010875656269490719, "std_height": 0.030590865761041641, "count_pixels": 42, "percent_cover": 0.33018867924528306, "percent_above_0.1m": 2.3809523809523809, "low_level_<0.5": 2.3809523809523809, "mid_level_0.5-2": 0.0, "tall_2+": 0.0 }, "geometry": { "type": "Point", "coordinates": [ 0.024043347881945, 51.579579689845872 ] } },
{ "type": "Feature", "properties": { "max_height": 7.10675048828125, "mean_height": 0.87296819686889648, "std_height": 1.6242824792861938, "count_pixels": 38, "percent_cover": 0.29874213836477992, "percent_above_0.1m": 39.473684210526315, "low_level_<0.5": 5.2631578947368416, "mid_level_0.5-2": 13.157894736842104, "tall_2+": 18.421052631578945 }, "geometry": { "type": "Point", "coordinates": [ 0.022549354097601, 51.579713380809189 ] } },
{ "type": "Feature", "properties": { "max_height": 16.393999099731445, "mean_height": 6.6472806930541992, "std_height": 4.2634358406066895, "count_pixels": 42, "percent_cover": 0.33018867924528306, "percent_above_0.1m": 100.0, "low_level_<0.5": 2.3809523809523809, "mid_level_0.5-2": 16.666666666666664, "tall_2+": 80.952380952380949 }, "geometry": { "type": "Point", "coordinates": [ 0.022749191591302, 51.579709933304571 ] } },
{ "type": "Feature", "properties": { "max_height": 15.210502624511719, "mean_height": 8.3746919631958008, "std_height": 3.1107754707336426, "count_pixels": 42, "percent_cover": 0.33018867924528306, "percent_above_0.1m": 100.0, "low_level_<0.5": 0.0, "mid_level_0.5-2": 2.3809523809523809, "tall_2+": 97.61904761904762 }, "geometry": { "type": "Point", "coordinates": [ 0.022949029044458, 51.579706485459305 ] } },
{ "type": "Feature", "properties": { "max_height": 18.238254547119141, "mean_height": 11.917943000793457, "std_height": 4.7501273155212402, "count_pixels": 42, "percent_cover": 0.33018867924528306, "percent_above_0.1m": 100.0, "low_level_<0.5": 0.0, "mid_level_0.5-2": 4.7619047619047619, "tall_2+": 95.238095238095227 }, "geometry": { "type": "Point", "coordinates": [ 0.023148866457056, 51.57970303727339 ] } },
{ "type": "Feature", "properties": { "max_height": 12.914501190185547, "mean_height": 4.7595791816711426, "std_height": 4.3434309959411621, "count_pixels": 42, "percent_cover": 0.33018867924528306, "percent_above_0.1m": 83.333333333333343, "low_level_<0.5": 2.3809523809523809, "mid_level_0.5-2": 23.809523809523807, "tall_2+": 57.142857142857139 }, "geometry": { "type": "Point", "coordinates": [ 0.023348703829107, 51.579699588746834 ] } },
{ "type": "Feature", "properties": { "max_height": 13.333002090454102, "mean_height": 4.7800559997558594, "std_height": 3.6865668296813965, "count_pixels": 41, "percent_cover": 0.32232704402515727, "percent_above_0.1m": 97.560975609756099, "low_level_<0.5": 4.8780487804878048, "mid_level_0.5-2": 21.951219512195124, "tall_2+": 70.731707317073173 }, "geometry": { "type": "Point", "coordinates": [ 0.023548541160599, 51.579696139879623 ] } },
{ "type": "Feature", "properties": { "max_height": 11.897750854492188, "mean_height": 3.7814953327178955, "std_height": 3.6768295764923096, "count_pixels": 42, "percent_cover": 0.33018867924528306, "percent_above_0.1m": 80.952380952380949, "low_level_<0.5": 7.1428571428571423, "mid_level_0.5-2": 21.428571428571427, "tall_2+": 50.0 }, "geometry": { "type": "Point", "coordinates": [ 0.02374837845152, 51.579692690671763 ] } },
{ "type": "Feature", "properties": { "max_height": 2.613250732421875, "mean_height": 0.10805466026067734, "std_height": 0.41733580827713013, "count_pixels": 42, "percent_cover": 0.33018867924528306, "percent_above_0.1m": 9.5238095238095237, "low_level_<0.5": 2.3809523809523809, "mid_level_0.5-2": 4.7619047619047619, "tall_2+": 2.3809523809523809 }, "geometry": { "type": "Point", "coordinates": [ 0.023948215701888, 51.579689241123262 ] } },
{ "type": "Feature", "properties": { "max_height": 9.7392520904541016, "mean_height": 1.7954180240631104, "std_height": 2.4284758567810059, "count_pixels": 42, "percent_cover": 0.33018867924528306, "percent_above_0.1m": 57.142857142857139, "low_level_<0.5": 4.7619047619047619, "mid_level_0.5-2": 21.428571428571427, "tall_2+": 30.952380952380953 }, "geometry": { "type": "Point", "coordinates": [ 0.022654055917066, 51.579819483507194 ] } },
{ "type": "Feature", "properties": { "max_height": 18.027000427246094, "mean_height": 8.3064641952514648, "std_height": 4.7134685516357422, "count_pixels": 41, "percent_cover": 0.32232704402515727, "percent_above_0.1m": 100.0, "low_level_<0.5": 4.8780487804878048, "mid_level_0.5-2": 4.8780487804878048, "tall_2+": 90.243902439024396 }, "geometry": { "type": "Point", "coordinates": [ 0.022853893875183, 51.579816035827363 ] } },
{ "type": "Feature", "properties": { "max_height": 18.425003051757812, "mean_height": 9.752894401550293, "std_height": 5.5655322074890137, "count_pixels": 42, "percent_cover": 0.33018867924528306, "percent_above_0.1m": 97.61904761904762, "low_level_<0.5": 7.1428571428571423, "mid_level_0.5-2": 2.3809523809523809, "tall_2+": 88.095238095238088 }, "geometry": { "type": "Point", "coordinates": [ 0.023053731792748, 51.579812587806877 ] } },
{ "type": "Feature", "properties": { "max_height": 18.153251647949219, "mean_height": 10.034679412841797, "std_height": 4.9350156784057617, "count_pixels": 42, "percent_cover": 0.33018867924528306, "percent_above_0.1m": 100.0, "low_level_<0.5": 0.0, "mid_level_0.5-2": 4.7619047619047619, "tall_2+": 95.238095238095227 }, "geometry": { "type": "Point", "coordinates": [ 0.023253569669767, 51.579809139445764 ] } },
{ "type": "Feature", "properties": { "max_height": 11.027252197265625, "mean_height": 5.1748647689819336, "std_height": 3.0202798843383789, "count_pixels": 42, "percent_cover": 0.33018867924528306, "percent_above_0.1m": 92.857142857142861, "low_level_<0.5": 0.0, "mid_level_0.5-2": 4.7619047619047619, "tall_2+": 88.095238095238088 }, "geometry": { "type": "Point", "coordinates": [ 0.023453407506222, 51.579805690743967 ] } },
{ "type": "Feature", "properties": { "max_height": 12.411001205444336, "mean_height": 2.8714299201965332, "std_height": 3.3587665557861328, "count_pixels": 42, "percent_cover": 0.33018867924528306, "percent_above_0.1m": 59.523809523809526, "low_level_<0.5": 4.7619047619047619, "mid_level_0.5-2": 0.0, "tall_2+": 52.380952380952387 }, "geometry": { "type": "Point", "coordinates": [ 0.023653245302117, 51.579802241701564 ] } },
{ "type": "Feature", "properties": { "max_height": 6.2450027465820312, "mean_height": 0.6795727014541626, "std_height": 1.4671196937561035, "count_pixels": 42, "percent_cover": 0.33018867924528306, "percent_above_0.1m": 26.190476190476193, "low_level_<0.5": 0.0, "mid_level_0.5-2": 14.285714285714285, "tall_2+": 11.904761904761903 }, "geometry": { "type": "Point", "coordinates": [ 0.022758758241516, 51.579925586113255 ] } },
{ "type": "Feature", "properties": { "max_height": 9.5107498168945312, "mean_height": 2.2965011596679688, "std_height": 2.3848404884338379, "count_pixels": 42, "percent_cover": 0.33018867924528306, "percent_above_0.1m": 83.333333333333343, "low_level_<0.5": 2.3809523809523809, "mid_level_0.5-2": 35.714285714285715, "tall_2+": 40.476190476190474 }, "geometry": { "type": "Point", "coordinates": [ 0.02295859666405, 51.579922138258198 ] } },
{ "type": "Feature", "properties": { "max_height": 6.8185005187988281, "mean_height": 2.3352334499359131, "std_height": 2.161628246307373, "count_pixels": 42, "percent_cover": 0.33018867924528306, "percent_above_0.1m": 83.333333333333343, "low_level_<0.5": 4.7619047619047619, "mid_level_0.5-2": 21.428571428571427, "tall_2+": 50.0 }, "geometry": { "type": "Point", "coordinates": [ 0.023158435046032, 51.57991869006252 ] } },
{ "type": "Feature", "properties": { "max_height": 10.422500610351562, "mean_height": 4.1589956283569336, "std_height": 3.200791597366333, "count_pixels": 42, "percent_cover": 0.33018867924528306, "percent_above_0.1m": 80.952380952380949, "low_level_<0.5": 4.7619047619047619, "mid_level_0.5-2": 7.1428571428571423, "tall_2+": 69.047619047619051 }, "geometry": { "type": "Point", "coordinates": [ 0.023358273387462, 51.579915241526173 ] } },
{ "type": "Feature", "properties": { "max_height": 12.079500198364258, "mean_height": 2.6428787708282471, "std_height": 2.9433953762054443, "count_pixels": 41, "percent_cover": 0.32232704402515727, "percent_above_0.1m": 60.975609756097562, "low_level_<0.5": 0.0, "mid_level_0.5-2": 12.195121951219512, "tall_2+": 48.780487804878049 }, "geometry": { "type": "Point", "coordinates": [ 0.023558111688331, 51.579911792649163 ] } },
{ "type": "Feature", "properties": { "max_height": 2.1752510070800781, "mean_height": 0.13116547465324402, "std_height": 0.43594858050346375, "count_pixels": 41, "percent_cover": 0.32232704402515727, "percent_above_0.1m": 12.195121951219512, "low_level_<0.5": 2.4390243902439024, "mid_level_0.5-2": 7.3170731707317067, "tall_2+": 2.4390243902439024 }, "geometry": { "type": "Point", "coordinates": [ 0.022863461070954, 51.580031688627365 ] } },
{ "type": "Feature", "properties": { "max_height": 10.900753021240234, "mean_height": 3.1615607738494873, "std_height": 2.9430527687072754, "count_pixels": 42, "percent_cover": 0.33018867924528306, "percent_above_0.1m": 76.19047619047619, "low_level_<0.5": 7.1428571428571423, "mid_level_0.5-2": 14.285714285714285, "tall_2+": 54.761904761904766 }, "geometry": { "type": "Point", "coordinates": [ 0.023063299957908, 51.580028240597088 ] } },
{ "type": "Feature", "properties": { "max_height": 11.328252792358398, "mean_height": 3.719799280166626, "std_height": 3.5886616706848145, "count_pixels": 42, "percent_cover": 0.33018867924528306, "percent_above_0.1m": 73.80952380952381, "low_level_<0.5": 14.285714285714285, "mid_level_0.5-2": 0.0, "tall_2+": 59.523809523809526 }, "geometry": { "type": "Point", "coordinates": [ 0.023263138804307, 51.580024792226176 ] } },
{ "type": "Feature", "properties": { "max_height": 0.089752197265625, "mean_height": 0.0048344475217163563, "std_height": 0.016798434779047966, "count_pixels": 42, "percent_cover": 0.33018867924528306, "percent_above_0.1m": 0.0, "low_level_<0.5": 0.0, "mid_level_0.5-2": 0.0, "tall_2+": 0.0 }, "geometry": { "type": "Point", "coordinates": [ 0.023168003756761, 51.580134342844026 ] } }
]
}
