{
"type": "FeatureCollection",
"name": "8f7ed7b84063_visibility",
"crs": { "type": "name", "properties": { "name": "urn:ogc:def:crs:OGC:1.3:CRS84" } },
"features": [
{ "type": "Feature", "properties": { "visible_points": 11, "total_points": 58, "visibility_pct": 18.96551724137931 }, "geometry": { "type": "Point", "coordinates": [ 0.060090599541395, 51.432738530125093 ] } },
{ "type": "Feature", "properties": { "visible_points": 0, "total_points": 63, "visibility_pct": 0.0 }, "geometry": { "type": "Point", "coordinates": [ 0.060289793824925, 51.432735028494612 ] } },
{ "type": "Feature", "properties": { "visible_points": 0, "total_points": 66, "visibility_pct": 0.0 }, "geometry": { "type": "Point", "coordinates": [ 0.060488988067321, 51.432731526527078 ] } },
{ "type": "Feature", "properties": { "visible_points": 5, "total_points": 66, "visibility_pct": 7.5757575757575761 }, "geometry": { "type": "Point", "coordinates": [ 0.060688182268571, 51.432728024222506 ] } },
{ "type": "Feature", "properties": { "visible_points": 9, "total_points": 64, "visibility_pct": 14.0625 }, "geometry": { "type": "Point", "coordinates": [ 0.059995856987868, 51.432848111147671 ] } },
{ "type": "Feature", "properties": { "visible_points": 12, "total_points": 70, "visibility_pct": 17.142857142857142 }, "geometry": { "type": "Point", "coordinates": [ 0.060195051774754, 51.43284460965279 ] } },
{ "type": "Feature", "properties": { "visible_points": 13, "total_points": 75, "visibility_pct": 17.333333333333336 }, "geometry": { "type": "Point", "coordinates": [ 0.060394246520502, 51.432841107820849 ] } },
{ "type": "Feature", "properties": { "visible_points": 8, "total_points": 77, "visibility_pct": 10.38961038961039 }, "geometry": { "type": "Point", "coordinates": [ 0.060593441225107, 51.432837605651862 ] } },
{ "type": "Feature", "properties": { "visible_points": 3, "total_points": 77, "visibility_pct": 3.8961038961038961 }, "geometry": { "type": "Point", "coordinates": [ 0.060792635888568, 51.432834103145794 ] } },
{ "type": "Feature", "properties": { "visible_points": 12, "total_points": 76, "visibility_pct": 15.789473684210526 }, "geometry": { "type": "Point", "coordinates": [ 0.060100309262367, 51.432954190756377 ] } },
{ "type": "Feature", "properties": { "visible_points": 13, "total_points": 83, "visibility_pct": 15.66265060240964 }, "geometry": { "type": "Point", "coordinates": [ 0.060299504511468, 51.432950689060036 ] } },
{ "type": "Feature", "properties": { "visible_points": 13, "total_points": 87, "visibility_pct": 14.942528735632186 }, "geometry": { "type": "Point", "coordinates": [ 0.060498699719437, 51.432947187026613 ] } },
{ "type": "Feature", "properties": { "visible_points": 13, "total_points": 89, "visibility_pct": 14.606741573033707 }, "geometry": { "type": "Point", "coordinates": [ 0.060697894886256, 51.432943684656145 ] } },
{ "type": "Feature", "properties": { "visible_points": 0, "total_points": 85, "visibility_pct": 0.0 }, "geometry": { "type": "Point", "coordinates": [ 0.060897090011928, 51.432940181948602 ] } },
{ "type": "Feature", "properties": { "visible_points": 6, "total_points": 74, "visibility_pct": 8.1081081081081088 }, "geometry": { "type": "Point", "coordinates": [ 0.061096285096449, 51.432936678904014 ] } },
{ "type": "Feature", "properties": { "visible_points": 0, "total_points": 80, "visibility_pct": 0.0 }, "geometry": { "type": "Point", "coordinates": [ 0.060005566287754, 51.433063771805351 ] } },
{ "type": "Feature", "properties": { "visible_points": 7, "total_points": 89, "visibility_pct": 7.8651685393258424 }, "geometry": { "type": "Point", "coordinates": [ 0.060204762040221, 51.433060270244603 ] } },
{ "type": "Feature", "properties": { "visible_points": 8, "total_points": 96, "visibility_pct": 8.3333333333333321 }, "geometry": { "type": "Point", "coordinates": [ 0.06040395775155, 51.433056768346781 ] } },
{ "type": "Feature", "properties": { "visible_points": 10, "total_points": 99, "visibility_pct": 10.1010101010101 }, "geometry": { "type": "Point", "coordinates": [ 0.060603153421731, 51.433053266111898 ] } },
{ "type": "Feature", "properties": { "visible_points": 10, "total_points": 97, "visibility_pct": 10.309278350515463 }, "geometry": { "type": "Point", "coordinates": [ 0.060802349050768, 51.433049763539955 ] } },
{ "type": "Feature", "properties": { "visible_points": 11, "total_points": 85, "visibility_pct": 12.941176470588237 }, "geometry": { "type": "Point", "coordinates": [ 0.061001544638654, 51.433046260630952 ] } },
{ "type": "Feature", "properties": { "visible_points": 6, "total_points": 73, "visibility_pct": 8.2191780821917799 }, "geometry": { "type": "Point", "coordinates": [ 0.061200740185384, 51.433042757384897 ] } },
{ "type": "Feature", "properties": { "visible_points": 2, "total_points": 77, "visibility_pct": 2.5974025974025974 }, "geometry": { "type": "Point", "coordinates": [ 0.059910822850925, 51.433173352799749 ] } },
{ "type": "Feature", "properties": { "visible_points": 12, "total_points": 90, "visibility_pct": 13.333333333333334 }, "geometry": { "type": "Point", "coordinates": [ 0.060110019106751, 51.433169851374586 ] } },
{ "type": "Feature", "properties": { "visible_points": 15, "total_points": 101, "visibility_pct": 14.85148514851485 }, "geometry": { "type": "Point", "coordinates": [ 0.060309215321442, 51.43316634961235 ] } },
{ "type": "Feature", "properties": { "visible_points": 0, "total_points": 109, "visibility_pct": 0.0 }, "geometry": { "type": "Point", "coordinates": [ 0.06050841149499, 51.433162847513074 ] } },
{ "type": "Feature", "properties": { "visible_points": 0, "total_points": 108, "visibility_pct": 0.0 }, "geometry": { "type": "Point", "coordinates": [ 0.060707607627393, 51.43315934507671 ] } },
{ "type": "Feature", "properties": { "visible_points": 10, "total_points": 95, "visibility_pct": 10.526315789473683 }, "geometry": { "type": "Point", "coordinates": [ 0.06090680371865, 51.433155842303286 ] } },
{ "type": "Feature", "properties": { "visible_points": 11, "total_points": 82, "visibility_pct": 13.414634146341465 }, "geometry": { "type": "Point", "coordinates": [ 0.061105999768751, 51.433152339192809 ] } },
{ "type": "Feature", "properties": { "visible_points": 16, "total_points": 70, "visibility_pct": 22.857142857142858 }, "geometry": { "type": "Point", "coordinates": [ 0.06130519577769, 51.433148835745293 ] } },
{ "type": "Feature", "properties": { "visible_points": 5, "total_points": 58, "visibility_pct": 8.6206896551724146 }, "geometry": { "type": "Point", "coordinates": [ 0.061504391745477, 51.433145331960688 ] } },
{ "type": "Feature", "properties": { "visible_points": 15, "total_points": 69, "visibility_pct": 21.739130434782609 }, "geometry": { "type": "Point", "coordinates": [ 0.059816078951863, 51.433282933739541 ] } },
{ "type": "Feature", "properties": { "visible_points": 7, "total_points": 81, "visibility_pct": 8.6419753086419746 }, "geometry": { "type": "Point", "coordinates": [ 0.060015275711055, 51.433279432449972 ] } },
{ "type": "Feature", "properties": { "visible_points": 14, "total_points": 93, "visibility_pct": 15.053763440860216 }, "geometry": { "type": "Point", "coordinates": [ 0.060214472429113, 51.433275930823335 ] } },
{ "type": "Feature", "properties": { "visible_points": 17, "total_points": 104, "visibility_pct": 16.346153846153847 }, "geometry": { "type": "Point", "coordinates": [ 0.060413669106027, 51.433272428859631 ] } },
{ "type": "Feature", "properties": { "visible_points": 14, "total_points": 108, "visibility_pct": 12.962962962962962 }, "geometry": { "type": "Point", "coordinates": [ 0.060612865741804, 51.433268926558874 ] } },
{ "type": "Feature", "properties": { "visible_points": 11, "total_points": 100, "visibility_pct": 11.0 }, "geometry": { "type": "Point", "coordinates": [ 0.060812062336426, 51.433265423921043 ] } },
{ "type": "Feature", "properties": { "visible_points": 6, "total_points": 88, "visibility_pct": 6.8181818181818175 }, "geometry": { "type": "Point", "coordinates": [ 0.061011258889902, 51.433261920946158 ] } },
{ "type": "Feature", "properties": { "visible_points": 14, "total_points": 76, "visibility_pct": 18.421052631578945 }, "geometry": { "type": "Point", "coordinates": [ 0.06121045540222, 51.433258417634207 ] } },
{ "type": "Feature", "properties": { "visible_points": 6, "total_points": 64, "visibility_pct": 9.375 }, "geometry": { "type": "Point", "coordinates": [ 0.061409651873375, 51.433254913985181 ] } },
{ "type": "Feature", "properties": { "visible_points": 0, "total_points": 53, "visibility_pct": 0.0 }, "geometry": { "type": "Point", "coordinates": [ 0.06160884830337, 51.433251409999109 ] } },
{ "type": "Feature", "properties": { "visible_points": 13, "total_points": 70, "visibility_pct": 18.571428571428573 }, "geometry": { "type": "Point", "coordinates": [ 0.059920531853132, 51.433389013470766 ] } },
{ "type": "Feature", "properties": { "visible_points": 15, "total_points": 81, "visibility_pct": 18.518518518518519 }, "geometry": { "type": "Point", "coordinates": [ 0.060119729074556, 51.433385511979736 ] } },
{ "type": "Feature", "properties": { "visible_points": 15, "total_points": 92, "visibility_pct": 16.304347826086957 }, "geometry": { "type": "Point", "coordinates": [ 0.060318926254843, 51.433382010151625 ] } },
{ "type": "Feature", "properties": { "visible_points": 16, "total_points": 99, "visibility_pct": 16.161616161616163 }, "geometry": { "type": "Point", "coordinates": [ 0.060518123393985, 51.433378507986447 ] } },
{ "type": "Feature", "properties": { "visible_points": 22, "total_points": 99, "visibility_pct": 22.222222222222221 }, "geometry": { "type": "Point", "coordinates": [ 0.060717320491988, 51.433375005484208 ] } },
{ "type": "Feature", "properties": { "visible_points": 18, "total_points": 90, "visibility_pct": 20.0 }, "geometry": { "type": "Point", "coordinates": [ 0.060916517548835, 51.433371502644903 ] } },
{ "type": "Feature", "properties": { "visible_points": 2, "total_points": 79, "visibility_pct": 2.5316455696202533 }, "geometry": { "type": "Point", "coordinates": [ 0.061115714564527, 51.433367999468537 ] } },
{ "type": "Feature", "properties": { "visible_points": 0, "total_points": 60, "visibility_pct": 0.0 }, "geometry": { "type": "Point", "coordinates": [ 0.059825787532976, 51.433498594436969 ] } },
{ "type": "Feature", "properties": { "visible_points": 16, "total_points": 70, "visibility_pct": 22.857142857142858 }, "geometry": { "type": "Point", "coordinates": [ 0.06002498525777, 51.433495093081525 ] } },
{ "type": "Feature", "properties": { "visible_points": 20, "total_points": 80, "visibility_pct": 25.0 }, "geometry": { "type": "Point", "coordinates": [ 0.060224182941427, 51.433491591389007 ] } },
{ "type": "Feature", "properties": { "visible_points": 17, "total_points": 86, "visibility_pct": 19.767441860465116 }, "geometry": { "type": "Point", "coordinates": [ 0.060423380583948, 51.433488089359429 ] } },
{ "type": "Feature", "properties": { "visible_points": 16, "total_points": 90, "visibility_pct": 17.777777777777779 }, "geometry": { "type": "Point", "coordinates": [ 0.060622578185319, 51.433484586992776 ] } },
{ "type": "Feature", "properties": { "visible_points": 18, "total_points": 86, "visibility_pct": 20.930232558139537 }, "geometry": { "type": "Point", "coordinates": [ 0.060821775745546, 51.43348108428907 ] } },
{ "type": "Feature", "properties": { "visible_points": 0, "total_points": 79, "visibility_pct": 0.0 }, "geometry": { "type": "Point", "coordinates": [ 0.06102097326462, 51.43347758124829 ] } },
{ "type": "Feature", "properties": { "visible_points": 14, "total_points": 68, "visibility_pct": 20.588235294117645 }, "geometry": { "type": "Point", "coordinates": [ 0.060129439165782, 51.433601172571805 ] } },
{ "type": "Feature", "properties": { "visible_points": 18, "total_points": 74, "visibility_pct": 24.324324324324326 }, "geometry": { "type": "Point", "coordinates": [ 0.060328637311672, 51.43359767067782 ] } },
{ "type": "Feature", "properties": { "visible_points": 17, "total_points": 78, "visibility_pct": 21.794871794871796 }, "geometry": { "type": "Point", "coordinates": [ 0.060527835416431, 51.433594168446767 ] } },
{ "type": "Feature", "properties": { "visible_points": 0, "total_points": 77, "visibility_pct": 0.0 }, "geometry": { "type": "Point", "coordinates": [ 0.060727033480034, 51.433590665878626 ] } },
{ "type": "Feature", "properties": { "visible_points": 0, "total_points": 73, "visibility_pct": 0.0 }, "geometry": { "type": "Point", "coordinates": [ 0.060926231502485, 51.43358716297346 ] } },
{ "type": "Feature", "properties": { "visible_points": 0, "total_points": 67, "visibility_pct": 0.0 }, "geometry": { "type": "Point", "coordinates": [ 0.060632290752292, 51.433700247413626 ] } },
{ "type": "Feature", "properties": { "visible_points": 2, "total_points": 64, "visibility_pct": 3.125 }, "geometry": { "type": "Point", "coordinates": [ 0.060831489278127, 51.433696744644017 ] } },
{ "type": "Feature", "properties": { "visible_points": 0, "total_points": 60, "visibility_pct": 0.0 }, "geometry": { "type": "Point", "coordinates": [ 0.061030687762815, 51.433693241537355 ] } }
]
}
