{
"type": "FeatureCollection",
"name": "ENFIE_69_walking",
"crs": { "type": "name", "properties": { "name": "urn:ogc:def:crs:OGC:1.3:CRS84" } },
"features": [
{"type":"Feature","properties":{"highway":"footway","name":null,"category":"Footpath (pedestrian only)"},"geometry":{"type":"MultiLineString","coordinates":[[[-0.0324163,51.6555616],[-0.0322503,51.6555664],[-0.0317618,51.6553894]]]}},
{"type":"Feature","properties":{"highway":"footway","name":null,"category":"Footpath (pedestrian only)"},"geometry":{"type":"MultiLineString","coordinates":[[[-0.0373278,51.6585316],[-0.0370701,51.6585877],[-0.0368781,51.6581981],[-0.0368176,51.6580726],[-0.0367957,51.6579592],[-0.036739,51.6576625],[-0.0366594,51.6573953],[-0.0364262,51.6571623],[-0.0362975,51.6570359],[-0.0362366,51.656974],[-0.0361661,51.6569371],[-0.0359927,51.6568206],[-0.0358817,51.6567776],[-0.0356772,51.6567305]]]}},
{"type":"Feature","properties":{"highway":"footway","name":null,"category":"Footpath (pedestrian only)"},"geometry":{"type":"MultiLineString","coordinates":[[[-0.0420247,51.6512047],[-0.0420241,51.6512072],[-0.041945,51.651484],[-0.0417702,51.652102],[-0.0417599,51.6521372],[-0.0413043,51.6536888],[-0.041244,51.6538393],[-0.0412325,51.6539427],[-0.0411917,51.6540777],[-0.0409847,51.6546922],[-0.0408848,51.6549243],[-0.0407195,51.6555728],[-0.0406656,51.6558106],[-0.0406415,51.6559461],[-0.0406237,51.65605],[-0.040628,51.6560733]]]}},
{"type":"Feature","properties":{"highway":"footway","name":null,"category":"Footpath (pedestrian only)"},"geometry":{"type":"MultiLineString","coordinates":[[[-0.0370701,51.6585877],[-0.0370714,51.6588139],[-0.0370454,51.6590725],[-0.0369008,51.6592607]]]}},
{"type":"Feature","properties":{"highway":"footway","name":null,"category":"Footpath (pedestrian only)"},"geometry":{"type":"MultiLineString","coordinates":[[[-0.0384144,51.6580398],[-0.0380998,51.6580193],[-0.0377785,51.657989],[-0.0376583,51.6579664],[-0.0375961,51.6579293],[-0.0371996,51.6579043],[-0.0367957,51.6579592]]]}},
{"type":"Feature","properties":{"highway":"footway","name":null,"category":"Footpath (pedestrian only)"},"geometry":{"type":"MultiLineString","coordinates":[[[-0.038468,51.657524],[-0.0384562,51.6577561],[-0.0384144,51.6580398]]]}},
{"type":"Feature","properties":{"highway":"footway","name":null,"category":"Footpath (pedestrian only)"},"geometry":{"type":"MultiLineString","coordinates":[[[-0.0326737,51.6474155],[-0.032857,51.6474395]]]}},
{"type":"Feature","properties":{"highway":"footway","name":null,"category":"Footpath (pedestrian only)"},"geometry":{"type":"MultiLineString","coordinates":[[[-0.0305274,51.6559768],[-0.0305998,51.6559208],[-0.0306189,51.6559162]]]}},
{"type":"Feature","properties":{"highway":"footway","name":null,"category":"Footpath (pedestrian only)"},"geometry":{"type":"MultiLineString","coordinates":[[[-0.0328976,51.6474093],[-0.0329756,51.6471841],[-0.0329468,51.6471802],[-0.032857,51.6474395]]]}},
{"type":"Feature","properties":{"highway":"footway","name":null,"category":"Footpath (pedestrian only)"},"geometry":{"type":"MultiLineString","coordinates":[[[-0.0326148,51.647336],[-0.0326645,51.6473425],[-0.0327315,51.6471424],[-0.0327637,51.6471466],[-0.0326737,51.6474155]]]}},
{"type":"Feature","properties":{"highway":"footway","name":"Scotland Green Road North","category":"Footpath (pedestrian only)"},"geometry":{"type":"MultiLineString","coordinates":[[[-0.0369,51.6468661],[-0.0369307,51.6467849],[-0.0369972,51.6467264]]]}},
{"type":"Feature","properties":{"highway":"footway","name":null,"category":"Footpath (pedestrian only)"},"geometry":{"type":"MultiLineString","coordinates":[[[-0.0306795,51.6556037],[-0.0306811,51.6555919]]]}},
{"type":"Feature","properties":{"highway":"footway","name":null,"category":"Footpath (pedestrian only)"},"geometry":{"type":"MultiLineString","coordinates":[[[-0.0305998,51.6559208],[-0.0306022,51.6558927],[-0.0306437,51.6555898],[-0.0306811,51.6555919],[-0.0306995,51.6555928]]]}},
{"type":"Feature","properties":{"highway":"footway","name":null,"category":"Footpath (pedestrian only)"},"geometry":{"type":"MultiLineString","coordinates":[[[-0.030899,51.6559069],[-0.0309395,51.6556543],[-0.0309416,51.6556403]]]}},
{"type":"Feature","properties":{"highway":"footway","name":null,"category":"Footpath (pedestrian only)"},"geometry":{"type":"MultiLineString","coordinates":[[[-0.0306995,51.6555928],[-0.0307146,51.6555938],[-0.0308491,51.655736],[-0.0308706,51.6557374]]]}},
{"type":"Feature","properties":{"highway":"footway","name":null,"category":"Footpath (pedestrian only)"},"geometry":{"type":"MultiLineString","coordinates":[[[-0.0308667,51.6557603],[-0.0308706,51.6557374],[-0.0308746,51.655713]]]}},
{"type":"Feature","properties":{"highway":"footway","name":null,"category":"Footpath (pedestrian only)"},"geometry":{"type":"MultiLineString","coordinates":[[[-0.0308674,51.6556492],[-0.0308851,51.6556505],[-0.0309395,51.6556543]]]}},
{"type":"Feature","properties":{"highway":"footway","name":null,"category":"Footpath (pedestrian only)"},"geometry":{"type":"MultiLineString","coordinates":[[[-0.0308827,51.6556643],[-0.0308851,51.6556505]]]}},
{"type":"Feature","properties":{"highway":"footway","name":null,"category":"Footpath (pedestrian only)"},"geometry":{"type":"MultiLineString","coordinates":[[[-0.0308667,51.6557603],[-0.0308416,51.6558997],[-0.0308381,51.6559242]]]}},
{"type":"Feature","properties":{"highway":"footway","name":null,"category":"Footpath (pedestrian only)"},"geometry":{"type":"MultiLineString","coordinates":[[[-0.0393153,51.6550656],[-0.0393642,51.6551225],[-0.0393993,51.6551336],[-0.039471,51.6551426]]]}},
{"type":"Feature","properties":{"highway":"footway","name":null,"category":"Footpath (pedestrian only)"},"geometry":{"type":"MultiLineString","coordinates":[[[-0.0392814,51.6554791],[-0.0393185,51.6554899],[-0.0393793,51.6554965]]]}},
{"type":"Feature","properties":{"highway":"footway","name":null,"category":"Footpath (pedestrian only)"},"geometry":{"type":"MultiLineString","coordinates":[[[-0.0368781,51.6581981],[-0.0375054,51.6581879],[-0.0376663,51.6581861],[-0.0376583,51.6579664]]]}},
{"type":"Feature","properties":{"highway":"footway","name":null,"category":"Footpath (pedestrian only)"},"geometry":{"type":"MultiLineString","coordinates":[[[-0.0375054,51.6581879],[-0.0375107,51.6582062]]]}},
{"type":"Feature","properties":{"highway":"footway","name":null,"category":"Footpath (pedestrian only)"},"geometry":{"type":"MultiLineString","coordinates":[[[-0.0377904,51.6591679],[-0.0382869,51.6591768]]]}},
{"type":"Feature","properties":{"highway":"footway","name":null,"category":"Footpath (pedestrian only)"},"geometry":{"type":"MultiLineString","coordinates":[[[-0.037768,51.6585011],[-0.0377904,51.6591679],[-0.0378191,51.6593732],[-0.038197,51.6593951]]]}},
{"type":"Feature","properties":{"highway":"footway","name":null,"category":"Footpath (pedestrian only)"},"geometry":{"type":"MultiLineString","coordinates":[[[-0.0409847,51.6546922],[-0.0410927,51.654702],[-0.0411089,51.6546669],[-0.042304,51.6547975],[-0.0438087,51.6549647],[-0.045853,51.6551877]]]}},
{"type":"Feature","properties":{"highway":"footway","name":null,"category":"Footpath (pedestrian only)"},"geometry":{"type":"MultiLineString","coordinates":[[[-0.0406656,51.6558106],[-0.040865,51.6558522],[-0.0412696,51.6559316]]]}},
{"type":"Feature","properties":{"highway":"path","name":null,"category":"Shared path"},"geometry":{"type":"MultiLineString","coordinates":[[[-0.0316688,51.6541217],[-0.0316955,51.6539946],[-0.0318216,51.653923],[-0.0319584,51.6539313],[-0.0321936,51.6539546]]]}},
{"type":"Feature","properties":{"highway":"path","name":null,"category":"Shared path"},"geometry":{"type":"MultiLineString","coordinates":[[[-0.031827,51.6541693],[-0.0317895,51.6541328],[-0.0316688,51.6541217],[-0.0314468,51.6541028]]]}},
{"type":"Feature","properties":{"highway":"footway","name":null,"category":"Footpath (pedestrian only)"},"geometry":{"type":"MultiLineString","coordinates":[[[-0.0409323,51.6476111],[-0.0409504,51.647575],[-0.0412251,51.6471014],[-0.0412415,51.6470653]]]}},
{"type":"Feature","properties":{"highway":"path","name":null,"category":"Shared path"},"geometry":{"type":"MultiLineString","coordinates":[[[-0.0321595,51.6519415],[-0.0331811,51.6520713],[-0.0341602,51.6521977]]]}},
{"type":"Feature","properties":{"highway":"path","name":null,"category":"Shared path"},"geometry":{"type":"MultiLineString","coordinates":[[[-0.0314297,51.6542283],[-0.0316163,51.6542451],[-0.031627,51.6541836]]]}},
{"type":"Feature","properties":{"highway":"path","name":null,"category":"Shared path"},"geometry":{"type":"MultiLineString","coordinates":[[[-0.0298439,51.6556599],[-0.0297828,51.6556631],[-0.0293761,51.6554692],[-0.0293609,51.6554639]]]}},
{"type":"Feature","properties":{"highway":"track","name":null,"category":"Track"},"geometry":{"type":"MultiLineString","coordinates":[[[-0.0395834,51.6463843],[-0.0397431,51.6460002]]]}},
{"type":"Feature","properties":{"highway":"track","name":null,"category":"Track"},"geometry":{"type":"MultiLineString","coordinates":[[[-0.0398806,51.645633],[-0.0397431,51.6460002],[-0.0422778,51.6464054],[-0.0421329,51.6467192],[-0.0420193,51.6467806]]]}},
{"type":"Feature","properties":{"highway":"path","name":null,"category":"Shared path"},"geometry":{"type":"MultiLineString","coordinates":[[[-0.0417702,51.652102],[-0.0417059,51.6520251],[-0.0416659,51.6518885],[-0.0416431,51.6517745],[-0.041573,51.651556],[-0.0415162,51.6514017]]]}},
{"type":"Feature","properties":{"highway":"footway","name":null,"category":"Footpath (pedestrian only)"},"geometry":{"type":"MultiLineString","coordinates":[[[-0.0415446,51.6513728],[-0.0415775,51.6513679],[-0.041678,51.6513334],[-0.0418902,51.6512527],[-0.0420241,51.6512072]]]}},
{"type":"Feature","properties":{"highway":"path","name":null,"category":"Shared path"},"geometry":{"type":"MultiLineString","coordinates":[[[-0.0406656,51.6558106],[-0.0394999,51.6558191],[-0.0393011,51.6558087]]]}},
{"type":"Feature","properties":{"highway":"footway","name":null,"category":"Footpath (pedestrian only)"},"geometry":{"type":"MultiLineString","coordinates":[[[-0.0396067,51.6526039],[-0.0396053,51.6524473],[-0.0396033,51.6523784]]]}},
{"type":"Feature","properties":{"highway":"footway","name":null,"category":"Footpath (pedestrian only)"},"geometry":{"type":"MultiLineString","coordinates":[[[-0.046858,51.6541917],[-0.046815,51.6541791],[-0.0467446,51.6541215],[-0.0465641,51.6540321],[-0.0463352,51.6539799],[-0.0461995,51.6539498],[-0.0460294,51.6539085],[-0.0459241,51.6538865],[-0.0458242,51.6538749],[-0.0455137,51.6538363],[-0.0445812,51.6537358],[-0.0437186,51.6535945],[-0.0425753,51.6534063],[-0.0425341,51.6532067],[-0.0419631,51.6527932],[-0.0419384,51.6527653],[-0.0419263,51.6527366],[-0.041929,51.652697],[-0.0419316,51.6526446],[-0.0419256,51.6526051],[-0.0419145,51.6524571],[-0.0418445,51.6522977],[-0.0417599,51.6521372]]]}},
{"type":"Feature","properties":{"highway":"path","name":null,"category":"Shared path"},"geometry":{"type":"MultiLineString","coordinates":[[[-0.0396167,51.6539904],[-0.0395509,51.6538992],[-0.0388341,51.6532053],[-0.038473,51.6528249],[-0.0382626,51.6525497],[-0.0382275,51.6525119],[-0.0382143,51.6524796]]]}},
{"type":"Feature","properties":{"highway":"track","name":null,"category":"Track"},"geometry":{"type":"MultiLineString","coordinates":[[[-0.0415381,51.6553458],[-0.041625,51.6552818],[-0.0417218,51.6550179]]]}},
{"type":"Feature","properties":{"highway":"track","name":null,"category":"Track"},"geometry":{"type":"MultiLineString","coordinates":[[[-0.0432239,51.6552337],[-0.0417218,51.6550179],[-0.0413195,51.6549541]]]}},
{"type":"Feature","properties":{"highway":"footway","name":null,"category":"Footpath (pedestrian only)"},"geometry":{"type":"MultiLineString","coordinates":[[[-0.0369273,51.6511291],[-0.0367268,51.6511434],[-0.0365395,51.6511781],[-0.0364034,51.6512129],[-0.0362994,51.6512607],[-0.036229,51.6513356],[-0.0361998,51.6513947],[-0.0361942,51.65147],[-0.0362038,51.6515213],[-0.0361948,51.6515757],[-0.0361578,51.6516216],[-0.0361022,51.6516703],[-0.0359903,51.6517425],[-0.0358367,51.651822],[-0.0356604,51.6519094],[-0.035536,51.6519671]]]}},
{"type":"Feature","properties":{"highway":"footway","name":null,"category":"Footpath (pedestrian only)"},"geometry":{"type":"MultiLineString","coordinates":[[[-0.0369301,51.6508987],[-0.036927,51.6510517],[-0.0369273,51.6511291],[-0.0369262,51.6512257],[-0.0369246,51.6513292],[-0.0369398,51.6513931],[-0.0370028,51.6514119],[-0.0370755,51.6514215]]]}},
{"type":"Feature","properties":{"highway":"footway","name":null,"category":"Footpath (pedestrian only)"},"geometry":{"type":"MultiLineString","coordinates":[[[-0.0286498,51.6526255],[-0.0286731,51.6526166],[-0.0287149,51.6525966],[-0.0287428,51.6524709],[-0.0287988,51.6523105],[-0.0288203,51.6522572]]]}},
{"type":"Feature","properties":{"highway":"footway","name":null,"category":"Footpath (pedestrian only)"},"geometry":{"type":"MultiLineString","coordinates":[[[-0.0287428,51.6524709],[-0.0289224,51.6524813]]]}},
{"type":"Feature","properties":{"highway":"footway","name":null,"category":"Footpath (pedestrian only)"},"geometry":{"type":"MultiLineString","coordinates":[[[-0.0296688,51.6486166],[-0.0296736,51.6485837],[-0.0296778,51.6485628]]]}},
{"type":"Feature","properties":{"highway":"footway","name":null,"category":"Footpath (pedestrian only)"},"geometry":{"type":"MultiLineString","coordinates":[[[-0.0297294,51.6486443],[-0.0296688,51.6486166]]]}},
{"type":"Feature","properties":{"highway":"footway","name":null,"category":"Footpath (pedestrian only)"},"geometry":{"type":"MultiLineString","coordinates":[[[-0.0296792,51.6485331],[-0.0296795,51.6485064],[-0.0296795,51.6484825]]]}},
{"type":"Feature","properties":{"highway":"footway","name":null,"category":"Footpath (pedestrian only)"},"geometry":{"type":"MultiLineString","coordinates":[[[-0.0296795,51.6484825],[-0.029744,51.6484805]]]}},
{"type":"Feature","properties":{"highway":"footway","name":null,"category":"Footpath (pedestrian only)"},"geometry":{"type":"MultiLineString","coordinates":[[[-0.0296778,51.6485628],[-0.0296792,51.6485331]]]}},
{"type":"Feature","properties":{"highway":"footway","name":null,"category":"Footpath (pedestrian only)"},"geometry":{"type":"MultiLineString","coordinates":[[[-0.0353983,51.6520194],[-0.0354834,51.6520504],[-0.0356322,51.6521428],[-0.0358066,51.65229],[-0.0360694,51.6524655],[-0.0363108,51.6525729],[-0.0365334,51.6526128],[-0.036862,51.652642],[-0.0371798,51.652657],[-0.0374548,51.6526478],[-0.0376553,51.6526199],[-0.0378334,51.6525852],[-0.0379575,51.6525544],[-0.0380936,51.6525166],[-0.0381908,51.6524929],[-0.0382143,51.6524796],[-0.038223,51.6524651]]]}},
{"type":"Feature","properties":{"highway":"footway","name":null,"category":"Footpath (pedestrian only)"},"geometry":{"type":"MultiLineString","coordinates":[[[-0.0295469,51.6574607],[-0.029597,51.657422],[-0.0295967,51.6572852],[-0.0295971,51.6572326],[-0.029588,51.6571447],[-0.0295781,51.6570601],[-0.029571,51.6569821],[-0.0295678,51.656919],[-0.0295437,51.6568119],[-0.0294994,51.6566923],[-0.0294539,51.6565784],[-0.0293969,51.6564287],[-0.029336,51.65629],[-0.0292885,51.6561863],[-0.0292671,51.6561469],[-0.0292456,51.6561004],[-0.0292064,51.6559682],[-0.0291467,51.6558658],[-0.029111,51.6557758],[-0.029069,51.6556794],[-0.0290238,51.6555924],[-0.0289897,51.6555245],[-0.028958,51.6554527],[-0.0288978,51.6553145],[-0.0288613,51.6552693],[-0.0287981,51.6552289],[-0.028794,51.6552061]]]}},
{"type":"Feature","properties":{"highway":"footway","name":null,"category":"Footpath (pedestrian only)"},"geometry":{"type":"MultiLineString","coordinates":[[[-0.028794,51.6552061],[-0.0287733,51.6551566]]]}},
{"type":"Feature","properties":{"highway":"footway","name":null,"category":"Footpath (pedestrian only)"},"geometry":{"type":"MultiLineString","coordinates":[[[-0.0287196,51.6550386],[-0.0287399,51.6549758],[-0.0287511,51.6549534],[-0.0287298,51.6548898],[-0.0286926,51.6547893],[-0.0286161,51.6545965],[-0.0285812,51.6545141],[-0.0285496,51.6544345],[-0.0285136,51.6543674],[-0.0284745,51.6543347],[-0.0284303,51.6543032],[-0.0283594,51.6542794],[-0.0282975,51.6542717]]]}},
{"type":"Feature","properties":{"highway":"footway","name":null,"category":"Footpath (pedestrian only)"},"geometry":{"type":"MultiLineString","coordinates":[[[-0.0293663,51.6560796],[-0.0293927,51.6560741],[-0.0294271,51.656149],[-0.0294678,51.6561422]]]}},
{"type":"Feature","properties":{"highway":"footway","name":null,"category":"Footpath (pedestrian only)"},"geometry":{"type":"MultiLineString","coordinates":[[[-0.0292652,51.6560969],[-0.0293155,51.6560883],[-0.0293663,51.6560796]]]}},
{"type":"Feature","properties":{"highway":"footway","name":null,"category":"Footpath (pedestrian only)"},"geometry":{"type":"MultiLineString","coordinates":[[[-0.0295574,51.6561276],[-0.0296009,51.6561193]]]}},
{"type":"Feature","properties":{"highway":"footway","name":null,"category":"Footpath (pedestrian only)"},"geometry":{"type":"MultiLineString","coordinates":[[[-0.0294678,51.6561422],[-0.0295127,51.6561349],[-0.0295574,51.6561276]]]}},
{"type":"Feature","properties":{"highway":"footway","name":null,"category":"Footpath (pedestrian only)"},"geometry":{"type":"MultiLineString","coordinates":[[[-0.0296009,51.6561193],[-0.0296196,51.6560989],[-0.0296365,51.6560804]]]}},
{"type":"Feature","properties":{"highway":"footway","name":null,"category":"Footpath (pedestrian only)"},"geometry":{"type":"MultiLineString","coordinates":[[[-0.0296365,51.6560804],[-0.0296521,51.6560656],[-0.0296976,51.6560802],[-0.0297447,51.656088],[-0.0297655,51.6560874],[-0.0298198,51.656079],[-0.0299293,51.6560661],[-0.0300153,51.6560535],[-0.0300992,51.6560382]]]}},
{"type":"Feature","properties":{"highway":"footway","name":null,"category":"Footpath (pedestrian only)"},"geometry":{"type":"MultiLineString","coordinates":[[[-0.0282577,51.6541203],[-0.0283006,51.6540946],[-0.0283754,51.6540423],[-0.0284024,51.6540088],[-0.0284343,51.6539693],[-0.0284549,51.6539298],[-0.0284756,51.6538844],[-0.0284836,51.6537907],[-0.0284883,51.6537176],[-0.0284931,51.653612],[-0.0284915,51.6535361],[-0.0284947,51.6533969],[-0.0284836,51.6532844]]]}},
{"type":"Feature","properties":{"highway":"footway","name":null,"category":"Footpath (pedestrian only)"},"geometry":{"type":"MultiLineString","coordinates":[[[-0.0282975,51.6542717],[-0.0282892,51.654233],[-0.0282798,51.6541945],[-0.0282577,51.6541203]]]}},
{"type":"Feature","properties":{"highway":"footway","name":null,"category":"Footpath (pedestrian only)"},"geometry":{"type":"MultiLineString","coordinates":[[[-0.0284836,51.6532844],[-0.0285941,51.6530485]]]}},
{"type":"Feature","properties":{"highway":"footway","name":null,"category":"Footpath (pedestrian only)"},"geometry":{"type":"MultiLineString","coordinates":[[[-0.0301964,51.648275],[-0.0301434,51.6482633],[-0.0300688,51.6482493]]]}},
{"type":"Feature","properties":{"highway":"footway","name":null,"category":"Footpath (pedestrian only)"},"geometry":{"type":"MultiLineString","coordinates":[[[-0.0303728,51.6483165],[-0.0303078,51.6483024],[-0.030232,51.648282]]]}},
{"type":"Feature","properties":{"highway":"footway","name":null,"category":"Footpath (pedestrian only)"},"geometry":{"type":"MultiLineString","coordinates":[[[-0.039933,51.6518567],[-0.0400279,51.6518479],[-0.040131,51.6518548],[-0.0401627,51.6518566],[-0.0402137,51.6518625]]]}},
{"type":"Feature","properties":{"highway":"path","name":null,"category":"Shared path"},"geometry":{"type":"MultiLineString","coordinates":[[[-0.0351968,51.6506643],[-0.0350687,51.6506944],[-0.0348938,51.6507618],[-0.0348318,51.6508002],[-0.0348021,51.6508438]]]}},
{"type":"Feature","properties":{"highway":"path","name":null,"category":"Shared path"},"geometry":{"type":"MultiLineString","coordinates":[[[-0.0352481,51.6517421],[-0.0351542,51.651731],[-0.0349206,51.6515839],[-0.0346792,51.6514053],[-0.0345751,51.6513146]]]}},
{"type":"Feature","properties":{"highway":"track","name":null,"category":"Track"},"geometry":{"type":"MultiLineString","coordinates":[[[-0.0414863,51.651093],[-0.0414857,51.6511661],[-0.0414873,51.651267],[-0.041477,51.6513389],[-0.0414303,51.6513981],[-0.0413728,51.6514255],[-0.0412452,51.6514504],[-0.0411139,51.6514735],[-0.0409241,51.6515053],[-0.040758,51.6515397],[-0.0405868,51.6515756],[-0.0404155,51.6516242],[-0.0403116,51.6516772],[-0.0402258,51.6517316],[-0.040159,51.6517897],[-0.0401355,51.651834]]]}},
{"type":"Feature","properties":{"highway":"footway","name":null,"category":"Footpath (pedestrian only)"},"geometry":{"type":"MultiLineString","coordinates":[[[-0.0379724,51.6521586],[-0.0379486,51.6521232],[-0.0379236,51.6520701]]]}},
{"type":"Feature","properties":{"highway":"path","name":null,"category":"Shared path"},"geometry":{"type":"MultiLineString","coordinates":[[[-0.033796,51.6533274],[-0.0336728,51.6534544],[-0.0336301,51.6535279]]]}},
{"type":"Feature","properties":{"highway":"footway","name":null,"category":"Footpath (pedestrian only)"},"geometry":{"type":"MultiLineString","coordinates":[[[-0.0287733,51.6551566],[-0.0287602,51.6551252],[-0.0287196,51.6550386]]]}},
{"type":"Feature","properties":{"highway":"footway","name":null,"category":"Footpath (pedestrian only)"},"geometry":{"type":"MultiLineString","coordinates":[[[-0.0305765,51.647161],[-0.0300551,51.6470799]]]}},
{"type":"Feature","properties":{"highway":"footway","name":null,"category":"Footpath (pedestrian only)"},"geometry":{"type":"MultiLineString","coordinates":[[[-0.0415322,51.6510962],[-0.0415445,51.6511591]]]}},
{"type":"Feature","properties":{"highway":"footway","name":null,"category":"Footpath (pedestrian only)"},"geometry":{"type":"MultiLineString","coordinates":[[[-0.0420363,51.6511557],[-0.0420247,51.6512047]]]}},
{"type":"Feature","properties":{"highway":"footway","name":null,"category":"Footpath (pedestrian only)"},"geometry":{"type":"MultiLineString","coordinates":[[[-0.0392901,51.6558809],[-0.0392818,51.6559024]]]}},
{"type":"Feature","properties":{"highway":"footway","name":null,"category":"Footpath (pedestrian only)"},"geometry":{"type":"MultiLineString","coordinates":[[[-0.0406256,51.6560996],[-0.040594,51.6560769],[-0.040598,51.6560638],[-0.0406237,51.65605]]]}},
{"type":"Feature","properties":{"highway":"footway","name":null,"category":"Footpath (pedestrian only)"},"geometry":{"type":"MultiLineString","coordinates":[[[-0.031364,51.6562053],[-0.0311718,51.6561969]]]}},
{"type":"Feature","properties":{"highway":"footway","name":"Scotland Green Road North","category":"Footpath (pedestrian only)"},"geometry":{"type":"MultiLineString","coordinates":[[[-0.0371742,51.6468504],[-0.0371161,51.6468501],[-0.0369843,51.646904]]]}},
{"type":"Feature","properties":{"highway":"footway","name":null,"category":"Footpath (pedestrian only)"},"geometry":{"type":"MultiLineString","coordinates":[[[-0.0325971,51.6472908],[-0.0325908,51.6473323],[-0.0326112,51.6473719]]]}},
{"type":"Feature","properties":{"highway":"footway","name":null,"category":"Footpath (pedestrian only)"},"geometry":{"type":"MultiLineString","coordinates":[[[-0.0330327,51.6474208],[-0.0330324,51.6474673],[-0.0330044,51.6474686]]]}},
{"type":"Feature","properties":{"highway":"footway","name":null,"category":"Footpath (pedestrian only)"},"geometry":{"type":"MultiLineString","coordinates":[[[-0.0329501,51.6474195],[-0.032899,51.6474187],[-0.0328976,51.6474093]]]}},
{"type":"Feature","properties":{"highway":"footway","name":null,"category":"Footpath (pedestrian only)"},"geometry":{"type":"MultiLineString","coordinates":[[[-0.0309416,51.6556403],[-0.030945,51.6556186],[-0.0308685,51.6556153]]]}},
{"type":"Feature","properties":{"highway":"footway","name":null,"category":"Footpath (pedestrian only)"},"geometry":{"type":"MultiLineString","coordinates":[[[-0.0319686,51.655054],[-0.0317873,51.6552353],[-0.0315526,51.6554699],[-0.0313743,51.6556246],[-0.0311852,51.6557561],[-0.0310541,51.6558383],[-0.0309746,51.6558784],[-0.0309321,51.6558963],[-0.030899,51.6559069],[-0.0308381,51.6559242],[-0.0308161,51.6559296],[-0.0307621,51.6559391],[-0.0307092,51.6559483],[-0.0306051,51.6559666],[-0.0305274,51.6559768],[-0.0303209,51.6560037]]]}},
{"type":"Feature","properties":{"highway":"footway","name":null,"category":"Footpath (pedestrian only)"},"geometry":{"type":"MultiLineString","coordinates":[[[-0.0314051,51.6558175],[-0.0312665,51.655863],[-0.0311608,51.6559162],[-0.031078,51.6559604],[-0.0309986,51.6559843],[-0.0308777,51.6560126],[-0.0307479,51.6560363],[-0.0306951,51.656046],[-0.0304912,51.6560834]]]}},
{"type":"Feature","properties":{"highway":"footway","name":null,"category":"Footpath (pedestrian only)"},"geometry":{"type":"MultiLineString","coordinates":[[[-0.0326148,51.647336],[-0.0325908,51.6473323]]]}},
{"type":"Feature","properties":{"highway":"footway","name":null,"category":"Footpath (pedestrian only)"},"geometry":{"type":"MultiLineString","coordinates":[[[-0.0348406,51.6452988],[-0.0347956,51.6452945],[-0.0345191,51.6453271]]]}},
{"type":"Feature","properties":{"highway":"footway","name":null,"category":"Footpath (pedestrian only)"},"geometry":{"type":"MultiLineString","coordinates":[[[-0.0341965,51.6453652],[-0.034184,51.6453773],[-0.0342155,51.6453897],[-0.034178,51.645426]]]}},
{"type":"Feature","properties":{"highway":"path","name":null,"category":"Shared path"},"geometry":{"type":"MultiLineString","coordinates":[[[-0.0367929,51.6518249],[-0.0368259,51.6518041],[-0.037016,51.6517756],[-0.0371357,51.6517553]]]}},
{"type":"Feature","properties":{"highway":"footway","name":null,"category":"Footpath (pedestrian only)"},"geometry":{"type":"MultiLineString","coordinates":[[[-0.0304195,51.6559479],[-0.0305274,51.6559768]]]}},
{"type":"Feature","properties":{"highway":"footway","name":null,"category":"Footpath (pedestrian only)"},"geometry":{"type":"MultiLineString","coordinates":[[[-0.0303209,51.6560037],[-0.0302062,51.6560187]]]}},
{"type":"Feature","properties":{"highway":"footway","name":null,"category":"Footpath (pedestrian only)"},"geometry":{"type":"MultiLineString","coordinates":[[[-0.0300992,51.6560382],[-0.0302062,51.6560187]]]}},
{"type":"Feature","properties":{"highway":"pedestrian","name":null,"category":"Pedestrian area/street"},"geometry":{"type":"MultiLineString","coordinates":[[[-0.0360853,51.6423841],[-0.035863,51.642326],[-0.0355756,51.6422541],[-0.035391,51.6422229]]]}}
]
}
