{
"type": "FeatureCollection",
"name": "ENFIE_81_walking",
"crs": { "type": "name", "properties": { "name": "urn:ogc:def:crs:OGC:1.3:CRS84" } },
"features": [
{"type":"Feature","properties":{"highway":"footway","name":null,"category":"Footpath (pedestrian only)"},"geometry":{"type":"MultiLineString","coordinates":[[[-0.0380244,51.6774221],[-0.0382162,51.677447],[-0.0384174,51.6774669],[-0.0385621,51.6774869],[-0.038664,51.6775268],[-0.0388571,51.6775967],[-0.0389144,51.677666]]]}},
{"type":"Feature","properties":{"highway":"footway","name":"Painters Lane","category":"Footpath (pedestrian only)"},"geometry":{"type":"MultiLineString","coordinates":[[[-0.0317927,51.6792542],[-0.0313402,51.6792431],[-0.031236,51.6792405],[-0.0306622,51.6792106],[-0.0303354,51.6791573],[-0.0302067,51.6791421]]]}},
{"type":"Feature","properties":{"highway":"footway","name":null,"category":"Footpath (pedestrian only)"},"geometry":{"type":"MultiLineString","coordinates":[[[-0.0351882,51.685316],[-0.0349438,51.6853256],[-0.0344496,51.6853456],[-0.0342867,51.6853614],[-0.0340413,51.6853602]]]}},
{"type":"Feature","properties":{"highway":"footway","name":null,"category":"Footpath (pedestrian only)"},"geometry":{"type":"MultiLineString","coordinates":[[[-0.0398998,51.6829432],[-0.0400201,51.6823468],[-0.0400262,51.6823112],[-0.0400295,51.6822923]]]}},
{"type":"Feature","properties":{"highway":"footway","name":null,"category":"Footpath (pedestrian only)"},"geometry":{"type":"MultiLineString","coordinates":[[[-0.0388983,51.6781956],[-0.0392004,51.6782021],[-0.0395223,51.678207],[-0.0395587,51.6781979]]]}},
{"type":"Feature","properties":{"highway":"footway","name":null,"category":"Footpath (pedestrian only)"},"geometry":{"type":"MultiLineString","coordinates":[[[-0.037006,51.6822969],[-0.0370194,51.6823593],[-0.0371005,51.6824099],[-0.0371924,51.6824734],[-0.0372051,51.6825515],[-0.0371941,51.682665],[-0.037226,51.6828082]]]}},
{"type":"Feature","properties":{"highway":"footway","name":null,"category":"Footpath (pedestrian only)"},"geometry":{"type":"MultiLineString","coordinates":[[[-0.0398998,51.6829432],[-0.0398035,51.682801],[-0.0397071,51.6827138],[-0.0396159,51.6826758],[-0.0394449,51.6826058],[-0.0394004,51.6825413],[-0.0393501,51.6824189],[-0.037006,51.6822969],[-0.0355174,51.6822507],[-0.035448,51.6822474],[-0.0350418,51.6823104],[-0.0339661,51.6824996],[-0.0338797,51.6825128],[-0.0336258,51.6825011],[-0.0334126,51.6824636]]]}},
{"type":"Feature","properties":{"highway":"footway","name":null,"category":"Footpath (pedestrian only)"},"geometry":{"type":"MultiLineString","coordinates":[[[-0.0393501,51.6824189],[-0.0400201,51.6823468]]]}},
{"type":"Feature","properties":{"highway":"footway","name":null,"category":"Footpath (pedestrian only)"},"geometry":{"type":"MultiLineString","coordinates":[[[-0.0432164,51.6810504],[-0.0432251,51.6811223],[-0.0432266,51.6811423]]]}},
{"type":"Feature","properties":{"highway":"footway","name":null,"category":"Footpath (pedestrian only)"},"geometry":{"type":"MultiLineString","coordinates":[[[-0.0267527,51.6881896],[-0.0266577,51.6881421]]]}},
{"type":"Feature","properties":{"highway":"footway","name":null,"category":"Footpath (pedestrian only)"},"geometry":{"type":"MultiLineString","coordinates":[[[-0.0416661,51.6757233],[-0.0416708,51.67576],[-0.0417593,51.6765263],[-0.0419444,51.6772091],[-0.0420939,51.6772703]]]}},
{"type":"Feature","properties":{"highway":"footway","name":null,"category":"Footpath (pedestrian only)"},"geometry":{"type":"MultiLineString","coordinates":[[[-0.037065,51.6814406],[-0.0370575,51.6813936],[-0.0370763,51.6812821],[-0.0371407,51.6810959],[-0.0371782,51.6809778],[-0.037264,51.6808181],[-0.037311,51.6807373],[-0.0373743,51.6806282]]]}},
{"type":"Feature","properties":{"highway":"footway","name":null,"category":"Footpath (pedestrian only)"},"geometry":{"type":"MultiLineString","coordinates":[[[-0.0427869,51.6809286],[-0.0431186,51.6808886],[-0.0434104,51.680862],[-0.043728,51.6808248],[-0.0440542,51.6807716],[-0.0443021,51.6807403],[-0.0443898,51.6807104],[-0.0444261,51.6806038],[-0.0445356,51.6802937],[-0.0446797,51.6798668],[-0.044796,51.6794952],[-0.0450284,51.678772],[-0.0452245,51.6781099],[-0.0452043,51.6780626],[-0.0452044,51.6779011],[-0.0452116,51.6777823],[-0.0451971,51.6776434],[-0.0452273,51.6774495],[-0.0452986,51.6772607],[-0.0453991,51.6770784],[-0.0454334,51.6769525],[-0.0455166,51.6767426],[-0.0454764,51.6765043],[-0.0454598,51.6762195],[-0.045479,51.6759178],[-0.0455562,51.6757528],[-0.0455991,51.6756091],[-0.0456259,51.6753764],[-0.0456742,51.6751441],[-0.0457548,51.674979],[-0.0458632,51.6748205],[-0.0459403,51.6746401],[-0.0459715,51.6745183],[-0.0459782,51.6744028],[-0.0459903,51.6742999],[-0.0460924,51.6740896],[-0.0461009,51.6740313],[-0.0460873,51.6739756],[-0.0460574,51.673944],[-0.0460327,51.6738831],[-0.0460261,51.6738102],[-0.0460651,51.6737284],[-0.0461471,51.6736083],[-0.0462097,51.6734833],[-0.0461656,51.6733416],[-0.0461134,51.6732363],[-0.046084,51.6731755],[-0.046073,51.6731201],[-0.0460541,51.6730729],[-0.0460252,51.6728078],[-0.0460857,51.6727527],[-0.0461717,51.6726345],[-0.0462466,51.6725604],[-0.0463565,51.6725014]]]}},
{"type":"Feature","properties":{"highway":"footway","name":null,"category":"Footpath (pedestrian only)"},"geometry":{"type":"MultiLineString","coordinates":[[[-0.0388017,51.6786089],[-0.0387659,51.6786461],[-0.0387284,51.6786478],[-0.0386721,51.6786478],[-0.0385594,51.6786445],[-0.0384655,51.6786411],[-0.0384147,51.6786644],[-0.0383664,51.678686],[-0.0383342,51.6787409],[-0.0382994,51.6788224],[-0.0382296,51.679007],[-0.0381535,51.6791674],[-0.0381249,51.679343],[-0.0380901,51.6795559],[-0.0380767,51.6797172],[-0.0380724,51.6798324]]]}},
{"type":"Feature","properties":{"highway":"footway","name":null,"category":"Footpath (pedestrian only)"},"geometry":{"type":"MultiLineString","coordinates":[[[-0.0454334,51.6769525],[-0.0451604,51.677189],[-0.0448708,51.6772655],[-0.044683,51.6773071],[-0.0445623,51.6773104],[-0.0444336,51.6772905],[-0.0442512,51.6772456],[-0.0440071,51.6772273],[-0.0436986,51.6772256],[-0.0432815,51.6772393],[-0.0429449,51.6772456],[-0.0426928,51.6772572],[-0.0425665,51.6772597]]]}},
{"type":"Feature","properties":{"highway":"path","name":null,"category":"Shared path"},"geometry":{"type":"MultiLineString","coordinates":[[[-0.0332064,51.6771042],[-0.0332165,51.6770145],[-0.0332487,51.6768032],[-0.0340131,51.6768548],[-0.0340924,51.676876]]]}},
{"type":"Feature","properties":{"highway":"path","name":null,"category":"Shared path"},"geometry":{"type":"MultiLineString","coordinates":[[[-0.033301,51.6770906],[-0.0334981,51.6771159],[-0.0339112,51.6771442],[-0.0340641,51.6769579],[-0.0340924,51.676876]]]}},
{"type":"Feature","properties":{"highway":"footway","name":null,"category":"Footpath (pedestrian only)"},"geometry":{"type":"MultiLineString","coordinates":[[[-0.0263553,51.6849137],[-0.0263775,51.684915],[-0.026382,51.6849153],[-0.0265546,51.6849245],[-0.0265795,51.6849256],[-0.0266153,51.6849274]]]}},
{"type":"Feature","properties":{"highway":"footway","name":null,"category":"Footpath (pedestrian only)"},"geometry":{"type":"MultiLineString","coordinates":[[[-0.0265517,51.6853012],[-0.0265173,51.685301],[-0.0265171,51.6853114]]]}},
{"type":"Feature","properties":{"highway":"footway","name":null,"category":"Footpath (pedestrian only)"},"geometry":{"type":"MultiLineString","coordinates":[[[-0.0265366,51.6856872],[-0.0265072,51.6856873],[-0.0265073,51.6856963]]]}},
{"type":"Feature","properties":{"highway":"footway","name":null,"category":"Footpath (pedestrian only)"},"geometry":{"type":"MultiLineString","coordinates":[[[-0.028092,51.6857808],[-0.0280829,51.6858385],[-0.0280706,51.6858885],[-0.0280414,51.6859296],[-0.0279936,51.6859537],[-0.0279361,51.685962],[-0.0276538,51.6859395],[-0.0276075,51.6859328],[-0.0275184,51.6859148],[-0.0274423,51.6858939],[-0.0273465,51.6858644],[-0.0272822,51.6858484],[-0.0272043,51.685838],[-0.0271017,51.6858316],[-0.0269685,51.6858256],[-0.0268946,51.685818],[-0.0268299,51.685799],[-0.0267758,51.6857768],[-0.0267354,51.6857505],[-0.0267084,51.6857208],[-0.0266899,51.6856913],[-0.0266822,51.6856568],[-0.0266896,51.6853816],[-0.0266923,51.6853423],[-0.0266993,51.6853112],[-0.0267255,51.6852748],[-0.0267673,51.6852431],[-0.0268116,51.6852237],[-0.0268682,51.6852119],[-0.0269579,51.685215],[-0.0270485,51.6852405],[-0.0271269,51.6852538],[-0.0273007,51.6852736],[-0.0273705,51.6852727],[-0.0274764,51.6852685],[-0.0276883,51.6852917],[-0.0278978,51.6853169],[-0.0279092,51.6853183],[-0.0280008,51.6853339],[-0.0280592,51.6853478],[-0.0281072,51.6853873],[-0.028116,51.6854056],[-0.0281141,51.6854352],[-0.0280956,51.685467],[-0.0280813,51.6854776],[-0.0280529,51.6854988],[-0.0280143,51.6855079],[-0.0279277,51.6855058],[-0.0277822,51.6854774],[-0.027677,51.6854633],[-0.0275294,51.6854517],[-0.0273902,51.6854537],[-0.0272989,51.6854628],[-0.0271973,51.6854687],[-0.0267082,51.6854626]]]}},
{"type":"Feature","properties":{"highway":"path","name":null,"category":"Shared path"},"geometry":{"type":"MultiLineString","coordinates":[[[-0.0263921,51.6849977],[-0.0263708,51.6849962]]]}},
{"type":"Feature","properties":{"highway":"path","name":null,"category":"Shared path"},"geometry":{"type":"MultiLineString","coordinates":[[[-0.0264752,51.6850756],[-0.0265334,51.6850781]]]}},
{"type":"Feature","properties":{"highway":"footway","name":null,"category":"Footpath (pedestrian only)"},"geometry":{"type":"MultiLineString","coordinates":[[[-0.0239618,51.6853259],[-0.0239828,51.6853245],[-0.0240053,51.6853652],[-0.0240328,51.685386],[-0.0240703,51.6854039],[-0.0241118,51.6854185],[-0.0241344,51.685422],[-0.024135,51.6854333]]]}},
{"type":"Feature","properties":{"highway":"footway","name":null,"category":"Footpath (pedestrian only)"},"geometry":{"type":"MultiLineString","coordinates":[[[-0.0266896,51.6853816],[-0.0267299,51.6853831],[-0.026725,51.6854387],[-0.0271917,51.6854486],[-0.027306,51.6854432],[-0.0273581,51.6854456],[-0.0273902,51.6854537]]]}},
{"type":"Feature","properties":{"highway":"footway","name":null,"category":"Footpath (pedestrian only)"},"geometry":{"type":"MultiLineString","coordinates":[[[-0.0242255,51.6855967],[-0.0242259,51.6855564],[-0.0242261,51.6855159]]]}},
{"type":"Feature","properties":{"highway":"footway","name":null,"category":"Footpath (pedestrian only)"},"geometry":{"type":"MultiLineString","coordinates":[[[-0.0265517,51.6853012],[-0.0265949,51.6852132],[-0.0266512,51.6851858],[-0.0267022,51.6851351],[-0.0267222,51.6850815],[-0.0266928,51.6849855],[-0.0266676,51.6848998],[-0.0266535,51.6848522]]]}},
{"type":"Feature","properties":{"highway":"footway","name":null,"category":"Footpath (pedestrian only)"},"geometry":{"type":"MultiLineString","coordinates":[[[-0.0268703,51.6850927],[-0.0269371,51.6851176],[-0.027047,51.6851326]]]}},
{"type":"Feature","properties":{"highway":"footway","name":null,"category":"Footpath (pedestrian only)"},"geometry":{"type":"MultiLineString","coordinates":[[[-0.0286746,51.6858424],[-0.0285783,51.6858022],[-0.0284909,51.6857739]]]}},
{"type":"Feature","properties":{"highway":"track","name":null,"category":"Track"},"geometry":{"type":"MultiLineString","coordinates":[[[-0.0349278,51.6784648],[-0.0350925,51.6784545],[-0.0356987,51.6784894],[-0.0363236,51.6785193],[-0.0370022,51.6785326],[-0.0377157,51.6785609],[-0.0377935,51.678536],[-0.0378069,51.6785127]]]}},
{"type":"Feature","properties":{"highway":"track","name":null,"category":"Track"},"geometry":{"type":"MultiLineString","coordinates":[[[-0.0386813,51.6770175],[-0.03881,51.6767613],[-0.0389173,51.6765684],[-0.0390514,51.6764187],[-0.0390713,51.6763823],[-0.0390461,51.6762856],[-0.0389227,51.6762291],[-0.0387188,51.6761858],[-0.0382682,51.6761326],[-0.0380644,51.6760761],[-0.0378659,51.6759663],[-0.0376996,51.6758299],[-0.0375279,51.6757467],[-0.03729,51.6756829],[-0.037189,51.6756355],[-0.0373489,51.6754884],[-0.0375362,51.6753062]]]}},
{"type":"Feature","properties":{"highway":"path","name":null,"category":"Shared path"},"geometry":{"type":"MultiLineString","coordinates":[[[-0.0340335,51.6794393],[-0.0338762,51.6794591],[-0.0337591,51.6794809]]]}},
{"type":"Feature","properties":{"highway":"footway","name":null,"category":"Footpath (pedestrian only)"},"geometry":{"type":"MultiLineString","coordinates":[[[-0.030386,51.6787642],[-0.0303354,51.6791573]]]}},
{"type":"Feature","properties":{"highway":"footway","name":null,"category":"Footpath (pedestrian only)"},"geometry":{"type":"MultiLineString","coordinates":[[[-0.0313402,51.6792431],[-0.0312249,51.6791166]]]}},
{"type":"Feature","properties":{"highway":"footway","name":null,"category":"Footpath (pedestrian only)"},"geometry":{"type":"MultiLineString","coordinates":[[[-0.032141,51.6777272],[-0.0315762,51.6777029]]]}},
{"type":"Feature","properties":{"highway":"footway","name":null,"category":"Footpath (pedestrian only)"},"geometry":{"type":"MultiLineString","coordinates":[[[-0.0304763,51.677462],[-0.0306804,51.6774751]]]}},
{"type":"Feature","properties":{"highway":"footway","name":null,"category":"Footpath (pedestrian only)"},"geometry":{"type":"MultiLineString","coordinates":[[[-0.0303094,51.6780955],[-0.0305382,51.6781121],[-0.0307823,51.6782401],[-0.0308413,51.6782909]]]}},
{"type":"Feature","properties":{"highway":"footway","name":null,"category":"Footpath (pedestrian only)"},"geometry":{"type":"MultiLineString","coordinates":[[[-0.0302951,51.6787592],[-0.030386,51.6787642],[-0.0304738,51.678769]]]}},
{"type":"Feature","properties":{"highway":"footway","name":null,"category":"Footpath (pedestrian only)"},"geometry":{"type":"MultiLineString","coordinates":[[[-0.0339297,51.6821426],[-0.0339536,51.6821831],[-0.0339362,51.6822822]]]}},
{"type":"Feature","properties":{"highway":"footway","name":null,"category":"Footpath (pedestrian only)"},"geometry":{"type":"MultiLineString","coordinates":[[[-0.0335129,51.6821166],[-0.0337175,51.6821349],[-0.0339297,51.6821426],[-0.0347396,51.682172],[-0.0347717,51.6821731],[-0.0347851,51.6821981],[-0.0348119,51.6822214],[-0.0348414,51.6822297],[-0.035448,51.6822474]]]}},
{"type":"Feature","properties":{"highway":"footway","name":null,"category":"Footpath (pedestrian only)"},"geometry":{"type":"MultiLineString","coordinates":[[[-0.0339174,51.6823631],[-0.0339555,51.6824767],[-0.0339661,51.6824996]]]}},
{"type":"Feature","properties":{"highway":"footway","name":null,"category":"Footpath (pedestrian only)"},"geometry":{"type":"MultiLineString","coordinates":[[[-0.0339174,51.6823631],[-0.0338812,51.6823528],[-0.0338651,51.6823345],[-0.0338671,51.6823129],[-0.0338785,51.6822979],[-0.0338953,51.6822863],[-0.0339214,51.6822813],[-0.0339362,51.6822822]]]}},
{"type":"Feature","properties":{"highway":"footway","name":null,"category":"Footpath (pedestrian only)"},"geometry":{"type":"MultiLineString","coordinates":[[[-0.0339362,51.6822822],[-0.0339663,51.6822972],[-0.0339748,51.6823142],[-0.033971,51.6823371],[-0.0339536,51.6823561],[-0.0339174,51.6823631]]]}},
{"type":"Feature","properties":{"highway":"footway","name":null,"category":"Footpath (pedestrian only)"},"geometry":{"type":"MultiLineString","coordinates":[[[-0.035448,51.6822474],[-0.0354528,51.6822247],[-0.0354822,51.6820869]]]}},
{"type":"Feature","properties":{"highway":"footway","name":null,"category":"Footpath (pedestrian only)"},"geometry":{"type":"MultiLineString","coordinates":[[[-0.0347396,51.682172],[-0.0347464,51.6821473],[-0.0347562,51.682117]]]}},
{"type":"Feature","properties":{"highway":"footway","name":null,"category":"Footpath (pedestrian only)"},"geometry":{"type":"MultiLineString","coordinates":[[[-0.0422224,51.6830368],[-0.0422336,51.6829622],[-0.0422644,51.6827453],[-0.0422577,51.6825532],[-0.042243,51.682485],[-0.0422,51.6824617],[-0.0420083,51.6824476],[-0.0416314,51.6824517],[-0.040867,51.682391],[-0.040647,51.6823769],[-0.0405612,51.6822996],[-0.0400824,51.6823087],[-0.0400262,51.6823112]]]}},
{"type":"Feature","properties":{"highway":"footway","name":null,"category":"Footpath (pedestrian only)"},"geometry":{"type":"MultiLineString","coordinates":[[[-0.0398998,51.6829432],[-0.0399698,51.6829386],[-0.0404439,51.682961],[-0.041913,51.6829946],[-0.0421314,51.6830048],[-0.0422224,51.6830368],[-0.0423199,51.6830632],[-0.0424916,51.6830932],[-0.0426364,51.6831148]]]}},
{"type":"Feature","properties":{"highway":"footway","name":null,"category":"Footpath (pedestrian only)"},"geometry":{"type":"MultiLineString","coordinates":[[[-0.0445848,51.6810107],[-0.0450128,51.680974],[-0.0452722,51.6809474],[-0.0454986,51.6809187],[-0.0456789,51.6808901],[-0.0458776,51.6808471],[-0.0464937,51.6807022]]]}},
{"type":"Feature","properties":{"highway":"footway","name":null,"category":"Footpath (pedestrian only)"},"geometry":{"type":"MultiLineString","coordinates":[[[-0.0449774,51.6810955],[-0.0450171,51.6811729],[-0.0450611,51.6813494],[-0.0450872,51.6817797]]]}},
{"type":"Feature","properties":{"highway":"footway","name":null,"category":"Footpath (pedestrian only)"},"geometry":{"type":"MultiLineString","coordinates":[[[-0.0450171,51.6811729],[-0.0452951,51.6811109],[-0.045585,51.6810439],[-0.0459827,51.6809324],[-0.0461616,51.6808797],[-0.0465036,51.6807213],[-0.0464937,51.6807022]]]}},
{"type":"Feature","properties":{"highway":"footway","name":null,"category":"Footpath (pedestrian only)"},"geometry":{"type":"MultiLineString","coordinates":[[[-0.0450611,51.6813494],[-0.0456149,51.6813321],[-0.045585,51.6810439]]]}},
{"type":"Feature","properties":{"highway":"footway","name":null,"category":"Footpath (pedestrian only)"},"geometry":{"type":"MultiLineString","coordinates":[[[-0.0267222,51.6850815],[-0.0266799,51.6850858]]]}},
{"type":"Feature","properties":{"highway":"footway","name":null,"category":"Footpath (pedestrian only)"},"geometry":{"type":"MultiLineString","coordinates":[[[-0.0266535,51.6848522],[-0.026633,51.6847995],[-0.0266147,51.6847335],[-0.0266691,51.684716]]]}},
{"type":"Feature","properties":{"highway":"footway","name":null,"category":"Footpath (pedestrian only)"},"geometry":{"type":"MultiLineString","coordinates":[[[-0.0514552,51.6794936],[-0.051484,51.6794982],[-0.0516121,51.6791613]]]}},
{"type":"Feature","properties":{"highway":"footway","name":null,"category":"Footpath (pedestrian only)"},"geometry":{"type":"MultiLineString","coordinates":[[[-0.0506784,51.6797876],[-0.0506937,51.6798021],[-0.0507176,51.6797971],[-0.0508815,51.6797262],[-0.0509459,51.6796703],[-0.0509768,51.6796109]]]}},
{"type":"Feature","properties":{"highway":"path","name":null,"category":"Shared path"},"geometry":{"type":"MultiLineString","coordinates":[[[-0.0419641,51.6872141],[-0.0419544,51.6871379],[-0.0419362,51.6870685]]]}},
{"type":"Feature","properties":{"highway":"path","name":null,"category":"Shared path"},"geometry":{"type":"MultiLineString","coordinates":[[[-0.0417588,51.6877865],[-0.0422081,51.6880006],[-0.0427124,51.6884396],[-0.0428548,51.688608],[-0.0430017,51.6887984],[-0.0432488,51.6892045],[-0.0434522,51.6896315],[-0.0436029,51.6902487],[-0.0438282,51.6904881],[-0.0440642,51.690548],[-0.0442783,51.6905227],[-0.0443646,51.6903884],[-0.0444929,51.6902766],[-0.0445148,51.6901556],[-0.0446216,51.6899175],[-0.0446323,51.6896448],[-0.0445143,51.6894453],[-0.0442461,51.6892391],[-0.0438384,51.6890861],[-0.0433883,51.6889584]]]}},
{"type":"Feature","properties":{"highway":"path","name":null,"category":"Shared path"},"geometry":{"type":"MultiLineString","coordinates":[[[-0.0430017,51.6887984],[-0.0433883,51.6889584],[-0.0433776,51.6887123],[-0.0435108,51.6886713],[-0.0435702,51.6886689]]]}},
{"type":"Feature","properties":{"highway":"path","name":null,"category":"Shared path"},"geometry":{"type":"MultiLineString","coordinates":[[[-0.0433776,51.6887123],[-0.0431108,51.6886773],[-0.0428548,51.688608]]]}},
{"type":"Feature","properties":{"highway":"path","name":null,"category":"Shared path"},"geometry":{"type":"MultiLineString","coordinates":[[[-0.0415644,51.6883518],[-0.041128,51.6882866],[-0.0407394,51.6882326],[-0.0402421,51.6881934]]]}},
{"type":"Feature","properties":{"highway":"path","name":null,"category":"Shared path"},"geometry":{"type":"MultiLineString","coordinates":[[[-0.0413864,51.688998],[-0.0405774,51.6889185]]]}},
{"type":"Feature","properties":{"highway":"path","name":null,"category":"Shared path"},"geometry":{"type":"MultiLineString","coordinates":[[[-0.0419255,51.6873137],[-0.0421035,51.687244],[-0.0422135,51.6872108]]]}},
{"type":"Feature","properties":{"highway":"path","name":null,"category":"Shared path"},"geometry":{"type":"MultiLineString","coordinates":[[[-0.0409541,51.6871821],[-0.0409687,51.6871618]]]}},
{"type":"Feature","properties":{"highway":"path","name":null,"category":"Shared path"},"geometry":{"type":"MultiLineString","coordinates":[[[-0.0327012,51.6879853],[-0.0330198,51.6878851]]]}},
{"type":"Feature","properties":{"highway":"path","name":null,"category":"Shared path"},"geometry":{"type":"MultiLineString","coordinates":[[[-0.0327395,51.6881285],[-0.0327204,51.6880795],[-0.0325719,51.687896],[-0.0326255,51.687881],[-0.0327012,51.6879853]]]}},
{"type":"Feature","properties":{"highway":"path","name":null,"category":"Shared path"},"geometry":{"type":"MultiLineString","coordinates":[[[-0.0330198,51.6878851],[-0.0329207,51.6877504],[-0.0329018,51.6877247]]]}},
{"type":"Feature","properties":{"highway":"path","name":null,"category":"Shared path"},"geometry":{"type":"MultiLineString","coordinates":[[[-0.0329207,51.6877504],[-0.0329608,51.6877463],[-0.0330573,51.6878744],[-0.0331637,51.6879066]]]}},
{"type":"Feature","properties":{"highway":"path","name":null,"category":"Shared path"},"geometry":{"type":"MultiLineString","coordinates":[[[-0.0329849,51.6876981],[-0.0331873,51.6876476]]]}},
{"type":"Feature","properties":{"highway":"path","name":null,"category":"Shared path"},"geometry":{"type":"MultiLineString","coordinates":[[[-0.0285267,51.6850439],[-0.0284757,51.6851819],[-0.0284355,51.6853249],[-0.0284114,51.6854247],[-0.0283914,51.6854597]]]}},
{"type":"Feature","properties":{"highway":"footway","name":null,"category":"Footpath (pedestrian only)"},"geometry":{"type":"MultiLineString","coordinates":[[[-0.0383664,51.678686],[-0.0384126,51.6785684],[-0.0384481,51.6784744],[-0.0384545,51.6784063],[-0.038461,51.6783303],[-0.0384642,51.6782323],[-0.038461,51.6781242],[-0.038477,51.6780665]]]}},
{"type":"Feature","properties":{"highway":"footway","name":null,"category":"Footpath (pedestrian only)"},"geometry":{"type":"MultiLineString","coordinates":[[[-0.0460588,51.6807389],[-0.0460189,51.6806654],[-0.0460092,51.6806161],[-0.0460365,51.6803846],[-0.045767,51.6803019]]]}},
{"type":"Feature","properties":{"highway":"footway","name":"Little Ride","category":"Footpath (pedestrian only)"},"geometry":{"type":"MultiLineString","coordinates":[[[-0.0491889,51.6799797],[-0.0489721,51.6792776]]]}},
{"type":"Feature","properties":{"highway":"footway","name":"Hertford Road","category":"Footpath (pedestrian only)"},"geometry":{"type":"MultiLineString","coordinates":[[[-0.0341721,51.6794844],[-0.0340275,51.6795263]]]}},
{"type":"Feature","properties":{"highway":"footway","name":null,"category":"Footpath (pedestrian only)"},"geometry":{"type":"MultiLineString","coordinates":[[[-0.0444458,51.6808812],[-0.0445136,51.6808761],[-0.0446441,51.6808648]]]}},
{"type":"Feature","properties":{"highway":"footway","name":null,"category":"Footpath (pedestrian only)"},"geometry":{"type":"MultiLineString","coordinates":[[[-0.0513244,51.6799949],[-0.0513045,51.6800978],[-0.0512949,51.6801957]]]}},
{"type":"Feature","properties":{"highway":"footway","name":null,"category":"Footpath (pedestrian only)"},"geometry":{"type":"MultiLineString","coordinates":[[[-0.0512949,51.6801957],[-0.0514193,51.6802015],[-0.0515027,51.6802347],[-0.051589,51.6802274]]]}},
{"type":"Feature","properties":{"highway":"footway","name":null,"category":"Footpath (pedestrian only)"},"geometry":{"type":"MultiLineString","coordinates":[[[-0.0510634,51.6794315],[-0.0510398,51.6794277],[-0.0511374,51.6791416],[-0.0510728,51.6791335]]]}},
{"type":"Feature","properties":{"highway":"footway","name":null,"category":"Footpath (pedestrian only)"},"geometry":{"type":"MultiLineString","coordinates":[[[-0.0514076,51.6798926],[-0.0513244,51.6799949]]]}},
{"type":"Feature","properties":{"highway":"footway","name":null,"category":"Footpath (pedestrian only)"},"geometry":{"type":"MultiLineString","coordinates":[[[-0.0517,51.6790753],[-0.0516607,51.6791682],[-0.0515078,51.6796047],[-0.0514623,51.6796255],[-0.0514077,51.6797894],[-0.0514785,51.6798571]]]}},
{"type":"Feature","properties":{"highway":"footway","name":null,"category":"Footpath (pedestrian only)"},"geometry":{"type":"MultiLineString","coordinates":[[[-0.0514623,51.6796255],[-0.0514504,51.6795886]]]}},
{"type":"Feature","properties":{"highway":"footway","name":null,"category":"Footpath (pedestrian only)"},"geometry":{"type":"MultiLineString","coordinates":[[[-0.0514785,51.6798571],[-0.0514458,51.6798738],[-0.0514076,51.6798926]]]}},
{"type":"Feature","properties":{"highway":"footway","name":null,"category":"Footpath (pedestrian only)"},"geometry":{"type":"MultiLineString","coordinates":[[[-0.0510634,51.6794315],[-0.0514552,51.6794936]]]}},
{"type":"Feature","properties":{"highway":"bridleway","name":"Park Lane (Bridleway Cheshunt 077)","category":"Bridleway"},"geometry":{"type":"MultiLineString","coordinates":[[[-0.0409687,51.6871618],[-0.0409908,51.687121],[-0.0419362,51.6870685],[-0.0420145,51.6870639],[-0.0429415,51.6870243],[-0.0431654,51.6869962],[-0.0433114,51.6869876],[-0.0435101,51.6869961],[-0.0436965,51.6870176],[-0.0441624,51.687164]]]}},
{"type":"Feature","properties":{"highway":"footway","name":"Park Lane","category":"Footpath (pedestrian only)"},"geometry":{"type":"MultiLineString","coordinates":[[[-0.0407085,51.6871316],[-0.04079,51.6871032]]]}},
{"type":"Feature","properties":{"highway":"footway","name":"Park Lane","category":"Footpath (pedestrian only)"},"geometry":{"type":"MultiLineString","coordinates":[[[-0.0408718,51.6871273],[-0.0409033,51.6871377],[-0.0409687,51.6871618]]]}},
{"type":"Feature","properties":{"highway":"footway","name":"Park Lane","category":"Footpath (pedestrian only)"},"geometry":{"type":"MultiLineString","coordinates":[[[-0.04079,51.6871032],[-0.0408282,51.6871138],[-0.0408718,51.6871273]]]}},
{"type":"Feature","properties":{"highway":"footway","name":"Park Lane","category":"Footpath (pedestrian only)"},"geometry":{"type":"MultiLineString","coordinates":[[[-0.0441624,51.687164],[-0.0442274,51.6871852]]]}},
{"type":"Feature","properties":{"highway":"footway","name":null,"category":"Footpath (pedestrian only)"},"geometry":{"type":"MultiLineString","coordinates":[[[-0.0283854,51.6855026],[-0.0283503,51.6854965],[-0.0283332,51.6854476]]]}},
{"type":"Feature","properties":{"highway":"footway","name":null,"category":"Footpath (pedestrian only)"},"geometry":{"type":"MultiLineString","coordinates":[[[-0.0262705,51.6854507],[-0.0265152,51.6854589],[-0.0267082,51.6854626]]]}},
{"type":"Feature","properties":{"highway":"footway","name":null,"category":"Footpath (pedestrian only)"},"geometry":{"type":"MultiLineString","coordinates":[[[-0.0344124,51.6892826],[-0.034412,51.6892716],[-0.0344419,51.6892809],[-0.0344795,51.6892856]]]}},
{"type":"Feature","properties":{"highway":"footway","name":null,"category":"Footpath (pedestrian only)"},"geometry":{"type":"MultiLineString","coordinates":[[[-0.0344095,51.6893468],[-0.0344136,51.6893209],[-0.0344124,51.6892826]]]}},
{"type":"Feature","properties":{"highway":"footway","name":null,"category":"Footpath (pedestrian only)"},"geometry":{"type":"MultiLineString","coordinates":[[[-0.0343294,51.6894844],[-0.0343096,51.6894363],[-0.0343033,51.6894008]]]}},
{"type":"Feature","properties":{"highway":"footway","name":null,"category":"Footpath (pedestrian only)"},"geometry":{"type":"MultiLineString","coordinates":[[[-0.0343033,51.6894008],[-0.034302,51.689361],[-0.0344098,51.6893695],[-0.0344095,51.6893468]]]}},
{"type":"Feature","properties":{"highway":"footway","name":null,"category":"Footpath (pedestrian only)"},"geometry":{"type":"MultiLineString","coordinates":[[[-0.0340476,51.6798108],[-0.0340275,51.6798111],[-0.0340254,51.6797874],[-0.0340031,51.6797876]]]}},
{"type":"Feature","properties":{"highway":"path","name":null,"category":"Shared path"},"geometry":{"type":"MultiLineString","coordinates":[[[-0.0338408,51.6797119],[-0.0338534,51.6796838],[-0.0337591,51.6794809],[-0.0336521,51.6792506],[-0.0336352,51.6792057]]]}},
{"type":"Feature","properties":{"highway":"footway","name":null,"category":"Footpath (pedestrian only)"},"geometry":{"type":"MultiLineString","coordinates":[[[-0.0338711,51.6797442],[-0.0338564,51.6797285],[-0.0338408,51.6797119]]]}},
{"type":"Feature","properties":{"highway":"footway","name":null,"category":"Footpath (pedestrian only)"},"geometry":{"type":"MultiLineString","coordinates":[[[-0.0340031,51.6797876],[-0.03397,51.6797884],[-0.0339307,51.6797882]]]}},
{"type":"Feature","properties":{"highway":"footway","name":null,"category":"Footpath (pedestrian only)"},"geometry":{"type":"MultiLineString","coordinates":[[[-0.0341279,51.6798102],[-0.0340883,51.6798109],[-0.0340476,51.6798108]]]}},
{"type":"Feature","properties":{"highway":"footway","name":null,"category":"Footpath (pedestrian only)"},"geometry":{"type":"MultiLineString","coordinates":[[[-0.0342044,51.679765],[-0.0341713,51.6797802],[-0.0341279,51.6798102]]]}},
{"type":"Feature","properties":{"highway":"footway","name":null,"category":"Footpath (pedestrian only)"},"geometry":{"type":"MultiLineString","coordinates":[[[-0.0339307,51.6797882],[-0.0338731,51.679779],[-0.0338711,51.6797442]]]}},
{"type":"Feature","properties":{"highway":"footway","name":null,"category":"Footpath (pedestrian only)"},"geometry":{"type":"MultiLineString","coordinates":[[[-0.0339206,51.6800648],[-0.0339729,51.680068],[-0.0340163,51.6800706]]]}},
{"type":"Feature","properties":{"highway":"footway","name":null,"category":"Footpath (pedestrian only)"},"geometry":{"type":"MultiLineString","coordinates":[[[-0.0341548,51.6801113],[-0.0342103,51.6801163],[-0.0342332,51.680151]]]}},
{"type":"Feature","properties":{"highway":"footway","name":null,"category":"Footpath (pedestrian only)"},"geometry":{"type":"MultiLineString","coordinates":[[[-0.0340543,51.6801078],[-0.0341022,51.6801084],[-0.0341548,51.6801113]]]}},
{"type":"Feature","properties":{"highway":"footway","name":null,"category":"Footpath (pedestrian only)"},"geometry":{"type":"MultiLineString","coordinates":[[[-0.0337941,51.6800682],[-0.0338271,51.6800544],[-0.033849,51.6800453]]]}},
{"type":"Feature","properties":{"highway":"footway","name":null,"category":"Footpath (pedestrian only)"},"geometry":{"type":"MultiLineString","coordinates":[[[-0.0342332,51.680151],[-0.0342455,51.6801774],[-0.0342551,51.6802056]]]}},
{"type":"Feature","properties":{"highway":"footway","name":null,"category":"Footpath (pedestrian only)"},"geometry":{"type":"MultiLineString","coordinates":[[[-0.0340163,51.6800706],[-0.0340283,51.6800687],[-0.0340244,51.6801077],[-0.0340543,51.6801078]]]}},
{"type":"Feature","properties":{"highway":"footway","name":null,"category":"Footpath (pedestrian only)"},"geometry":{"type":"MultiLineString","coordinates":[[[-0.033849,51.6800453],[-0.0338938,51.6800272],[-0.033808,51.679989],[-0.0338183,51.6799702]]]}},
{"type":"Feature","properties":{"highway":"footway","name":null,"category":"Footpath (pedestrian only)"},"geometry":{"type":"MultiLineString","coordinates":[[[-0.0338113,51.6798749],[-0.033835,51.6798349],[-0.0338547,51.6798021]]]}},
{"type":"Feature","properties":{"highway":"footway","name":null,"category":"Footpath (pedestrian only)"},"geometry":{"type":"MultiLineString","coordinates":[[[-0.0343729,51.6799985],[-0.0343931,51.6799709],[-0.0344166,51.6799378]]]}},
{"type":"Feature","properties":{"highway":"footway","name":null,"category":"Footpath (pedestrian only)"},"geometry":{"type":"MultiLineString","coordinates":[[[-0.0338547,51.6798021],[-0.0338731,51.679779]]]}},
{"type":"Feature","properties":{"highway":"footway","name":null,"category":"Footpath (pedestrian only)"},"geometry":{"type":"MultiLineString","coordinates":[[[-0.0342831,51.6799971],[-0.0342873,51.6799909],[-0.034364,51.6800092],[-0.0343729,51.6799985]]]}},
{"type":"Feature","properties":{"highway":"footway","name":null,"category":"Footpath (pedestrian only)"},"geometry":{"type":"MultiLineString","coordinates":[[[-0.0338183,51.6799702],[-0.0338383,51.6799396],[-0.0338508,51.6799147]]]}},
{"type":"Feature","properties":{"highway":"footway","name":null,"category":"Footpath (pedestrian only)"},"geometry":{"type":"MultiLineString","coordinates":[[[-0.0344166,51.6799378],[-0.0342658,51.6798885],[-0.034171,51.6798402],[-0.0341279,51.6798102]]]}},
{"type":"Feature","properties":{"highway":"footway","name":null,"category":"Footpath (pedestrian only)"},"geometry":{"type":"MultiLineString","coordinates":[[[-0.0342366,51.6800751],[-0.0342576,51.6800346],[-0.0342831,51.6799971]]]}},
{"type":"Feature","properties":{"highway":"footway","name":null,"category":"Footpath (pedestrian only)"},"geometry":{"type":"MultiLineString","coordinates":[[[-0.0342103,51.6801163],[-0.0342366,51.6800751]]]}},
{"type":"Feature","properties":{"highway":"footway","name":null,"category":"Footpath (pedestrian only)"},"geometry":{"type":"MultiLineString","coordinates":[[[-0.0338938,51.6800272],[-0.0339206,51.6800648]]]}},
{"type":"Feature","properties":{"highway":"footway","name":null,"category":"Footpath (pedestrian only)"},"geometry":{"type":"MultiLineString","coordinates":[[[-0.0338508,51.6799147],[-0.0338603,51.6799026],[-0.0338024,51.6798871],[-0.0338113,51.6798749]]]}},
{"type":"Feature","properties":{"highway":"footway","name":null,"category":"Footpath (pedestrian only)"},"geometry":{"type":"MultiLineString","coordinates":[[[-0.0332765,51.6798365],[-0.0333861,51.6798773],[-0.0335067,51.6799354],[-0.0336122,51.6799954],[-0.0337147,51.6800517],[-0.0337802,51.6800761],[-0.0337941,51.6800682]]]}},
{"type":"Feature","properties":{"highway":"footway","name":null,"category":"Footpath (pedestrian only)"},"geometry":{"type":"MultiLineString","coordinates":[[[-0.0241375,51.685489],[-0.0241366,51.6854653],[-0.024135,51.6854333]]]}},
{"type":"Feature","properties":{"highway":"footway","name":null,"category":"Footpath (pedestrian only)"},"geometry":{"type":"MultiLineString","coordinates":[[[-0.0242261,51.6855159],[-0.0242267,51.6855042],[-0.0241375,51.6855038],[-0.0241375,51.685489]]]}},
{"type":"Feature","properties":{"highway":"footway","name":null,"category":"Footpath (pedestrian only)"},"geometry":{"type":"MultiLineString","coordinates":[[[-0.0326219,51.6834661],[-0.0326216,51.683433],[-0.03262,51.683408]]]}},
{"type":"Feature","properties":{"highway":"footway","name":null,"category":"Footpath (pedestrian only)"},"geometry":{"type":"MultiLineString","coordinates":[[[-0.0325212,51.6835814],[-0.0325205,51.6835397],[-0.032519,51.6835146]]]}},
{"type":"Feature","properties":{"highway":"footway","name":null,"category":"Footpath (pedestrian only)"},"geometry":{"type":"MultiLineString","coordinates":[[[-0.032519,51.6835146],[-0.0325179,51.6834876],[-0.0326226,51.6834861],[-0.0326219,51.6834661]]]}},
{"type":"Feature","properties":{"highway":"footway","name":null,"category":"Footpath (pedestrian only)"},"geometry":{"type":"MultiLineString","coordinates":[[[-0.0289658,51.6884909],[-0.0289209,51.6885204],[-0.0285126,51.6884913],[-0.0285062,51.6885242],[-0.028481,51.6885239],[-0.0284132,51.6884935]]]}},
{"type":"Feature","properties":{"highway":"footway","name":null,"category":"Footpath (pedestrian only)"},"geometry":{"type":"MultiLineString","coordinates":[[[-0.0289233,51.6861982],[-0.0289257,51.686104],[-0.0289143,51.6860685],[-0.0288558,51.6859769],[-0.0287757,51.6859046],[-0.0286746,51.6858424]]]}},
{"type":"Feature","properties":{"highway":"footway","name":null,"category":"Footpath (pedestrian only)"},"geometry":{"type":"MultiLineString","coordinates":[[[-0.0331236,51.6887188],[-0.0331079,51.6887195],[-0.0330876,51.6887203],[-0.0330658,51.6887378]]]}},
{"type":"Feature","properties":{"highway":"footway","name":null,"category":"Footpath (pedestrian only)"},"geometry":{"type":"MultiLineString","coordinates":[[[-0.037226,51.6828082],[-0.0372225,51.6828233]]]}},
{"type":"Feature","properties":{"highway":"footway","name":null,"category":"Footpath (pedestrian only)"},"geometry":{"type":"MultiLineString","coordinates":[[[-0.0362843,51.6830178],[-0.0362232,51.6830619],[-0.0358699,51.6832993]]]}},
{"type":"Feature","properties":{"highway":"footway","name":null,"category":"Footpath (pedestrian only)"},"geometry":{"type":"MultiLineString","coordinates":[[[-0.0326191,51.6833933],[-0.0325971,51.6833939],[-0.0319153,51.6834109],[-0.0318669,51.6834135],[-0.0318185,51.6834167],[-0.0317077,51.6834118],[-0.0316628,51.683369],[-0.0316239,51.6833673],[-0.031573,51.6833715],[-0.0315368,51.6833523],[-0.0315287,51.6833241]]]}},
{"type":"Feature","properties":{"highway":"path","name":null,"category":"Shared path"},"geometry":{"type":"MultiLineString","coordinates":[[[-0.039509,51.6880135],[-0.0394047,51.6879926],[-0.0393498,51.6879904],[-0.0392932,51.6880003],[-0.0391923,51.6880222],[-0.0390985,51.6880343],[-0.0390406,51.6880422]]]}},
{"type":"Feature","properties":{"highway":"path","name":null,"category":"Shared path"},"geometry":{"type":"MultiLineString","coordinates":[[[-0.0387159,51.6884838],[-0.0386172,51.6884939],[-0.0385057,51.6885104],[-0.0384102,51.6885214],[-0.0383358,51.6885203],[-0.0382774,51.6885082],[-0.0382155,51.6884808],[-0.0381677,51.6884413],[-0.0381288,51.6883941],[-0.0381126,51.6883683],[-0.0380952,51.6883612],[-0.038032,51.6884334]]]}},
{"type":"Feature","properties":{"highway":"path","name":null,"category":"Shared path"},"geometry":{"type":"MultiLineString","coordinates":[[[-0.03846,51.6887734],[-0.0384197,51.6886911],[-0.0383995,51.6886442],[-0.0383872,51.688619],[-0.0383677,51.6885883],[-0.0383323,51.6885532],[-0.0382934,51.6885225],[-0.0382726,51.6885131],[-0.0382456,51.6885071],[-0.0382049,51.6884972],[-0.0381235,51.6884906],[-0.038035,51.6884972],[-0.0379937,51.6885053],[-0.0379748,51.6885005],[-0.038032,51.6884334]]]}},
{"type":"Feature","properties":{"highway":"path","name":null,"category":"Shared path"},"geometry":{"type":"MultiLineString","coordinates":[[[-0.0382726,51.6885131],[-0.0382774,51.6885082]]]}},
{"type":"Feature","properties":{"highway":"footway","name":null,"category":"Footpath (pedestrian only)"},"geometry":{"type":"MultiLineString","coordinates":[[[-0.033539,51.6909867],[-0.0334899,51.6909619],[-0.0331264,51.6909876]]]}},
{"type":"Feature","properties":{"highway":"footway","name":null,"category":"Footpath (pedestrian only)"},"geometry":{"type":"MultiLineString","coordinates":[[[-0.0298995,51.6863762],[-0.029888,51.6864361],[-0.0299264,51.6864418],[-0.0299531,51.6864532],[-0.0299739,51.6864697],[-0.0299831,51.6864878],[-0.0299397,51.6867572],[-0.0299472,51.6867785],[-0.0299589,51.6868116],[-0.0299614,51.6868322],[-0.0298922,51.6872801]]]}},
{"type":"Feature","properties":{"highway":"footway","name":null,"category":"Footpath (pedestrian only)"},"geometry":{"type":"MultiLineString","coordinates":[[[-0.0302008,51.6868405],[-0.0301107,51.686824],[-0.0299589,51.6868116]]]}},
{"type":"Feature","properties":{"highway":"footway","name":null,"category":"Footpath (pedestrian only)"},"geometry":{"type":"MultiLineString","coordinates":[[[-0.0332477,51.6839862],[-0.0333562,51.6839908]]]}},
{"type":"Feature","properties":{"highway":"footway","name":null,"category":"Footpath (pedestrian only)"},"geometry":{"type":"MultiLineString","coordinates":[[[-0.0333562,51.6839908],[-0.0335048,51.6839928]]]}},
{"type":"Feature","properties":{"highway":"footway","name":null,"category":"Footpath (pedestrian only)"},"geometry":{"type":"MultiLineString","coordinates":[[[-0.033155,51.6839853],[-0.0332477,51.6839862]]]}},
{"type":"Feature","properties":{"highway":"footway","name":null,"category":"Footpath (pedestrian only)"},"geometry":{"type":"MultiLineString","coordinates":[[[-0.0233376,51.6793036],[-0.0234236,51.6793776],[-0.0235073,51.6794302],[-0.0236153,51.6794551],[-0.0237534,51.6794513],[-0.0250007,51.6794481],[-0.0258568,51.6794619],[-0.0265249,51.6794633],[-0.0267579,51.6794972],[-0.0267535,51.6796313],[-0.0267169,51.6797873],[-0.0267169,51.6801837],[-0.0266648,51.6804243],[-0.0266781,51.6806813],[-0.0266415,51.6809068],[-0.0266305,51.6812424],[-0.026585,51.6815441]]]}},
{"type":"Feature","properties":{"highway":"footway","name":null,"category":"Footpath (pedestrian only)"},"geometry":{"type":"MultiLineString","coordinates":[[[-0.0349065,51.6770528],[-0.0349407,51.6770216]]]}},
{"type":"Feature","properties":{"highway":"footway","name":null,"category":"Footpath (pedestrian only)"},"geometry":{"type":"MultiLineString","coordinates":[[[-0.0425665,51.6772597],[-0.0424407,51.6772622],[-0.0421912,51.6772689],[-0.0420939,51.6772703]]]}},
{"type":"Feature","properties":{"highway":"footway","name":null,"category":"Footpath (pedestrian only)"},"geometry":{"type":"MultiLineString","coordinates":[[[-0.0351097,51.6770036],[-0.0350701,51.6769918]]]}},
{"type":"Feature","properties":{"highway":"footway","name":null,"category":"Footpath (pedestrian only)"},"geometry":{"type":"MultiLineString","coordinates":[[[-0.0351775,51.676982],[-0.0351504,51.6770155],[-0.0351097,51.6770036]]]}},
{"type":"Feature","properties":{"highway":"footway","name":null,"category":"Footpath (pedestrian only)"},"geometry":{"type":"MultiLineString","coordinates":[[[-0.0350136,51.6769758],[-0.0349932,51.6769679]]]}},
{"type":"Feature","properties":{"highway":"path","name":null,"category":"Shared path"},"geometry":{"type":"MultiLineString","coordinates":[[[-0.0403471,51.6761596],[-0.0403753,51.676607],[-0.0404289,51.6771342],[-0.0404423,51.6774078],[-0.0404504,51.6775101]]]}},
{"type":"Feature","properties":{"highway":"path","name":null,"category":"Shared path"},"geometry":{"type":"MultiLineString","coordinates":[[[-0.0396544,51.6761983],[-0.0399233,51.6761831],[-0.0403471,51.6761596],[-0.0403525,51.6761429],[-0.0407927,51.6761187],[-0.0410741,51.6761089]]]}},
{"type":"Feature","properties":{"highway":"footway","name":null,"category":"Footpath (pedestrian only)"},"geometry":{"type":"MultiLineString","coordinates":[[[-0.0509768,51.6796109],[-0.0509772,51.6796101],[-0.0509881,51.6795771],[-0.0509996,51.6795425]]]}},
{"type":"Feature","properties":{"highway":"footway","name":null,"category":"Footpath (pedestrian only)"},"geometry":{"type":"MultiLineString","coordinates":[[[-0.0509881,51.6795771],[-0.0509233,51.6795711]]]}},
{"type":"Feature","properties":{"highway":"footway","name":null,"category":"Footpath (pedestrian only)"},"geometry":{"type":"MultiLineString","coordinates":[[[-0.0510398,51.6794277],[-0.0510221,51.6794784]]]}},
{"type":"Feature","properties":{"highway":"footway","name":null,"category":"Footpath (pedestrian only)"},"geometry":{"type":"MultiLineString","coordinates":[[[-0.051484,51.6794982],[-0.0514766,51.6795182]]]}},
{"type":"Feature","properties":{"highway":"footway","name":null,"category":"Footpath (pedestrian only)"},"geometry":{"type":"MultiLineString","coordinates":[[[-0.0506574,51.679776],[-0.0506784,51.6797876]]]}},
{"type":"Feature","properties":{"highway":"footway","name":null,"category":"Footpath (pedestrian only)"},"geometry":{"type":"MultiLineString","coordinates":[[[-0.0235647,51.6855236],[-0.0235624,51.6854753],[-0.0235605,51.6854379]]]}},
{"type":"Feature","properties":{"highway":"footway","name":null,"category":"Footpath (pedestrian only)"},"geometry":{"type":"MultiLineString","coordinates":[[[-0.0236555,51.6856163],[-0.023654,51.685578],[-0.0236528,51.6855474]]]}},
{"type":"Feature","properties":{"highway":"footway","name":null,"category":"Footpath (pedestrian only)"},"geometry":{"type":"MultiLineString","coordinates":[[[-0.0236528,51.6855474],[-0.0236517,51.685536],[-0.0235652,51.6855362],[-0.0235647,51.6855236]]]}},
{"type":"Feature","properties":{"highway":"footway","name":null,"category":"Footpath (pedestrian only)"},"geometry":{"type":"MultiLineString","coordinates":[[[-0.0279208,51.6871613],[-0.0280438,51.6861334],[-0.0280357,51.6860956],[-0.0280184,51.6860748],[-0.027995,51.6860609],[-0.0279594,51.6860527],[-0.0276677,51.6860288],[-0.0275407,51.686013],[-0.0274563,51.6859935],[-0.0273847,51.6859708],[-0.0273212,51.6859462],[-0.0272642,51.6859336],[-0.0271799,51.6859236],[-0.0268719,51.6859009],[-0.0267855,51.6858883],[-0.0266971,51.6858612],[-0.0266138,51.6858202],[-0.0266043,51.6858109],[-0.0265771,51.6857845],[-0.0265564,51.6857531],[-0.0265486,51.6857412],[-0.0265366,51.6856872],[-0.0265517,51.6853012]]]}},
{"type":"Feature","properties":{"highway":"footway","name":null,"category":"Footpath (pedestrian only)"},"geometry":{"type":"MultiLineString","coordinates":[[[-0.0267222,51.6850815],[-0.0267869,51.6850864],[-0.0268703,51.6850927]]]}},
{"type":"Feature","properties":{"highway":"footway","name":null,"category":"Footpath (pedestrian only)"},"geometry":{"type":"MultiLineString","coordinates":[[[-0.027047,51.6851326],[-0.027132,51.6851408],[-0.0271983,51.6851472]]]}},
{"type":"Feature","properties":{"highway":"footway","name":null,"category":"Footpath (pedestrian only)"},"geometry":{"type":"MultiLineString","coordinates":[[[-0.0265498,51.685079],[-0.0265334,51.6850781],[-0.0265426,51.685011]]]}},
{"type":"Feature","properties":{"highway":"footway","name":null,"category":"Footpath (pedestrian only)"},"geometry":{"type":"MultiLineString","coordinates":[[[-0.0266928,51.6849855],[-0.0266774,51.6850072],[-0.0266411,51.685085]]]}},
{"type":"Feature","properties":{"highway":"footway","name":null,"category":"Footpath (pedestrian only)"},"geometry":{"type":"MultiLineString","coordinates":[[[-0.052,51.6806098],[-0.0515187,51.6806848]]]}},
{"type":"Feature","properties":{"highway":"footway","name":null,"category":"Footpath (pedestrian only)"},"geometry":{"type":"MultiLineString","coordinates":[[[-0.0461616,51.6808797],[-0.0462126,51.6808679],[-0.0464914,51.680793]]]}},
{"type":"Feature","properties":{"highway":"footway","name":null,"category":"Footpath (pedestrian only)"},"geometry":{"type":"MultiLineString","coordinates":[[[-0.0456149,51.6813321],[-0.0460483,51.6813153]]]}},
{"type":"Feature","properties":{"highway":"footway","name":null,"category":"Footpath (pedestrian only)"},"geometry":{"type":"MultiLineString","coordinates":[[[-0.0479332,51.6803904],[-0.0479171,51.6803576],[-0.0478999,51.6803226],[-0.0477906,51.6803477],[-0.0477676,51.6803119],[-0.0477471,51.6802799]]]}},
{"type":"Feature","properties":{"highway":"footway","name":null,"category":"Footpath (pedestrian only)"},"geometry":{"type":"MultiLineString","coordinates":[[[-0.0340234,51.6805064],[-0.0340845,51.6803035],[-0.0341059,51.6802782],[-0.034153,51.6802473],[-0.03422,51.6802203],[-0.0342551,51.6802056],[-0.0343618,51.6801925],[-0.0344973,51.6801877],[-0.0346324,51.6801968],[-0.0349183,51.6802423],[-0.0357514,51.680391]]]}},
{"type":"Feature","properties":{"highway":"footway","name":null,"category":"Footpath (pedestrian only)"},"geometry":{"type":"MultiLineString","coordinates":[[[-0.0429665,51.6771046],[-0.0429402,51.675682]]]}},
{"type":"Feature","properties":{"highway":"footway","name":null,"category":"Footpath (pedestrian only)"},"geometry":{"type":"MultiLineString","coordinates":[[[-0.0293219,51.685446],[-0.0293522,51.6854744],[-0.0294114,51.6855076],[-0.0294997,51.6855401],[-0.0296009,51.6855592],[-0.0298055,51.6855842],[-0.0303326,51.6856374],[-0.0306088,51.6856598],[-0.0307317,51.6856692]]]}},
{"type":"Feature","properties":{"highway":"footway","name":null,"category":"Footpath (pedestrian only)"},"geometry":{"type":"MultiLineString","coordinates":[[[-0.0325971,51.6833939],[-0.0325938,51.6833304],[-0.0325929,51.6833132],[-0.032593,51.6832674],[-0.032593,51.6832523],[-0.0326869,51.6832515],[-0.032699,51.683226]]]}},
{"type":"Feature","properties":{"highway":"footway","name":null,"category":"Footpath (pedestrian only)"},"geometry":{"type":"MultiLineString","coordinates":[[[-0.0320271,51.6836439],[-0.0320557,51.6836425],[-0.0321067,51.6836399],[-0.032141,51.6836403],[-0.0322334,51.6836415],[-0.0322875,51.6836403],[-0.0323273,51.6836383],[-0.0323462,51.6836373],[-0.032395,51.6836164],[-0.0324323,51.6836045],[-0.0324688,51.683597],[-0.0325214,51.6835944]]]}},
{"type":"Feature","properties":{"highway":"footway","name":null,"category":"Footpath (pedestrian only)"},"geometry":{"type":"MultiLineString","coordinates":[[[-0.0330645,51.6838733],[-0.0330129,51.6838671],[-0.0329602,51.6838606]]]}},
{"type":"Feature","properties":{"highway":"footway","name":null,"category":"Footpath (pedestrian only)"},"geometry":{"type":"MultiLineString","coordinates":[[[-0.0329602,51.6838606],[-0.032946,51.6838591],[-0.0329766,51.6837775],[-0.0329298,51.6837221],[-0.0328505,51.6836462],[-0.0327244,51.6836029],[-0.0325823,51.6835963],[-0.0325214,51.6835944],[-0.0325212,51.6835814]]]}},
{"type":"Feature","properties":{"highway":"footway","name":null,"category":"Footpath (pedestrian only)"},"geometry":{"type":"MultiLineString","coordinates":[[[-0.0330645,51.6838733],[-0.0330891,51.6838756],[-0.0330742,51.6839882],[-0.0330011,51.684231],[-0.0329979,51.684339]]]}},
{"type":"Feature","properties":{"highway":"footway","name":null,"category":"Footpath (pedestrian only)"},"geometry":{"type":"MultiLineString","coordinates":[[[-0.0329737,51.6833025],[-0.0330239,51.6833242],[-0.0330653,51.6833422]]]}},
{"type":"Feature","properties":{"highway":"footway","name":null,"category":"Footpath (pedestrian only)"},"geometry":{"type":"MultiLineString","coordinates":[[[-0.03262,51.683408],[-0.0326191,51.6833933],[-0.0327325,51.6833917],[-0.0328103,51.6833801],[-0.0328666,51.6833502],[-0.0329497,51.6832936],[-0.0330248,51.6832321],[-0.0330709,51.6831745],[-0.0331094,51.6831154],[-0.0331398,51.6830483],[-0.0331804,51.6828978],[-0.0331997,51.6828288],[-0.0332248,51.6827487],[-0.0332608,51.6826277]]]}},
{"type":"Feature","properties":{"highway":"footway","name":null,"category":"Footpath (pedestrian only)"},"geometry":{"type":"MultiLineString","coordinates":[[[-0.0343294,51.6894844],[-0.0343356,51.6894952],[-0.0342863,51.6895054],[-0.0342355,51.6895181],[-0.0341195,51.6895472],[-0.0340095,51.6895991],[-0.0339136,51.6896644],[-0.033872,51.6896902],[-0.0338553,51.6897007]]]}},
{"type":"Feature","properties":{"highway":"footway","name":null,"category":"Footpath (pedestrian only)"},"geometry":{"type":"MultiLineString","coordinates":[[[-0.0342431,51.6886014],[-0.0343008,51.6886019],[-0.0343451,51.6886027]]]}},
{"type":"Feature","properties":{"highway":"footway","name":null,"category":"Footpath (pedestrian only)"},"geometry":{"type":"MultiLineString","coordinates":[[[-0.0343451,51.6886027],[-0.0343604,51.6886036],[-0.0343509,51.6887101],[-0.034337,51.6888667],[-0.0343164,51.6891433],[-0.0343763,51.6891511],[-0.0343736,51.6892326],[-0.0344103,51.6892359],[-0.034412,51.6892716]]]}},
{"type":"Feature","properties":{"highway":"footway","name":null,"category":"Footpath (pedestrian only)"},"geometry":{"type":"MultiLineString","coordinates":[[[-0.0343763,51.6891511],[-0.0344868,51.6891532]]]}},
{"type":"Feature","properties":{"highway":"footway","name":null,"category":"Footpath (pedestrian only)"},"geometry":{"type":"MultiLineString","coordinates":[[[-0.0342863,51.6895054],[-0.0342941,51.6895191]]]}},
{"type":"Feature","properties":{"highway":"footway","name":null,"category":"Footpath (pedestrian only)"},"geometry":{"type":"MultiLineString","coordinates":[[[-0.0343102,51.689544],[-0.0344371,51.6895479],[-0.0346079,51.6895435],[-0.0346803,51.6895646],[-0.0347697,51.6896355],[-0.0348064,51.6896671],[-0.034826,51.6896776],[-0.0348659,51.6896765]]]}},
{"type":"Feature","properties":{"highway":"footway","name":null,"category":"Footpath (pedestrian only)"},"geometry":{"type":"MultiLineString","coordinates":[[[-0.0238199,51.6853351],[-0.0238958,51.6853302],[-0.0239618,51.6853259]]]}},
{"type":"Feature","properties":{"highway":"footway","name":null,"category":"Footpath (pedestrian only)"},"geometry":{"type":"MultiLineString","coordinates":[[[-0.0235595,51.6854191],[-0.0235271,51.6854202],[-0.022409,51.6854656],[-0.0223736,51.6854612],[-0.0223489,51.6854547],[-0.0223306,51.6854471],[-0.0221937,51.685456]]]}},
{"type":"Feature","properties":{"highway":"footway","name":null,"category":"Footpath (pedestrian only)"},"geometry":{"type":"MultiLineString","coordinates":[[[-0.0265156,51.6854472],[-0.0265152,51.6854589]]]}},
{"type":"Feature","properties":{"highway":"footway","name":null,"category":"Footpath (pedestrian only)"},"geometry":{"type":"MultiLineString","coordinates":[[[-0.0264736,51.6856413],[-0.0264734,51.6856282]]]}},
{"type":"Feature","properties":{"highway":"footway","name":null,"category":"Footpath (pedestrian only)"},"geometry":{"type":"MultiLineString","coordinates":[[[-0.0263766,51.6849222],[-0.0263553,51.6849137]]]}},
{"type":"Feature","properties":{"highway":"footway","name":null,"category":"Footpath (pedestrian only)"},"geometry":{"type":"MultiLineString","coordinates":[[[-0.0265834,51.684896],[-0.0266676,51.6848998]]]}},
{"type":"Feature","properties":{"highway":"footway","name":null,"category":"Footpath (pedestrian only)"},"geometry":{"type":"MultiLineString","coordinates":[[[-0.0445136,51.6808761],[-0.0445299,51.6809542]]]}},
{"type":"Feature","properties":{"highway":"footway","name":null,"category":"Footpath (pedestrian only)"},"geometry":{"type":"MultiLineString","coordinates":[[[-0.042448,51.6810288],[-0.0426949,51.6810159],[-0.0432418,51.6809787],[-0.0436347,51.680951],[-0.043915,51.680928],[-0.0443718,51.6808867],[-0.0444458,51.6808812]]]}},
{"type":"Feature","properties":{"highway":"footway","name":null,"category":"Footpath (pedestrian only)"},"geometry":{"type":"MultiLineString","coordinates":[[[-0.0440192,51.6883663],[-0.0439594,51.6883453],[-0.0439348,51.6883367],[-0.043901,51.6883261],[-0.0438711,51.6883274],[-0.0438326,51.6883266]]]}},
{"type":"Feature","properties":{"highway":"footway","name":null,"category":"Footpath (pedestrian only)"},"geometry":{"type":"MultiLineString","coordinates":[[[-0.0438326,51.6883266],[-0.0438252,51.6882821],[-0.0438034,51.6882478],[-0.0437593,51.6882073],[-0.0437425,51.6881668],[-0.0437297,51.6881068],[-0.043747,51.6880608],[-0.0437788,51.688015],[-0.0438604,51.6879537],[-0.0438884,51.6879302],[-0.0439165,51.6878933]]]}},
{"type":"Feature","properties":{"highway":"footway","name":null,"category":"Footpath (pedestrian only)"},"geometry":{"type":"MultiLineString","coordinates":[[[-0.0438112,51.6883829],[-0.0438326,51.6883266]]]}},
{"type":"Feature","properties":{"highway":"footway","name":null,"category":"Footpath (pedestrian only)"},"geometry":{"type":"MultiLineString","coordinates":[[[-0.0338671,51.6910076],[-0.0339365,51.6909983],[-0.0340141,51.6909896]]]}},
{"type":"Feature","properties":{"highway":"footway","name":null,"category":"Footpath (pedestrian only)"},"geometry":{"type":"MultiLineString","coordinates":[[[-0.0338408,51.6904509],[-0.0337719,51.690459],[-0.0337187,51.6904648]]]}},
{"type":"Feature","properties":{"highway":"path","name":null,"category":"Shared path"},"geometry":{"type":"MultiLineString","coordinates":[[[-0.0327671,51.6880806],[-0.0327498,51.6880527]]]}},
{"type":"Feature","properties":{"highway":"footway","name":null,"category":"Footpath (pedestrian only)"},"geometry":{"type":"MultiLineString","coordinates":[[[-0.0445299,51.6809542],[-0.044541,51.6810144]]]}},
{"type":"Feature","properties":{"highway":"footway","name":null,"category":"Footpath (pedestrian only)"},"geometry":{"type":"MultiLineString","coordinates":[[[-0.0443899,51.6810269],[-0.044541,51.6810144],[-0.0445848,51.6810107]]]}},
{"type":"Feature","properties":{"highway":"footway","name":null,"category":"Footpath (pedestrian only)"},"geometry":{"type":"MultiLineString","coordinates":[[[-0.0443899,51.6810269],[-0.0439636,51.6810637],[-0.0436505,51.6810877],[-0.0432251,51.6811223]]]}},
{"type":"Feature","properties":{"highway":"footway","name":null,"category":"Footpath (pedestrian only)"},"geometry":{"type":"MultiLineString","coordinates":[[[-0.0446441,51.6808648],[-0.0451209,51.680824],[-0.0453073,51.6808049],[-0.0455192,51.6807741],[-0.045766,51.6807251],[-0.0460189,51.6806654],[-0.0471001,51.6804245]]]}},
{"type":"Feature","properties":{"highway":"footway","name":null,"category":"Footpath (pedestrian only)"},"geometry":{"type":"MultiLineString","coordinates":[[[-0.0408192,51.6856988],[-0.0407521,51.6858719],[-0.0406406,51.685927]]]}},
{"type":"Feature","properties":{"highway":"footway","name":null,"category":"Footpath (pedestrian only)"},"geometry":{"type":"MultiLineString","coordinates":[[[-0.033714,51.6817049],[-0.0336665,51.6816989],[-0.0336337,51.6816973],[-0.0336145,51.6816959],[-0.0336022,51.6817486],[-0.0335825,51.6817482],[-0.0335506,51.6817451],[-0.0335061,51.681743]]]}},
{"type":"Feature","properties":{"highway":"footway","name":null,"category":"Footpath (pedestrian only)"},"geometry":{"type":"MultiLineString","coordinates":[[[-0.033714,51.6817049],[-0.0337442,51.6815649],[-0.033762,51.6814277],[-0.0337967,51.6813127]]]}},
{"type":"Feature","properties":{"highway":"footway","name":null,"category":"Footpath (pedestrian only)"},"geometry":{"type":"MultiLineString","coordinates":[[[-0.0337967,51.6813127],[-0.033802,51.6812855],[-0.0338235,51.6812088]]]}},
{"type":"Feature","properties":{"highway":"footway","name":null,"category":"Footpath (pedestrian only)"},"geometry":{"type":"MultiLineString","coordinates":[[[-0.0338235,51.6812088],[-0.0338816,51.6810355],[-0.0339274,51.6808512],[-0.0339766,51.6806821],[-0.0340234,51.6805064]]]}},
{"type":"Feature","properties":{"highway":"footway","name":null,"category":"Footpath (pedestrian only)"},"geometry":{"type":"MultiLineString","coordinates":[[[-0.0334659,51.6818483],[-0.0334547,51.6819004],[-0.0334411,51.6819426],[-0.0334315,51.6819846],[-0.0334281,51.6820045],[-0.0334212,51.6820528]]]}},
{"type":"Feature","properties":{"highway":"footway","name":null,"category":"Footpath (pedestrian only)"},"geometry":{"type":"MultiLineString","coordinates":[[[-0.0334659,51.6818483],[-0.0334893,51.6817402],[-0.0335061,51.681743]]]}},
{"type":"Feature","properties":{"highway":"footway","name":null,"category":"Footpath (pedestrian only)"},"geometry":{"type":"MultiLineString","coordinates":[[[-0.0333921,51.6821401],[-0.0334053,51.6821048],[-0.0334212,51.6820528]]]}},
{"type":"Feature","properties":{"highway":"footway","name":null,"category":"Footpath (pedestrian only)"},"geometry":{"type":"MultiLineString","coordinates":[[[-0.0333921,51.6821401],[-0.0332608,51.6826277]]]}},
{"type":"Feature","properties":{"highway":"footway","name":null,"category":"Footpath (pedestrian only)"},"geometry":{"type":"MultiLineString","coordinates":[[[-0.0349407,51.6770216],[-0.0349676,51.6769953]]]}},
{"type":"Feature","properties":{"highway":"footway","name":null,"category":"Footpath (pedestrian only)"},"geometry":{"type":"MultiLineString","coordinates":[[[-0.0348656,51.6770911],[-0.0349065,51.6770528]]]}},
{"type":"Feature","properties":{"highway":"footway","name":null,"category":"Footpath (pedestrian only)"},"geometry":{"type":"MultiLineString","coordinates":[[[-0.0352574,51.6769027],[-0.0352786,51.6768659]]]}},
{"type":"Feature","properties":{"highway":"footway","name":null,"category":"Footpath (pedestrian only)"},"geometry":{"type":"MultiLineString","coordinates":[[[-0.0350327,51.676869],[-0.0350562,51.6768397],[-0.0350813,51.6768046]]]}},
{"type":"Feature","properties":{"highway":"footway","name":null,"category":"Footpath (pedestrian only)"},"geometry":{"type":"MultiLineString","coordinates":[[[-0.0350248,51.6768859],[-0.0350327,51.676869]]]}},
{"type":"Feature","properties":{"highway":"footway","name":null,"category":"Footpath (pedestrian only)"},"geometry":{"type":"MultiLineString","coordinates":[[[-0.0376636,51.6745894],[-0.0375804,51.6745534],[-0.0375071,51.6745215]]]}},
{"type":"Feature","properties":{"highway":"footway","name":null,"category":"Footpath (pedestrian only)"},"geometry":{"type":"MultiLineString","coordinates":[[[-0.0361012,51.675681],[-0.036176,51.6757108],[-0.0362465,51.6757323]]]}},
{"type":"Feature","properties":{"highway":"footway","name":null,"category":"Footpath (pedestrian only)"},"geometry":{"type":"MultiLineString","coordinates":[[[-0.0378995,51.6743908],[-0.0378168,51.6743567],[-0.0377319,51.6743201]]]}},
{"type":"Feature","properties":{"highway":"footway","name":null,"category":"Footpath (pedestrian only)"},"geometry":{"type":"MultiLineString","coordinates":[[[-0.0377933,51.6744927],[-0.0378344,51.6744613],[-0.0378682,51.6744289]]]}},
{"type":"Feature","properties":{"highway":"footway","name":null,"category":"Footpath (pedestrian only)"},"geometry":{"type":"MultiLineString","coordinates":[[[-0.0376636,51.6745894],[-0.0377933,51.6744927]]]}},
{"type":"Feature","properties":{"highway":"footway","name":null,"category":"Footpath (pedestrian only)"},"geometry":{"type":"MultiLineString","coordinates":[[[-0.0378682,51.6744289],[-0.0378995,51.6743908]]]}},
{"type":"Feature","properties":{"highway":"footway","name":null,"category":"Footpath (pedestrian only)"},"geometry":{"type":"MultiLineString","coordinates":[[[-0.0375071,51.6745215],[-0.0377319,51.6743201]]]}},
{"type":"Feature","properties":{"highway":"footway","name":null,"category":"Footpath (pedestrian only)"},"geometry":{"type":"MultiLineString","coordinates":[[[-0.0317499,51.6795773],[-0.0317382,51.6795458],[-0.0317324,51.6795257],[-0.0317039,51.6795108],[-0.0316569,51.6795028],[-0.0315866,51.6794917],[-0.0315704,51.6794897],[-0.0315431,51.6794857],[-0.0315128,51.6794803],[-0.0314737,51.6794748],[-0.0314296,51.6794713],[-0.0313608,51.6794703]]]}},
{"type":"Feature","properties":{"highway":"footway","name":null,"category":"Footpath (pedestrian only)"},"geometry":{"type":"MultiLineString","coordinates":[[[-0.0412116,51.6812],[-0.0412124,51.6811729],[-0.0412127,51.6811446],[-0.0411389,51.6811394],[-0.0411401,51.6811026],[-0.0411389,51.6810739]]]}},
{"type":"Feature","properties":{"highway":"footway","name":null,"category":"Footpath (pedestrian only)"},"geometry":{"type":"MultiLineString","coordinates":[[[-0.0471784,51.6805478],[-0.0471467,51.6804992],[-0.0471001,51.6804245]]]}},
{"type":"Feature","properties":{"highway":"footway","name":null,"category":"Footpath (pedestrian only)"},"geometry":{"type":"MultiLineString","coordinates":[[[-0.0464937,51.6807022],[-0.0468655,51.6806213],[-0.0469358,51.6806046],[-0.0470074,51.6805887],[-0.047067,51.6805746],[-0.0471784,51.6805478]]]}},
{"type":"Feature","properties":{"highway":"footway","name":null,"category":"Footpath (pedestrian only)"},"geometry":{"type":"MultiLineString","coordinates":[[[-0.0474935,51.6805069],[-0.0475854,51.6804816],[-0.0476612,51.6804653]]]}},
{"type":"Feature","properties":{"highway":"footway","name":null,"category":"Footpath (pedestrian only)"},"geometry":{"type":"MultiLineString","coordinates":[[[-0.0471784,51.6805478],[-0.0474064,51.6804986],[-0.0474935,51.6805069]]]}},
{"type":"Feature","properties":{"highway":"footway","name":null,"category":"Footpath (pedestrian only)"},"geometry":{"type":"MultiLineString","coordinates":[[[-0.0476612,51.6804653],[-0.0476902,51.6804411],[-0.0479332,51.6803904]]]}},
{"type":"Feature","properties":{"highway":"footway","name":null,"category":"Footpath (pedestrian only)"},"geometry":{"type":"MultiLineString","coordinates":[[[-0.0471281,51.6803857],[-0.0472174,51.680363],[-0.047346,51.6803337],[-0.0473997,51.6803201],[-0.0474432,51.6803101]]]}},
{"type":"Feature","properties":{"highway":"footway","name":null,"category":"Footpath (pedestrian only)"},"geometry":{"type":"MultiLineString","coordinates":[[[-0.0474432,51.6803101],[-0.0475002,51.6803309],[-0.0477471,51.6802799]]]}},
{"type":"Feature","properties":{"highway":"footway","name":null,"category":"Footpath (pedestrian only)"},"geometry":{"type":"MultiLineString","coordinates":[[[-0.0471001,51.6804245],[-0.0471281,51.6803857]]]}},
{"type":"Feature","properties":{"highway":"footway","name":"Little Ride","category":"Footpath (pedestrian only)"},"geometry":{"type":"MultiLineString","coordinates":[[[-0.049237,51.6801099],[-0.0492144,51.6800589],[-0.0491889,51.6799797]]]}},
{"type":"Feature","properties":{"highway":"footway","name":null,"category":"Footpath (pedestrian only)"},"geometry":{"type":"MultiLineString","coordinates":[[[-0.049237,51.6801099],[-0.0490302,51.6801431],[-0.0487732,51.6801972],[-0.0484055,51.6802886],[-0.0483668,51.6802957],[-0.0479332,51.6803904]]]}},
{"type":"Feature","properties":{"highway":"footway","name":null,"category":"Footpath (pedestrian only)"},"geometry":{"type":"MultiLineString","coordinates":[[[-0.0477471,51.6802799],[-0.0481272,51.6801957],[-0.0488645,51.6800321],[-0.0491454,51.6799867],[-0.0491889,51.6799797]]]}},
{"type":"Feature","properties":{"highway":"footway","name":null,"category":"Footpath (pedestrian only)"},"geometry":{"type":"MultiLineString","coordinates":[[[-0.0350701,51.6769918],[-0.0350136,51.6769758]]]}},
{"type":"Feature","properties":{"highway":"footway","name":null,"category":"Footpath (pedestrian only)"},"geometry":{"type":"MultiLineString","coordinates":[[[-0.0347394,51.6887182],[-0.0345088,51.6887113],[-0.0343509,51.6887101]]]}},
{"type":"Feature","properties":{"highway":"footway","name":null,"category":"Footpath (pedestrian only)"},"geometry":{"type":"MultiLineString","coordinates":[[[-0.0329497,51.6832936],[-0.0329737,51.6833025]]]}},
{"type":"Feature","properties":{"highway":"footway","name":null,"category":"Footpath (pedestrian only)"},"geometry":{"type":"MultiLineString","coordinates":[[[-0.0331245,51.683341],[-0.0331716,51.683349],[-0.0332259,51.6833581]]]}},
{"type":"Feature","properties":{"highway":"footway","name":null,"category":"Footpath (pedestrian only)"},"geometry":{"type":"MultiLineString","coordinates":[[[-0.0330653,51.6833422],[-0.0331245,51.683341]]]}},
{"type":"Feature","properties":{"highway":"footway","name":null,"category":"Footpath (pedestrian only)"},"geometry":{"type":"MultiLineString","coordinates":[[[-0.0332791,51.6833797],[-0.0333035,51.683382],[-0.033336,51.6833851]]]}},
{"type":"Feature","properties":{"highway":"footway","name":null,"category":"Footpath (pedestrian only)"},"geometry":{"type":"MultiLineString","coordinates":[[[-0.0332259,51.6833581],[-0.0332503,51.6833623],[-0.0332433,51.6833758],[-0.0332791,51.6833797]]]}},
{"type":"Feature","properties":{"highway":"footway","name":null,"category":"Footpath (pedestrian only)"},"geometry":{"type":"MultiLineString","coordinates":[[[-0.0236559,51.6856266],[-0.0236555,51.6856163]]]}},
{"type":"Feature","properties":{"highway":"footway","name":null,"category":"Footpath (pedestrian only)"},"geometry":{"type":"MultiLineString","coordinates":[[[-0.0242253,51.6856111],[-0.0242255,51.6855967]]]}},
{"type":"Feature","properties":{"highway":"footway","name":null,"category":"Footpath (pedestrian only)"},"geometry":{"type":"MultiLineString","coordinates":[[[-0.0235605,51.6854379],[-0.0235595,51.6854191],[-0.0236541,51.6854158],[-0.0237232,51.6854051],[-0.0237596,51.6853852],[-0.0237866,51.6853567],[-0.0237994,51.6853364],[-0.0238199,51.6853351]]]}},
{"type":"Feature","properties":{"highway":"footway","name":null,"category":"Footpath (pedestrian only)"},"geometry":{"type":"MultiLineString","coordinates":[[[-0.0237384,51.6849464],[-0.0237893,51.6852463],[-0.0237984,51.685303],[-0.0237994,51.6853364]]]}},
{"type":"Feature","properties":{"highway":"footway","name":null,"category":"Footpath (pedestrian only)"},"geometry":{"type":"MultiLineString","coordinates":[[[-0.0241344,51.685422],[-0.0262705,51.6854507]]]}},
{"type":"Feature","properties":{"highway":"footway","name":null,"category":"Footpath (pedestrian only)"},"geometry":{"type":"MultiLineString","coordinates":[[[-0.0238786,51.6847549],[-0.0239828,51.6853245]]]}},
{"type":"Feature","properties":{"highway":"footway","name":null,"category":"Footpath (pedestrian only)"},"geometry":{"type":"MultiLineString","coordinates":[[[-0.0391871,51.687361],[-0.0388431,51.687314]]]}},
{"type":"Feature","properties":{"highway":"footway","name":null,"category":"Footpath (pedestrian only)"},"geometry":{"type":"MultiLineString","coordinates":[[[-0.0280242,51.6860383],[-0.0280184,51.6860748]]]}},
{"type":"Feature","properties":{"highway":"footway","name":null,"category":"Footpath (pedestrian only)"},"geometry":{"type":"MultiLineString","coordinates":[[[-0.0280376,51.6859535],[-0.0280283,51.6860121],[-0.0280242,51.6860383]]]}},
{"type":"Feature","properties":{"highway":"footway","name":null,"category":"Footpath (pedestrian only)"},"geometry":{"type":"MultiLineString","coordinates":[[[-0.0280414,51.6859296],[-0.0280376,51.6859535]]]}},
{"type":"Feature","properties":{"highway":"footway","name":null,"category":"Footpath (pedestrian only)"},"geometry":{"type":"MultiLineString","coordinates":[[[-0.0282383,51.6855048],[-0.0281873,51.6855003]]]}},
{"type":"Feature","properties":{"highway":"footway","name":null,"category":"Footpath (pedestrian only)"},"geometry":{"type":"MultiLineString","coordinates":[[[-0.0281035,51.6854865],[-0.0280813,51.6854776]]]}},
{"type":"Feature","properties":{"highway":"footway","name":null,"category":"Footpath (pedestrian only)"},"geometry":{"type":"MultiLineString","coordinates":[[[-0.0281873,51.6855003],[-0.0281438,51.6854931],[-0.0281035,51.6854865]]]}},
{"type":"Feature","properties":{"highway":"footway","name":null,"category":"Footpath (pedestrian only)"},"geometry":{"type":"MultiLineString","coordinates":[[[-0.0283503,51.6854965],[-0.0283271,51.6854986]]]}},
{"type":"Feature","properties":{"highway":"footway","name":null,"category":"Footpath (pedestrian only)"},"geometry":{"type":"MultiLineString","coordinates":[[[-0.0283271,51.6854986],[-0.0282642,51.6855042],[-0.0282383,51.6855048]]]}},
{"type":"Feature","properties":{"highway":"footway","name":null,"category":"Footpath (pedestrian only)"},"geometry":{"type":"MultiLineString","coordinates":[[[-0.0330888,51.6886431],[-0.0330334,51.6886505],[-0.0329736,51.688698]]]}},
{"type":"Feature","properties":{"highway":"footway","name":null,"category":"Footpath (pedestrian only)"},"geometry":{"type":"MultiLineString","coordinates":[[[-0.0331169,51.6887042],[-0.0329736,51.688698],[-0.032849,51.6886925],[-0.0328215,51.6886888],[-0.0328061,51.6886809],[-0.0327954,51.6886726],[-0.032784,51.6886609],[-0.0327769,51.6886372],[-0.0327275,51.6886351]]]}},
{"type":"Feature","properties":{"highway":"footway","name":null,"category":"Footpath (pedestrian only)"},"geometry":{"type":"MultiLineString","coordinates":[[[-0.033336,51.6833851],[-0.0333695,51.6833883],[-0.0334425,51.6832016],[-0.033452,51.6831561]]]}},
{"type":"Feature","properties":{"highway":"footway","name":null,"category":"Footpath (pedestrian only)"},"geometry":{"type":"MultiLineString","coordinates":[[[-0.0330891,51.6838756],[-0.0331481,51.6837246],[-0.0332433,51.6833758]]]}},
{"type":"Feature","properties":{"highway":"pedestrian","name":"High Street","category":"Pedestrian area/street"},"geometry":{"type":"MultiLineString","coordinates":[[[-0.0331576,51.6859087],[-0.0331658,51.6859358],[-0.0332245,51.6861288],[-0.0332661,51.6863525],[-0.0333528,51.6867957],[-0.0333479,51.6868477],[-0.0333412,51.6869611],[-0.0331873,51.6876476],[-0.0331637,51.6879066],[-0.0331731,51.6881345],[-0.0331416,51.6882249]]]}},
{"type":"Feature","properties":{"highway":"pedestrian","name":"Eleanor Cross Road","category":"Pedestrian area/street"},"geometry":{"type":"MultiLineString","coordinates":[[[-0.0321802,51.6858359],[-0.0331576,51.6859087]]]}},
{"type":"Feature","properties":{"highway":"pedestrian","name":"King Edward Road","category":"Pedestrian area/street"},"geometry":{"type":"MultiLineString","coordinates":[[[-0.0293763,51.6880368],[-0.0293704,51.6880624],[-0.0293623,51.6880975]]]}},
{"type":"Feature","properties":{"highway":"pedestrian","name":null,"category":"Pedestrian area/street"},"geometry":{"type":"MultiLineString","coordinates":[[[-0.0333479,51.6868477],[-0.0335778,51.6868696]]]}},
{"type":"Feature","properties":{"highway":"pedestrian","name":"High Street","category":"Pedestrian area/street"},"geometry":{"type":"MultiLineString","coordinates":[[[-0.0329815,51.6853704],[-0.0330301,51.685635],[-0.0330743,51.6857771],[-0.0331576,51.6859087]]]}}
]
}
