{
"type": "FeatureCollection",
"name": "HILLI_32_toilets",
"crs": { "type": "name", "properties": { "name": "urn:ogc:def:crs:OGC:1.3:CRS84" } },
"features": [
{ "type": "Feature", "properties": { "name": "West Ruislip station ", "payment_info": "Free", "accessible": "False", "radar": "False", "women": "True", "men": "True", "baby_change": "False", "Mon": "06:00-22:00", "Tue": "06:00-22:00", "Wed": "06:00-22:00", "Thu": "06:00-22:00", "Fri": "06:00-22:00", "Sat": "06:00-22:00", "Sun": "06:00-22:00", "index_right": 73, "park_offical_id": "HILLI_32" }, "geometry": { "type": "Point", "coordinates": [ -0.4378046, 51.5697632 ] } }
]
}
