{
"type": "FeatureCollection",
"name": "SUTTO_190_toilets",
"crs": { "type": "name", "properties": { "name": "urn:ogc:def:crs:OGC:1.3:CRS84" } },
"features": [
{ "type": "Feature", "properties": { "name": "Mitcham Junction Station", "payment_info": "Free", "accessible": "Unknown", "radar": "Unknown", "women": "Unknown", "men": "Unknown", "baby_change": "Unknown", "Mon": "Unknown", "Tue": "Unknown", "Wed": "Unknown", "Thu": "Unknown", "Fri": "Unknown", "Sat": "Unknown", "Sun": "Unknown", "index_right": 30, "park_offical_id": "SUTTO_190" }, "geometry": { "type": "Point", "coordinates": [ -0.157764767, 51.392958505 ] } },
{ "type": "Feature", "properties": { "name": "Canons Leisure Centre", "payment_info": "Free", "accessible": "Unknown", "radar": "Unknown", "women": "Unknown", "men": "Unknown", "baby_change": "Unknown", "Mon": "06:00-22:00", "Tue": "06:00-22:00", "Wed": "06:00-22:00", "Thu": "06:00-22:00", "Fri": "06:00-20:00", "Sat": "08:00-17:00", "Sun": "08:00-17:00", "index_right": 30, "park_offical_id": "SUTTO_190" }, "geometry": { "type": "Point", "coordinates": [ -0.162802245, 51.40054288 ] } },
{ "type": "Feature", "properties": { "name": "New Horizon Centre", "payment_info": "Free", "accessible": "True", "radar": "False", "women": "True", "men": "True", "baby_change": "True", "Mon": "09:00-22:00", "Tue": "09:00-22:00", "Wed": "09:00-22:00", "Thu": "09:00-22:00", "Fri": "09:00-22:00", "Sat": "09:00-22:00", "Sun": "09:00-22:00", "index_right": 30, "park_offical_id": "SUTTO_190" }, "geometry": { "type": "Point", "coordinates": [ -0.131189571, 51.400070917 ] } },
{ "type": "Feature", "properties": { "name": "Canons", "payment_info": "Free", "accessible": "Unknown", "radar": "Unknown", "women": "True", "men": "True", "baby_change": "Unknown", "Mon": "Unknown", "Tue": "Unknown", "Wed": "Unknown", "Thu": "Unknown", "Fri": "Unknown", "Sat": "Unknown", "Sun": "Unknown", "index_right": 30, "park_offical_id": "SUTTO_190" }, "geometry": { "type": "Point", "coordinates": [ -0.163330732, 51.399989348 ] } },
{ "type": "Feature", "properties": { "name": "Pollards Hill Library", "payment_info": "Free", "accessible": "Unknown", "radar": "Unknown", "women": "Unknown", "men": "Unknown", "baby_change": "Unknown", "Mon": "08:00-20:00", "Tue": "08:00-20:00", "Wed": "Closed", "Thu": "08:00-20:00", "Fri": "08:00-20:00", "Sat": "08:00-17:00", "Sun": "Closed", "index_right": 30, "park_offical_id": "SUTTO_190" }, "geometry": { "type": "Point", "coordinates": [ -0.131924233, 51.40005422 ] } },
{ "type": "Feature", "properties": { "name": "Mitcham Eastfields Station", "payment_info": "Free", "accessible": "False", "radar": "True", "women": "True", "men": "True", "baby_change": "True", "Mon": "Unknown", "Tue": "Unknown", "Wed": "Unknown", "Thu": "Unknown", "Fri": "Unknown", "Sat": "Unknown", "Sun": "Unknown", "index_right": 30, "park_offical_id": "SUTTO_190" }, "geometry": { "type": "Point", "coordinates": [ -0.15396924, 51.40840457 ] } }
]
}
