{
"type": "FeatureCollection",
"name": "ISLIN_45_cycling",
"crs": { "type": "name", "properties": { "name": "urn:ogc:def:crs:OGC:1.3:CRS84" } },
"features": [
{"type":"Feature","properties":{"highway":"cycleway","name":null,"category":"Dedicated cycleway"},"geometry":{"type":"MultiLineString","coordinates":[[[-0.1032629,51.5668693],[-0.1034097,51.5667857],[-0.1036618,51.5665763],[-0.1038699,51.5664774],[-0.1041226,51.5664356],[-0.1042657,51.5664366]]]}},
{"type":"Feature","properties":{"highway":"cycleway","name":"Avenell Road","category":"Dedicated cycleway"},"geometry":{"type":"MultiLineString","coordinates":[[[-0.1034339,51.5603373],[-0.1034096,51.5602996],[-0.1034,51.5602847]]]}},
{"type":"Feature","properties":{"highway":"track","name":null,"category":"Track"},"geometry":{"type":"MultiLineString","coordinates":[[[-0.1063907,51.5578366],[-0.1065084,51.5578309],[-0.1065673,51.5578277],[-0.1066985,51.5578359],[-0.1067871,51.5578445],[-0.1068665,51.5578665],[-0.1069073,51.5578912],[-0.1069389,51.5579232],[-0.1069476,51.5579444],[-0.1069639,51.5579983],[-0.1069698,51.5580673],[-0.1070159,51.5583013],[-0.1070712,51.5585969],[-0.1070924,51.5586951],[-0.107104,51.5587549],[-0.1071273,51.5587933],[-0.1071744,51.5588348]]]}},
{"type":"Feature","properties":{"highway":"cycleway","name":"Bryantwood Road","category":"Dedicated cycleway"},"geometry":{"type":"MultiLineString","coordinates":[[[-0.109589,51.5526755],[-0.1095027,51.5526959],[-0.1094664,51.5526768]]]}},
{"type":"Feature","properties":{"highway":"cycleway","name":"Hornsey Road","category":"Dedicated cycleway"},"geometry":{"type":"MultiLineString","coordinates":[[[-0.110613,51.5542689],[-0.1107005,51.5543117],[-0.1107349,51.5543889],[-0.1108042,51.5545315],[-0.1111585,51.5552117],[-0.1111541,51.555409]]]}},
{"type":"Feature","properties":{"highway":"cycleway","name":"Hornsey Road","category":"Dedicated cycleway"},"geometry":{"type":"MultiLineString","coordinates":[[[-0.1111162,51.5554019],[-0.1110219,51.5553063],[-0.1108265,51.5549457],[-0.1107495,51.5547519]]]}},
{"type":"Feature","properties":{"highway":"cycleway","name":"Rock Street","category":"Dedicated cycleway"},"geometry":{"type":"MultiLineString","coordinates":[[[-0.1050464,51.5637349],[-0.1050826,51.5636792],[-0.1051288,51.5636527],[-0.1051441,51.5636465],[-0.1053393,51.5635667],[-0.1053905,51.5635617]]]}},
{"type":"Feature","properties":{"highway":"cycleway","name":null,"category":"Dedicated cycleway"},"geometry":{"type":"MultiLineString","coordinates":[[[-0.1038353,51.5651941],[-0.1038315,51.5652088],[-0.1038255,51.5652324]]]}},
{"type":"Feature","properties":{"highway":"cycleway","name":null,"category":"Dedicated cycleway"},"geometry":{"type":"MultiLineString","coordinates":[[[-0.104773,51.5661858],[-0.1048347,51.5663018],[-0.1049274,51.5663763],[-0.1050066,51.5664011],[-0.1050503,51.5664726],[-0.1051106,51.566625]]]}},
{"type":"Feature","properties":{"highway":"cycleway","name":null,"category":"Dedicated cycleway"},"geometry":{"type":"MultiLineString","coordinates":[[[-0.1039102,51.5653104],[-0.1040376,51.5652883]]]}},
{"type":"Feature","properties":{"highway":"cycleway","name":null,"category":"Dedicated cycleway"},"geometry":{"type":"MultiLineString","coordinates":[[[-0.1052405,51.5662991],[-0.1051203,51.5663374],[-0.1050066,51.5664011]]]}},
{"type":"Feature","properties":{"highway":"path","name":null,"category":"Shared path"},"geometry":{"type":"MultiLineString","coordinates":[[[-0.1052991,51.5660031],[-0.1051112,51.566041],[-0.1049374,51.5660412],[-0.1047547,51.5660121],[-0.1046043,51.565976],[-0.1044176,51.5659204]]]}},
{"type":"Feature","properties":{"highway":"cycleway","name":null,"category":"Dedicated cycleway"},"geometry":{"type":"MultiLineString","coordinates":[[[-0.1055736,51.5651315],[-0.1056116,51.5651095]]]}},
{"type":"Feature","properties":{"highway":"cycleway","name":null,"category":"Dedicated cycleway"},"geometry":{"type":"MultiLineString","coordinates":[[[-0.1054492,51.5636824],[-0.1054233,51.563809],[-0.1054377,51.5638361],[-0.1054934,51.5638881],[-0.105627,51.5639856],[-0.1057214,51.5640287]]]}},
{"type":"Feature","properties":{"highway":"track","name":null,"category":"Track"},"geometry":{"type":"MultiLineString","coordinates":[[[-0.1068373,51.5564225],[-0.1068373,51.5563674],[-0.1068319,51.556299],[-0.1068131,51.556224],[-0.1068024,51.556179],[-0.1067783,51.5561139],[-0.1067622,51.5560639],[-0.1067407,51.5559972],[-0.1067193,51.5559272],[-0.1066978,51.5558655],[-0.1066656,51.5557937],[-0.1066227,51.5557087],[-0.1065959,51.555657],[-0.1065852,51.5556086],[-0.1065798,51.5555603],[-0.1065717,51.5555086],[-0.1065691,51.5554619],[-0.1065449,51.5554102],[-0.1065235,51.5553451],[-0.1065074,51.5553018],[-0.1064886,51.5552534],[-0.1064752,51.5552201],[-0.1064591,51.55519]]]}},
{"type":"Feature","properties":{"highway":"track","name":null,"category":"Track"},"geometry":{"type":"MultiLineString","coordinates":[[[-0.1077425,51.5583007],[-0.1077103,51.5581517],[-0.1076692,51.5580316],[-0.107568,51.5577994],[-0.1074884,51.5576114],[-0.107425,51.5574621],[-0.1073515,51.5573194],[-0.107312,51.5572539],[-0.1072675,51.5571992],[-0.1072101,51.5571475],[-0.1071302,51.5570978],[-0.1070165,51.5570444],[-0.1069676,51.5570154],[-0.1069242,51.5569697],[-0.1068985,51.5569057],[-0.1068727,51.55679],[-0.1068587,51.5567176],[-0.1068561,51.5566676],[-0.106848,51.5566276],[-0.1068346,51.5565709],[-0.1068373,51.5565258],[-0.1068373,51.5564708],[-0.1068373,51.5564225]]]}},
{"type":"Feature","properties":{"highway":"path","name":null,"category":"Shared path"},"geometry":{"type":"MultiLineString","coordinates":[[[-0.0936896,51.5591093],[-0.0938501,51.5590408],[-0.0940097,51.5590108],[-0.094227,51.5589966],[-0.094412,51.5590033],[-0.0945086,51.5590992],[-0.094725,51.5591748],[-0.094909,51.559239]]]}},
{"type":"Feature","properties":{"highway":"track","name":null,"category":"Track"},"geometry":{"type":"MultiLineString","coordinates":[[[-0.111196,51.5544758],[-0.1118961,51.553943],[-0.1125291,51.5534693],[-0.1126846,51.5533384],[-0.1127825,51.5532816]]]}},
{"type":"Feature","properties":{"highway":"path","name":null,"category":"Shared path"},"geometry":{"type":"MultiLineString","coordinates":[[[-0.1103847,51.5525234],[-0.1106448,51.5523684]]]}},
{"type":"Feature","properties":{"highway":"path","name":null,"category":"Shared path"},"geometry":{"type":"MultiLineString","coordinates":[[[-0.1062768,51.5557673],[-0.1062312,51.5556156],[-0.1062191,51.5556006],[-0.1062017,51.5555881],[-0.1061789,51.555578],[-0.1061507,51.5555689],[-0.1060595,51.5555397],[-0.1060139,51.5555288],[-0.1062003,51.5554221],[-0.1062151,51.5554121],[-0.1062231,51.5554013],[-0.1062258,51.5553871],[-0.1062231,51.5553713],[-0.1061936,51.5553146],[-0.1061668,51.5552337],[-0.1061051,51.5549952],[-0.1060452,51.5547651]]]}},
{"type":"Feature","properties":{"highway":"path","name":null,"category":"Shared path"},"geometry":{"type":"MultiLineString","coordinates":[[[-0.1060139,51.5555288],[-0.105963,51.555528],[-0.1058118,51.5555299],[-0.1058018,51.5555286]]]}},
{"type":"Feature","properties":{"highway":"cycleway","name":"Stroud Green Road","category":"Dedicated cycleway"},"geometry":{"type":"MultiLineString","coordinates":[[[-0.1077441,51.5667801],[-0.1077842,51.5668184],[-0.1077882,51.5668292],[-0.1077815,51.5668384],[-0.1077534,51.5668509],[-0.1077453,51.5668592],[-0.1077493,51.5668709],[-0.1077711,51.5668941]]]}},
{"type":"Feature","properties":{"highway":"cycleway","name":null,"category":"Dedicated cycleway"},"geometry":{"type":"MultiLineString","coordinates":[[[-0.1056698,51.5652556],[-0.1056321,51.5652852],[-0.1056279,51.5655782],[-0.1055621,51.5657339]]]}},
{"type":"Feature","properties":{"highway":"cycleway","name":"Stroud Green Road","category":"Dedicated cycleway"},"geometry":{"type":"MultiLineString","coordinates":[[[-0.1077441,51.5667801],[-0.10745,51.5665154],[-0.1071489,51.5662737],[-0.1069565,51.5661312],[-0.1066676,51.5659179],[-0.1056698,51.5652556]]]}},
{"type":"Feature","properties":{"highway":"cycleway","name":null,"category":"Dedicated cycleway"},"geometry":{"type":"MultiLineString","coordinates":[[[-0.0951007,51.5619099],[-0.0951164,51.5619374],[-0.0950856,51.5619625],[-0.0950415,51.5619681]]]}},
{"type":"Feature","properties":{"highway":"cycleway","name":null,"category":"Dedicated cycleway"},"geometry":{"type":"MultiLineString","coordinates":[[[-0.0949085,51.5627014],[-0.0948943,51.5630872]]]}},
{"type":"Feature","properties":{"highway":"cycleway","name":"Stroud Green Road","category":"Dedicated cycleway"},"geometry":{"type":"MultiLineString","coordinates":[[[-0.1056698,51.5652556],[-0.105645,51.5652384]]]}},
{"type":"Feature","properties":{"highway":"cycleway","name":null,"category":"Dedicated cycleway"},"geometry":{"type":"MultiLineString","coordinates":[[[-0.1055621,51.5657339],[-0.1054467,51.5658838],[-0.1052991,51.5660031]]]}},
{"type":"Feature","properties":{"highway":"cycleway","name":"Stroud Green Road","category":"Dedicated cycleway"},"geometry":{"type":"MultiLineString","coordinates":[[[-0.1072868,51.5662313],[-0.1073141,51.566268],[-0.1078043,51.5666935],[-0.1078191,51.5667154],[-0.1078408,51.5667373]]]}},
{"type":"Feature","properties":{"highway":"cycleway","name":null,"category":"Dedicated cycleway"},"geometry":{"type":"MultiLineString","coordinates":[[[-0.0950415,51.5619681],[-0.095024,51.5619405],[-0.0950523,51.5619124],[-0.0951007,51.5619099]]]}},
{"type":"Feature","properties":{"highway":"cycleway","name":"Finsbury Gate","category":"Dedicated cycleway"},"geometry":{"type":"MultiLineString","coordinates":[[[-0.1040376,51.5652883],[-0.10417,51.5654409],[-0.10425,51.565633],[-0.1042447,51.5656717],[-0.1042351,51.5657525],[-0.1042299,51.5657962]]]}},
{"type":"Feature","properties":{"highway":"cycleway","name":null,"category":"Dedicated cycleway"},"geometry":{"type":"MultiLineString","coordinates":[[[-0.104044,51.5651969],[-0.1040854,51.5652271],[-0.1040376,51.5652883]]]}},
{"type":"Feature","properties":{"highway":"cycleway","name":null,"category":"Dedicated cycleway"},"geometry":{"type":"MultiLineString","coordinates":[[[-0.1052991,51.5660031],[-0.1048935,51.566159],[-0.104773,51.5661858],[-0.1044454,51.5662446]]]}},
{"type":"Feature","properties":{"highway":"cycleway","name":null,"category":"Dedicated cycleway"},"geometry":{"type":"MultiLineString","coordinates":[[[-0.1052991,51.5660031],[-0.1053607,51.5660418],[-0.1053551,51.5661256],[-0.1053038,51.5662377],[-0.1052405,51.5662991]]]}},
{"type":"Feature","properties":{"highway":"cycleway","name":null,"category":"Dedicated cycleway"},"geometry":{"type":"MultiLineString","coordinates":[[[-0.1053554,51.5648931],[-0.1053941,51.5649227],[-0.1054284,51.5649434]]]}},
{"type":"Feature","properties":{"highway":"cycleway","name":null,"category":"Dedicated cycleway"},"geometry":{"type":"MultiLineString","coordinates":[[[-0.105525,51.5650084],[-0.1055655,51.5650374],[-0.1056003,51.5650613]]]}},
{"type":"Feature","properties":{"highway":"cycleway","name":null,"category":"Dedicated cycleway"},"geometry":{"type":"MultiLineString","coordinates":[[[-0.1056003,51.5650613],[-0.1056358,51.5650929]]]}},
{"type":"Feature","properties":{"highway":"cycleway","name":null,"category":"Dedicated cycleway"},"geometry":{"type":"MultiLineString","coordinates":[[[-0.1054284,51.5649434],[-0.1054657,51.5649682],[-0.105525,51.5650084]]]}},
{"type":"Feature","properties":{"highway":"cycleway","name":null,"category":"Dedicated cycleway"},"geometry":{"type":"MultiLineString","coordinates":[[[-0.1056706,51.5651955],[-0.1057338,51.565176]]]}},
{"type":"Feature","properties":{"highway":"cycleway","name":null,"category":"Dedicated cycleway"},"geometry":{"type":"MultiLineString","coordinates":[[[-0.105645,51.5652384],[-0.1056706,51.5651955]]]}},
{"type":"Feature","properties":{"highway":"cycleway","name":null,"category":"Dedicated cycleway"},"geometry":{"type":"MultiLineString","coordinates":[[[-0.1056116,51.5651095],[-0.1056358,51.5650929]]]}},
{"type":"Feature","properties":{"highway":"cycleway","name":"Stroud Green Road","category":"Dedicated cycleway"},"geometry":{"type":"MultiLineString","coordinates":[[[-0.105645,51.5652384],[-0.1055499,51.5651722],[-0.1055295,51.565158]]]}},
{"type":"Feature","properties":{"highway":"cycleway","name":"Station Place","category":"Dedicated cycleway"},"geometry":{"type":"MultiLineString","coordinates":[[[-0.1053409,51.5648838],[-0.10542,51.5648321],[-0.1054308,51.5648124],[-0.1054842,51.5645091],[-0.1054915,51.5644541]]]}},
{"type":"Feature","properties":{"highway":"cycleway","name":null,"category":"Dedicated cycleway"},"geometry":{"type":"MultiLineString","coordinates":[[[-0.1056622,51.5642375],[-0.1056069,51.5642647],[-0.1055465,51.5642944]]]}},
{"type":"Feature","properties":{"highway":"cycleway","name":"Seven Sisters Road","category":"Dedicated cycleway"},"geometry":{"type":"MultiLineString","coordinates":[[[-0.1058395,51.5641305],[-0.1058612,51.5641474],[-0.1056622,51.5642375]]]}},
{"type":"Feature","properties":{"highway":"cycleway","name":null,"category":"Dedicated cycleway"},"geometry":{"type":"MultiLineString","coordinates":[[[-0.105736,51.5640408],[-0.1057744,51.564074],[-0.1058395,51.5641305]]]}},
{"type":"Feature","properties":{"highway":"cycleway","name":null,"category":"Dedicated cycleway"},"geometry":{"type":"MultiLineString","coordinates":[[[-0.1056266,51.5643014],[-0.1055576,51.5643345],[-0.1055308,51.5644319],[-0.1055067,51.5644499]]]}},
{"type":"Feature","properties":{"highway":"cycleway","name":null,"category":"Dedicated cycleway"},"geometry":{"type":"MultiLineString","coordinates":[[[-0.1054578,51.5639069],[-0.1054178,51.5639281]]]}},
{"type":"Feature","properties":{"highway":"cycleway","name":"Gillespie Road","category":"Dedicated cycleway"},"geometry":{"type":"MultiLineString","coordinates":[[[-0.1037976,51.5589378],[-0.1037277,51.558962]]]}},
{"type":"Feature","properties":{"highway":"cycleway","name":null,"category":"Dedicated cycleway"},"geometry":{"type":"MultiLineString","coordinates":[[[-0.1037765,51.5652242],[-0.1037488,51.5652086],[-0.1037154,51.5651611]]]}},
{"type":"Feature","properties":{"highway":"cycleway","name":null,"category":"Dedicated cycleway"},"geometry":{"type":"MultiLineString","coordinates":[[[-0.1038255,51.5652324],[-0.1037851,51.5652256],[-0.1037765,51.5652242]]]}},
{"type":"Feature","properties":{"highway":"cycleway","name":null,"category":"Dedicated cycleway"},"geometry":{"type":"MultiLineString","coordinates":[[[-0.1037154,51.5651611],[-0.103807,51.5651712],[-0.1038353,51.5651941]]]}},
{"type":"Feature","properties":{"highway":"cycleway","name":null,"category":"Dedicated cycleway"},"geometry":{"type":"MultiLineString","coordinates":[[[-0.1038255,51.5652324],[-0.1038893,51.5652866],[-0.1039102,51.5653104]]]}},
{"type":"Feature","properties":{"highway":"cycleway","name":"Seven Sisters Road","category":"Dedicated cycleway"},"geometry":{"type":"MultiLineString","coordinates":[[[-0.1039791,51.5651144],[-0.1039505,51.5651303],[-0.1038353,51.5651941]]]}},
{"type":"Feature","properties":{"highway":"cycleway","name":"Finsbury Gate","category":"Dedicated cycleway"},"geometry":{"type":"MultiLineString","coordinates":[[[-0.1039505,51.5651303],[-0.104044,51.5651969]]]}},
{"type":"Feature","properties":{"highway":"cycleway","name":"Drayton Park","category":"Dedicated cycleway"},"geometry":{"type":"MultiLineString","coordinates":[[[-0.1056336,51.5521962],[-0.1056308,51.5521324],[-0.1056506,51.5521188],[-0.1056782,51.5521076],[-0.1059345,51.5519763],[-0.1060682,51.551935],[-0.1061261,51.5519181],[-0.1062349,51.5518927],[-0.1066915,51.5518051],[-0.1076242,51.5516289],[-0.1078451,51.5515792],[-0.1079222,51.5515537],[-0.1079866,51.5515288],[-0.1080744,51.5514936],[-0.1081207,51.5514667],[-0.1082158,51.5514117],[-0.1083027,51.5513562],[-0.1083538,51.5513281],[-0.1083697,51.5513187]]]}},
{"type":"Feature","properties":{"highway":"cycleway","name":"Drayton Park","category":"Dedicated cycleway"},"geometry":{"type":"MultiLineString","coordinates":[[[-0.1048043,51.5530218],[-0.1048137,51.5529834],[-0.1048374,51.5528868],[-0.1048503,51.5528343],[-0.1049437,51.5526998],[-0.1049878,51.5526282],[-0.1050402,51.5525624],[-0.1050754,51.5525245],[-0.1051516,51.5524465],[-0.1052536,51.5523562],[-0.1053643,51.552275],[-0.1053873,51.5522595],[-0.1054285,51.5522371],[-0.1055292,51.5522498]]]}},
{"type":"Feature","properties":{"highway":"cycleway","name":"Drayton Park","category":"Dedicated cycleway"},"geometry":{"type":"MultiLineString","coordinates":[[[-0.1056552,51.5555383],[-0.1057477,51.5555812],[-0.105767,51.5556055],[-0.1057856,51.5556572],[-0.1057213,51.5556929]]]}},
{"type":"Feature","properties":{"highway":"track","name":null,"category":"Track"},"geometry":{"type":"MultiLineString","coordinates":[[[-0.1071744,51.5588348],[-0.1072316,51.5588552],[-0.1072997,51.5588561],[-0.1073625,51.5588446],[-0.1074478,51.5588148],[-0.1075144,51.5587774],[-0.1075706,51.5587165],[-0.1076384,51.558629],[-0.1076495,51.5586147],[-0.1077251,51.5584657],[-0.1077369,51.558395],[-0.1077425,51.5583007]]]}},
{"type":"Feature","properties":{"highway":"cycleway","name":null,"category":"Dedicated cycleway"},"geometry":{"type":"MultiLineString","coordinates":[[[-0.1052405,51.5662991],[-0.1051106,51.566625],[-0.1051032,51.5666661],[-0.1051233,51.5668197],[-0.105089,51.5670016],[-0.1051102,51.567225],[-0.1051148,51.5673543],[-0.1050883,51.5675497],[-0.1050854,51.567828],[-0.1050872,51.5679211],[-0.1050891,51.5680202],[-0.1051434,51.5683059],[-0.1051605,51.5684486],[-0.1051691,51.568688],[-0.1051551,51.5688998],[-0.105124,51.569016],[-0.1051038,51.5690753],[-0.1051095,51.5691031],[-0.1051578,51.5692209],[-0.1051424,51.5694128],[-0.1051102,51.5695464],[-0.1050459,51.5696781]]]}},
{"type":"Feature","properties":{"highway":"cycleway","name":null,"category":"Dedicated cycleway"},"geometry":{"type":"MultiLineString","coordinates":[[[-0.1031841,51.5648216],[-0.1031418,51.564828],[-0.1031146,51.5648097],[-0.1031279,51.564787]]]}},
{"type":"Feature","properties":{"highway":"cycleway","name":null,"category":"Dedicated cycleway"},"geometry":{"type":"MultiLineString","coordinates":[[[-0.1003185,51.5645601],[-0.1003045,51.5645299],[-0.1003437,51.5645032],[-0.100405,51.5645001]]]}},
{"type":"Feature","properties":{"highway":"cycleway","name":null,"category":"Dedicated cycleway"},"geometry":{"type":"MultiLineString","coordinates":[[[-0.100405,51.5645001],[-0.1004152,51.5645343],[-0.1003741,51.5645627],[-0.1003185,51.5645601]]]}},
{"type":"Feature","properties":{"highway":"cycleway","name":null,"category":"Dedicated cycleway"},"geometry":{"type":"MultiLineString","coordinates":[[[-0.0995742,51.564685],[-0.09964,51.5646799],[-0.0996693,51.5646976],[-0.099658,51.5647369]]]}},
{"type":"Feature","properties":{"highway":"cycleway","name":null,"category":"Dedicated cycleway"},"geometry":{"type":"MultiLineString","coordinates":[[[-0.099658,51.5647369],[-0.0996012,51.5647445],[-0.0995661,51.564721],[-0.0995742,51.564685]]]}},
{"type":"Feature","properties":{"highway":"cycleway","name":null,"category":"Dedicated cycleway"},"geometry":{"type":"MultiLineString","coordinates":[[[-0.1005267,51.5657554],[-0.1005409,51.5657241],[-0.1005871,51.5657154],[-0.1006246,51.5657374]]]}},
{"type":"Feature","properties":{"highway":"cycleway","name":null,"category":"Dedicated cycleway"},"geometry":{"type":"MultiLineString","coordinates":[[[-0.1006246,51.5657374],[-0.1006198,51.5657718],[-0.1005733,51.5657816],[-0.1005267,51.5657554]]]}},
{"type":"Feature","properties":{"highway":"cycleway","name":null,"category":"Dedicated cycleway"},"geometry":{"type":"MultiLineString","coordinates":[[[-0.1025033,51.5651749],[-0.1025571,51.565175],[-0.1025808,51.5651886],[-0.1025758,51.5652198]]]}},
{"type":"Feature","properties":{"highway":"cycleway","name":null,"category":"Dedicated cycleway"},"geometry":{"type":"MultiLineString","coordinates":[[[-0.1025758,51.5652198],[-0.1025226,51.5652275],[-0.1024904,51.5652091],[-0.1025033,51.5651749]]]}},
{"type":"Feature","properties":{"highway":"cycleway","name":"Finsbury Park Road","category":"Dedicated cycleway"},"geometry":{"type":"MultiLineString","coordinates":[[[-0.1031279,51.564787],[-0.1031742,51.5647784],[-0.1032008,51.5647922],[-0.1031841,51.5648216]]]}},
{"type":"Feature","properties":{"highway":"cycleway","name":"Finsbury Park Road","category":"Dedicated cycleway"},"geometry":{"type":"MultiLineString","coordinates":[[[-0.0988703,51.5619816],[-0.0988217,51.5619816],[-0.0988016,51.561966],[-0.098818,51.5619416],[-0.0988735,51.5619448],[-0.0988862,51.5619585],[-0.0988703,51.5619816]]]}},
{"type":"Feature","properties":{"highway":"cycleway","name":"Finsbury Park Road","category":"Dedicated cycleway"},"geometry":{"type":"MultiLineString","coordinates":[[[-0.098511,51.5617497],[-0.0984713,51.5617551],[-0.0984488,51.5617424],[-0.0984599,51.5617168]]]}},
{"type":"Feature","properties":{"highway":"cycleway","name":"Finsbury Park Road","category":"Dedicated cycleway"},"geometry":{"type":"MultiLineString","coordinates":[[[-0.0984599,51.5617168],[-0.0985003,51.5617112],[-0.0985102,51.5617184],[-0.0985196,51.5617253],[-0.098511,51.5617497]]]}},
{"type":"Feature","properties":{"highway":"cycleway","name":"Wilberforce Road","category":"Dedicated cycleway"},"geometry":{"type":"MultiLineString","coordinates":[[[-0.0976567,51.5620206],[-0.0976109,51.5620226],[-0.0975852,51.5620065],[-0.0975942,51.5619807]]]}},
{"type":"Feature","properties":{"highway":"cycleway","name":"Wilberforce Road","category":"Dedicated cycleway"},"geometry":{"type":"MultiLineString","coordinates":[[[-0.0980862,51.5622975],[-0.0980326,51.562304],[-0.0980132,51.5622867],[-0.0980223,51.5622571]]]}},
{"type":"Feature","properties":{"highway":"cycleway","name":"Wilberforce Road","category":"Dedicated cycleway"},"geometry":{"type":"MultiLineString","coordinates":[[[-0.0975942,51.5619807],[-0.0976431,51.5619763],[-0.0976676,51.5619927],[-0.0976567,51.5620206]]]}},
{"type":"Feature","properties":{"highway":"cycleway","name":"Wilberforce Road","category":"Dedicated cycleway"},"geometry":{"type":"MultiLineString","coordinates":[[[-0.0980223,51.5622571],[-0.0980776,51.5622547],[-0.0981012,51.5622668],[-0.0980862,51.5622975]]]}},
{"type":"Feature","properties":{"highway":"cycleway","name":"Aubert Park","category":"Dedicated cycleway"},"geometry":{"type":"MultiLineString","coordinates":[[[-0.1031504,51.5554986],[-0.1030062,51.555502]]]}},
{"type":"Feature","properties":{"highway":"cycleway","name":"Saint Thomas's Road","category":"Dedicated cycleway"},"geometry":{"type":"MultiLineString","coordinates":[[[-0.1043286,51.5601169],[-0.104275,51.5600289]]]}},
{"type":"Feature","properties":{"highway":"cycleway","name":"Plimsoll Road","category":"Dedicated cycleway"},"geometry":{"type":"MultiLineString","coordinates":[[[-0.1024023,51.5606745],[-0.1023731,51.5606282],[-0.1023691,51.5606219],[-0.1023651,51.5606156]]]}},
{"type":"Feature","properties":{"highway":"cycleway","name":"Highbury Hill","category":"Dedicated cycleway"},"geometry":{"type":"MultiLineString","coordinates":[[[-0.1032321,51.5537051],[-0.1031856,51.5536517]]]}},
{"type":"Feature","properties":{"highway":"cycleway","name":"Monsell Road","category":"Dedicated cycleway"},"geometry":{"type":"MultiLineString","coordinates":[[[-0.1011897,51.5610246],[-0.1012362,51.5610102],[-0.1012936,51.5609924]]]}},
{"type":"Feature","properties":{"highway":"cycleway","name":"Bryantwood Road","category":"Dedicated cycleway"},"geometry":{"type":"MultiLineString","coordinates":[[[-0.1094664,51.5526768],[-0.1094772,51.552651],[-0.1095638,51.5526319]]]}},
{"type":"Feature","properties":{"highway":"cycleway","name":"Benwell Road","category":"Dedicated cycleway"},"geometry":{"type":"MultiLineString","coordinates":[[[-0.1097748,51.5530116],[-0.1097105,51.5529916],[-0.109707,51.5529838],[-0.1096824,51.5529357],[-0.1097148,51.5528943]]]}},
{"type":"Feature","properties":{"highway":"cycleway","name":"Benwell Road","category":"Dedicated cycleway"},"geometry":{"type":"MultiLineString","coordinates":[[[-0.1097148,51.5528943],[-0.1097856,51.5529142],[-0.1097909,51.5529243],[-0.1098141,51.5529718],[-0.1097748,51.5530116]]]}},
{"type":"Feature","properties":{"highway":"cycleway","name":"Drayton Park","category":"Dedicated cycleway"},"geometry":{"type":"MultiLineString","coordinates":[[[-0.1050506,51.5535506],[-0.1051324,51.553572],[-0.1051383,51.5535913],[-0.1052008,51.5537707],[-0.105351,51.554252],[-0.1054274,51.5544967],[-0.1054991,51.5547005],[-0.1056334,51.5552698],[-0.1056487,51.5553299],[-0.1056757,51.5554046],[-0.1056792,51.5554242],[-0.1056121,51.5554563]]]}},
{"type":"Feature","properties":{"highway":"cycleway","name":null,"category":"Dedicated cycleway"},"geometry":{"type":"MultiLineString","coordinates":[[[-0.1055409,51.5651505],[-0.1055736,51.5651315]]]}},
{"type":"Feature","properties":{"highway":"cycleway","name":null,"category":"Dedicated cycleway"},"geometry":{"type":"MultiLineString","coordinates":[[[-0.1078246,51.5667445],[-0.1077975,51.5667565],[-0.1077501,51.5667775]]]}},
{"type":"Feature","properties":{"highway":"cycleway","name":"Drayton Park","category":"Dedicated cycleway"},"geometry":{"type":"MultiLineString","coordinates":[[[-0.108513,51.5513821],[-0.1084344,51.5514511],[-0.108416,51.5514688],[-0.1084177,51.5514877],[-0.1082043,51.5516203],[-0.1080285,51.5516908],[-0.1079235,51.5517179],[-0.1078042,51.5517453],[-0.1077054,51.5517652],[-0.1073996,51.551822],[-0.1067531,51.551942],[-0.1066926,51.5519532],[-0.1065596,51.5519051]]]}},
{"type":"Feature","properties":{"highway":"cycleway","name":"Drayton Park","category":"Dedicated cycleway"},"geometry":{"type":"MultiLineString","coordinates":[[[-0.105012,51.5534439],[-0.1049182,51.5534283],[-0.104877,51.5533939],[-0.1048201,51.553237],[-0.1048091,51.5531905],[-0.1048063,51.5531151],[-0.1048043,51.5530218]]]}},
{"type":"Feature","properties":{"highway":"cycleway","name":"Drayton Park","category":"Dedicated cycleway"},"geometry":{"type":"MultiLineString","coordinates":[[[-0.1054987,51.5523493],[-0.1054434,51.5523896],[-0.105336,51.5524805],[-0.105203,51.5526177],[-0.105087,51.5527604],[-0.1050264,51.5529012],[-0.1049957,51.552996],[-0.1049926,51.5530315],[-0.1049833,51.5530896],[-0.1049905,51.5531831],[-0.105034,51.5533198],[-0.1049745,51.5533513]]]}},
{"type":"Feature","properties":{"highway":"cycleway","name":"Drayton Park","category":"Dedicated cycleway"},"geometry":{"type":"MultiLineString","coordinates":[[[-0.1058401,51.5520994],[-0.1058367,51.5521705],[-0.1057898,51.5521953],[-0.1056663,51.5522577],[-0.1055829,51.5523002]]]}},
{"type":"Feature","properties":{"highway":"cycleway","name":"Drayton Park","category":"Dedicated cycleway"},"geometry":{"type":"MultiLineString","coordinates":[[[-0.1055829,51.5523002],[-0.1054987,51.5523493]]]}},
{"type":"Feature","properties":{"highway":"path","name":null,"category":"Shared path"},"geometry":{"type":"MultiLineString","coordinates":[[[-0.1058018,51.5555286],[-0.1056552,51.5555383]]]}},
{"type":"Feature","properties":{"highway":"cycleway","name":null,"category":"Dedicated cycleway"},"geometry":{"type":"MultiLineString","coordinates":[[[-0.1056358,51.5650929],[-0.1056524,51.5651103],[-0.1056706,51.565125]]]}},
{"type":"Feature","properties":{"highway":"cycleway","name":"Isledon Road","category":"Dedicated cycleway"},"geometry":{"type":"MultiLineString","coordinates":[[[-0.1077464,51.5627895],[-0.1076797,51.5627434],[-0.1076909,51.5626896],[-0.1077241,51.5625291],[-0.1077427,51.5624401],[-0.1077693,51.562361],[-0.1077898,51.5623],[-0.107832,51.5622104],[-0.1079141,51.5621987]]]}},
{"type":"Feature","properties":{"highway":"cycleway","name":"Isledon Road","category":"Dedicated cycleway"},"geometry":{"type":"MultiLineString","coordinates":[[[-0.1100356,51.5599373],[-0.1100263,51.5599011],[-0.1100694,51.5598654],[-0.110079,51.5598386],[-0.1101953,51.5597747],[-0.1102847,51.5597256],[-0.1103421,51.5597107],[-0.1103804,51.5596899],[-0.1104864,51.5596994]]]}},
{"type":"Feature","properties":{"highway":"cycleway","name":"Seven Sisters Road","category":"Dedicated cycleway"},"geometry":{"type":"MultiLineString","coordinates":[[[-0.1103021,51.5622447],[-0.1101865,51.5622126],[-0.1097922,51.5623527],[-0.1097385,51.5624513]]]}},
{"type":"Feature","properties":{"highway":"cycleway","name":"Seven Sisters Road","category":"Dedicated cycleway"},"geometry":{"type":"MultiLineString","coordinates":[[[-0.1081161,51.5629949],[-0.1080449,51.5630815]]]}},
{"type":"Feature","properties":{"highway":"cycleway","name":"Seven Sisters Road","category":"Dedicated cycleway"},"geometry":{"type":"MultiLineString","coordinates":[[[-0.1090919,51.5627003],[-0.1089597,51.5626855],[-0.1086758,51.5627945],[-0.1084845,51.5628508],[-0.1084527,51.5628625],[-0.1084461,51.5628649],[-0.1084282,51.5628736],[-0.1083168,51.562928]]]}},
{"type":"Feature","properties":{"highway":"cycleway","name":"Seven Sisters Road","category":"Dedicated cycleway"},"geometry":{"type":"MultiLineString","coordinates":[[[-0.1124499,51.5615115],[-0.1123935,51.5614952],[-0.112311,51.5615235],[-0.1122399,51.5615235],[-0.1116909,51.561711],[-0.1116707,51.5617297],[-0.1115793,51.5617585],[-0.1114879,51.5617873],[-0.1114744,51.5617916],[-0.1114524,51.561836]]]}},
{"type":"Feature","properties":{"highway":"cycleway","name":"Seven Sisters Road","category":"Dedicated cycleway"},"geometry":{"type":"MultiLineString","coordinates":[[[-0.1112746,51.5618948],[-0.1112048,51.5618799],[-0.1110919,51.5619204],[-0.1110344,51.5619225],[-0.1107161,51.5620428],[-0.1105615,51.5621012],[-0.1105642,51.5621522]]]}},
{"type":"Feature","properties":{"highway":"cycleway","name":"Tollington Road","category":"Dedicated cycleway"},"geometry":{"type":"MultiLineString","coordinates":[[[-0.1111508,51.5585363],[-0.1111061,51.5584859],[-0.1112088,51.5583487],[-0.1113109,51.5583342]]]}},
{"type":"Feature","properties":{"highway":"cycleway","name":null,"category":"Dedicated cycleway"},"geometry":{"type":"MultiLineString","coordinates":[[[-0.1057214,51.5640287],[-0.105736,51.5640408]]]}},
{"type":"Feature","properties":{"highway":"cycleway","name":null,"category":"Dedicated cycleway"},"geometry":{"type":"MultiLineString","coordinates":[[[-0.1054518,51.5636612],[-0.1054492,51.5636824]]]}},
{"type":"Feature","properties":{"highway":"cycleway","name":null,"category":"Dedicated cycleway"},"geometry":{"type":"MultiLineString","coordinates":[[[-0.1054934,51.5638881],[-0.1054578,51.5639069]]]}},
{"type":"Feature","properties":{"highway":"cycleway","name":null,"category":"Dedicated cycleway"},"geometry":{"type":"MultiLineString","coordinates":[[[-0.0988509,51.5660194],[-0.0987992,51.5660021],[-0.0987936,51.5659891],[-0.0988241,51.5659619]]]}},
{"type":"Feature","properties":{"highway":"cycleway","name":null,"category":"Dedicated cycleway"},"geometry":{"type":"MultiLineString","coordinates":[[[-0.0988241,51.5659619],[-0.0988745,51.5659745],[-0.0988805,51.5659865],[-0.0988509,51.5660194]]]}},
{"type":"Feature","properties":{"highway":"cycleway","name":null,"category":"Dedicated cycleway"},"geometry":{"type":"MultiLineString","coordinates":[[[-0.1077501,51.5667775],[-0.1077441,51.5667801]]]}},
{"type":"Feature","properties":{"highway":"cycleway","name":null,"category":"Dedicated cycleway"},"geometry":{"type":"MultiLineString","coordinates":[[[-0.1078408,51.5667373],[-0.1078246,51.5667445]]]}},
{"type":"Feature","properties":{"highway":"cycleway","name":null,"category":"Dedicated cycleway"},"geometry":{"type":"MultiLineString","coordinates":[[[-0.1029711,51.5666078],[-0.1030199,51.5666515],[-0.1030501,51.5666786],[-0.1032629,51.5668693]]]}},
{"type":"Feature","properties":{"highway":"cycleway","name":null,"category":"Dedicated cycleway"},"geometry":{"type":"MultiLineString","coordinates":[[[-0.1055067,51.5644499],[-0.1054915,51.5644541]]]}},
{"type":"Feature","properties":{"highway":"cycleway","name":null,"category":"Dedicated cycleway"},"geometry":{"type":"MultiLineString","coordinates":[[[-0.1055295,51.565158],[-0.1055409,51.5651505]]]}},
{"type":"Feature","properties":{"highway":"cycleway","name":null,"category":"Dedicated cycleway"},"geometry":{"type":"MultiLineString","coordinates":[[[-0.1053554,51.5648931],[-0.1053409,51.5648838]]]}},
{"type":"Feature","properties":{"highway":"cycleway","name":null,"category":"Dedicated cycleway"},"geometry":{"type":"MultiLineString","coordinates":[[[-0.106721,51.5658389],[-0.1067526,51.5658601],[-0.1068065,51.5658982]]]}},
{"type":"Feature","properties":{"highway":"cycleway","name":"Stroud Green Road","category":"Dedicated cycleway"},"geometry":{"type":"MultiLineString","coordinates":[[[-0.1056706,51.565125],[-0.1057338,51.565176],[-0.106721,51.5658389]]]}},
{"type":"Feature","properties":{"highway":"cycleway","name":null,"category":"Dedicated cycleway"},"geometry":{"type":"MultiLineString","coordinates":[[[-0.1072126,51.5661796],[-0.1072381,51.5661973],[-0.1072868,51.5662313]]]}},
{"type":"Feature","properties":{"highway":"cycleway","name":"Stroud Green Road","category":"Dedicated cycleway"},"geometry":{"type":"MultiLineString","coordinates":[[[-0.1068065,51.5658982],[-0.1072126,51.5661796]]]}},
{"type":"Feature","properties":{"highway":"cycleway","name":"Hornsey Road","category":"Dedicated cycleway"},"geometry":{"type":"MultiLineString","coordinates":[[[-0.1111828,51.5554693],[-0.1111162,51.5554019]]]}},
{"type":"Feature","properties":{"highway":"cycleway","name":"Hornsey Road","category":"Dedicated cycleway"},"geometry":{"type":"MultiLineString","coordinates":[[[-0.1107495,51.5547519],[-0.1107843,51.5546785]]]}},
{"type":"Feature","properties":{"highway":"cycle_lane_on_street","name":"Woodstock Road","category":"Cycle lane on street"},"geometry":{"type":"MultiLineString","coordinates":[[[-0.1074786,51.5696911],[-0.1074647,51.5695501],[-0.1074357,51.5694711],[-0.1073866,51.5694147],[-0.1073422,51.5693875],[-0.1071858,51.5692916],[-0.1070321,51.5691979],[-0.1068859,51.5691087],[-0.1068518,51.5690698],[-0.1068331,51.569022],[-0.1068258,51.5689277],[-0.1068661,51.5683802],[-0.1069035,51.567871],[-0.1069316,51.5674889],[-0.106939,51.5674443],[-0.1069571,51.5674055],[-0.1070128,51.5673589],[-0.1070751,51.5673164],[-0.1075438,51.5670242],[-0.1075844,51.5669989],[-0.1077104,51.5669244],[-0.1077711,51.5668941]]]}}
]
}
