{
"type": "FeatureCollection",
"name": "77f61633feef_foliage",
"crs": { "type": "name", "properties": { "name": "urn:ogc:def:crs:OGC:1.3:CRS84" } },
"features": [
{ "type": "Feature", "properties": { "max_height": 2.4972515106201172, "mean_height": 0.16554287075996399, "std_height": 0.55060338973999023, "count_pixels": 42, "percent_cover": 0.95454545454545459, "percent_above_0.1m": 9.5238095238095237, "low_level_<0.5": 0.0, "mid_level_0.5-2": 4.7619047619047619, "tall_2+": 4.7619047619047619 }, "geometry": { "type": "Point", "coordinates": [ -0.139243147702212, 51.532618246713888 ] } },
{ "type": "Feature", "properties": { "max_height": 3.0830001831054688, "mean_height": 0.39501899480819702, "std_height": 0.67276597023010254, "count_pixels": 42, "percent_cover": 0.95454545454545459, "percent_above_0.1m": 47.619047619047613, "low_level_<0.5": 21.428571428571427, "mid_level_0.5-2": 16.666666666666664, "tall_2+": 7.1428571428571423 }, "geometry": { "type": "Point", "coordinates": [ -0.139043490258284, 51.532615080185558 ] } },
{ "type": "Feature", "properties": { "max_height": 0.81675148010253906, "mean_height": 0.12600749731063843, "std_height": 0.24651652574539185, "count_pixels": 41, "percent_cover": 0.93181818181818177, "percent_above_0.1m": 21.951219512195124, "low_level_<0.5": 7.3170731707317067, "mid_level_0.5-2": 12.195121951219512, "tall_2+": 0.0 }, "geometry": { "type": "Point", "coordinates": [ -0.138843832850632, 51.53261191331746 ] } },
{ "type": "Feature", "properties": { "max_height": 0.050251007080078125, "mean_height": 0.0053388597443699837, "std_height": 0.010458787903189659, "count_pixels": 40, "percent_cover": 0.90909090909090906, "percent_above_0.1m": 0.0, "low_level_<0.5": 0.0, "mid_level_0.5-2": 0.0, "tall_2+": 0.0 }, "geometry": { "type": "Point", "coordinates": [ -0.138644175479262, 51.532608746109652 ] } },
{ "type": "Feature", "properties": { "max_height": 4.0720005035400391, "mean_height": 0.68978112936019897, "std_height": 1.1343770027160645, "count_pixels": 42, "percent_cover": 0.95454545454545459, "percent_above_0.1m": 38.095238095238095, "low_level_<0.5": 2.3809523809523809, "mid_level_0.5-2": 16.666666666666664, "tall_2+": 16.666666666666664 }, "geometry": { "type": "Point", "coordinates": [ -0.139138919274084, 51.532724506118768 ] } },
{ "type": "Feature", "properties": { "max_height": 0.65675163269042969, "mean_height": 0.038947787135839462, "std_height": 0.12811966240406036, "count_pixels": 42, "percent_cover": 0.95454545454545459, "percent_above_0.1m": 9.5238095238095237, "low_level_<0.5": 7.1428571428571423, "mid_level_0.5-2": 2.3809523809523809, "tall_2+": 0.0 }, "geometry": { "type": "Point", "coordinates": [ -0.138939261381028, 51.532721339409783 ] } },
{ "type": "Feature", "properties": { "max_height": 1.2490024566650391, "mean_height": 0.26900699734687805, "std_height": 0.36226922273635864, "count_pixels": 43, "percent_cover": 0.97727272727272729, "percent_above_0.1m": 48.837209302325576, "low_level_<0.5": 25.581395348837212, "mid_level_0.5-2": 18.604651162790699, "tall_2+": 0.0 }, "geometry": { "type": "Point", "coordinates": [ -0.138739603524242, 51.532718172361093 ] } },
{ "type": "Feature", "properties": { "max_height": 1.0790004730224609, "mean_height": 0.05480792373418808, "std_height": 0.18341633677482605, "count_pixels": 44, "percent_cover": 1.0, "percent_above_0.1m": 11.363636363636363, "low_level_<0.5": 2.2727272727272729, "mid_level_0.5-2": 4.5454545454545459, "tall_2+": 0.0 }, "geometry": { "type": "Point", "coordinates": [ -0.138539945703746, 51.532715004972673 ] } },
{ "type": "Feature", "properties": { "max_height": 1.0475025177001953, "mean_height": 0.059569694101810455, "std_height": 0.19335348904132843, "count_pixels": 40, "percent_cover": 0.90909090909090906, "percent_above_0.1m": 10.0, "low_level_<0.5": 5.0, "mid_level_0.5-2": 5.0, "tall_2+": 0.0 }, "geometry": { "type": "Point", "coordinates": [ -0.13834028791953, 51.532711837244499 ] } },
{ "type": "Feature", "properties": { "max_height": 0.42150115966796875, "mean_height": 0.022227752953767776, "std_height": 0.083834417164325714, "count_pixels": 43, "percent_cover": 0.97727272727272729, "percent_above_0.1m": 4.6511627906976747, "low_level_<0.5": 4.6511627906976747, "mid_level_0.5-2": 0.0, "tall_2+": 0.0 }, "geometry": { "type": "Point", "coordinates": [ -0.138140630171609, 51.532708669176614 ] } },
{ "type": "Feature", "properties": { "max_height": 2.4742507934570312, "mean_height": 0.20518589019775391, "std_height": 0.48463597893714905, "count_pixels": 42, "percent_cover": 0.95454545454545459, "percent_above_0.1m": 23.809523809523807, "low_level_<0.5": 9.5238095238095237, "mid_level_0.5-2": 11.904761904761903, "tall_2+": 2.3809523809523809 }, "geometry": { "type": "Point", "coordinates": [ -0.139034690360539, 51.532830765425757 ] } },
{ "type": "Feature", "properties": { "max_height": 0.0240020751953125, "mean_height": 0.000586579495575279, "std_height": 0.0047102677635848522, "count_pixels": 41, "percent_cover": 0.93181818181818177, "percent_above_0.1m": 0.0, "low_level_<0.5": 0.0, "mid_level_0.5-2": 0.0, "tall_2+": 0.0 }, "geometry": { "type": "Point", "coordinates": [ -0.138835032018352, 51.532827598536173 ] } },
{ "type": "Feature", "properties": { "max_height": 1.1085014343261719, "mean_height": 0.11578245460987091, "std_height": 0.27806541323661804, "count_pixels": 40, "percent_cover": 0.90909090909090906, "percent_above_0.1m": 15.0, "low_level_<0.5": 2.5, "mid_level_0.5-2": 12.5, "tall_2+": 0.0 }, "geometry": { "type": "Point", "coordinates": [ -0.138635373712441, 51.532824431306842 ] } },
{ "type": "Feature", "properties": { "max_height": 0.94425010681152344, "mean_height": 0.17669486999511719, "std_height": 0.28960701823234558, "count_pixels": 40, "percent_cover": 0.90909090909090906, "percent_above_0.1m": 32.5, "low_level_<0.5": 10.0, "mid_level_0.5-2": 20.0, "tall_2+": 0.0 }, "geometry": { "type": "Point", "coordinates": [ -0.138435715442813, 51.532821263737802 ] } },
{ "type": "Feature", "properties": { "max_height": 0.087001800537109375, "mean_height": 0.01108250580728054, "std_height": 0.017635438591241837, "count_pixels": 40, "percent_cover": 0.90909090909090906, "percent_above_0.1m": 0.0, "low_level_<0.5": 0.0, "mid_level_0.5-2": 0.0, "tall_2+": 0.0 }, "geometry": { "type": "Point", "coordinates": [ -0.138236057209474, 51.532818095828993 ] } },
{ "type": "Feature", "properties": { "max_height": 3.3027515411376953, "mean_height": 0.28706037998199463, "std_height": 0.70149576663970947, "count_pixels": 42, "percent_cover": 0.95454545454545459, "percent_above_0.1m": 35.714285714285715, "low_level_<0.5": 14.285714285714285, "mid_level_0.5-2": 11.904761904761903, "tall_2+": 4.7619047619047619 }, "geometry": { "type": "Point", "coordinates": [ -0.139130119789185, 51.532940191365356 ] } },
{ "type": "Feature", "properties": { "max_height": 0.022500991821289062, "mean_height": 0.0015370959881693125, "std_height": 0.0051932134665548801, "count_pixels": 42, "percent_cover": 0.95454545454545459, "percent_above_0.1m": 0.0, "low_level_<0.5": 0.0, "mid_level_0.5-2": 0.0, "tall_2+": 0.0 }, "geometry": { "type": "Point", "coordinates": [ -0.138930460961583, 51.532937024634876 ] } },
{ "type": "Feature", "properties": { "max_height": 3.4045009613037109, "mean_height": 0.24979200959205627, "std_height": 0.7539060115814209, "count_pixels": 43, "percent_cover": 0.97727272727272729, "percent_above_0.1m": 16.279069767441861, "low_level_<0.5": 6.9767441860465116, "mid_level_0.5-2": 2.3255813953488373, "tall_2+": 6.9767441860465116 }, "geometry": { "type": "Point", "coordinates": [ -0.138730802170258, 51.532933857564657 ] } },
{ "type": "Feature", "properties": { "max_height": 0.022251129150390625, "mean_height": 0.0014611590886488557, "std_height": 0.0043971911072731018, "count_pixels": 44, "percent_cover": 1.0, "percent_above_0.1m": 0.0, "low_level_<0.5": 0.0, "mid_level_0.5-2": 0.0, "tall_2+": 0.0 }, "geometry": { "type": "Point", "coordinates": [ -0.138531143415215, 51.532930690154707 ] } },
{ "type": "Feature", "properties": { "max_height": 0.76000213623046875, "mean_height": 0.10834489017724991, "std_height": 0.20923608541488647, "count_pixels": 40, "percent_cover": 0.90909090909090906, "percent_above_0.1m": 20.0, "low_level_<0.5": 10.0, "mid_level_0.5-2": 10.0, "tall_2+": 0.0 }, "geometry": { "type": "Point", "coordinates": [ -0.138331484696462, 51.532927522405039 ] } },
{ "type": "Feature", "properties": { "max_height": 4.7752494812011719, "mean_height": 0.45580935478210449, "std_height": 0.98714011907577515, "count_pixels": 43, "percent_cover": 0.97727272727272729, "percent_above_0.1m": 32.558139534883722, "low_level_<0.5": 13.953488372093023, "mid_level_0.5-2": 9.3023255813953494, "tall_2+": 9.3023255813953494 }, "geometry": { "type": "Point", "coordinates": [ -0.138131826013991, 51.532924354315618 ] } },
{ "type": "Feature", "properties": { "max_height": 3.6602516174316406, "mean_height": 0.52691197395324707, "std_height": 1.0251379013061523, "count_pixels": 42, "percent_cover": 0.95454545454545459, "percent_above_0.1m": 30.952380952380953, "low_level_<0.5": 4.7619047619047619, "mid_level_0.5-2": 11.904761904761903, "tall_2+": 11.904761904761903 }, "geometry": { "type": "Point", "coordinates": [ -0.139025890353943, 51.533046450657196 ] } },
{ "type": "Feature", "properties": { "max_height": 0.6985015869140625, "mean_height": 0.029946396127343178, "std_height": 0.12845307588577271, "count_pixels": 41, "percent_cover": 0.93181818181818177, "percent_above_0.1m": 4.8780487804878048, "low_level_<0.5": 2.4390243902439024, "mid_level_0.5-2": 2.4390243902439024, "tall_2+": 0.0 }, "geometry": { "type": "Point", "coordinates": [ -0.138826231077206, 51.533043283746103 ] } },
{ "type": "Feature", "properties": { "max_height": 0.00875091552734375, "mean_height": -0.0010174274211749434, "std_height": 0.004005115944892168, "count_pixels": 40, "percent_cover": 0.90909090909090906, "percent_above_0.1m": 0.0, "low_level_<0.5": 0.0, "mid_level_0.5-2": 0.0, "tall_2+": 0.0 }, "geometry": { "type": "Point", "coordinates": [ -0.138626571836742, 51.533040116495279 ] } },
{ "type": "Feature", "properties": { "max_height": 1.8675022125244141, "mean_height": 0.23418879508972168, "std_height": 0.46345052123069763, "count_pixels": 40, "percent_cover": 0.90909090909090906, "percent_above_0.1m": 27.5, "low_level_<0.5": 7.5, "mid_level_0.5-2": 17.5, "tall_2+": 0.0 }, "geometry": { "type": "Point", "coordinates": [ -0.138426912632571, 51.533036948904694 ] } },
{ "type": "Feature", "properties": { "max_height": 1.3857498168945312, "mean_height": 0.19640746712684631, "std_height": 0.34110912680625916, "count_pixels": 40, "percent_cover": 0.90909090909090906, "percent_above_0.1m": 37.5, "low_level_<0.5": 5.0, "mid_level_0.5-2": 20.0, "tall_2+": 0.0 }, "geometry": { "type": "Point", "coordinates": [ -0.13822725346468, 51.533033780974392 ] } },
{ "type": "Feature", "properties": { "max_height": 6.8825016021728516, "mean_height": 1.3598823547363281, "std_height": 1.9906959533691406, "count_pixels": 42, "percent_cover": 0.95454545454545459, "percent_above_0.1m": 42.857142857142854, "low_level_<0.5": 0.0, "mid_level_0.5-2": 11.904761904761903, "tall_2+": 28.571428571428569 }, "geometry": { "type": "Point", "coordinates": [ -0.139121320195441, 51.533155876603161 ] } },
{ "type": "Feature", "properties": { "max_height": 0.037252426147460938, "mean_height": 0.0014060338726267219, "std_height": 0.0079450542107224464, "count_pixels": 42, "percent_cover": 0.95454545454545459, "percent_above_0.1m": 0.0, "low_level_<0.5": 0.0, "mid_level_0.5-2": 0.0, "tall_2+": 0.0 }, "geometry": { "type": "Point", "coordinates": [ -0.138921660433278, 51.533152709851173 ] } },
{ "type": "Feature", "properties": { "max_height": 0.013500213623046875, "mean_height": -0.00084189482731744647, "std_height": 0.0039619063027203083, "count_pixels": 43, "percent_cover": 0.97727272727272729, "percent_above_0.1m": 0.0, "low_level_<0.5": 0.0, "mid_level_0.5-2": 0.0, "tall_2+": 0.0 }, "geometry": { "type": "Point", "coordinates": [ -0.138722000707406, 51.533149542759453 ] } },
{ "type": "Feature", "properties": { "max_height": 11.410251617431641, "mean_height": 2.8926999568939209, "std_height": 3.4863433837890625, "count_pixels": 44, "percent_cover": 1.0, "percent_above_0.1m": 59.090909090909093, "low_level_<0.5": 4.5454545454545459, "mid_level_0.5-2": 9.0909090909090917, "tall_2+": 45.454545454545453 }, "geometry": { "type": "Point", "coordinates": [ -0.138522341017804, 51.533146375327988 ] } },
{ "type": "Feature", "properties": { "max_height": 1.6477527618408203, "mean_height": 0.29777002334594727, "std_height": 0.42228966951370239, "count_pixels": 40, "percent_cover": 0.90909090909090906, "percent_above_0.1m": 50.0, "low_level_<0.5": 25.0, "mid_level_0.5-2": 22.5, "tall_2+": 0.0 }, "geometry": { "type": "Point", "coordinates": [ -0.138322681364496, 51.533143207556797 ] } },
{ "type": "Feature", "properties": { "max_height": 0.79524993896484375, "mean_height": 0.027405830100178719, "std_height": 0.12200110405683517, "count_pixels": 42, "percent_cover": 0.95454545454545459, "percent_above_0.1m": 4.7619047619047619, "low_level_<0.5": 0.0, "mid_level_0.5-2": 2.3809523809523809, "tall_2+": 0.0 }, "geometry": { "type": "Point", "coordinates": [ -0.139017090238499, 51.533262135879873 ] } },
{ "type": "Feature", "properties": { "max_height": 0.0075016021728515625, "mean_height": -0.0014438163489103317, "std_height": 0.0050563872791826725, "count_pixels": 41, "percent_cover": 0.93181818181818177, "percent_above_0.1m": 0.0, "low_level_<0.5": 0.0, "mid_level_0.5-2": 0.0, "tall_2+": 0.0 }, "geometry": { "type": "Point", "coordinates": [ -0.138817430027193, 51.533258968947273 ] } },
{ "type": "Feature", "properties": { "max_height": 7.7715015411376953, "mean_height": 0.55706340074539185, "std_height": 1.3891803026199341, "count_pixels": 40, "percent_cover": 0.90909090909090906, "percent_above_0.1m": 47.5, "low_level_<0.5": 17.5, "mid_level_0.5-2": 10.0, "tall_2+": 10.0 }, "geometry": { "type": "Point", "coordinates": [ -0.138617769852175, 51.533255801674919 ] } },
{ "type": "Feature", "properties": { "max_height": 9.2440032958984375, "mean_height": 1.5569641590118408, "std_height": 2.6094937324523926, "count_pixels": 40, "percent_cover": 0.90909090909090906, "percent_above_0.1m": 57.5, "low_level_<0.5": 20.0, "mid_level_0.5-2": 7.5, "tall_2+": 25.0 }, "geometry": { "type": "Point", "coordinates": [ -0.138418109713435, 51.533252634062841 ] } },
{ "type": "Feature", "properties": { "max_height": 22.407251358032227, "mean_height": 5.4855012893676758, "std_height": 7.2134175300598145, "count_pixels": 42, "percent_cover": 0.95454545454545459, "percent_above_0.1m": 57.142857142857139, "low_level_<0.5": 4.7619047619047619, "mid_level_0.5-2": 4.7619047619047619, "tall_2+": 47.619047619047613 }, "geometry": { "type": "Point", "coordinates": [ -0.13911252049285, 51.533371561832197 ] } },
{ "type": "Feature", "properties": { "max_height": 8.5645027160644531, "mean_height": 0.27779257297515869, "std_height": 1.3710201978683472, "count_pixels": 42, "percent_cover": 0.95454545454545459, "percent_above_0.1m": 7.1428571428571423, "low_level_<0.5": 2.3809523809523809, "mid_level_0.5-2": 0.0, "tall_2+": 4.7619047619047619 }, "geometry": { "type": "Point", "coordinates": [ -0.138912859796122, 51.533368395058716 ] } },
{ "type": "Feature", "properties": { "max_height": 4.4245033264160156, "mean_height": 0.4406815767288208, "std_height": 0.98598045110702515, "count_pixels": 43, "percent_cover": 0.97727272727272729, "percent_above_0.1m": 27.906976744186046, "low_level_<0.5": 9.3023255813953494, "mid_level_0.5-2": 9.3023255813953494, "tall_2+": 9.3023255813953494 }, "geometry": { "type": "Point", "coordinates": [ -0.138713199135675, 51.533365227945481 ] } },
{ "type": "Feature", "properties": { "max_height": 25.200252532958984, "mean_height": 14.538704872131348, "std_height": 6.0060248374938965, "count_pixels": 42, "percent_cover": 0.95454545454545459, "percent_above_0.1m": 97.61904761904762, "low_level_<0.5": 0.0, "mid_level_0.5-2": 4.7619047619047619, "tall_2+": 92.857142857142861 }, "geometry": { "type": "Point", "coordinates": [ -0.139008290014193, 51.533477821093783 ] } },
{ "type": "Feature", "properties": { "max_height": 8.5670013427734375, "mean_height": 1.5432695150375366, "std_height": 2.0286164283752441, "count_pixels": 41, "percent_cover": 0.93181818181818177, "percent_above_0.1m": 68.292682926829272, "low_level_<0.5": 14.634146341463413, "mid_level_0.5-2": 19.512195121951219, "tall_2+": 31.707317073170731 }, "geometry": { "type": "Point", "coordinates": [ -0.138808628868319, 51.533474654139653 ] } },
{ "type": "Feature", "properties": { "max_height": 26.876501083374023, "mean_height": 16.127471923828125, "std_height": 6.1607012748718262, "count_pixels": 42, "percent_cover": 0.95454545454545459, "percent_above_0.1m": 100.0, "low_level_<0.5": 0.0, "mid_level_0.5-2": 2.3809523809523809, "tall_2+": 97.61904761904762 }, "geometry": { "type": "Point", "coordinates": [ -0.139103720681413, 51.533587247052473 ] } },
{ "type": "Feature", "properties": { "max_height": 24.782501220703125, "mean_height": 10.97743034362793, "std_height": 8.0491905212402344, "count_pixels": 42, "percent_cover": 0.95454545454545459, "percent_above_0.1m": 78.571428571428569, "low_level_<0.5": 0.0, "mid_level_0.5-2": 0.0, "tall_2+": 78.571428571428569 }, "geometry": { "type": "Point", "coordinates": [ -0.138904059050102, 51.533584080257462 ] } },
{ "type": "Feature", "properties": { "max_height": 25.489002227783203, "mean_height": 8.1857099533081055, "std_height": 8.6986732482910156, "count_pixels": 42, "percent_cover": 0.95454545454545459, "percent_above_0.1m": 61.904761904761905, "low_level_<0.5": 0.0, "mid_level_0.5-2": 2.3809523809523809, "tall_2+": 59.523809523809526 }, "geometry": { "type": "Point", "coordinates": [ -0.138999489681033, 51.533693506298903 ] } }
]
}
