{
"type": "FeatureCollection",
"name": "fd61e2188ba3_foliage",
"crs": { "type": "name", "properties": { "name": "urn:ogc:def:crs:OGC:1.3:CRS84" } },
"features": [
{ "type": "Feature", "properties": { "max_height": 11.362251281738281, "mean_height": 3.3344964981079102, "std_height": 3.7362005710601807, "count_pixels": 41, "percent_cover": 0.88744588744588748, "percent_above_0.1m": 92.682926829268297, "low_level_<0.5": 17.073170731707318, "mid_level_0.5-2": 31.707317073170731, "tall_2+": 41.463414634146339 }, "geometry": { "type": "Point", "coordinates": [ -0.134553429944407, 51.552478917746441 ] } },
{ "type": "Feature", "properties": { "max_height": 13.154747009277344, "mean_height": 5.5848565101623535, "std_height": 3.5942251682281494, "count_pixels": 41, "percent_cover": 0.88744588744588748, "percent_above_0.1m": 100.0, "low_level_<0.5": 2.4390243902439024, "mid_level_0.5-2": 19.512195121951219, "tall_2+": 78.048780487804876 }, "geometry": { "type": "Point", "coordinates": [ -0.134353686226322, 51.552475741740878 ] } },
{ "type": "Feature", "properties": { "max_height": 8.6355056762695312, "mean_height": 3.2145698070526123, "std_height": 2.0453009605407715, "count_pixels": 41, "percent_cover": 0.88744588744588748, "percent_above_0.1m": 95.121951219512198, "low_level_<0.5": 7.3170731707317067, "mid_level_0.5-2": 17.073170731707318, "tall_2+": 68.292682926829272 }, "geometry": { "type": "Point", "coordinates": [ -0.134153942544636, 51.552472565396023 ] } },
{ "type": "Feature", "properties": { "max_height": 6.1672554016113281, "mean_height": 1.230211615562439, "std_height": 1.6346495151519775, "count_pixels": 37, "percent_cover": 0.80086580086580084, "percent_above_0.1m": 64.86486486486487, "low_level_<0.5": 18.918918918918919, "mid_level_0.5-2": 24.324324324324326, "tall_2+": 21.621621621621621 }, "geometry": { "type": "Point", "coordinates": [ -0.13395419889933, 51.552469388711849 ] } },
{ "type": "Feature", "properties": { "max_height": 4.5680046081542969, "mean_height": 2.054642915725708, "std_height": 1.5478371381759644, "count_pixels": 41, "percent_cover": 0.88744588744588748, "percent_above_0.1m": 90.243902439024396, "low_level_<0.5": 9.7560975609756095, "mid_level_0.5-2": 34.146341463414636, "tall_2+": 43.902439024390247 }, "geometry": { "type": "Point", "coordinates": [ -0.135048377879796, 51.55259469733096 ] } },
{ "type": "Feature", "properties": { "max_height": 7.8057518005371094, "mean_height": 2.619459867477417, "std_height": 1.9127888679504395, "count_pixels": 41, "percent_cover": 0.88744588744588748, "percent_above_0.1m": 90.243902439024396, "low_level_<0.5": 4.8780487804878048, "mid_level_0.5-2": 19.512195121951219, "tall_2+": 60.975609756097562 }, "geometry": { "type": "Point", "coordinates": [ -0.134848633428072, 51.552591522803048 ] } },
{ "type": "Feature", "properties": { "max_height": 7.9119987487792969, "mean_height": 1.2100023031234741, "std_height": 1.8812919855117798, "count_pixels": 41, "percent_cover": 0.88744588744588748, "percent_above_0.1m": 68.292682926829272, "low_level_<0.5": 21.951219512195124, "mid_level_0.5-2": 26.829268292682929, "tall_2+": 17.073170731707318 }, "geometry": { "type": "Point", "coordinates": [ -0.134648889165155, 51.552588347323066 ] } },
{ "type": "Feature", "properties": { "max_height": 9.8452529907226562, "mean_height": 1.5348571538925171, "std_height": 2.5975198745727539, "count_pixels": 43, "percent_cover": 0.93073593073593075, "percent_above_0.1m": 39.534883720930232, "low_level_<0.5": 0.0, "mid_level_0.5-2": 13.953488372093023, "tall_2+": 25.581395348837212 }, "geometry": { "type": "Point", "coordinates": [ -0.13444914496137, 51.552585171465282 ] } },
{ "type": "Feature", "properties": { "max_height": 5.7925033569335938, "mean_height": 0.73525214195251465, "std_height": 1.6941817998886108, "count_pixels": 43, "percent_cover": 0.93073593073593075, "percent_above_0.1m": 23.255813953488371, "low_level_<0.5": 0.0, "mid_level_0.5-2": 6.9767441860465116, "tall_2+": 13.953488372093023 }, "geometry": { "type": "Point", "coordinates": [ -0.134249400793976, 51.552581995268199 ] } },
{ "type": "Feature", "properties": { "max_height": 5.0837516784667969, "mean_height": 0.43426993489265442, "std_height": 1.0708694458007812, "count_pixels": 43, "percent_cover": 0.93073593073593075, "percent_above_0.1m": 27.906976744186046, "low_level_<0.5": 6.9767441860465116, "mid_level_0.5-2": 11.627906976744185, "tall_2+": 6.9767441860465116 }, "geometry": { "type": "Point", "coordinates": [ -0.134049656662966, 51.552578818731789 ] } },
{ "type": "Feature", "properties": { "max_height": 5.0262527465820312, "mean_height": 1.0088655948638916, "std_height": 1.0186103582382202, "count_pixels": 42, "percent_cover": 0.90909090909090906, "percent_above_0.1m": 78.571428571428569, "low_level_<0.5": 14.285714285714285, "mid_level_0.5-2": 47.619047619047613, "tall_2+": 14.285714285714285 }, "geometry": { "type": "Point", "coordinates": [ -0.13384991256835, 51.552575641856059 ] } },
{ "type": "Feature", "properties": { "max_height": 3.2382545471191406, "mean_height": 0.35942688584327698, "std_height": 0.69905054569244385, "count_pixels": 43, "percent_cover": 0.93073593073593075, "percent_above_0.1m": 41.860465116279073, "low_level_<0.5": 16.279069767441861, "mid_level_0.5-2": 13.953488372093023, "tall_2+": 4.6511627906976747 }, "geometry": { "type": "Point", "coordinates": [ -0.134944093652515, 51.552700951969307 ] } },
{ "type": "Feature", "properties": { "max_height": 0.70150375366210938, "mean_height": 0.088531583547592163, "std_height": 0.17298592627048492, "count_pixels": 43, "percent_cover": 0.93073593073593075, "percent_above_0.1m": 16.279069767441861, "low_level_<0.5": 4.6511627906976747, "mid_level_0.5-2": 6.9767441860465116, "tall_2+": 0.0 }, "geometry": { "type": "Point", "coordinates": [ -0.134744348835215, 51.552697776834073 ] } },
{ "type": "Feature", "properties": { "max_height": 0.097503662109375, "mean_height": 0.012307143770158291, "std_height": 0.023171557113528252, "count_pixels": 41, "percent_cover": 0.88744588744588748, "percent_above_0.1m": 0.0, "low_level_<0.5": 0.0, "mid_level_0.5-2": 0.0, "tall_2+": 0.0 }, "geometry": { "type": "Point", "coordinates": [ -0.134544604145728, 51.552694601124067 ] } },
{ "type": "Feature", "properties": { "max_height": 0.73850250244140625, "mean_height": 0.12964871525764465, "std_height": 0.1879613846540451, "count_pixels": 41, "percent_cover": 0.88744588744588748, "percent_above_0.1m": 36.585365853658537, "low_level_<0.5": 31.707317073170731, "mid_level_0.5-2": 4.8780487804878048, "tall_2+": 0.0 }, "geometry": { "type": "Point", "coordinates": [ -0.134344859492625, 51.552691425074727 ] } },
{ "type": "Feature", "properties": { "max_height": 8.8525047302246094, "mean_height": 1.5012221336364746, "std_height": 2.7290351390838623, "count_pixels": 41, "percent_cover": 0.88744588744588748, "percent_above_0.1m": 41.463414634146339, "low_level_<0.5": 12.195121951219512, "mid_level_0.5-2": 7.3170731707317067, "tall_2+": 21.951219512195124 }, "geometry": { "type": "Point", "coordinates": [ -0.134145114875906, 51.552688248686088 ] } },
{ "type": "Feature", "properties": { "max_height": 4.8535003662109375, "mean_height": 0.83815735578536987, "std_height": 1.3337876796722412, "count_pixels": 37, "percent_cover": 0.80086580086580084, "percent_above_0.1m": 40.54054054054054, "low_level_<0.5": 8.1081081081081088, "mid_level_0.5-2": 13.513513513513514, "tall_2+": 18.918918918918919 }, "geometry": { "type": "Point", "coordinates": [ -0.133945370295585, 51.552685071958116 ] } },
{ "type": "Feature", "properties": { "max_height": 5.7767524719238281, "mean_height": 1.9169962406158447, "std_height": 1.74071204662323, "count_pixels": 41, "percent_cover": 0.88744588744588748, "percent_above_0.1m": 85.365853658536579, "low_level_<0.5": 12.195121951219512, "mid_level_0.5-2": 24.390243902439025, "tall_2+": 43.902439024390247 }, "geometry": { "type": "Point", "coordinates": [ -0.13374562575165, 51.552681894890853 ] } },
{ "type": "Feature", "properties": { "max_height": 6.0197525024414062, "mean_height": 1.2768014669418335, "std_height": 1.303801417350769, "count_pixels": 41, "percent_cover": 0.88744588744588748, "percent_above_0.1m": 85.365853658536579, "low_level_<0.5": 21.951219512195124, "mid_level_0.5-2": 46.341463414634148, "tall_2+": 17.073170731707318 }, "geometry": { "type": "Point", "coordinates": [ -0.135039554363078, 51.552810380835908 ] } },
{ "type": "Feature", "properties": { "max_height": 4.23175048828125, "mean_height": 0.41981396079063416, "std_height": 0.94959503412246704, "count_pixels": 41, "percent_cover": 0.88744588744588748, "percent_above_0.1m": 29.268292682926827, "low_level_<0.5": 4.8780487804878048, "mid_level_0.5-2": 9.7560975609756095, "tall_2+": 7.3170731707317067 }, "geometry": { "type": "Point", "coordinates": [ -0.134839808973092, 51.552807206250051 ] } },
{ "type": "Feature", "properties": { "max_height": 10.087501525878906, "mean_height": 2.7261552810668945, "std_height": 3.2276060581207275, "count_pixels": 41, "percent_cover": 0.88744588744588748, "percent_above_0.1m": 80.487804878048792, "low_level_<0.5": 24.390243902439025, "mid_level_0.5-2": 7.3170731707317067, "tall_2+": 43.902439024390247 }, "geometry": { "type": "Point", "coordinates": [ -0.134640063779402, 51.552804030717205 ] } },
{ "type": "Feature", "properties": { "max_height": 10.001003265380859, "mean_height": 3.0737059116363525, "std_height": 3.6651818752288818, "count_pixels": 43, "percent_cover": 0.93073593073593075, "percent_above_0.1m": 65.116279069767444, "low_level_<0.5": 2.3255813953488373, "mid_level_0.5-2": 18.604651162790699, "tall_2+": 41.860465116279073 }, "geometry": { "type": "Point", "coordinates": [ -0.134440318640586, 51.552800854815644 ] } },
{ "type": "Feature", "properties": { "max_height": 9.3909988403320312, "mean_height": 4.4083986282348633, "std_height": 2.8105943202972412, "count_pixels": 43, "percent_cover": 0.93073593073593075, "percent_above_0.1m": 93.023255813953483, "low_level_<0.5": 6.9767441860465116, "mid_level_0.5-2": 4.6511627906976747, "tall_2+": 81.395348837209298 }, "geometry": { "type": "Point", "coordinates": [ -0.134240573538165, 51.552797678574763 ] } },
{ "type": "Feature", "properties": { "max_height": 9.6175041198730469, "mean_height": 3.5235836505889893, "std_height": 3.5532779693603516, "count_pixels": 43, "percent_cover": 0.93073593073593075, "percent_above_0.1m": 76.744186046511629, "low_level_<0.5": 13.953488372093023, "mid_level_0.5-2": 16.279069767441861, "tall_2+": 46.511627906976742 }, "geometry": { "type": "Point", "coordinates": [ -0.134040828472125, 51.552794501994576 ] } },
{ "type": "Feature", "properties": { "max_height": 6.2230033874511719, "mean_height": 1.8225798606872559, "std_height": 1.5404356718063354, "count_pixels": 42, "percent_cover": 0.90909090909090906, "percent_above_0.1m": 90.476190476190482, "low_level_<0.5": 16.666666666666664, "mid_level_0.5-2": 35.714285714285715, "tall_2+": 38.095238095238095 }, "geometry": { "type": "Point", "coordinates": [ -0.13384108344248, 51.552791325075063 ] } },
{ "type": "Feature", "properties": { "max_height": 8.0882530212402344, "mean_height": 2.1095080375671387, "std_height": 1.8262042999267578, "count_pixels": 43, "percent_cover": 0.93073593073593075, "percent_above_0.1m": 90.697674418604649, "low_level_<0.5": 6.9767441860465116, "mid_level_0.5-2": 30.232558139534881, "tall_2+": 46.511627906976742 }, "geometry": { "type": "Point", "coordinates": [ -0.1349352696122, 51.552916635453101 ] } },
{ "type": "Feature", "properties": { "max_height": 9.3930015563964844, "mean_height": 2.4753978252410889, "std_height": 2.7933976650238037, "count_pixels": 43, "percent_cover": 0.93073593073593075, "percent_above_0.1m": 65.116279069767444, "low_level_<0.5": 0.0, "mid_level_0.5-2": 20.930232558139537, "tall_2+": 44.186046511627907 }, "geometry": { "type": "Point", "coordinates": [ -0.134735523862397, 51.552913460244731 ] } },
{ "type": "Feature", "properties": { "max_height": 7.2532539367675781, "mean_height": 1.8085393905639648, "std_height": 2.2122962474822998, "count_pixels": 41, "percent_cover": 0.88744588744588748, "percent_above_0.1m": 60.975609756097562, "low_level_<0.5": 2.4390243902439024, "mid_level_0.5-2": 21.951219512195124, "tall_2+": 31.707317073170731 }, "geometry": { "type": "Point", "coordinates": [ -0.134535778237871, 51.552910284490935 ] } },
{ "type": "Feature", "properties": { "max_height": 3.8317489624023438, "mean_height": 2.3700027465820312, "std_height": 1.3860973119735718, "count_pixels": 41, "percent_cover": 0.88744588744588748, "percent_above_0.1m": 82.926829268292678, "low_level_<0.5": 2.4390243902439024, "mid_level_0.5-2": 14.634146341463413, "tall_2+": 65.853658536585371 }, "geometry": { "type": "Point", "coordinates": [ -0.134336032649731, 51.552907108397825 ] } },
{ "type": "Feature", "properties": { "max_height": 10.974254608154297, "mean_height": 2.3707103729248047, "std_height": 2.7926177978515625, "count_pixels": 41, "percent_cover": 0.88744588744588748, "percent_above_0.1m": 85.365853658536579, "low_level_<0.5": 17.073170731707318, "mid_level_0.5-2": 24.390243902439025, "tall_2+": 41.463414634146339 }, "geometry": { "type": "Point", "coordinates": [ -0.134136287097981, 51.55290393196541 ] } },
{ "type": "Feature", "properties": { "max_height": 9.3640022277832031, "mean_height": 3.2272791862487793, "std_height": 3.0559310913085938, "count_pixels": 37, "percent_cover": 0.80086580086580084, "percent_above_0.1m": 81.081081081081081, "low_level_<0.5": 2.7027027027027026, "mid_level_0.5-2": 27.027027027027028, "tall_2+": 48.648648648648653 }, "geometry": { "type": "Point", "coordinates": [ -0.133936541582618, 51.552900755193654 ] } },
{ "type": "Feature", "properties": { "max_height": 9.7895050048828125, "mean_height": 4.9155821800231934, "std_height": 3.4799549579620361, "count_pixels": 41, "percent_cover": 0.88744588744588748, "percent_above_0.1m": 90.243902439024396, "low_level_<0.5": 4.8780487804878048, "mid_level_0.5-2": 17.073170731707318, "tall_2+": 65.853658536585371 }, "geometry": { "type": "Point", "coordinates": [ -0.133736796103656, 51.552897578082586 ] } },
{ "type": "Feature", "properties": { "max_height": 5.5237503051757812, "mean_height": 1.1999784708023071, "std_height": 1.6333457231521606, "count_pixels": 41, "percent_cover": 0.88744588744588748, "percent_above_0.1m": 51.219512195121951, "low_level_<0.5": 4.8780487804878048, "mid_level_0.5-2": 21.951219512195124, "tall_2+": 24.390243902439025 }, "geometry": { "type": "Point", "coordinates": [ -0.134830984408206, 51.553022889687043 ] } },
{ "type": "Feature", "properties": { "max_height": 8.1215019226074219, "mean_height": 1.2834601402282715, "std_height": 2.0824954509735107, "count_pixels": 41, "percent_cover": 0.88744588744588748, "percent_above_0.1m": 56.09756097560976, "low_level_<0.5": 7.3170731707317067, "mid_level_0.5-2": 29.268292682926827, "tall_2+": 19.512195121951219 }, "geometry": { "type": "Point", "coordinates": [ -0.134631238284477, 51.5530197141006 ] } },
{ "type": "Feature", "properties": { "max_height": 11.309501647949219, "mean_height": 2.5122697353363037, "std_height": 3.0506248474121094, "count_pixels": 43, "percent_cover": 0.93073593073593075, "percent_above_0.1m": 60.465116279069761, "low_level_<0.5": 6.9767441860465116, "mid_level_0.5-2": 9.3023255813953494, "tall_2+": 41.860465116279073 }, "geometry": { "type": "Point", "coordinates": [ -0.134431492210622, 51.553016538155262 ] } },
{ "type": "Feature", "properties": { "max_height": 1.8680000305175781, "mean_height": 0.60770595073699951, "std_height": 0.58385056257247925, "count_pixels": 43, "percent_cover": 0.93073593073593075, "percent_above_0.1m": 72.093023255813947, "low_level_<0.5": 18.604651162790699, "mid_level_0.5-2": 48.837209302325576, "tall_2+": 0.0 }, "geometry": { "type": "Point", "coordinates": [ -0.134231746173153, 51.553013361870597 ] } },
{ "type": "Feature", "properties": { "max_height": 2.6567535400390625, "mean_height": 0.26479923725128174, "std_height": 0.60360759496688843, "count_pixels": 43, "percent_cover": 0.93073593073593075, "percent_above_0.1m": 27.906976744186046, "low_level_<0.5": 11.627906976744185, "mid_level_0.5-2": 11.627906976744185, "tall_2+": 4.6511627906976747 }, "geometry": { "type": "Point", "coordinates": [ -0.133632508279098, 51.553003830980714 ] } },
{ "type": "Feature", "properties": { "max_height": 6.9355010986328125, "mean_height": 2.4186770915985107, "std_height": 1.5297900438308716, "count_pixels": 43, "percent_cover": 0.93073593073593075, "percent_above_0.1m": 97.674418604651152, "low_level_<0.5": 6.9767441860465116, "mid_level_0.5-2": 34.883720930232556, "tall_2+": 55.813953488372093 }, "geometry": { "type": "Point", "coordinates": [ -0.134926445461745, 51.553132318928618 ] } },
{ "type": "Feature", "properties": { "max_height": 5.7050056457519531, "mean_height": 1.7100605964660645, "std_height": 2.0200977325439453, "count_pixels": 43, "percent_cover": 0.93073593073593075, "percent_above_0.1m": 53.488372093023251, "low_level_<0.5": 4.6511627906976747, "mid_level_0.5-2": 11.627906976744185, "tall_2+": 37.209302325581397 }, "geometry": { "type": "Point", "coordinates": [ -0.1347266987804, 51.553129143644639 ] } },
{ "type": "Feature", "properties": { "max_height": 8.165252685546875, "mean_height": 2.8718440532684326, "std_height": 2.5794928073883057, "count_pixels": 41, "percent_cover": 0.88744588744588748, "percent_above_0.1m": 80.487804878048792, "low_level_<0.5": 2.4390243902439024, "mid_level_0.5-2": 19.512195121951219, "tall_2+": 56.09756097560976 }, "geometry": { "type": "Point", "coordinates": [ -0.134526952220836, 51.553125967847066 ] } },
{ "type": "Feature", "properties": { "max_height": 5.8905029296875, "mean_height": 1.6267093420028687, "std_height": 1.538373589515686, "count_pixels": 41, "percent_cover": 0.88744588744588748, "percent_above_0.1m": 87.804878048780495, "low_level_<0.5": 17.073170731707318, "mid_level_0.5-2": 43.902439024390247, "tall_2+": 24.390243902439025 }, "geometry": { "type": "Point", "coordinates": [ -0.134327205697648, 51.553122791710187 ] } },
{ "type": "Feature", "properties": { "max_height": 6.69525146484375, "mean_height": 2.6458871364593506, "std_height": 1.7106221914291382, "count_pixels": 41, "percent_cover": 0.88744588744588748, "percent_above_0.1m": 97.560975609756099, "low_level_<0.5": 9.7560975609756095, "mid_level_0.5-2": 26.829268292682929, "tall_2+": 60.975609756097562 }, "geometry": { "type": "Point", "coordinates": [ -0.134822159733419, 51.553238573113973 ] } },
{ "type": "Feature", "properties": { "max_height": 8.0702552795410156, "mean_height": 1.6740818023681641, "std_height": 1.9487749338150024, "count_pixels": 41, "percent_cover": 0.88744588744588748, "percent_above_0.1m": 80.487804878048792, "low_level_<0.5": 9.7560975609756095, "mid_level_0.5-2": 24.390243902439025, "tall_2+": 36.585365853658537 }, "geometry": { "type": "Point", "coordinates": [ -0.13462241268037, 51.553235397473252 ] } }
]
}
