{
"type": "FeatureCollection",
"name": "7322ecbdd684_foliage",
"crs": { "type": "name", "properties": { "name": "urn:ogc:def:crs:OGC:1.3:CRS84" } },
"features": [
{ "type": "Feature", "properties": { "max_height": 26.88224983215332, "mean_height": 17.390316009521484, "std_height": 5.571803092956543, "count_pixels": 43, "percent_cover": 1.244212962962963, "percent_above_0.1m": 100.0, "low_level_<0.5": 0.0, "mid_level_0.5-2": 2.3255813953488373, "tall_2+": 97.674418604651152 }, "geometry": { "type": "Point", "coordinates": [ -0.094191956265209, 51.524794604039684 ] } },
{ "type": "Feature", "properties": { "max_height": 22.883003234863281, "mean_height": 7.863490104675293, "std_height": 7.0653586387634277, "count_pixels": 43, "percent_cover": 1.244212962962963, "percent_above_0.1m": 79.069767441860463, "low_level_<0.5": 0.0, "mid_level_0.5-2": 11.627906976744185, "tall_2+": 67.441860465116278 }, "geometry": { "type": "Point", "coordinates": [ -0.09399233716217, 51.524791358440673 ] } },
{ "type": "Feature", "properties": { "max_height": 26.519752502441406, "mean_height": 11.115209579467773, "std_height": 8.3246173858642578, "count_pixels": 42, "percent_cover": 1.2152777777777779, "percent_above_0.1m": 76.19047619047619, "low_level_<0.5": 0.0, "mid_level_0.5-2": 0.0, "tall_2+": 76.19047619047619 }, "geometry": { "type": "Point", "coordinates": [ -0.093792718096899, 51.524788112502819 ] } },
{ "type": "Feature", "properties": { "max_height": 24.213752746582031, "mean_height": 10.860288619995117, "std_height": 5.3985934257507324, "count_pixels": 41, "percent_cover": 1.1863425925925926, "percent_above_0.1m": 97.560975609756099, "low_level_<0.5": 2.4390243902439024, "mid_level_0.5-2": 0.0, "tall_2+": 95.121951219512198 }, "geometry": { "type": "Point", "coordinates": [ -0.094287261129832, 51.524904066047071 ] } },
{ "type": "Feature", "properties": { "max_height": 23.714504241943359, "mean_height": 9.0250988006591797, "std_height": 7.5005464553833008, "count_pixels": 41, "percent_cover": 1.1863425925925926, "percent_above_0.1m": 75.609756097560975, "low_level_<0.5": 0.0, "mid_level_0.5-2": 0.0, "tall_2+": 75.609756097560975 }, "geometry": { "type": "Point", "coordinates": [ -0.094087641530264, 51.524900820593743 ] } },
{ "type": "Feature", "properties": { "max_height": 23.816499710083008, "mean_height": 7.0918006896972656, "std_height": 7.9850244522094727, "count_pixels": 41, "percent_cover": 1.1863425925925926, "percent_above_0.1m": 68.292682926829272, "low_level_<0.5": 4.8780487804878048, "mid_level_0.5-2": 4.8780487804878048, "tall_2+": 56.09756097560976 }, "geometry": { "type": "Point", "coordinates": [ -0.093888021968474, 51.52489757480155 ] } },
{ "type": "Feature", "properties": { "max_height": 22.697502136230469, "mean_height": 10.834198951721191, "std_height": 7.7641787528991699, "count_pixels": 42, "percent_cover": 1.2152777777777779, "percent_above_0.1m": 88.095238095238088, "low_level_<0.5": 0.0, "mid_level_0.5-2": 9.5238095238095237, "tall_2+": 78.571428571428569 }, "geometry": { "type": "Point", "coordinates": [ -0.093688402444456, 51.52489432867052 ] } },
{ "type": "Feature", "properties": { "max_height": 23.128501892089844, "mean_height": 8.9957399368286133, "std_height": 6.4463891983032227, "count_pixels": 43, "percent_cover": 1.244212962962963, "percent_above_0.1m": 79.069767441860463, "low_level_<0.5": 2.3255813953488373, "mid_level_0.5-2": 0.0, "tall_2+": 76.744186046511629 }, "geometry": { "type": "Point", "coordinates": [ -0.093488782958233, 51.524891082200639 ] } },
{ "type": "Feature", "properties": { "max_height": 20.927003860473633, "mean_height": 7.0441503524780273, "std_height": 5.2133975028991699, "count_pixels": 42, "percent_cover": 1.2152777777777779, "percent_above_0.1m": 95.238095238095227, "low_level_<0.5": 4.7619047619047619, "mid_level_0.5-2": 4.7619047619047619, "tall_2+": 85.714285714285708 }, "geometry": { "type": "Point", "coordinates": [ -0.094382566453192, 51.525013527990716 ] } },
{ "type": "Feature", "properties": { "max_height": 20.012248992919922, "mean_height": 6.6222748756408691, "std_height": 6.8048896789550781, "count_pixels": 43, "percent_cover": 1.244212962962963, "percent_above_0.1m": 69.767441860465112, "low_level_<0.5": 2.3255813953488373, "mid_level_0.5-2": 4.6511627906976747, "tall_2+": 60.465116279069761 }, "geometry": { "type": "Point", "coordinates": [ -0.094182946357104, 51.525010282683041 ] } },
{ "type": "Feature", "properties": { "max_height": 0.85300064086914062, "mean_height": 0.039617273956537247, "std_height": 0.14155441522598267, "count_pixels": 43, "percent_cover": 1.244212962962963, "percent_above_0.1m": 11.627906976744185, "low_level_<0.5": 6.9767441860465116, "mid_level_0.5-2": 2.3255813953488373, "tall_2+": 0.0 }, "geometry": { "type": "Point", "coordinates": [ -0.093983326298788, 51.525007037036531 ] } },
{ "type": "Feature", "properties": { "max_height": 10.562002182006836, "mean_height": 0.41528066992759705, "std_height": 1.7719793319702148, "count_pixels": 42, "percent_cover": 1.2152777777777779, "percent_above_0.1m": 19.047619047619047, "low_level_<0.5": 9.5238095238095237, "mid_level_0.5-2": 0.0, "tall_2+": 4.7619047619047619 }, "geometry": { "type": "Point", "coordinates": [ -0.093783706278248, 51.525003791051176 ] } },
{ "type": "Feature", "properties": { "max_height": 18.629251480102539, "mean_height": 5.4545993804931641, "std_height": 5.6999969482421875, "count_pixels": 41, "percent_cover": 1.1863425925925926, "percent_above_0.1m": 95.121951219512198, "low_level_<0.5": 7.3170731707317067, "mid_level_0.5-2": 24.390243902439025, "tall_2+": 60.975609756097562 }, "geometry": { "type": "Point", "coordinates": [ -0.093584086295487, 51.525000544726979 ] } },
{ "type": "Feature", "properties": { "max_height": 28.299251556396484, "mean_height": 9.9212512969970703, "std_height": 7.1018857955932617, "count_pixels": 41, "percent_cover": 1.1863425925925926, "percent_above_0.1m": 92.682926829268297, "low_level_<0.5": 2.4390243902439024, "mid_level_0.5-2": 2.4390243902439024, "tall_2+": 87.804878048780495 }, "geometry": { "type": "Point", "coordinates": [ -0.094278251642689, 51.525119744708618 ] } },
{ "type": "Feature", "properties": { "max_height": 14.603500366210938, "mean_height": 9.3456106185913086, "std_height": 4.9479732513427734, "count_pixels": 41, "percent_cover": 1.1863425925925926, "percent_above_0.1m": 85.365853658536579, "low_level_<0.5": 2.4390243902439024, "mid_level_0.5-2": 2.4390243902439024, "tall_2+": 80.487804878048792 }, "geometry": { "type": "Point", "coordinates": [ -0.094078631087843, 51.52511649920779 ] } },
{ "type": "Feature", "properties": { "max_height": 12.586250305175781, "mean_height": 4.5565738677978516, "std_height": 5.1855530738830566, "count_pixels": 41, "percent_cover": 1.1863425925925926, "percent_above_0.1m": 53.658536585365859, "low_level_<0.5": 0.0, "mid_level_0.5-2": 4.8780487804878048, "tall_2+": 48.780487804878049 }, "geometry": { "type": "Point", "coordinates": [ -0.093879010570781, 51.525113253368104 ] } },
{ "type": "Feature", "properties": { "max_height": 20.540002822875977, "mean_height": 8.1791391372680664, "std_height": 5.0406947135925293, "count_pixels": 42, "percent_cover": 1.2152777777777779, "percent_above_0.1m": 97.61904761904762, "low_level_<0.5": 2.3809523809523809, "mid_level_0.5-2": 9.5238095238095237, "tall_2+": 85.714285714285708 }, "geometry": { "type": "Point", "coordinates": [ -0.093679390091487, 51.525110007189561 ] } },
{ "type": "Feature", "properties": { "max_height": 23.636001586914062, "mean_height": 9.3667993545532227, "std_height": 5.900787353515625, "count_pixels": 42, "percent_cover": 1.2152777777777779, "percent_above_0.1m": 100.0, "low_level_<0.5": 2.3809523809523809, "mid_level_0.5-2": 2.3809523809523809, "tall_2+": 95.238095238095227 }, "geometry": { "type": "Point", "coordinates": [ -0.094373557387022, 51.525229206670453 ] } },
{ "type": "Feature", "properties": { "max_height": 21.540748596191406, "mean_height": 12.666565895080566, "std_height": 3.9105501174926758, "count_pixels": 43, "percent_cover": 1.244212962962963, "percent_above_0.1m": 97.674418604651152, "low_level_<0.5": 0.0, "mid_level_0.5-2": 0.0, "tall_2+": 97.674418604651152 }, "geometry": { "type": "Point", "coordinates": [ -0.094173936335654, 51.525225961315279 ] } },
{ "type": "Feature", "properties": { "max_height": 15.678750991821289, "mean_height": 14.327281951904297, "std_height": 0.95760250091552734, "count_pixels": 43, "percent_cover": 1.244212962962963, "percent_above_0.1m": 100.0, "low_level_<0.5": 0.0, "mid_level_0.5-2": 0.0, "tall_2+": 100.0 }, "geometry": { "type": "Point", "coordinates": [ -0.093974315322051, 51.525222715621275 ] } },
{ "type": "Feature", "properties": { "max_height": 15.759002685546875, "mean_height": 9.5008773803710938, "std_height": 5.4333820343017578, "count_pixels": 42, "percent_cover": 1.2152777777777779, "percent_above_0.1m": 92.857142857142861, "low_level_<0.5": 2.3809523809523809, "mid_level_0.5-2": 11.904761904761903, "tall_2+": 78.571428571428569 }, "geometry": { "type": "Point", "coordinates": [ -0.093774694346231, 51.525219469588421 ] } },
{ "type": "Feature", "properties": { "max_height": 26.038751602172852, "mean_height": 12.997908592224121, "std_height": 5.2213091850280762, "count_pixels": 38, "percent_cover": 1.099537037037037, "percent_above_0.1m": 100.0, "low_level_<0.5": 0.0, "mid_level_0.5-2": 2.6315789473684208, "tall_2+": 97.368421052631575 }, "geometry": { "type": "Point", "coordinates": [ -0.094468863590117, 51.52533866856853 ] } },
{ "type": "Feature", "properties": { "max_height": 18.083250045776367, "mean_height": 7.7571835517883301, "std_height": 5.1258611679077148, "count_pixels": 41, "percent_cover": 1.1863425925925926, "percent_above_0.1m": 95.121951219512198, "low_level_<0.5": 2.4390243902439024, "mid_level_0.5-2": 2.4390243902439024, "tall_2+": 90.243902439024396 }, "geometry": { "type": "Point", "coordinates": [ -0.09426924204221, 51.525335423359046 ] } },
{ "type": "Feature", "properties": { "max_height": 12.48175048828125, "mean_height": 4.2429709434509277, "std_height": 4.5432963371276855, "count_pixels": 41, "percent_cover": 1.1863425925925926, "percent_above_0.1m": 73.170731707317074, "low_level_<0.5": 9.7560975609756095, "mid_level_0.5-2": 7.3170731707317067, "tall_2+": 56.09756097560976 }, "geometry": { "type": "Point", "coordinates": [ -0.094069620532076, 51.525332177810718 ] } },
{ "type": "Feature", "properties": { "max_height": 14.725000381469727, "mean_height": 7.8884038925170898, "std_height": 4.581265926361084, "count_pixels": 41, "percent_cover": 1.1863425925925926, "percent_above_0.1m": 97.560975609756099, "low_level_<0.5": 0.0, "mid_level_0.5-2": 9.7560975609756095, "tall_2+": 87.804878048780495 }, "geometry": { "type": "Point", "coordinates": [ -0.093869999059723, 51.525328931923532 ] } },
{ "type": "Feature", "properties": { "max_height": 19.196250915527344, "mean_height": 6.1303348541259766, "std_height": 5.0248508453369141, "count_pixels": 42, "percent_cover": 1.2152777777777779, "percent_above_0.1m": 95.238095238095227, "low_level_<0.5": 7.1428571428571423, "mid_level_0.5-2": 9.5238095238095237, "tall_2+": 78.571428571428569 }, "geometry": { "type": "Point", "coordinates": [ -0.093670377625144, 51.525325685697496 ] } },
{ "type": "Feature", "properties": { "max_height": 25.865001678466797, "mean_height": 5.9155073165893555, "std_height": 8.6902866363525391, "count_pixels": 42, "percent_cover": 1.2152777777777779, "percent_above_0.1m": 47.619047619047613, "low_level_<0.5": 4.7619047619047619, "mid_level_0.5-2": 2.3809523809523809, "tall_2+": 38.095238095238095 }, "geometry": { "type": "Point", "coordinates": [ -0.094564170251804, 51.525448130394665 ] } },
{ "type": "Feature", "properties": { "max_height": 23.799253463745117, "mean_height": 6.4887213706970215, "std_height": 6.4749608039855957, "count_pixels": 42, "percent_cover": 1.2152777777777779, "percent_above_0.1m": 78.571428571428569, "low_level_<0.5": 2.3809523809523809, "mid_level_0.5-2": 9.5238095238095237, "tall_2+": 64.285714285714292 }, "geometry": { "type": "Point", "coordinates": [ -0.094364548207437, 51.525444885333791 ] } },
{ "type": "Feature", "properties": { "max_height": 17.272003173828125, "mean_height": 6.38458251953125, "std_height": 4.9941377639770508, "count_pixels": 43, "percent_cover": 1.244212962962963, "percent_above_0.1m": 83.720930232558146, "low_level_<0.5": 0.0, "mid_level_0.5-2": 4.6511627906976747, "tall_2+": 74.418604651162795 }, "geometry": { "type": "Point", "coordinates": [ -0.094164926200821, 51.525441639933973 ] } },
{ "type": "Feature", "properties": { "max_height": 21.556753158569336, "mean_height": 8.2181406021118164, "std_height": 6.1097197532653809, "count_pixels": 43, "percent_cover": 1.244212962962963, "percent_above_0.1m": 88.372093023255815, "low_level_<0.5": 2.3255813953488373, "mid_level_0.5-2": 4.6511627906976747, "tall_2+": 81.395348837209298 }, "geometry": { "type": "Point", "coordinates": [ -0.093965304231963, 51.5254383941949 ] } },
{ "type": "Feature", "properties": { "max_height": 21.624752044677734, "mean_height": 13.019376754760742, "std_height": 4.8431921005249023, "count_pixels": 42, "percent_cover": 1.2152777777777779, "percent_above_0.1m": 100.0, "low_level_<0.5": 0.0, "mid_level_0.5-2": 0.0, "tall_2+": 100.0 }, "geometry": { "type": "Point", "coordinates": [ -0.093765682300849, 51.525435148114553 ] } },
{ "type": "Feature", "properties": { "max_height": 15.818252563476562, "mean_height": 6.6161594390869141, "std_height": 4.7863268852233887, "count_pixels": 41, "percent_cover": 1.1863425925925926, "percent_above_0.1m": 95.121951219512198, "low_level_<0.5": 4.8780487804878048, "mid_level_0.5-2": 12.195121951219512, "tall_2+": 78.048780487804876 }, "geometry": { "type": "Point", "coordinates": [ -0.094060609836355, 51.525547856258576 ] } },
{ "type": "Feature", "properties": { "max_height": 19.436752319335938, "mean_height": 8.7585926055908203, "std_height": 4.6194939613342285, "count_pixels": 41, "percent_cover": 1.1863425925925926, "percent_above_0.1m": 97.560975609756099, "low_level_<0.5": 0.0, "mid_level_0.5-2": 4.8780487804878048, "tall_2+": 92.682926829268297 }, "geometry": { "type": "Point", "coordinates": [ -0.093860987411207, 51.525544610331544 ] } }
]
}
