{
"type": "FeatureCollection",
"name": "8773ee507579_visibility",
"crs": { "type": "name", "properties": { "name": "urn:ogc:def:crs:OGC:1.3:CRS84" } },
"features": [
{ "type": "Feature", "properties": { "visible_points": 9, "total_points": 42, "visibility_pct": 21.428571428571427 }, "geometry": { "type": "Point", "coordinates": [ -0.090851879012387, 51.550359020767992 ] } },
{ "type": "Feature", "properties": { "visible_points": 5, "total_points": 43, "visibility_pct": 11.627906976744185 }, "geometry": { "type": "Point", "coordinates": [ -0.090652150539431, 51.550355765393824 ] } },
{ "type": "Feature", "properties": { "visible_points": 4, "total_points": 46, "visibility_pct": 8.695652173913043 }, "geometry": { "type": "Point", "coordinates": [ -0.090947228874335, 51.550468484824862 ] } },
{ "type": "Feature", "properties": { "visible_points": 3, "total_points": 47, "visibility_pct": 6.3829787234042552 }, "geometry": { "type": "Point", "coordinates": [ -0.09074749993336, 51.550465229579729 ] } },
{ "type": "Feature", "properties": { "visible_points": 3, "total_points": 51, "visibility_pct": 5.8823529411764701 }, "geometry": { "type": "Point", "coordinates": [ -0.090842851768663, 51.550574694450752 ] } },
{ "type": "Feature", "properties": { "visible_points": 6, "total_points": 52, "visibility_pct": 11.538461538461538 }, "geometry": { "type": "Point", "coordinates": [ -0.090643122307007, 51.550571438999597 ] } },
{ "type": "Feature", "properties": { "visible_points": 1, "total_points": 54, "visibility_pct": 1.8518518518518516 }, "geometry": { "type": "Point", "coordinates": [ -0.09093820541309, 51.550684159922739 ] } },
{ "type": "Feature", "properties": { "visible_points": 0, "total_points": 56, "visibility_pct": 0.0 }, "geometry": { "type": "Point", "coordinates": [ -0.090738475479991, 51.550680904626425 ] } },
{ "type": "Feature", "properties": { "visible_points": 6, "total_points": 57, "visibility_pct": 10.526315789473683 }, "geometry": { "type": "Point", "coordinates": [ -0.090538745582945, 51.550677648989684 ] } },
{ "type": "Feature", "properties": { "visible_points": 0, "total_points": 60, "visibility_pct": 0.0 }, "geometry": { "type": "Point", "coordinates": [ -0.090833829096694, 51.550790370201398 ] } },
{ "type": "Feature", "properties": { "visible_points": 1, "total_points": 61, "visibility_pct": 1.639344262295082 }, "geometry": { "type": "Point", "coordinates": [ -0.09063409873345, 51.550787114732557 ] } },
{ "type": "Feature", "properties": { "visible_points": 0, "total_points": 62, "visibility_pct": 0.0 }, "geometry": { "type": "Point", "coordinates": [ -0.090729452314075, 51.550896580390834 ] } },
{ "type": "Feature", "properties": { "visible_points": 3, "total_points": 62, "visibility_pct": 4.838709677419355 }, "geometry": { "type": "Point", "coordinates": [ -0.090529721520687, 51.550893324749495 ] } },
{ "type": "Feature", "properties": { "visible_points": 0, "total_points": 62, "visibility_pct": 0.0 }, "geometry": { "type": "Point", "coordinates": [ -0.09062507506524, 51.551002790491061 ] } },
{ "type": "Feature", "properties": { "visible_points": 4, "total_points": 62, "visibility_pct": 6.4516129032258061 }, "geometry": { "type": "Point", "coordinates": [ -0.090425343841695, 51.550999534677196 ] } },
{ "type": "Feature", "properties": { "visible_points": 4, "total_points": 62, "visibility_pct": 6.4516129032258061 }, "geometry": { "type": "Point", "coordinates": [ -0.090520697350173, 51.551109000502059 ] } },
{ "type": "Feature", "properties": { "visible_points": 5, "total_points": 60, "visibility_pct": 8.3333333333333321 }, "geometry": { "type": "Point", "coordinates": [ -0.090320965696479, 51.551105744515645 ] } },
{ "type": "Feature", "properties": { "visible_points": 2, "total_points": 61, "visibility_pct": 3.278688524590164 }, "geometry": { "type": "Point", "coordinates": [ -0.090616051288779, 51.551218466242325 ] } },
{ "type": "Feature", "properties": { "visible_points": 5, "total_points": 61, "visibility_pct": 8.1967213114754092 }, "geometry": { "type": "Point", "coordinates": [ -0.090416319168874, 51.551215210423841 ] } },
{ "type": "Feature", "properties": { "visible_points": 0, "total_points": 60, "visibility_pct": 0.0 }, "geometry": { "type": "Point", "coordinates": [ -0.090511673071403, 51.551324676247418 ] } },
{ "type": "Feature", "properties": { "visible_points": 4, "total_points": 59, "visibility_pct": 6.7796610169491522 }, "geometry": { "type": "Point", "coordinates": [ -0.090311940521342, 51.551321420256407 ] } },
{ "type": "Feature", "properties": { "visible_points": 0, "total_points": 60, "visibility_pct": 0.0 }, "geometry": { "type": "Point", "coordinates": [ -0.090407294387788, 51.551430886163281 ] } },
{ "type": "Feature", "properties": { "visible_points": 1, "total_points": 57, "visibility_pct": 1.7543859649122806 }, "geometry": { "type": "Point", "coordinates": [ -0.090207561407566, 51.551427629999743 ] } },
{ "type": "Feature", "properties": { "visible_points": 1, "total_points": 59, "visibility_pct": 1.6949152542372881 }, "geometry": { "type": "Point", "coordinates": [ -0.090502648684378, 51.551540351985523 ] } },
{ "type": "Feature", "properties": { "visible_points": 0, "total_points": 58, "visibility_pct": 0.0 }, "geometry": { "type": "Point", "coordinates": [ -0.090302915237931, 51.551537095989922 ] } },
{ "type": "Feature", "properties": { "visible_points": 0, "total_points": 58, "visibility_pct": 0.0 }, "geometry": { "type": "Point", "coordinates": [ -0.090398269498439, 51.551646561895481 ] } },
{ "type": "Feature", "properties": { "visible_points": 0, "total_points": 56, "visibility_pct": 0.0 }, "geometry": { "type": "Point", "coordinates": [ -0.090198535621834, 51.551643305727346 ] } },
{ "type": "Feature", "properties": { "visible_points": 0, "total_points": 58, "visibility_pct": 0.0 }, "geometry": { "type": "Point", "coordinates": [ -0.09049362418909, 51.551756027716408 ] } },
{ "type": "Feature", "properties": { "visible_points": 0, "total_points": 57, "visibility_pct": 0.0 }, "geometry": { "type": "Point", "coordinates": [ -0.090293889846254, 51.551752771716195 ] } },
{ "type": "Feature", "properties": { "visible_points": 0, "total_points": 58, "visibility_pct": 0.0 }, "geometry": { "type": "Point", "coordinates": [ -0.090389244500822, 51.551862237620448 ] } },
{ "type": "Feature", "properties": { "visible_points": 1, "total_points": 56, "visibility_pct": 1.7857142857142856 }, "geometry": { "type": "Point", "coordinates": [ -0.090189509727821, 51.551858981447694 ] } },
{ "type": "Feature", "properties": { "visible_points": 0, "total_points": 57, "visibility_pct": 0.0 }, "geometry": { "type": "Point", "coordinates": [ -0.090484599585543, 51.551971703440046 ] } },
{ "type": "Feature", "properties": { "visible_points": 0, "total_points": 57, "visibility_pct": 0.0 }, "geometry": { "type": "Point", "coordinates": [ -0.090284864346306, 51.551968447435243 ] } },
{ "type": "Feature", "properties": { "visible_points": 0, "total_points": 58, "visibility_pct": 0.0 }, "geometry": { "type": "Point", "coordinates": [ -0.090380219394946, 51.552077913338174 ] } },
{ "type": "Feature", "properties": { "visible_points": 3, "total_points": 56, "visibility_pct": 5.3571428571428568 }, "geometry": { "type": "Point", "coordinates": [ -0.090180483725529, 51.552074657160844 ] } },
{ "type": "Feature", "properties": { "visible_points": 0, "total_points": 57, "visibility_pct": 0.0 }, "geometry": { "type": "Point", "coordinates": [ -0.090475574873735, 51.552187379156472 ] } },
{ "type": "Feature", "properties": { "visible_points": 3, "total_points": 57, "visibility_pct": 5.2631578947368416 }, "geometry": { "type": "Point", "coordinates": [ -0.090275838738083, 51.55218412314705 ] } },
{ "type": "Feature", "properties": { "visible_points": 0, "total_points": 58, "visibility_pct": 0.0 }, "geometry": { "type": "Point", "coordinates": [ -0.090371194180789, 51.552293589048666 ] } },
{ "type": "Feature", "properties": { "visible_points": 4, "total_points": 56, "visibility_pct": 7.1428571428571423 }, "geometry": { "type": "Point", "coordinates": [ -0.090171457614961, 51.552290332866718 ] } },
{ "type": "Feature", "properties": { "visible_points": 0, "total_points": 57, "visibility_pct": 0.0 }, "geometry": { "type": "Point", "coordinates": [ -0.090466550053667, 51.552403054865657 ] } },
{ "type": "Feature", "properties": { "visible_points": 0, "total_points": 57, "visibility_pct": 0.0 }, "geometry": { "type": "Point", "coordinates": [ -0.090266813021582, 51.552399798851638 ] } },
{ "type": "Feature", "properties": { "visible_points": 0, "total_points": 58, "visibility_pct": 0.0 }, "geometry": { "type": "Point", "coordinates": [ -0.090362168858374, 51.55250926475194 ] } },
{ "type": "Feature", "properties": { "visible_points": 1, "total_points": 56, "visibility_pct": 1.7857142857142856 }, "geometry": { "type": "Point", "coordinates": [ -0.090162431396106, 51.552506008565388 ] } },
{ "type": "Feature", "properties": { "visible_points": 1, "total_points": 58, "visibility_pct": 1.7241379310344827 }, "geometry": { "type": "Point", "coordinates": [ -0.090457525125328, 51.552618730567609 ] } },
{ "type": "Feature", "properties": { "visible_points": 0, "total_points": 57, "visibility_pct": 0.0 }, "geometry": { "type": "Point", "coordinates": [ -0.090257787196809, 51.552615474548993 ] } },
{ "type": "Feature", "properties": { "visible_points": 0, "total_points": 59, "visibility_pct": 0.0 }, "geometry": { "type": "Point", "coordinates": [ -0.090353143427679, 51.552724940447973 ] } },
{ "type": "Feature", "properties": { "visible_points": 0, "total_points": 59, "visibility_pct": 0.0 }, "geometry": { "type": "Point", "coordinates": [ -0.09044850008872, 51.552834406262313 ] } },
{ "type": "Feature", "properties": { "visible_points": 0, "total_points": 58, "visibility_pct": 0.0 }, "geometry": { "type": "Point", "coordinates": [ -0.090248761263755, 51.552831150239108 ] } },
{ "type": "Feature", "properties": { "visible_points": 0, "total_points": 60, "visibility_pct": 0.0 }, "geometry": { "type": "Point", "coordinates": [ -0.090344117888709, 51.552940616136773 ] } },
{ "type": "Feature", "properties": { "visible_points": 1, "total_points": 60, "visibility_pct": 1.6666666666666667 }, "geometry": { "type": "Point", "coordinates": [ -0.090439474943846, 51.553050081949806 ] } },
{ "type": "Feature", "properties": { "visible_points": 4, "total_points": 59, "visibility_pct": 6.7796610169491522 }, "geometry": { "type": "Point", "coordinates": [ -0.09023973522242, 51.553046825921989 ] } },
{ "type": "Feature", "properties": { "visible_points": 1, "total_points": 59, "visibility_pct": 1.6949152542372881 }, "geometry": { "type": "Point", "coordinates": [ -0.090534832429163, 51.55315954767822 ] } },
{ "type": "Feature", "properties": { "visible_points": 4, "total_points": 61, "visibility_pct": 6.557377049180328 }, "geometry": { "type": "Point", "coordinates": [ -0.090335092241469, 51.553156291818333 ] } },
{ "type": "Feature", "properties": { "visible_points": 1, "total_points": 61, "visibility_pct": 1.639344262295082 }, "geometry": { "type": "Point", "coordinates": [ -0.090430449690703, 51.553265757630058 ] } },
{ "type": "Feature", "properties": { "visible_points": 3, "total_points": 60, "visibility_pct": 5.0 }, "geometry": { "type": "Point", "coordinates": [ -0.090230709072803, 51.553262501597636 ] } },
{ "type": "Feature", "properties": { "visible_points": 1, "total_points": 60, "visibility_pct": 1.6666666666666667 }, "geometry": { "type": "Point", "coordinates": [ -0.090525807570122, 51.553375223357172 ] } },
{ "type": "Feature", "properties": { "visible_points": 3, "total_points": 62, "visibility_pct": 4.838709677419355 }, "geometry": { "type": "Point", "coordinates": [ -0.090326066485948, 51.553371967492673 ] } },
{ "type": "Feature", "properties": { "visible_points": 2, "total_points": 62, "visibility_pct": 3.225806451612903 }, "geometry": { "type": "Point", "coordinates": [ -0.090421424329285, 51.553481433303091 ] } },
{ "type": "Feature", "properties": { "visible_points": 1, "total_points": 61, "visibility_pct": 1.639344262295082 }, "geometry": { "type": "Point", "coordinates": [ -0.090221682814902, 51.553478177266058 ] } },
{ "type": "Feature", "properties": { "visible_points": 1, "total_points": 61, "visibility_pct": 1.639344262295082 }, "geometry": { "type": "Point", "coordinates": [ -0.090516782602812, 51.553590899028869 ] } },
{ "type": "Feature", "properties": { "visible_points": 0, "total_points": 63, "visibility_pct": 0.0 }, "geometry": { "type": "Point", "coordinates": [ -0.090317040622149, 51.55358764315978 ] } },
{ "type": "Feature", "properties": { "visible_points": 0, "total_points": 63, "visibility_pct": 0.0 }, "geometry": { "type": "Point", "coordinates": [ -0.090412398859589, 51.553697108968883 ] } },
{ "type": "Feature", "properties": { "visible_points": 1, "total_points": 62, "visibility_pct": 1.6129032258064515 }, "geometry": { "type": "Point", "coordinates": [ -0.090212656448714, 51.553693852927253 ] } },
{ "type": "Feature", "properties": { "visible_points": 1, "total_points": 62, "visibility_pct": 1.6129032258064515 }, "geometry": { "type": "Point", "coordinates": [ -0.09050775752723, 51.55380657469334 ] } },
{ "type": "Feature", "properties": { "visible_points": 1, "total_points": 63, "visibility_pct": 1.5873015873015872 }, "geometry": { "type": "Point", "coordinates": [ -0.090308014650069, 51.553803318819654 ] } },
{ "type": "Feature", "properties": { "visible_points": 0, "total_points": 63, "visibility_pct": 0.0 }, "geometry": { "type": "Point", "coordinates": [ -0.090403373281617, 51.553912784627443 ] } },
{ "type": "Feature", "properties": { "visible_points": 2, "total_points": 61, "visibility_pct": 3.278688524590164 }, "geometry": { "type": "Point", "coordinates": [ -0.090203629974239, 51.553909528581208 ] } },
{ "type": "Feature", "properties": { "visible_points": 0, "total_points": 61, "visibility_pct": 0.0 }, "geometry": { "type": "Point", "coordinates": [ -0.090498732343377, 51.55402225035057 ] } },
{ "type": "Feature", "properties": { "visible_points": 0, "total_points": 63, "visibility_pct": 0.0 }, "geometry": { "type": "Point", "coordinates": [ -0.090298988569705, 51.554018994472308 ] } },
{ "type": "Feature", "properties": { "visible_points": 3, "total_points": 62, "visibility_pct": 4.838709677419355 }, "geometry": { "type": "Point", "coordinates": [ -0.090394347595375, 51.554128460278768 ] } },
{ "type": "Feature", "properties": { "visible_points": 3, "total_points": 61, "visibility_pct": 4.918032786885246 }, "geometry": { "type": "Point", "coordinates": [ -0.090194603391474, 51.554125204227937 ] } },
{ "type": "Feature", "properties": { "visible_points": 3, "total_points": 60, "visibility_pct": 5.0 }, "geometry": { "type": "Point", "coordinates": [ -0.090489707051249, 51.554237926000589 ] } },
{ "type": "Feature", "properties": { "visible_points": 2, "total_points": 62, "visibility_pct": 3.225806451612903 }, "geometry": { "type": "Point", "coordinates": [ -0.090289962381058, 51.554234670117708 ] } },
{ "type": "Feature", "properties": { "visible_points": 2, "total_points": 61, "visibility_pct": 3.278688524590164 }, "geometry": { "type": "Point", "coordinates": [ -0.090385321800848, 51.554344135922875 ] } },
{ "type": "Feature", "properties": { "visible_points": 3, "total_points": 60, "visibility_pct": 5.0 }, "geometry": { "type": "Point", "coordinates": [ -0.090185576700418, 51.554340879867432 ] } },
{ "type": "Feature", "properties": { "visible_points": 3, "total_points": 59, "visibility_pct": 5.0847457627118651 }, "geometry": { "type": "Point", "coordinates": [ -0.090480681650851, 51.554453601643374 ] } },
{ "type": "Feature", "properties": { "visible_points": 4, "total_points": 61, "visibility_pct": 6.557377049180328 }, "geometry": { "type": "Point", "coordinates": [ -0.090280936084121, 51.554450345755889 ] } },
{ "type": "Feature", "properties": { "visible_points": 0, "total_points": 60, "visibility_pct": 0.0 }, "geometry": { "type": "Point", "coordinates": [ -0.090376295898036, 51.55455981155972 ] } },
{ "type": "Feature", "properties": { "visible_points": 3, "total_points": 59, "visibility_pct": 5.0847457627118651 }, "geometry": { "type": "Point", "coordinates": [ -0.090176549901071, 51.55455655549968 ] } },
{ "type": "Feature", "properties": { "visible_points": 3, "total_points": 58, "visibility_pct": 5.1724137931034484 }, "geometry": { "type": "Point", "coordinates": [ -0.090471656142173, 51.554669277278926 ] } },
{ "type": "Feature", "properties": { "visible_points": 3, "total_points": 60, "visibility_pct": 5.0 }, "geometry": { "type": "Point", "coordinates": [ -0.090271909678896, 51.554666021386836 ] } },
{ "type": "Feature", "properties": { "visible_points": 5, "total_points": 59, "visibility_pct": 8.4745762711864394 }, "geometry": { "type": "Point", "coordinates": [ -0.090367269886943, 51.554775487189346 ] } },
{ "type": "Feature", "properties": { "visible_points": 3, "total_points": 58, "visibility_pct": 5.1724137931034484 }, "geometry": { "type": "Point", "coordinates": [ -0.090167522993428, 51.554772231124723 ] } },
{ "type": "Feature", "properties": { "visible_points": 2, "total_points": 57, "visibility_pct": 3.5087719298245612 }, "geometry": { "type": "Point", "coordinates": [ -0.090462630525218, 51.554884952907237 ] } },
{ "type": "Feature", "properties": { "visible_points": 2, "total_points": 59, "visibility_pct": 3.3898305084745761 }, "geometry": { "type": "Point", "coordinates": [ -0.090262883165382, 51.554881697010543 ] } },
{ "type": "Feature", "properties": { "visible_points": 0, "total_points": 58, "visibility_pct": 0.0 }, "geometry": { "type": "Point", "coordinates": [ -0.090358243767566, 51.554991162811753 ] } },
{ "type": "Feature", "properties": { "visible_points": 4, "total_points": 57, "visibility_pct": 7.0175438596491224 }, "geometry": { "type": "Point", "coordinates": [ -0.090158495977488, 51.554987906742504 ] } },
{ "type": "Feature", "properties": { "visible_points": 2, "total_points": 56, "visibility_pct": 3.5714285714285712 }, "geometry": { "type": "Point", "coordinates": [ -0.090453604799981, 51.555100628528308 ] } },
{ "type": "Feature", "properties": { "visible_points": 1, "total_points": 56, "visibility_pct": 1.7857142857142856 }, "geometry": { "type": "Point", "coordinates": [ -0.090253856543578, 51.555097372627017 ] } },
{ "type": "Feature", "properties": { "visible_points": 0, "total_points": 52, "visibility_pct": 0.0 }, "geometry": { "type": "Point", "coordinates": [ -0.090349217539904, 51.555206838426912 ] } },
{ "type": "Feature", "properties": { "visible_points": 0, "total_points": 51, "visibility_pct": 0.0 }, "geometry": { "type": "Point", "coordinates": [ -0.090149468853249, 51.555203582353073 ] } },
{ "type": "Feature", "properties": { "visible_points": 0, "total_points": 46, "visibility_pct": 0.0 }, "geometry": { "type": "Point", "coordinates": [ -0.090444578966461, 51.555316304142153 ] } },
{ "type": "Feature", "properties": { "visible_points": 2, "total_points": 47, "visibility_pct": 4.2553191489361701 }, "geometry": { "type": "Point", "coordinates": [ -0.090244829813481, 51.555313048236279 ] } },
{ "type": "Feature", "properties": { "visible_points": 3, "total_points": 42, "visibility_pct": 7.1428571428571423 }, "geometry": { "type": "Point", "coordinates": [ -0.090340191203951, 51.555422514034852 ] } },
{ "type": "Feature", "properties": { "visible_points": 4, "total_points": 42, "visibility_pct": 9.5238095238095237 }, "geometry": { "type": "Point", "coordinates": [ -0.090140441620711, 51.555419257956395 ] } },
{ "type": "Feature", "properties": { "visible_points": 1, "total_points": 37, "visibility_pct": 2.7027027027027026 }, "geometry": { "type": "Point", "coordinates": [ -0.090435553024657, 51.555531979748785 ] } },
{ "type": "Feature", "properties": { "visible_points": 4, "total_points": 38, "visibility_pct": 10.526315789473683 }, "geometry": { "type": "Point", "coordinates": [ -0.090235802975089, 51.555528723838286 ] } }
]
}
