{
"type": "FeatureCollection",
"name": "SOUT6_44_cycling",
"crs": { "type": "name", "properties": { "name": "urn:ogc:def:crs:OGC:1.3:CRS84" } },
"features": [
{"type":"Feature","properties":{"highway":"cycleway","name":"Blackwood Street","category":"Dedicated cycleway"},"geometry":{"type":"MultiLineString","coordinates":[[[-0.0919919,51.4888443],[-0.0919284,51.4887571],[-0.0918377,51.4886262],[-0.091816,51.4885909]]]}},
{"type":"Feature","properties":{"highway":"cycleway","name":null,"category":"Dedicated cycleway"},"geometry":{"type":"MultiLineString","coordinates":[[[-0.0830619,51.487415],[-0.0829995,51.4873895],[-0.0827323,51.4871616],[-0.08271,51.4871426],[-0.0826786,51.4871163]]]}},
{"type":"Feature","properties":{"highway":"cycleway","name":"Larcom Street","category":"Dedicated cycleway"},"geometry":{"type":"MultiLineString","coordinates":[[[-0.0929319,51.4918253],[-0.0929132,51.4918379],[-0.0927069,51.491919],[-0.0926427,51.4919458],[-0.0926256,51.4919612],[-0.0926073,51.4919777],[-0.0925958,51.4919878],[-0.0925586,51.4920334]]]}},
{"type":"Feature","properties":{"highway":"cycleway","name":"Surrey Square","category":"Dedicated cycleway"},"geometry":{"type":"MultiLineString","coordinates":[[[-0.0809825,51.4894711],[-0.08083,51.4895449]]]}},
{"type":"Feature","properties":{"highway":"cycleway","name":null,"category":"Dedicated cycleway"},"geometry":{"type":"MultiLineString","coordinates":[[[-0.0740273,51.4895082],[-0.0741464,51.4893362],[-0.0741966,51.4892668],[-0.0742212,51.4892349],[-0.0742347,51.4892174],[-0.0742774,51.4892301],[-0.0742858,51.4892201],[-0.0742984,51.489206],[-0.0743155,51.4891826]]]}},
{"type":"Feature","properties":{"highway":"cycleway","name":null,"category":"Dedicated cycleway"},"geometry":{"type":"MultiLineString","coordinates":[[[-0.073708,51.4843514],[-0.0737653,51.4843529],[-0.0739736,51.4843591],[-0.0739954,51.4843626],[-0.0740199,51.4843678],[-0.0740396,51.4843742],[-0.07407,51.4843829]]]}},
{"type":"Feature","properties":{"highway":"cycleway","name":null,"category":"Dedicated cycleway"},"geometry":{"type":"MultiLineString","coordinates":[[[-0.0857593,51.482692],[-0.0857376,51.4826932],[-0.0855592,51.4827032]]]}},
{"type":"Feature","properties":{"highway":"cycleway","name":null,"category":"Dedicated cycleway"},"geometry":{"type":"MultiLineString","coordinates":[[[-0.0784104,51.4862199],[-0.0780846,51.4861954],[-0.0780695,51.4862636],[-0.0777987,51.4864524],[-0.077553,51.4865101],[-0.0772614,51.4865761],[-0.077147,51.4867002],[-0.0768075,51.4869196]]]}},
{"type":"Feature","properties":{"highway":"cycleway","name":null,"category":"Dedicated cycleway"},"geometry":{"type":"MultiLineString","coordinates":[[[-0.0767887,51.4872858],[-0.0768075,51.4869196]]]}},
{"type":"Feature","properties":{"highway":"cycleway","name":null,"category":"Dedicated cycleway"},"geometry":{"type":"MultiLineString","coordinates":[[[-0.0765672,51.4850407],[-0.0766751,51.485058],[-0.0767127,51.4850652]]]}},
{"type":"Feature","properties":{"highway":"cycleway","name":null,"category":"Dedicated cycleway"},"geometry":{"type":"MultiLineString","coordinates":[[[-0.0767127,51.4850652],[-0.0771387,51.4850787],[-0.0777067,51.4850871],[-0.0777283,51.48497],[-0.077744,51.4848921],[-0.0778282,51.4844737],[-0.0778424,51.4843505],[-0.0779014,51.4843121]]]}},
{"type":"Feature","properties":{"highway":"cycleway","name":null,"category":"Dedicated cycleway"},"geometry":{"type":"MultiLineString","coordinates":[[[-0.0840873,51.4815665],[-0.0840946,51.4816339],[-0.0840945,51.4816565],[-0.0840945,51.4817499],[-0.0840945,51.4818289],[-0.0840945,51.4819682],[-0.0840945,51.4819995],[-0.0842086,51.4821509]]]}},
{"type":"Feature","properties":{"highway":"cycleway","name":null,"category":"Dedicated cycleway"},"geometry":{"type":"MultiLineString","coordinates":[[[-0.0839955,51.4821614],[-0.0840945,51.4819995]]]}},
{"type":"Feature","properties":{"highway":"cycleway","name":null,"category":"Dedicated cycleway"},"geometry":{"type":"MultiLineString","coordinates":[[[-0.0862989,51.4938441],[-0.0862905,51.4938548],[-0.0862492,51.4938983]]]}},
{"type":"Feature","properties":{"highway":"cycleway","name":null,"category":"Dedicated cycleway"},"geometry":{"type":"MultiLineString","coordinates":[[[-0.0854022,51.4934931],[-0.0854427,51.4935239],[-0.0854552,51.4935334],[-0.0854726,51.4935668],[-0.0854807,51.493602],[-0.0854304,51.4936788]]]}},
{"type":"Feature","properties":{"highway":"cycleway","name":null,"category":"Dedicated cycleway"},"geometry":{"type":"MultiLineString","coordinates":[[[-0.0716567,51.4886054],[-0.0717314,51.4886181]]]}},
{"type":"Feature","properties":{"highway":"cycleway","name":null,"category":"Dedicated cycleway"},"geometry":{"type":"MultiLineString","coordinates":[[[-0.0814871,51.4949568],[-0.0814487,51.4949418],[-0.0813955,51.4949146],[-0.0813502,51.4948915],[-0.0812927,51.4948764]]]}},
{"type":"Feature","properties":{"highway":"cycleway","name":null,"category":"Dedicated cycleway"},"geometry":{"type":"MultiLineString","coordinates":[[[-0.0901982,51.4827931],[-0.0901938,51.4827635],[-0.0901629,51.4825542],[-0.0901412,51.4823473],[-0.090121,51.4821593],[-0.0900888,51.4818585]]]}},
{"type":"Feature","properties":{"highway":"cycleway","name":null,"category":"Dedicated cycleway"},"geometry":{"type":"MultiLineString","coordinates":[[[-0.0851092,51.4939047],[-0.0851744,51.493947]]]}},
{"type":"Feature","properties":{"highway":"cycleway","name":null,"category":"Dedicated cycleway"},"geometry":{"type":"MultiLineString","coordinates":[[[-0.0886802,51.4943213],[-0.088888,51.4944955],[-0.0891315,51.4943774]]]}},
{"type":"Feature","properties":{"highway":"cycleway","name":null,"category":"Dedicated cycleway"},"geometry":{"type":"MultiLineString","coordinates":[[[-0.0775346,51.4892109],[-0.0775748,51.4892564],[-0.077543,51.4892829],[-0.0775123,51.4893097]]]}},
{"type":"Feature","properties":{"highway":"cycleway","name":null,"category":"Dedicated cycleway"},"geometry":{"type":"MultiLineString","coordinates":[[[-0.0753963,51.4898583],[-0.0753603,51.4898803],[-0.075344,51.489891],[-0.0753268,51.4899018]]]}},
{"type":"Feature","properties":{"highway":"cycleway","name":null,"category":"Dedicated cycleway"},"geometry":{"type":"MultiLineString","coordinates":[[[-0.0695565,51.4887122],[-0.069508,51.4887152],[-0.0694671,51.4887188]]]}},
{"type":"Feature","properties":{"highway":"cycleway","name":null,"category":"Dedicated cycleway"},"geometry":{"type":"MultiLineString","coordinates":[[[-0.0748672,51.4952907],[-0.0750096,51.4952228],[-0.0751235,51.4951365],[-0.0752029,51.4950363],[-0.0752423,51.4949339],[-0.0752425,51.4948119],[-0.0751978,51.4946997],[-0.0751119,51.4945972],[-0.0749897,51.4945102],[-0.0748895,51.4944625],[-0.0747782,51.4944254],[-0.0746205,51.4943945],[-0.0744558,51.4943849],[-0.0742916,51.494397],[-0.0741351,51.4944304],[-0.0739934,51.4944835],[-0.0738727,51.4945539],[-0.0737785,51.4946385],[-0.073715,51.4947336],[-0.0736845,51.4948379],[-0.0736957,51.4949608],[-0.0737474,51.4950605],[-0.0737579,51.4950808],[-0.0738675,51.4951868],[-0.0740171,51.4952718],[-0.074175,51.4953249],[-0.0743482,51.4953542],[-0.0745275,51.4953582],[-0.0747036,51.4953366],[-0.0748672,51.4952907]]]}},
{"type":"Feature","properties":{"highway":"cycleway","name":null,"category":"Dedicated cycleway"},"geometry":{"type":"MultiLineString","coordinates":[[[-0.0735228,51.4956337],[-0.0735941,51.4956215],[-0.0736045,51.4956078],[-0.0736217,51.4955851],[-0.0740171,51.4952718],[-0.0744932,51.494888],[-0.0749897,51.4945102]]]}},
{"type":"Feature","properties":{"highway":"cycleway","name":null,"category":"Dedicated cycleway"},"geometry":{"type":"MultiLineString","coordinates":[[[-0.079128,51.4843127],[-0.0792793,51.4845336]]]}},
{"type":"Feature","properties":{"highway":"cycleway","name":null,"category":"Dedicated cycleway"},"geometry":{"type":"MultiLineString","coordinates":[[[-0.0812904,51.4843459],[-0.0814804,51.4845086],[-0.081788,51.4847719],[-0.0818355,51.4848126],[-0.0822122,51.4851351]]]}},
{"type":"Feature","properties":{"highway":"cycleway","name":null,"category":"Dedicated cycleway"},"geometry":{"type":"MultiLineString","coordinates":[[[-0.0836939,51.4837417],[-0.0818592,51.4839828]]]}},
{"type":"Feature","properties":{"highway":"cycleway","name":null,"category":"Dedicated cycleway"},"geometry":{"type":"MultiLineString","coordinates":[[[-0.0767956,51.4853174],[-0.0768754,51.4852923],[-0.0777397,51.4851607],[-0.0777778,51.485125],[-0.0779896,51.4849264],[-0.0782531,51.4846794],[-0.0782829,51.4846625],[-0.0783629,51.4846535],[-0.07901,51.4846563],[-0.0791367,51.4846343],[-0.0791958,51.4846005],[-0.0792793,51.4845336],[-0.0795144,51.4843206]]]}},
{"type":"Feature","properties":{"highway":"cycleway","name":null,"category":"Dedicated cycleway"},"geometry":{"type":"MultiLineString","coordinates":[[[-0.0845687,51.4821331],[-0.0845613,51.4822035],[-0.0843655,51.4823373],[-0.0837565,51.4827548]]]}},
{"type":"Feature","properties":{"highway":"cycleway","name":null,"category":"Dedicated cycleway"},"geometry":{"type":"MultiLineString","coordinates":[[[-0.0839666,51.4838793],[-0.0841835,51.4840592],[-0.0842018,51.4841122]]]}},
{"type":"Feature","properties":{"highway":"cycleway","name":null,"category":"Dedicated cycleway"},"geometry":{"type":"MultiLineString","coordinates":[[[-0.0843131,51.4837692],[-0.0843931,51.483997],[-0.0844182,51.4840361]]]}},
{"type":"Feature","properties":{"highway":"cycleway","name":null,"category":"Dedicated cycleway"},"geometry":{"type":"MultiLineString","coordinates":[[[-0.0840526,51.4843109],[-0.0838757,51.4840902],[-0.0837594,51.4839451]]]}},
{"type":"Feature","properties":{"highway":"cycleway","name":null,"category":"Dedicated cycleway"},"geometry":{"type":"MultiLineString","coordinates":[[[-0.0862802,51.4820622],[-0.0857913,51.4820739]]]}},
{"type":"Feature","properties":{"highway":"cycleway","name":null,"category":"Dedicated cycleway"},"geometry":{"type":"MultiLineString","coordinates":[[[-0.0844182,51.4840361],[-0.084445,51.4840799],[-0.084527,51.4843457],[-0.0845332,51.4843675],[-0.0845459,51.4843811]]]}},
{"type":"Feature","properties":{"highway":"cycleway","name":null,"category":"Dedicated cycleway"},"geometry":{"type":"MultiLineString","coordinates":[[[-0.0832062,51.482206],[-0.0833053,51.4825304]]]}},
{"type":"Feature","properties":{"highway":"cycleway","name":null,"category":"Dedicated cycleway"},"geometry":{"type":"MultiLineString","coordinates":[[[-0.0747568,51.4893245],[-0.0746521,51.4893235],[-0.0745801,51.4893002],[-0.0743601,51.4892291],[-0.0742984,51.489206]]]}},
{"type":"Feature","properties":{"highway":"cycleway","name":null,"category":"Dedicated cycleway"},"geometry":{"type":"MultiLineString","coordinates":[[[-0.0861048,51.4911519],[-0.0861264,51.4911655],[-0.0861479,51.4911772]]]}},
{"type":"Feature","properties":{"highway":"cycleway","name":null,"category":"Dedicated cycleway"},"geometry":{"type":"MultiLineString","coordinates":[[[-0.0863061,51.4942473],[-0.0864093,51.4942537],[-0.0865044,51.4942589]]]}},
{"type":"Feature","properties":{"highway":"cycleway","name":null,"category":"Dedicated cycleway"},"geometry":{"type":"MultiLineString","coordinates":[[[-0.0859236,51.4948054],[-0.086008,51.494863],[-0.0860541,51.4948944]]]}},
{"type":"Feature","properties":{"highway":"cycleway","name":null,"category":"Dedicated cycleway"},"geometry":{"type":"MultiLineString","coordinates":[[[-0.0837885,51.492614],[-0.0838011,51.492624],[-0.08384,51.4926171],[-0.083876,51.4926036],[-0.0841042,51.4927921],[-0.084168,51.4928458],[-0.0841842,51.4928979]]]}},
{"type":"Feature","properties":{"highway":"cycleway","name":null,"category":"Dedicated cycleway"},"geometry":{"type":"MultiLineString","coordinates":[[[-0.0833647,51.4928144],[-0.0834095,51.4928147],[-0.0834193,51.4928229]]]}},
{"type":"Feature","properties":{"highway":"cycleway","name":"Old Kent Road","category":"Dedicated cycleway"},"geometry":{"type":"MultiLineString","coordinates":[[[-0.0843554,51.4936172],[-0.0843348,51.4936001],[-0.0840945,51.493401],[-0.0840781,51.493375],[-0.0837775,51.4931407],[-0.0836484,51.4930646],[-0.083385,51.4928337],[-0.0833647,51.4928144],[-0.0833429,51.4927984],[-0.0833307,51.4927894]]]}},
{"type":"Feature","properties":{"highway":"cycleway","name":null,"category":"Dedicated cycleway"},"geometry":{"type":"MultiLineString","coordinates":[[[-0.0853792,51.4939475],[-0.0853978,51.4938799],[-0.0854101,51.4938297],[-0.0854204,51.4937974],[-0.085425,51.4937778]]]}},
{"type":"Feature","properties":{"highway":"cycleway","name":null,"category":"Dedicated cycleway"},"geometry":{"type":"MultiLineString","coordinates":[[[-0.0855034,51.4939137],[-0.0857284,51.4938648],[-0.0864115,51.49398]]]}},
{"type":"Feature","properties":{"highway":"cycleway","name":null,"category":"Dedicated cycleway"},"geometry":{"type":"MultiLineString","coordinates":[[[-0.0849138,51.4946945],[-0.0849263,51.4946897]]]}},
{"type":"Feature","properties":{"highway":"cycleway","name":null,"category":"Dedicated cycleway"},"geometry":{"type":"MultiLineString","coordinates":[[[-0.0851744,51.493947],[-0.0852653,51.4940022],[-0.0853329,51.4940432]]]}},
{"type":"Feature","properties":{"highway":"cycleway","name":"Bricklayers Arms","category":"Dedicated cycleway"},"geometry":{"type":"MultiLineString","coordinates":[[[-0.0854304,51.4936788],[-0.0854811,51.4936945],[-0.0856001,51.4937197],[-0.0860883,51.4938],[-0.0862448,51.4938424],[-0.0862905,51.4938548],[-0.0863546,51.4938673],[-0.0866764,51.4939302]]]}},
{"type":"Feature","properties":{"highway":"cycleway","name":null,"category":"Dedicated cycleway"},"geometry":{"type":"MultiLineString","coordinates":[[[-0.0849462,51.4948277],[-0.0849355,51.4947749],[-0.0849275,51.49474]]]}},
{"type":"Feature","properties":{"highway":"cycleway","name":null,"category":"Dedicated cycleway"},"geometry":{"type":"MultiLineString","coordinates":[[[-0.0862933,51.494882],[-0.0862314,51.4948887],[-0.0861694,51.4948954]]]}},
{"type":"Feature","properties":{"highway":"cycleway","name":null,"category":"Dedicated cycleway"},"geometry":{"type":"MultiLineString","coordinates":[[[-0.0838469,51.4827951],[-0.0851823,51.4834484],[-0.0857272,51.4837095],[-0.0857632,51.4837157]]]}},
{"type":"Feature","properties":{"highway":"cycleway","name":null,"category":"Dedicated cycleway"},"geometry":{"type":"MultiLineString","coordinates":[[[-0.0855838,51.4820875],[-0.0850477,51.4821094]]]}},
{"type":"Feature","properties":{"highway":"cycleway","name":null,"category":"Dedicated cycleway"},"geometry":{"type":"MultiLineString","coordinates":[[[-0.08269,51.482238],[-0.0817928,51.4822745],[-0.0810703,51.4823149],[-0.0801872,51.4823595],[-0.0797418,51.4823819],[-0.0794593,51.482395],[-0.0791186,51.4824121],[-0.0789607,51.4824178],[-0.0789218,51.4824197],[-0.0783866,51.4824394],[-0.0778077,51.4824813]]]}},
{"type":"Feature","properties":{"highway":"cycleway","name":null,"category":"Dedicated cycleway"},"geometry":{"type":"MultiLineString","coordinates":[[[-0.0875948,51.4819978],[-0.087276,51.4820156],[-0.0870149,51.4820297],[-0.0867677,51.4820408],[-0.0866535,51.4820476],[-0.0862802,51.4820622]]]}},
{"type":"Feature","properties":{"highway":"cycleway","name":"Southwark Park Road","category":"Dedicated cycleway"},"geometry":{"type":"MultiLineString","coordinates":[[[-0.0732206,51.492947],[-0.0730749,51.4928616],[-0.0729615,51.4928159],[-0.0728153,51.4927654],[-0.0726473,51.4927239],[-0.0724494,51.4926945],[-0.0722855,51.4926859],[-0.0721132,51.4926901],[-0.0719858,51.4926997],[-0.0718542,51.4927106],[-0.0716643,51.492732]]]}},
{"type":"Feature","properties":{"highway":"cycleway","name":null,"category":"Dedicated cycleway"},"geometry":{"type":"MultiLineString","coordinates":[[[-0.0859073,51.4885258],[-0.0858673,51.4885395],[-0.0857419,51.4885908],[-0.085736,51.4885931]]]}},
{"type":"Feature","properties":{"highway":"cycleway","name":null,"category":"Dedicated cycleway"},"geometry":{"type":"MultiLineString","coordinates":[[[-0.0850477,51.4821094],[-0.0845687,51.4821331],[-0.0844046,51.4821412]]]}},
{"type":"Feature","properties":{"highway":"cycleway","name":null,"category":"Dedicated cycleway"},"geometry":{"type":"MultiLineString","coordinates":[[[-0.0853958,51.4942209],[-0.0854062,51.4941776],[-0.0853953,51.4941466],[-0.0853566,51.4940564]]]}},
{"type":"Feature","properties":{"highway":"cycleway","name":null,"category":"Dedicated cycleway"},"geometry":{"type":"MultiLineString","coordinates":[[[-0.0854468,51.4943453],[-0.0853496,51.4943806],[-0.0852745,51.4943958],[-0.0851945,51.4944085],[-0.0851447,51.4944016]]]}},
{"type":"Feature","properties":{"highway":"cycleway","name":"Wells Way","category":"Dedicated cycleway"},"geometry":{"type":"MultiLineString","coordinates":[[[-0.0860212,51.48306],[-0.0860246,51.4830696],[-0.08619,51.483542],[-0.0862277,51.4836496],[-0.0862551,51.4836891],[-0.0862863,51.4837074]]]}},
{"type":"Feature","properties":{"highway":"cycleway","name":null,"category":"Dedicated cycleway"},"geometry":{"type":"MultiLineString","coordinates":[[[-0.0849512,51.4948569],[-0.0847699,51.4948427],[-0.0847382,51.4948358]]]}},
{"type":"Feature","properties":{"highway":"cycleway","name":null,"category":"Dedicated cycleway"},"geometry":{"type":"MultiLineString","coordinates":[[[-0.084285,51.494917],[-0.0843307,51.4949142],[-0.084685,51.4946826],[-0.0847176,51.4946217]]]}},
{"type":"Feature","properties":{"highway":"cycleway","name":null,"category":"Dedicated cycleway"},"geometry":{"type":"MultiLineString","coordinates":[[[-0.0851066,51.494615],[-0.0851319,51.4946372],[-0.0851664,51.4946562],[-0.0852115,51.4946699],[-0.0855079,51.4947227],[-0.0858506,51.4947907],[-0.0859079,51.4947939]]]}},
{"type":"Feature","properties":{"highway":"cycleway","name":null,"category":"Dedicated cycleway"},"geometry":{"type":"MultiLineString","coordinates":[[[-0.0855592,51.4827032],[-0.0838469,51.4827951]]]}},
{"type":"Feature","properties":{"highway":"cycleway","name":null,"category":"Dedicated cycleway"},"geometry":{"type":"MultiLineString","coordinates":[[[-0.0767127,51.4850652],[-0.076772,51.4852969],[-0.0767956,51.4853174]]]}},
{"type":"Feature","properties":{"highway":"cycleway","name":null,"category":"Dedicated cycleway"},"geometry":{"type":"MultiLineString","coordinates":[[[-0.0731671,51.4893275],[-0.073237,51.4893291],[-0.0732791,51.4893317],[-0.0733352,51.4893395],[-0.0733847,51.489349]]]}},
{"type":"Feature","properties":{"highway":"cycleway","name":"New Paragon Walk","category":"Dedicated cycleway"},"geometry":{"type":"MultiLineString","coordinates":[[[-0.091338,51.4925383],[-0.0914234,51.4925159],[-0.0914513,51.4925085],[-0.0921506,51.4923236],[-0.0921865,51.4922993],[-0.092345,51.4922691]]]}},
{"type":"Feature","properties":{"highway":"cycleway","name":null,"category":"Dedicated cycleway"},"geometry":{"type":"MultiLineString","coordinates":[[[-0.0869595,51.4819065],[-0.0871918,51.4819766],[-0.087276,51.4820156]]]}},
{"type":"Feature","properties":{"highway":"cycleway","name":"Portland Street","category":"Dedicated cycleway"},"geometry":{"type":"MultiLineString","coordinates":[[[-0.0886161,51.4843093],[-0.0885214,51.4842808],[-0.0883112,51.4839271],[-0.0880602,51.4836029]]]}},
{"type":"Feature","properties":{"highway":"cycleway","name":null,"category":"Dedicated cycleway"},"geometry":{"type":"MultiLineString","coordinates":[[[-0.0726197,51.4887555],[-0.0726034,51.488813]]]}},
{"type":"Feature","properties":{"highway":"cycleway","name":"Mandela Way","category":"Dedicated cycleway"},"geometry":{"type":"MultiLineString","coordinates":[[[-0.0754808,51.4898664],[-0.0754498,51.4898552],[-0.0754197,51.4898444]]]}},
{"type":"Feature","properties":{"highway":"cycleway","name":"Mandela Way","category":"Dedicated cycleway"},"geometry":{"type":"MultiLineString","coordinates":[[[-0.0762619,51.4901801],[-0.0761986,51.4901825],[-0.0761205,51.49017],[-0.0760931,51.4901583],[-0.0760527,51.490141],[-0.0759234,51.4900779],[-0.0754808,51.4898664]]]}},
{"type":"Feature","properties":{"highway":"cycleway","name":"Dunton Road","category":"Dedicated cycleway"},"geometry":{"type":"MultiLineString","coordinates":[[[-0.0767044,51.4898464],[-0.0766775,51.4899012]]]}},
{"type":"Feature","properties":{"highway":"cycleway","name":"Mandela Way","category":"Dedicated cycleway"},"geometry":{"type":"MultiLineString","coordinates":[[[-0.0753089,51.4899139],[-0.0751559,51.4898007]]]}},
{"type":"Feature","properties":{"highway":"cycleway","name":null,"category":"Dedicated cycleway"},"geometry":{"type":"MultiLineString","coordinates":[[[-0.0773309,51.4894354],[-0.0772946,51.489419],[-0.0772583,51.4894025]]]}},
{"type":"Feature","properties":{"highway":"cycleway","name":null,"category":"Dedicated cycleway"},"geometry":{"type":"MultiLineString","coordinates":[[[-0.0766862,51.489793],[-0.0766953,51.4898197],[-0.0767044,51.4898464]]]}},
{"type":"Feature","properties":{"highway":"cycleway","name":"Dunton Road","category":"Dedicated cycleway"},"geometry":{"type":"MultiLineString","coordinates":[[[-0.0772393,51.4893944],[-0.0768723,51.4897066],[-0.0768048,51.4897455],[-0.0767573,51.4897642],[-0.07668,51.4897781]]]}},
{"type":"Feature","properties":{"highway":"cycleway","name":"Mawbey Road","category":"Dedicated cycleway"},"geometry":{"type":"MultiLineString","coordinates":[[[-0.0722606,51.4864856],[-0.0723406,51.4863906],[-0.0723477,51.486381],[-0.0723832,51.48634],[-0.0724123,51.4863049]]]}},
{"type":"Feature","properties":{"highway":"cycleway","name":null,"category":"Dedicated cycleway"},"geometry":{"type":"MultiLineString","coordinates":[[[-0.0795144,51.4843206],[-0.0796132,51.484319],[-0.0798576,51.4842915],[-0.0804742,51.4841982]]]}},
{"type":"Feature","properties":{"highway":"cycleway","name":null,"category":"Dedicated cycleway"},"geometry":{"type":"MultiLineString","coordinates":[[[-0.0810703,51.4823149],[-0.0811314,51.4824516],[-0.0811449,51.4825203],[-0.0811501,51.4825697],[-0.0811423,51.4826511],[-0.0810882,51.4829078]]]}},
{"type":"Feature","properties":{"highway":"cycleway","name":null,"category":"Dedicated cycleway"},"geometry":{"type":"MultiLineString","coordinates":[[[-0.0804742,51.4841982],[-0.0804888,51.4841959],[-0.0810099,51.4841129]]]}},
{"type":"Feature","properties":{"highway":"cycleway","name":null,"category":"Dedicated cycleway"},"geometry":{"type":"MultiLineString","coordinates":[[[-0.0792533,51.4830165],[-0.0800976,51.4829586],[-0.0804326,51.4829414],[-0.0810777,51.4829083],[-0.0810882,51.4829078]]]}},
{"type":"Feature","properties":{"highway":"path","name":null,"category":"Shared path"},"geometry":{"type":"MultiLineString","coordinates":[[[-0.0792533,51.4830165],[-0.0792701,51.4830972],[-0.0792886,51.4831863],[-0.0793258,51.4832298],[-0.0795679,51.4834391],[-0.079863,51.4836969],[-0.0799356,51.4837581],[-0.0800081,51.4838082],[-0.0800344,51.4838143],[-0.0802577,51.4840141],[-0.0804742,51.4841982]]]}},
{"type":"Feature","properties":{"highway":"cycleway","name":null,"category":"Dedicated cycleway"},"geometry":{"type":"MultiLineString","coordinates":[[[-0.0857913,51.4820739],[-0.0855838,51.4820875]]]}},
{"type":"Feature","properties":{"highway":"cycleway","name":null,"category":"Dedicated cycleway"},"geometry":{"type":"MultiLineString","coordinates":[[[-0.0834462,51.4829426],[-0.0835964,51.4834253],[-0.0836657,51.4836465],[-0.0836898,51.4837255]]]}},
{"type":"Feature","properties":{"highway":"cycleway","name":null,"category":"Dedicated cycleway"},"geometry":{"type":"MultiLineString","coordinates":[[[-0.0810882,51.4829078],[-0.0811735,51.4829039],[-0.0833982,51.4828099]]]}},
{"type":"Feature","properties":{"highway":"cycleway","name":null,"category":"Dedicated cycleway"},"geometry":{"type":"MultiLineString","coordinates":[[[-0.0767887,51.4872858],[-0.0761631,51.4877301]]]}},
{"type":"Feature","properties":{"highway":"cycleway","name":null,"category":"Dedicated cycleway"},"geometry":{"type":"MultiLineString","coordinates":[[[-0.0908967,51.481826],[-0.0900888,51.4818585],[-0.0895039,51.481872],[-0.0894009,51.4818775],[-0.088317,51.4819373],[-0.0875948,51.4819978]]]}},
{"type":"Feature","properties":{"highway":"cycleway","name":null,"category":"Dedicated cycleway"},"geometry":{"type":"MultiLineString","coordinates":[[[-0.0833982,51.4828099],[-0.0834462,51.4829426]]]}},
{"type":"Feature","properties":{"highway":"cycleway","name":null,"category":"Dedicated cycleway"},"geometry":{"type":"MultiLineString","coordinates":[[[-0.0834462,51.4829426],[-0.0818592,51.4839828]]]}},
{"type":"Feature","properties":{"highway":"cycleway","name":null,"category":"Dedicated cycleway"},"geometry":{"type":"MultiLineString","coordinates":[[[-0.076877,51.4858973],[-0.0770255,51.485986],[-0.0772742,51.4860967],[-0.0775632,51.4861614],[-0.0778644,51.4861955],[-0.0780846,51.4861954]]]}},
{"type":"Feature","properties":{"highway":"cycleway","name":null,"category":"Dedicated cycleway"},"geometry":{"type":"MultiLineString","coordinates":[[[-0.076877,51.4858973],[-0.0767464,51.4857542],[-0.0767431,51.4857107],[-0.076737,51.4856314],[-0.0767663,51.4854427],[-0.0767956,51.4853174]]]}},
{"type":"Feature","properties":{"highway":"cycleway","name":null,"category":"Dedicated cycleway"},"geometry":{"type":"MultiLineString","coordinates":[[[-0.0795144,51.4843206],[-0.079128,51.4843127],[-0.0779951,51.4843043],[-0.0779014,51.4843121]]]}},
{"type":"Feature","properties":{"highway":"cycleway","name":null,"category":"Dedicated cycleway"},"geometry":{"type":"MultiLineString","coordinates":[[[-0.0810099,51.4841129],[-0.0810674,51.4841041],[-0.0818592,51.4839828]]]}},
{"type":"Feature","properties":{"highway":"cycleway","name":null,"category":"Dedicated cycleway"},"geometry":{"type":"MultiLineString","coordinates":[[[-0.0798306,51.485306],[-0.0784471,51.4861963],[-0.0784104,51.4862199],[-0.0767887,51.4872858]]]}},
{"type":"Feature","properties":{"highway":"cycleway","name":null,"category":"Dedicated cycleway"},"geometry":{"type":"MultiLineString","coordinates":[[[-0.0774773,51.4893376],[-0.0774363,51.4893705],[-0.0773771,51.489419],[-0.0773473,51.4894441]]]}},
{"type":"Feature","properties":{"highway":"cycleway","name":null,"category":"Dedicated cycleway"},"geometry":{"type":"MultiLineString","coordinates":[[[-0.0885291,51.4832231],[-0.0884685,51.4831508]]]}},
{"type":"Feature","properties":{"highway":"cycleway","name":"Albany Road","category":"Dedicated cycleway"},"geometry":{"type":"MultiLineString","coordinates":[[[-0.087961,51.4833008],[-0.0880156,51.4832856]]]}},
{"type":"Feature","properties":{"highway":"cycleway","name":null,"category":"Dedicated cycleway"},"geometry":{"type":"MultiLineString","coordinates":[[[-0.0848604,51.4946698],[-0.0848007,51.4946494],[-0.0847451,51.4946294]]]}},
{"type":"Feature","properties":{"highway":"cycleway","name":null,"category":"Dedicated cycleway"},"geometry":{"type":"MultiLineString","coordinates":[[[-0.092345,51.4922691],[-0.092383,51.4922773],[-0.0924172,51.4922872],[-0.0924445,51.4922985],[-0.0924558,51.4923032],[-0.0924968,51.4923287],[-0.0925393,51.4923605],[-0.0927202,51.4924907]]]}},
{"type":"Feature","properties":{"highway":"cycleway","name":null,"category":"Dedicated cycleway"},"geometry":{"type":"MultiLineString","coordinates":[[[-0.0864747,51.4953464],[-0.0865673,51.4953459]]]}},
{"type":"Feature","properties":{"highway":"cycleway","name":null,"category":"Dedicated cycleway"},"geometry":{"type":"MultiLineString","coordinates":[[[-0.0882861,51.4816794],[-0.088317,51.4819373],[-0.0883473,51.4822704],[-0.0883748,51.4824919],[-0.088387,51.4826005],[-0.0884265,51.4829625],[-0.0884436,51.4831191],[-0.088457,51.4831362],[-0.0884685,51.4831508]]]}},
{"type":"Feature","properties":{"highway":"cycleway","name":null,"category":"Dedicated cycleway"},"geometry":{"type":"MultiLineString","coordinates":[[[-0.0884685,51.4831508],[-0.0889171,51.4830217],[-0.0890789,51.4829747],[-0.0892935,51.4829146],[-0.0893485,51.4829044],[-0.0894364,51.4829409]]]}},
{"type":"Feature","properties":{"highway":"cycleway","name":null,"category":"Dedicated cycleway"},"geometry":{"type":"MultiLineString","coordinates":[[[-0.0882861,51.4816794],[-0.0873487,51.4819827],[-0.087276,51.4820156]]]}},
{"type":"Feature","properties":{"highway":"cycleway","name":null,"category":"Dedicated cycleway"},"geometry":{"type":"MultiLineString","coordinates":[[[-0.0879782,51.4833638],[-0.087961,51.4833008]]]}},
{"type":"Feature","properties":{"highway":"cycleway","name":"Albany Road","category":"Dedicated cycleway"},"geometry":{"type":"MultiLineString","coordinates":[[[-0.0880156,51.4832856],[-0.0882059,51.4832299],[-0.0883504,51.4831848],[-0.0884685,51.4831508]]]}},
{"type":"Feature","properties":{"highway":"cycleway","name":null,"category":"Dedicated cycleway"},"geometry":{"type":"MultiLineString","coordinates":[[[-0.0880156,51.4832856],[-0.0880295,51.4833055],[-0.0880687,51.483335]]]}},
{"type":"Feature","properties":{"highway":"cycleway","name":null,"category":"Dedicated cycleway"},"geometry":{"type":"MultiLineString","coordinates":[[[-0.0768075,51.4869196],[-0.0768471,51.4859532],[-0.076877,51.4858973]]]}},
{"type":"Feature","properties":{"highway":"path","name":null,"category":"Shared path"},"geometry":{"type":"MultiLineString","coordinates":[[[-0.0800081,51.4838082],[-0.0795869,51.4838298],[-0.0797071,51.4840349],[-0.0798576,51.4842915]]]}},
{"type":"Feature","properties":{"highway":"path","name":null,"category":"Shared path"},"geometry":{"type":"MultiLineString","coordinates":[[[-0.0797071,51.4840349],[-0.0802577,51.4840141]]]}},
{"type":"Feature","properties":{"highway":"cycleway","name":null,"category":"Dedicated cycleway"},"geometry":{"type":"MultiLineString","coordinates":[[[-0.0747782,51.4944254],[-0.0749378,51.4943378]]]}},
{"type":"Feature","properties":{"highway":"cycleway","name":null,"category":"Dedicated cycleway"},"geometry":{"type":"MultiLineString","coordinates":[[[-0.083681,51.4930037],[-0.0836522,51.4930166],[-0.0834193,51.4928229]]]}},
{"type":"Feature","properties":{"highway":"cycleway","name":null,"category":"Dedicated cycleway"},"geometry":{"type":"MultiLineString","coordinates":[[[-0.0868644,51.4836804],[-0.0868627,51.4835987],[-0.0872869,51.4834825],[-0.0877032,51.4833713],[-0.0879301,51.4833103],[-0.087961,51.4833008]]]}},
{"type":"Feature","properties":{"highway":"cycleway","name":"Portland Street","category":"Dedicated cycleway"},"geometry":{"type":"MultiLineString","coordinates":[[[-0.0880602,51.4836029],[-0.0880139,51.4835273],[-0.0880155,51.4834928]]]}},
{"type":"Feature","properties":{"highway":"cycleway","name":"Albany Road","category":"Dedicated cycleway"},"geometry":{"type":"MultiLineString","coordinates":[[[-0.0865113,51.4836874],[-0.0865944,51.4836648]]]}},
{"type":"Feature","properties":{"highway":"cycleway","name":null,"category":"Dedicated cycleway"},"geometry":{"type":"MultiLineString","coordinates":[[[-0.0880602,51.4836029],[-0.0879741,51.4835557],[-0.0879437,51.4835407],[-0.0879184,51.4835329],[-0.0879052,51.4835308],[-0.0878872,51.4835279],[-0.0878435,51.4835217],[-0.0878047,51.4835211],[-0.0877205,51.4835272],[-0.0876032,51.4834926]]]}},
{"type":"Feature","properties":{"highway":"path","name":null,"category":"Shared path"},"geometry":{"type":"MultiLineString","coordinates":[[[-0.0853716,51.4902812],[-0.0855564,51.4901541],[-0.0855829,51.490132],[-0.0855714,51.4901061],[-0.0854874,51.490061],[-0.0853582,51.4899982],[-0.0852828,51.4899688],[-0.0851246,51.4899073],[-0.0849839,51.4898748],[-0.0848804,51.4898472],[-0.0847866,51.489823],[-0.0846787,51.4898109],[-0.0845486,51.4898296],[-0.0842584,51.4898825],[-0.0840499,51.4899176]]]}},
{"type":"Feature","properties":{"highway":"path","name":null,"category":"Shared path"},"geometry":{"type":"MultiLineString","coordinates":[[[-0.0849839,51.4898748],[-0.0849804,51.4898902]]]}},
{"type":"Feature","properties":{"highway":"path","name":null,"category":"Shared path"},"geometry":{"type":"MultiLineString","coordinates":[[[-0.0849804,51.4898902],[-0.084945,51.4898896],[-0.0849061,51.4898979],[-0.0848645,51.4899133],[-0.0848317,51.4899321],[-0.0848052,51.4899976],[-0.084776,51.4900659],[-0.0847371,51.4900819],[-0.0846981,51.4900871]]]}},
{"type":"Feature","properties":{"highway":"path","name":null,"category":"Shared path"},"geometry":{"type":"MultiLineString","coordinates":[[[-0.0849804,51.4898902],[-0.0850211,51.4899023],[-0.0850627,51.4899365],[-0.0850892,51.4899833],[-0.0851087,51.4900345],[-0.0851326,51.490061],[-0.0851556,51.4900764]]]}},
{"type":"Feature","properties":{"highway":"path","name":null,"category":"Shared path"},"geometry":{"type":"MultiLineString","coordinates":[[[-0.0852828,51.4899688],[-0.0852405,51.4899866],[-0.0851582,51.4900406],[-0.0851326,51.490061]]]}},
{"type":"Feature","properties":{"highway":"path","name":null,"category":"Shared path"},"geometry":{"type":"MultiLineString","coordinates":[[[-0.0752378,51.4927577],[-0.0752499,51.492785],[-0.075272,51.4928347],[-0.0753198,51.4928909],[-0.0753366,51.4928987]]]}},
{"type":"Feature","properties":{"highway":"cycleway","name":null,"category":"Dedicated cycleway"},"geometry":{"type":"MultiLineString","coordinates":[[[-0.0827517,51.4870862],[-0.0827922,51.4871244],[-0.0827323,51.4871616]]]}},
{"type":"Feature","properties":{"highway":"cycleway","name":null,"category":"Dedicated cycleway"},"geometry":{"type":"MultiLineString","coordinates":[[[-0.0843725,51.4890874],[-0.0843511,51.4890623],[-0.0843435,51.4890507],[-0.084085,51.4887391],[-0.0840823,51.4887239],[-0.0840821,51.4886899]]]}},
{"type":"Feature","properties":{"highway":"cycleway","name":null,"category":"Dedicated cycleway"},"geometry":{"type":"MultiLineString","coordinates":[[[-0.0801954,51.485801],[-0.0800778,51.4856479],[-0.0800476,51.4856054],[-0.0799979,51.4855349],[-0.0798306,51.485306]]]}},
{"type":"Feature","properties":{"highway":"cycleway","name":null,"category":"Dedicated cycleway"},"geometry":{"type":"MultiLineString","coordinates":[[[-0.0844631,51.484371],[-0.0842187,51.4841604],[-0.0842018,51.4841122]]]}},
{"type":"Feature","properties":{"highway":"cycleway","name":null,"category":"Dedicated cycleway"},"geometry":{"type":"MultiLineString","coordinates":[[[-0.0845332,51.4843675],[-0.0844631,51.484371],[-0.0842243,51.4844562]]]}},
{"type":"Feature","properties":{"highway":"cycleway","name":"Alscot Way","category":"Dedicated cycleway"},"geometry":{"type":"MultiLineString","coordinates":[[[-0.0753785,51.4931398],[-0.075335,51.4931646],[-0.0751879,51.4932608],[-0.0750758,51.4933056]]]}},
{"type":"Feature","properties":{"highway":"cycleway","name":"Townsend Street","category":"Dedicated cycleway"},"geometry":{"type":"MultiLineString","coordinates":[[[-0.0843033,51.4928094],[-0.0842323,51.4928622],[-0.0841842,51.4928979],[-0.0841776,51.4929309],[-0.0841734,51.4929519]]]}},
{"type":"Feature","properties":{"highway":"cycleway","name":null,"category":"Dedicated cycleway"},"geometry":{"type":"MultiLineString","coordinates":[[[-0.0865044,51.4942589],[-0.0865385,51.4942608]]]}},
{"type":"Feature","properties":{"highway":"cycleway","name":null,"category":"Dedicated cycleway"},"geometry":{"type":"MultiLineString","coordinates":[[[-0.0866695,51.4939464],[-0.0866613,51.4939681],[-0.0866486,51.4939975]]]}},
{"type":"Feature","properties":{"highway":"cycleway","name":"Bricklayers Arms","category":"Dedicated cycleway"},"geometry":{"type":"MultiLineString","coordinates":[[[-0.0865774,51.4943569],[-0.0865871,51.4943826],[-0.0865762,51.4944125],[-0.0865669,51.4944433],[-0.0864257,51.4947505],[-0.0863926,51.4947828],[-0.0863701,51.494827],[-0.0863434,51.4948793],[-0.0862933,51.494882]]]}},
{"type":"Feature","properties":{"highway":"cycleway","name":null,"category":"Dedicated cycleway"},"geometry":{"type":"MultiLineString","coordinates":[[[-0.0865293,51.4940173],[-0.0865129,51.4940492],[-0.0864934,51.494087]]]}},
{"type":"Feature","properties":{"highway":"cycleway","name":null,"category":"Dedicated cycleway"},"geometry":{"type":"MultiLineString","coordinates":[[[-0.0866486,51.4939975],[-0.0866394,51.4940186],[-0.0865361,51.494001],[-0.0865293,51.4940173]]]}},
{"type":"Feature","properties":{"highway":"cycleway","name":"Bricklayers Arms","category":"Dedicated cycleway"},"geometry":{"type":"MultiLineString","coordinates":[[[-0.0866764,51.4939302],[-0.0873229,51.4940105],[-0.0876069,51.494031],[-0.0878283,51.4940435]]]}},
{"type":"Feature","properties":{"highway":"cycleway","name":null,"category":"Dedicated cycleway"},"geometry":{"type":"MultiLineString","coordinates":[[[-0.0860541,51.4948944],[-0.0860857,51.4949156]]]}},
{"type":"Feature","properties":{"highway":"cycleway","name":null,"category":"Dedicated cycleway"},"geometry":{"type":"MultiLineString","coordinates":[[[-0.0860354,51.4949393],[-0.0860114,51.4949673],[-0.0859783,51.4950094]]]}},
{"type":"Feature","properties":{"highway":"cycleway","name":null,"category":"Dedicated cycleway"},"geometry":{"type":"MultiLineString","coordinates":[[[-0.0847176,51.4946217],[-0.0847635,51.4945117],[-0.0847271,51.4944466],[-0.0848768,51.4940979],[-0.0849525,51.4940739]]]}},
{"type":"Feature","properties":{"highway":"cycleway","name":null,"category":"Dedicated cycleway"},"geometry":{"type":"MultiLineString","coordinates":[[[-0.0849263,51.4946897],[-0.0849976,51.4946599],[-0.0850787,51.4946256]]]}},
{"type":"Feature","properties":{"highway":"cycleway","name":null,"category":"Dedicated cycleway"},"geometry":{"type":"MultiLineString","coordinates":[[[-0.0849275,51.49474],[-0.0849138,51.4946945],[-0.0848604,51.4946698]]]}},
{"type":"Feature","properties":{"highway":"cycleway","name":null,"category":"Dedicated cycleway"},"geometry":{"type":"MultiLineString","coordinates":[[[-0.0861694,51.4948954],[-0.0860993,51.4949123],[-0.0860857,51.4949156],[-0.0860354,51.4949393]]]}},
{"type":"Feature","properties":{"highway":"cycleway","name":"Bricklayers Arms","category":"Dedicated cycleway"},"geometry":{"type":"MultiLineString","coordinates":[[[-0.085945,51.495047],[-0.0849512,51.4948569]]]}},
{"type":"Feature","properties":{"highway":"cycleway","name":null,"category":"Dedicated cycleway"},"geometry":{"type":"MultiLineString","coordinates":[[[-0.0865474,51.4942821],[-0.0865654,51.4943254],[-0.0865774,51.4943569]]]}},
{"type":"Feature","properties":{"highway":"cycleway","name":null,"category":"Dedicated cycleway"},"geometry":{"type":"MultiLineString","coordinates":[[[-0.0864934,51.494087],[-0.0864859,51.4941167],[-0.0865385,51.4942608],[-0.0865474,51.4942821]]]}},
{"type":"Feature","properties":{"highway":"cycleway","name":null,"category":"Dedicated cycleway"},"geometry":{"type":"MultiLineString","coordinates":[[[-0.0852133,51.4937423],[-0.085229,51.4937262],[-0.0853296,51.493759],[-0.0853398,51.4937474]]]}},
{"type":"Feature","properties":{"highway":"cycleway","name":null,"category":"Dedicated cycleway"},"geometry":{"type":"MultiLineString","coordinates":[[[-0.0851329,51.4938133],[-0.0851751,51.493777],[-0.0852133,51.4937423]]]}},
{"type":"Feature","properties":{"highway":"cycleway","name":null,"category":"Dedicated cycleway"},"geometry":{"type":"MultiLineString","coordinates":[[[-0.0850703,51.4940239],[-0.0851092,51.4939047],[-0.0851329,51.4938133]]]}},
{"type":"Feature","properties":{"highway":"cycleway","name":null,"category":"Dedicated cycleway"},"geometry":{"type":"MultiLineString","coordinates":[[[-0.0853934,51.4936849],[-0.0854304,51.4936788]]]}},
{"type":"Feature","properties":{"highway":"cycleway","name":null,"category":"Dedicated cycleway"},"geometry":{"type":"MultiLineString","coordinates":[[[-0.0853398,51.4937474],[-0.0853661,51.4937167],[-0.0853934,51.4936849]]]}},
{"type":"Feature","properties":{"highway":"cycleway","name":null,"category":"Dedicated cycleway"},"geometry":{"type":"MultiLineString","coordinates":[[[-0.0849525,51.4940739],[-0.0850191,51.4940456],[-0.0850703,51.4940239]]]}},
{"type":"Feature","properties":{"highway":"cycleway","name":null,"category":"Dedicated cycleway"},"geometry":{"type":"MultiLineString","coordinates":[[[-0.0863061,51.4942473],[-0.0861615,51.4942278],[-0.0861107,51.4942169],[-0.0860492,51.4942037],[-0.0859807,51.4941889],[-0.0857954,51.4941532],[-0.0857387,51.4941382],[-0.0856761,51.4941097],[-0.0856171,51.4940829],[-0.0855581,51.4940647],[-0.0855071,51.494054],[-0.0854494,51.4940479],[-0.0854024,51.4940495],[-0.0853566,51.4940564]]]}},
{"type":"Feature","properties":{"highway":"cycleway","name":null,"category":"Dedicated cycleway"},"geometry":{"type":"MultiLineString","coordinates":[[[-0.0859822,51.4913388],[-0.0857139,51.4915364]]]}},
{"type":"Feature","properties":{"highway":"cycleway","name":null,"category":"Dedicated cycleway"},"geometry":{"type":"MultiLineString","coordinates":[[[-0.0773969,51.493873],[-0.0773588,51.4939002],[-0.0772924,51.4939465],[-0.0771627,51.4941387],[-0.0771463,51.494158],[-0.0771358,51.4941751]]]}},
{"type":"Feature","properties":{"highway":"cycleway","name":null,"category":"Dedicated cycleway"},"geometry":{"type":"MultiLineString","coordinates":[[[-0.0856208,51.4815337],[-0.0856464,51.4815318],[-0.0857043,51.4815284],[-0.0857625,51.4815309],[-0.0861015,51.4816355],[-0.0869595,51.4819065]]]}},
{"type":"Feature","properties":{"highway":"path","name":null,"category":"Shared path"},"geometry":{"type":"MultiLineString","coordinates":[[[-0.0810674,51.4841041],[-0.081067,51.4840302],[-0.081067,51.4838408],[-0.0810171,51.4834286],[-0.0811005,51.4830461],[-0.0810949,51.4829835],[-0.0810882,51.4829078]]]}},
{"type":"Feature","properties":{"highway":"cycleway","name":null,"category":"Dedicated cycleway"},"geometry":{"type":"MultiLineString","coordinates":[[[-0.0855079,51.4947227],[-0.0855175,51.4947027],[-0.0856174,51.4944753]]]}},
{"type":"Feature","properties":{"highway":"cycleway","name":"Great Dover Street","category":"Dedicated cycleway"},"geometry":{"type":"MultiLineString","coordinates":[[[-0.0864894,51.4952934],[-0.0865047,51.4952927],[-0.0865673,51.4953459],[-0.0866272,51.4953964],[-0.0866243,51.4954119],[-0.0866037,51.495446]]]}},
{"type":"Feature","properties":{"highway":"cycleway","name":"Great Dover Street","category":"Dedicated cycleway"},"geometry":{"type":"MultiLineString","coordinates":[[[-0.086421,51.4952995],[-0.0863899,51.4953022],[-0.0863038,51.4951959],[-0.0861478,51.4951073],[-0.085945,51.495047]]]}},
{"type":"Feature","properties":{"highway":"path","name":null,"category":"Shared path"},"geometry":{"type":"MultiLineString","coordinates":[[[-0.075481,51.4929659],[-0.0755175,51.4929853]]]}},
{"type":"Feature","properties":{"highway":"path","name":null,"category":"Shared path"},"geometry":{"type":"MultiLineString","coordinates":[[[-0.0753366,51.4928987],[-0.075481,51.4929659]]]}},
{"type":"Feature","properties":{"highway":"cycleway","name":"Rolls Road","category":"Dedicated cycleway"},"geometry":{"type":"MultiLineString","coordinates":[[[-0.0736877,51.4890189],[-0.073606,51.4890316],[-0.0735658,51.4890196],[-0.0735319,51.4889787]]]}},
{"type":"Feature","properties":{"highway":"cycleway","name":null,"category":"Dedicated cycleway"},"geometry":{"type":"MultiLineString","coordinates":[[[-0.0717314,51.4886181],[-0.0726197,51.4887555]]]}},
{"type":"Feature","properties":{"highway":"cycleway","name":"Southwark Park Road","category":"Dedicated cycleway"},"geometry":{"type":"MultiLineString","coordinates":[[[-0.0720305,51.492571],[-0.0720432,51.4925701],[-0.0721796,51.4925607],[-0.0722989,51.492559],[-0.0725095,51.4925682],[-0.0727026,51.4925958],[-0.0728662,51.4926375],[-0.0730044,51.4926793],[-0.0731962,51.4927625],[-0.0732377,51.4927844],[-0.073299,51.4928278]]]}},
{"type":"Feature","properties":{"highway":"path","name":null,"category":"Shared path"},"geometry":{"type":"MultiLineString","coordinates":[[[-0.0734018,51.4865742],[-0.0734181,51.4865579],[-0.0734108,51.4864],[-0.0733664,51.4863113],[-0.0732564,51.4859121]]]}},
{"type":"Feature","properties":{"highway":"path","name":null,"category":"Shared path"},"geometry":{"type":"MultiLineString","coordinates":[[[-0.0725637,51.4856735],[-0.0726455,51.4856848],[-0.0726997,51.4856983],[-0.0727765,51.4857397],[-0.0730193,51.4858206],[-0.0732564,51.4859121],[-0.0734688,51.4860025],[-0.0735333,51.4860255],[-0.0735428,51.4860804],[-0.0735219,51.4862209],[-0.0735086,51.4862705],[-0.0734792,51.4862912],[-0.0733664,51.4863113],[-0.0730169,51.4864015],[-0.0730003,51.4864171]]]}},
{"type":"Feature","properties":{"highway":"path","name":null,"category":"Shared path"},"geometry":{"type":"MultiLineString","coordinates":[[[-0.0726997,51.4856983],[-0.0727974,51.4856023],[-0.0730791,51.4852559],[-0.0732488,51.4850484],[-0.0732963,51.4849986],[-0.0733921,51.4849779],[-0.0734572,51.4849632],[-0.0735003,51.4848424],[-0.0736009,51.4844656]]]}},
{"type":"Feature","properties":{"highway":"path","name":null,"category":"Shared path"},"geometry":{"type":"MultiLineString","coordinates":[[[-0.0743763,51.4882609],[-0.0743965,51.4881048],[-0.0745129,51.4879845],[-0.0748253,51.4879171]]]}},
{"type":"Feature","properties":{"highway":"path","name":null,"category":"Shared path"},"geometry":{"type":"MultiLineString","coordinates":[[[-0.074178,51.4874319],[-0.074129,51.487437],[-0.0740534,51.4875064],[-0.0738738,51.4876711]]]}},
{"type":"Feature","properties":{"highway":"path","name":null,"category":"Shared path"},"geometry":{"type":"MultiLineString","coordinates":[[[-0.0737323,51.4874048],[-0.0735825,51.4875265]]]}},
{"type":"Feature","properties":{"highway":"path","name":null,"category":"Shared path"},"geometry":{"type":"MultiLineString","coordinates":[[[-0.0743578,51.4876387],[-0.0740534,51.4875064]]]}},
{"type":"Feature","properties":{"highway":"cycleway","name":"Lytham Street","category":"Dedicated cycleway"},"geometry":{"type":"MultiLineString","coordinates":[[[-0.0919614,51.4862567],[-0.0917346,51.4859344]]]}},
{"type":"Feature","properties":{"highway":"cycleway","name":"Merrow Street","category":"Dedicated cycleway"},"geometry":{"type":"MultiLineString","coordinates":[[[-0.0917507,51.4858166],[-0.0917354,51.485847],[-0.091716,51.4858526],[-0.0916623,51.4858438]]]}},
{"type":"Feature","properties":{"highway":"cycleway","name":"Bagshot Street","category":"Dedicated cycleway"},"geometry":{"type":"MultiLineString","coordinates":[[[-0.0813668,51.4870053],[-0.0813092,51.4869594],[-0.0812958,51.4869497],[-0.0812526,51.4869147]]]}},
{"type":"Feature","properties":{"highway":"path","name":null,"category":"Shared path"},"geometry":{"type":"MultiLineString","coordinates":[[[-0.093579,51.4818589],[-0.0934598,51.4819451],[-0.0933807,51.4820203],[-0.093308,51.4820424],[-0.093268,51.4820545],[-0.0925653,51.4821364],[-0.092116,51.4821556],[-0.0919352,51.4821647],[-0.0915957,51.4821998],[-0.0909372,51.4822959],[-0.0905027,51.482351],[-0.0902962,51.4823518],[-0.0901412,51.4823473],[-0.0898147,51.4823786],[-0.0890892,51.482483],[-0.0887579,51.4825205],[-0.088605,51.4825139],[-0.088534,51.4825063],[-0.0883748,51.4824919],[-0.0883445,51.4824864],[-0.0882056,51.4824858],[-0.0880698,51.4824885],[-0.0879199,51.4824706],[-0.0878625,51.4824661],[-0.087496,51.4824709],[-0.0874212,51.4824783],[-0.087252,51.482497],[-0.0871506,51.4825023],[-0.0870635,51.4825022],[-0.0869956,51.4824963],[-0.0869565,51.4824945],[-0.0868004,51.4825069]]]}},
{"type":"Feature","properties":{"highway":"path","name":null,"category":"Shared path"},"geometry":{"type":"MultiLineString","coordinates":[[[-0.0894009,51.4818775],[-0.0892397,51.4819905],[-0.0886404,51.4824139],[-0.088534,51.4825063],[-0.088424,51.4825957],[-0.088387,51.4826005]]]}},
{"type":"Feature","properties":{"highway":"cycleway","name":"New Kent Road","category":"Dedicated cycleway"},"geometry":{"type":"MultiLineString","coordinates":[[[-0.0878283,51.4940435],[-0.0882673,51.4940502],[-0.0889749,51.4940379],[-0.0890286,51.4940359],[-0.089095,51.4939937],[-0.0893665,51.4939899],[-0.0896799,51.4939856]]]}},
{"type":"Feature","properties":{"highway":"cycleway","name":null,"category":"Dedicated cycleway"},"geometry":{"type":"MultiLineString","coordinates":[[[-0.0866175,51.4836759],[-0.086684,51.4837215]]]}},
{"type":"Feature","properties":{"highway":"cycleway","name":"Alscot Way","category":"Dedicated cycleway"},"geometry":{"type":"MultiLineString","coordinates":[[[-0.0750758,51.4933056],[-0.0750516,51.4933205]]]}},
{"type":"Feature","properties":{"highway":"cycleway","name":"Alscot Way","category":"Dedicated cycleway"},"geometry":{"type":"MultiLineString","coordinates":[[[-0.0754129,51.4931202],[-0.0753974,51.4931291],[-0.0753785,51.4931398]]]}},
{"type":"Feature","properties":{"highway":"cycleway","name":null,"category":"Dedicated cycleway"},"geometry":{"type":"MultiLineString","coordinates":[[[-0.0842501,51.4949416],[-0.084285,51.494917]]]}},
{"type":"Feature","properties":{"highway":"cycleway","name":null,"category":"Dedicated cycleway"},"geometry":{"type":"MultiLineString","coordinates":[[[-0.0847382,51.4948358],[-0.0846313,51.4948052]]]}},
{"type":"Feature","properties":{"highway":"cycleway","name":null,"category":"Dedicated cycleway"},"geometry":{"type":"MultiLineString","coordinates":[[[-0.0866764,51.4939302],[-0.0866695,51.4939464]]]}},
{"type":"Feature","properties":{"highway":"cycleway","name":null,"category":"Dedicated cycleway"},"geometry":{"type":"MultiLineString","coordinates":[[[-0.0859783,51.4950094],[-0.085945,51.495047]]]}},
{"type":"Feature","properties":{"highway":"cycleway","name":null,"category":"Dedicated cycleway"},"geometry":{"type":"MultiLineString","coordinates":[[[-0.0862957,51.4948104],[-0.0863701,51.494827]]]}},
{"type":"Feature","properties":{"highway":"cycleway","name":null,"category":"Dedicated cycleway"},"geometry":{"type":"MultiLineString","coordinates":[[[-0.0862324,51.494797],[-0.0862957,51.4948104]]]}},
{"type":"Feature","properties":{"highway":"cycleway","name":"Great Dover Street","category":"Dedicated cycleway"},"geometry":{"type":"MultiLineString","coordinates":[[[-0.0864547,51.4952965],[-0.086421,51.4952995]]]}},
{"type":"Feature","properties":{"highway":"cycleway","name":"Great Dover Street","category":"Dedicated cycleway"},"geometry":{"type":"MultiLineString","coordinates":[[[-0.0864547,51.4952965],[-0.0864894,51.4952934]]]}},
{"type":"Feature","properties":{"highway":"cycleway","name":null,"category":"Dedicated cycleway"},"geometry":{"type":"MultiLineString","coordinates":[[[-0.0849512,51.4948569],[-0.0849462,51.4948277]]]}},
{"type":"Feature","properties":{"highway":"cycleway","name":null,"category":"Dedicated cycleway"},"geometry":{"type":"MultiLineString","coordinates":[[[-0.0847451,51.4946294],[-0.0847176,51.4946217]]]}},
{"type":"Feature","properties":{"highway":"cycleway","name":null,"category":"Dedicated cycleway"},"geometry":{"type":"MultiLineString","coordinates":[[[-0.0854504,51.4937442],[-0.0854691,51.4937212]]]}},
{"type":"Feature","properties":{"highway":"cycleway","name":null,"category":"Dedicated cycleway"},"geometry":{"type":"MultiLineString","coordinates":[[[-0.085425,51.4937778],[-0.0854504,51.4937442]]]}},
{"type":"Feature","properties":{"highway":"cycleway","name":null,"category":"Dedicated cycleway"},"geometry":{"type":"MultiLineString","coordinates":[[[-0.0864115,51.49398],[-0.0865361,51.494001]]]}},
{"type":"Feature","properties":{"highway":"cycleway","name":null,"category":"Dedicated cycleway"},"geometry":{"type":"MultiLineString","coordinates":[[[-0.0853329,51.4940432],[-0.0853566,51.4940564]]]}},
{"type":"Feature","properties":{"highway":"cycleway","name":null,"category":"Dedicated cycleway"},"geometry":{"type":"MultiLineString","coordinates":[[[-0.0850787,51.4946256],[-0.0851066,51.494615]]]}},
{"type":"Feature","properties":{"highway":"cycleway","name":null,"category":"Dedicated cycleway"},"geometry":{"type":"MultiLineString","coordinates":[[[-0.0853566,51.4940564],[-0.0853098,51.4940704],[-0.0852822,51.494082],[-0.0852648,51.4941022],[-0.0852153,51.4942255],[-0.0851447,51.4944016],[-0.0850908,51.4945362],[-0.085086,51.4945649],[-0.0850905,51.4945915],[-0.0851066,51.494615]]]}},
{"type":"Feature","properties":{"highway":"cycleway","name":null,"category":"Dedicated cycleway"},"geometry":{"type":"MultiLineString","coordinates":[[[-0.0861107,51.4942169],[-0.0859513,51.4943226],[-0.0858394,51.4943904],[-0.0857414,51.4944381],[-0.0856806,51.4944598],[-0.0856174,51.4944753]]]}},
{"type":"Feature","properties":{"highway":"cycleway","name":null,"category":"Dedicated cycleway"},"geometry":{"type":"MultiLineString","coordinates":[[[-0.0856174,51.4944753],[-0.0855304,51.4944149],[-0.0854468,51.4943453],[-0.0854078,51.4943115]]]}},
{"type":"Feature","properties":{"highway":"cycleway","name":null,"category":"Dedicated cycleway"},"geometry":{"type":"MultiLineString","coordinates":[[[-0.0854078,51.4943115],[-0.0853547,51.4942614],[-0.0853802,51.494239],[-0.0853958,51.4942209]]]}},
{"type":"Feature","properties":{"highway":"cycleway","name":null,"category":"Dedicated cycleway"},"geometry":{"type":"MultiLineString","coordinates":[[[-0.0920749,51.4836704],[-0.092118,51.4838792],[-0.0921521,51.4839204],[-0.0921903,51.4839527],[-0.0922438,51.4839917],[-0.0922978,51.4840274]]]}},
{"type":"Feature","properties":{"highway":"cycleway","name":"Westmoreland Road","category":"Dedicated cycleway"},"geometry":{"type":"MultiLineString","coordinates":[[[-0.091455,51.4839782],[-0.0914788,51.4839806],[-0.0915164,51.4839863],[-0.0915843,51.4839981]]]}},
{"type":"Feature","properties":{"highway":"cycleway","name":null,"category":"Dedicated cycleway"},"geometry":{"type":"MultiLineString","coordinates":[[[-0.0859809,51.4885007],[-0.0859073,51.4885258]]]}},
{"type":"Feature","properties":{"highway":"cycleway","name":null,"category":"Dedicated cycleway"},"geometry":{"type":"MultiLineString","coordinates":[[[-0.085736,51.4885931],[-0.0856996,51.4886076]]]}},
{"type":"Feature","properties":{"highway":"cycleway","name":null,"category":"Dedicated cycleway"},"geometry":{"type":"MultiLineString","coordinates":[[[-0.0844226,51.489137],[-0.0843725,51.4890874]]]}},
{"type":"Feature","properties":{"highway":"cycleway","name":null,"category":"Dedicated cycleway"},"geometry":{"type":"MultiLineString","coordinates":[[[-0.0861479,51.4911772],[-0.0861607,51.4911762]]]}},
{"type":"Feature","properties":{"highway":"cycleway","name":null,"category":"Dedicated cycleway"},"geometry":{"type":"MultiLineString","coordinates":[[[-0.0861607,51.4911762],[-0.0861444,51.491192],[-0.0859822,51.4913388]]]}},
{"type":"Feature","properties":{"highway":"path","name":null,"category":"Shared path"},"geometry":{"type":"MultiLineString","coordinates":[[[-0.0884265,51.4829625],[-0.0883806,51.4829605],[-0.0883441,51.4829553],[-0.0883238,51.4829481],[-0.0883101,51.4829392],[-0.0882729,51.4828866],[-0.0882603,51.482876],[-0.0882445,51.4828682],[-0.0882216,51.4828599],[-0.0881755,51.4828477],[-0.0881522,51.4828399],[-0.0881124,51.4828156],[-0.0880862,51.4828038],[-0.0879995,51.4827687],[-0.0879667,51.4827517],[-0.0879453,51.4827335],[-0.0879309,51.4827165],[-0.0879132,51.4826706],[-0.0879135,51.4826575],[-0.0878907,51.4825851],[-0.0878656,51.4824999],[-0.0878625,51.4824661]]]}},
{"type":"Feature","properties":{"highway":"path","name":null,"category":"Shared path"},"geometry":{"type":"MultiLineString","coordinates":[[[-0.0839292,51.4818677],[-0.0838912,51.4818617],[-0.0838301,51.4818628],[-0.0837697,51.4818783],[-0.0837004,51.4818982],[-0.0836441,51.4819008],[-0.0835706,51.481886],[-0.0835238,51.4818726],[-0.083343,51.4818254],[-0.0832673,51.4818111],[-0.0831819,51.4817978],[-0.0831318,51.4817958],[-0.0830635,51.4817991],[-0.0828213,51.4818277],[-0.0827311,51.4818367],[-0.0823263,51.4818516],[-0.0821603,51.4818538],[-0.0819384,51.481851],[-0.0817012,51.4818448],[-0.0813322,51.4818431],[-0.0812802,51.4818458],[-0.081222,51.4818528],[-0.0810832,51.4818674],[-0.0810541,51.4818662],[-0.0810168,51.4818645]]]}},
{"type":"Feature","properties":{"highway":"path","name":null,"category":"Shared path"},"geometry":{"type":"MultiLineString","coordinates":[[[-0.0831819,51.4817978],[-0.0832252,51.4817876],[-0.0832526,51.4817772],[-0.0833182,51.4817426],[-0.0833439,51.4817328],[-0.0833746,51.4817255],[-0.083402,51.4817245],[-0.0834701,51.4817255],[-0.0835091,51.4817286],[-0.0835398,51.4817281],[-0.0836029,51.4817188],[-0.0836344,51.4817147],[-0.0836623,51.4817143],[-0.0836965,51.4817201],[-0.0837366,51.4817323],[-0.0837553,51.4817353],[-0.083771,51.4817356],[-0.0837959,51.4817329],[-0.0838346,51.4817342],[-0.0838848,51.4817391],[-0.0840945,51.4817499]]]}},
{"type":"Feature","properties":{"highway":"path","name":null,"category":"Shared path"},"geometry":{"type":"MultiLineString","coordinates":[[[-0.0771954,51.482539],[-0.0775724,51.4827467],[-0.0776406,51.4827789],[-0.0776922,51.482797],[-0.0777545,51.4828144],[-0.0778247,51.4828267],[-0.0779273,51.4828383],[-0.0781002,51.4828482],[-0.0781876,51.4828539],[-0.0782902,51.4828667],[-0.0783386,51.4828787],[-0.0785836,51.4829274],[-0.0786309,51.4829348],[-0.078677,51.482936],[-0.078722,51.4829348],[-0.0787869,51.4829249],[-0.0789193,51.482915],[-0.0790432,51.4829084],[-0.0791693,51.4829014],[-0.0792441,51.4828973],[-0.079318,51.4828944],[-0.0794187,51.4828931],[-0.0794736,51.4828919],[-0.0795723,51.4828836],[-0.0797511,51.4828742],[-0.0798346,51.4828725],[-0.0799346,51.4828783],[-0.0800908,51.4828758],[-0.0801451,51.4828729],[-0.0802253,51.4828643],[-0.0803127,51.4828618],[-0.0803861,51.4828564],[-0.0804564,51.4828531],[-0.0805253,51.4828552],[-0.0805789,51.4828552],[-0.0806246,51.4828502],[-0.0806743,51.482849],[-0.0807429,51.4828509],[-0.0808107,51.4828568],[-0.0809908,51.4828919],[-0.0810777,51.4829083]]]}},
{"type":"Feature","properties":{"highway":"path","name":null,"category":"Shared path"},"geometry":{"type":"MultiLineString","coordinates":[[[-0.0800344,51.4838143],[-0.0800521,51.4837996],[-0.0800799,51.4837858],[-0.0801092,51.4837749],[-0.08023,51.4837433]]]}},
{"type":"Feature","properties":{"highway":"path","name":null,"category":"Shared path"},"geometry":{"type":"MultiLineString","coordinates":[[[-0.0792701,51.4830972],[-0.0798803,51.4832348]]]}},
{"type":"Feature","properties":{"highway":"path","name":null,"category":"Shared path"},"geometry":{"type":"MultiLineString","coordinates":[[[-0.0810949,51.4829835],[-0.0808865,51.4830373],[-0.0798803,51.4832348],[-0.0798745,51.4832522],[-0.0799447,51.483331],[-0.0800973,51.4835331],[-0.0801385,51.4835939],[-0.08023,51.4837433],[-0.0804474,51.4840273],[-0.0804724,51.4840686],[-0.0804899,51.484141],[-0.0804888,51.4841959]]]}},
{"type":"Feature","properties":{"highway":"path","name":null,"category":"Shared path"},"geometry":{"type":"MultiLineString","coordinates":[[[-0.0812904,51.4843459],[-0.0812823,51.4844145],[-0.0813059,51.4845125],[-0.0813012,51.4845466],[-0.0811899,51.4846335],[-0.081005,51.4847175],[-0.0809664,51.484731],[-0.0808664,51.4847381],[-0.0806913,51.4847406]]]}},
{"type":"Feature","properties":{"highway":"path","name":null,"category":"Shared path"},"geometry":{"type":"MultiLineString","coordinates":[[[-0.0814804,51.4845086],[-0.0814209,51.4845437],[-0.0813738,51.4845783],[-0.0813493,51.4846218],[-0.0813453,51.4846392],[-0.081306,51.484814],[-0.0812552,51.4849236],[-0.0811919,51.4849878],[-0.0810778,51.4850426],[-0.0809128,51.4850897],[-0.0808446,51.4852106],[-0.0808425,51.4852122],[-0.0807965,51.4852487],[-0.0807342,51.4852763],[-0.0806637,51.485284],[-0.0805631,51.4852852],[-0.0805154,51.4852921],[-0.0804847,51.4853059],[-0.0804605,51.4853246],[-0.0804436,51.4853669],[-0.0804214,51.4853889],[-0.0803789,51.4854101],[-0.0803436,51.4854149],[-0.0802627,51.4854129],[-0.0801915,51.4854231],[-0.080087,51.4854434],[-0.0800589,51.4854552],[-0.0799979,51.4855349]]]}},
{"type":"Feature","properties":{"highway":"path","name":null,"category":"Shared path"},"geometry":{"type":"MultiLineString","coordinates":[[[-0.081788,51.4847719],[-0.081718,51.4847657],[-0.0816859,51.4847574],[-0.0816586,51.4847439],[-0.0815803,51.4846864],[-0.0815435,51.4846688],[-0.0815124,51.4846617],[-0.0814728,51.4846588],[-0.0813453,51.4846392]]]}},
{"type":"Feature","properties":{"highway":"path","name":null,"category":"Shared path"},"geometry":{"type":"MultiLineString","coordinates":[[[-0.0809128,51.4850897],[-0.0809531,51.4850001],[-0.081056,51.4848034],[-0.0811899,51.4846335]]]}},
{"type":"Feature","properties":{"highway":"path","name":null,"category":"Shared path"},"geometry":{"type":"MultiLineString","coordinates":[[[-0.0808425,51.4852122],[-0.080926,51.4852027],[-0.080984,51.4851937],[-0.0810598,51.4851732],[-0.081153,51.4851281],[-0.0811825,51.4851197],[-0.0813114,51.485124],[-0.0813966,51.4851148],[-0.081467,51.4850895],[-0.0816871,51.4849228],[-0.0817974,51.4848409],[-0.0818355,51.4848126]]]}},
{"type":"Feature","properties":{"highway":"path","name":null,"category":"Shared path"},"geometry":{"type":"MultiLineString","coordinates":[[[-0.0800476,51.4856054],[-0.0799687,51.485635],[-0.0799328,51.4856519],[-0.0799106,51.4856695],[-0.079903,51.4856868],[-0.0798932,51.4857206],[-0.0798715,51.4857503],[-0.0798214,51.4857871],[-0.0797614,51.4858127],[-0.0796081,51.4858979],[-0.0795414,51.4859242],[-0.0794636,51.4859447],[-0.0793749,51.4859514],[-0.079226,51.4859454],[-0.0791638,51.4859571],[-0.0791029,51.4859813],[-0.0790439,51.4860179],[-0.078985,51.4860889],[-0.0789142,51.4861561],[-0.078805,51.4862272],[-0.0787048,51.4862742],[-0.0786177,51.4862937],[-0.0784244,51.4863129]]]}},
{"type":"Feature","properties":{"highway":"path","name":null,"category":"Shared path"},"geometry":{"type":"MultiLineString","coordinates":[[[-0.0809531,51.4850001],[-0.0807947,51.4850033],[-0.0806155,51.4850227],[-0.0805612,51.4850381],[-0.0805136,51.4850606],[-0.0804856,51.4850964],[-0.0804872,51.4851292],[-0.0805037,51.4851835],[-0.0805103,51.4852398],[-0.0804847,51.4853059]]]}},
{"type":"Feature","properties":{"highway":"path","name":null,"category":"Shared path"},"geometry":{"type":"MultiLineString","coordinates":[[[-0.0840945,51.4819682],[-0.0840365,51.4819702],[-0.0840007,51.4819623],[-0.0839287,51.481953],[-0.083856,51.481944]]]}},
{"type":"Feature","properties":{"highway":"path","name":null,"category":"Shared path"},"geometry":{"type":"MultiLineString","coordinates":[[[-0.0807965,51.4852487],[-0.0807948,51.4852661],[-0.0807872,51.4852911],[-0.0807928,51.4853221],[-0.0807962,51.4853775],[-0.0807708,51.4854114],[-0.0807246,51.4854272],[-0.0805639,51.4854553],[-0.080476,51.485479],[-0.0804078,51.4855136],[-0.0803118,51.4855726],[-0.0802066,51.4856151],[-0.0800778,51.4856479]]]}},
{"type":"Feature","properties":{"highway":"path","name":null,"category":"Shared path"},"geometry":{"type":"MultiLineString","coordinates":[[[-0.081306,51.484814],[-0.0814063,51.4847923],[-0.0815853,51.4848039],[-0.0817974,51.4848409]]]}},
{"type":"Feature","properties":{"highway":"cycleway","name":null,"category":"Dedicated cycleway"},"geometry":{"type":"MultiLineString","coordinates":[[[-0.0828986,51.4929026],[-0.0829293,51.492927],[-0.082927,51.4929367],[-0.0828862,51.4929565]]]}},
{"type":"Feature","properties":{"highway":"cycleway","name":null,"category":"Dedicated cycleway"},"geometry":{"type":"MultiLineString","coordinates":[[[-0.0828862,51.4929565],[-0.0828579,51.492941],[-0.0828578,51.4929287],[-0.0828986,51.4929026]]]}},
{"type":"Feature","properties":{"highway":"cycleway","name":null,"category":"Dedicated cycleway"},"geometry":{"type":"MultiLineString","coordinates":[[[-0.0833023,51.4927559],[-0.0833307,51.4927894]]]}},
{"type":"Feature","properties":{"highway":"cycleway","name":null,"category":"Dedicated cycleway"},"geometry":{"type":"MultiLineString","coordinates":[[[-0.0843951,51.4936521],[-0.0843887,51.4936461],[-0.0843755,51.4936339],[-0.0843554,51.4936172]]]}},
{"type":"Feature","properties":{"highway":"cycleway","name":null,"category":"Dedicated cycleway"},"geometry":{"type":"MultiLineString","coordinates":[[[-0.0847179,51.4939007],[-0.08445,51.4936632],[-0.084428,51.493657],[-0.0844046,51.4936575],[-0.0843987,51.4936554]]]}},
{"type":"Feature","properties":{"highway":"cycleway","name":null,"category":"Dedicated cycleway"},"geometry":{"type":"MultiLineString","coordinates":[[[-0.0848768,51.4940979],[-0.0848876,51.4940571],[-0.0848769,51.4940231],[-0.084808,51.4939587],[-0.0847742,51.4939484]]]}},
{"type":"Feature","properties":{"highway":"cycleway","name":null,"category":"Dedicated cycleway"},"geometry":{"type":"MultiLineString","coordinates":[[[-0.0847742,51.4939484],[-0.0847494,51.4939274],[-0.0847306,51.4939115]]]}},
{"type":"Feature","properties":{"highway":"cycleway","name":null,"category":"Dedicated cycleway"},"geometry":{"type":"MultiLineString","coordinates":[[[-0.0858442,51.4826873],[-0.085772,51.4826913],[-0.0857593,51.482692]]]}},
{"type":"Feature","properties":{"highway":"cycleway","name":"Albany Road","category":"Dedicated cycleway"},"geometry":{"type":"MultiLineString","coordinates":[[[-0.0862863,51.4837074],[-0.0863225,51.4837145],[-0.0863857,51.4837141],[-0.0865113,51.4836874]]]}},
{"type":"Feature","properties":{"highway":"cycleway","name":null,"category":"Dedicated cycleway"},"geometry":{"type":"MultiLineString","coordinates":[[[-0.0865944,51.4836648],[-0.0866175,51.4836759]]]}},
{"type":"Feature","properties":{"highway":"cycleway","name":null,"category":"Dedicated cycleway"},"geometry":{"type":"MultiLineString","coordinates":[[[-0.0859106,51.4830415],[-0.0859917,51.4830551],[-0.0860212,51.48306]]]}},
{"type":"Feature","properties":{"highway":"cycleway","name":null,"category":"Dedicated cycleway"},"geometry":{"type":"MultiLineString","coordinates":[[[-0.0837625,51.4925934],[-0.0837885,51.492614]]]}},
{"type":"Feature","properties":{"highway":"cycleway","name":null,"category":"Dedicated cycleway"},"geometry":{"type":"MultiLineString","coordinates":[[[-0.0775123,51.4893097],[-0.0774773,51.4893376]]]}},
{"type":"Feature","properties":{"highway":"cycleway","name":null,"category":"Dedicated cycleway"},"geometry":{"type":"MultiLineString","coordinates":[[[-0.0773473,51.4894441],[-0.0773309,51.4894354]]]}},
{"type":"Feature","properties":{"highway":"cycleway","name":null,"category":"Dedicated cycleway"},"geometry":{"type":"MultiLineString","coordinates":[[[-0.0772583,51.4894025],[-0.0772393,51.4893944]]]}},
{"type":"Feature","properties":{"highway":"cycleway","name":null,"category":"Dedicated cycleway"},"geometry":{"type":"MultiLineString","coordinates":[[[-0.0751559,51.4898007],[-0.0751062,51.4898254]]]}},
{"type":"Feature","properties":{"highway":"cycleway","name":null,"category":"Dedicated cycleway"},"geometry":{"type":"MultiLineString","coordinates":[[[-0.0753268,51.4899018],[-0.0753089,51.4899139]]]}},
{"type":"Feature","properties":{"highway":"cycleway","name":null,"category":"Dedicated cycleway"},"geometry":{"type":"MultiLineString","coordinates":[[[-0.0754197,51.4898444],[-0.0753963,51.4898583]]]}},
{"type":"Feature","properties":{"highway":"cycleway","name":null,"category":"Dedicated cycleway"},"geometry":{"type":"MultiLineString","coordinates":[[[-0.07668,51.4897781],[-0.0766862,51.489793]]]}},
{"type":"Feature","properties":{"highway":"cycleway","name":"Dunton Road","category":"Dedicated cycleway"},"geometry":{"type":"MultiLineString","coordinates":[[[-0.0766775,51.4899012],[-0.0766754,51.4899028],[-0.0764329,51.4900863],[-0.076339,51.4901536],[-0.0762619,51.4901801]]]}},
{"type":"Feature","properties":{"highway":"cycleway","name":null,"category":"Dedicated cycleway"},"geometry":{"type":"MultiLineString","coordinates":[[[-0.0733203,51.4929491],[-0.07325,51.4929499],[-0.0732206,51.492947]]]}},
{"type":"Feature","properties":{"highway":"cycleway","name":null,"category":"Dedicated cycleway"},"geometry":{"type":"MultiLineString","coordinates":[[[-0.073299,51.4928278],[-0.0732978,51.4928386],[-0.0732975,51.4928408],[-0.0732928,51.4928527],[-0.07327,51.4929103]]]}},
{"type":"Feature","properties":{"highway":"cycleway","name":null,"category":"Dedicated cycleway"},"geometry":{"type":"MultiLineString","coordinates":[[[-0.0719128,51.4925833],[-0.0719716,51.4925772],[-0.0720305,51.492571]]]}},
{"type":"Feature","properties":{"highway":"cycleway","name":"Southwark Park Road","category":"Dedicated cycleway"},"geometry":{"type":"MultiLineString","coordinates":[[[-0.0716455,51.4926195],[-0.0719128,51.4925833]]]}},
{"type":"Feature","properties":{"highway":"cycleway","name":"The Lane","category":"Dedicated cycleway"},"geometry":{"type":"MultiLineString","coordinates":[[[-0.0812904,51.4843459],[-0.0807325,51.4847135],[-0.0806913,51.4847406],[-0.0798306,51.485306]]]}},
{"type":"Feature","properties":{"highway":"cycleway","name":null,"category":"Dedicated cycleway"},"geometry":{"type":"MultiLineString","coordinates":[[[-0.0833053,51.4825304],[-0.0833982,51.4828099]]]}},
{"type":"Feature","properties":{"highway":"cycleway","name":null,"category":"Dedicated cycleway"},"geometry":{"type":"MultiLineString","coordinates":[[[-0.08269,51.482238],[-0.0833053,51.4825304]]]}},
{"type":"Feature","properties":{"highway":"cycleway","name":null,"category":"Dedicated cycleway"},"geometry":{"type":"MultiLineString","coordinates":[[[-0.0844046,51.4821412],[-0.0842086,51.4821509],[-0.0839955,51.4821614],[-0.0832062,51.482206],[-0.08269,51.482238]]]}},
{"type":"Feature","properties":{"highway":"cycleway","name":null,"category":"Dedicated cycleway"},"geometry":{"type":"MultiLineString","coordinates":[[[-0.0845131,51.4891985],[-0.0844543,51.4891708],[-0.0844226,51.489137]]]}},
{"type":"Feature","properties":{"highway":"cycleway","name":null,"category":"Dedicated cycleway"},"geometry":{"type":"MultiLineString","coordinates":[[[-0.0767431,51.4857107],[-0.0765184,51.4857599],[-0.0764143,51.4857598]]]}},
{"type":"Feature","properties":{"highway":"cycleway","name":null,"category":"Dedicated cycleway"},"geometry":{"type":"MultiLineString","coordinates":[[[-0.0853547,51.4942614],[-0.0852477,51.4942329]]]}},
{"type":"Feature","properties":{"highway":"cycleway","name":null,"category":"Dedicated cycleway"},"geometry":{"type":"MultiLineString","coordinates":[[[-0.0852477,51.4942329],[-0.0852153,51.4942255]]]}},
{"type":"Feature","properties":{"highway":"cycleway","name":null,"category":"Dedicated cycleway"},"geometry":{"type":"MultiLineString","coordinates":[[[-0.0859079,51.4947939],[-0.0859236,51.4948054]]]}},
{"type":"Feature","properties":{"highway":"cycleway","name":null,"category":"Dedicated cycleway"},"geometry":{"type":"MultiLineString","coordinates":[[[-0.0810099,51.4841129],[-0.0812904,51.4843459]]]}},
{"type":"Feature","properties":{"highway":"cycleway","name":null,"category":"Dedicated cycleway"},"geometry":{"type":"MultiLineString","coordinates":[[[-0.0818592,51.4839828],[-0.0812904,51.4843459]]]}},
{"type":"Feature","properties":{"highway":"cycleway","name":null,"category":"Dedicated cycleway"},"geometry":{"type":"MultiLineString","coordinates":[[[-0.0840821,51.4886899],[-0.084082,51.4886698]]]}},
{"type":"Feature","properties":{"highway":"cycleway","name":null,"category":"Dedicated cycleway"},"geometry":{"type":"MultiLineString","coordinates":[[[-0.0842501,51.4949416],[-0.0841984,51.4949852]]]}},
{"type":"Feature","properties":{"highway":"cycleway","name":null,"category":"Dedicated cycleway"},"geometry":{"type":"MultiLineString","coordinates":[[[-0.0836767,51.4828041],[-0.0834462,51.4829426]]]}},
{"type":"Feature","properties":{"highway":"cycleway","name":null,"category":"Dedicated cycleway"},"geometry":{"type":"MultiLineString","coordinates":[[[-0.0836767,51.4828041],[-0.0833982,51.4828099]]]}},
{"type":"Feature","properties":{"highway":"cycleway","name":null,"category":"Dedicated cycleway"},"geometry":{"type":"MultiLineString","coordinates":[[[-0.0833053,51.4825304],[-0.0837066,51.4827223],[-0.0837565,51.4827548]]]}},
{"type":"Feature","properties":{"highway":"cycleway","name":null,"category":"Dedicated cycleway"},"geometry":{"type":"MultiLineString","coordinates":[[[-0.0838469,51.4827951],[-0.0837565,51.4827548],[-0.0836767,51.4828041]]]}},
{"type":"Feature","properties":{"highway":"cycleway","name":null,"category":"Dedicated cycleway"},"geometry":{"type":"MultiLineString","coordinates":[[[-0.0854691,51.4937212],[-0.0854811,51.4936945]]]}},
{"type":"Feature","properties":{"highway":"cycleway","name":null,"category":"Dedicated cycleway"},"geometry":{"type":"MultiLineString","coordinates":[[[-0.0847306,51.4939115],[-0.0847179,51.4939007]]]}},
{"type":"Feature","properties":{"highway":"cycleway","name":null,"category":"Dedicated cycleway"},"geometry":{"type":"MultiLineString","coordinates":[[[-0.0843987,51.4936554],[-0.0843951,51.4936521]]]}},
{"type":"Feature","properties":{"highway":"cycle_lane_on_street","name":"Old Kent Road","category":"Cycle lane on street"},"geometry":{"type":"MultiLineString","coordinates":[[[-0.0848574,51.4935598],[-0.0849957,51.4936275]]]}},
{"type":"Feature","properties":{"highway":"cycle_lane_on_street","name":"Old Kent Road","category":"Cycle lane on street"},"geometry":{"type":"MultiLineString","coordinates":[[[-0.0846737,51.4934522],[-0.0848574,51.4935598]]]}},
{"type":"Feature","properties":{"highway":"cycle_lane_on_street","name":"Bricklayers Arms Roundabout","category":"Cycle lane on street"},"geometry":{"type":"MultiLineString","coordinates":[[[-0.0854498,51.4948235],[-0.0853066,51.4947977]]]}},
{"type":"Feature","properties":{"highway":"cycle_lane_on_street","name":"Bricklayers Arms Roundabout","category":"Cycle lane on street"},"geometry":{"type":"MultiLineString","coordinates":[[[-0.0850202,51.4943195],[-0.0850656,51.4942044],[-0.0850807,51.4941667]]]}}
]
}
