{
"type": "FeatureCollection",
"name": "02203cc8a708_foliage",
"crs": { "type": "name", "properties": { "name": "urn:ogc:def:crs:OGC:1.3:CRS84" } },
"features": [
{ "type": "Feature", "properties": { "max_height": 7.5715007781982422, "mean_height": 2.5774190425872803, "std_height": 1.614713191986084, "count_pixels": 43, "percent_cover": 1.0018639328984158, "percent_above_0.1m": 90.697674418604649, "low_level_<0.5": 9.3023255813953494, "mid_level_0.5-2": 2.3255813953488373, "tall_2+": 79.069767441860463 }, "geometry": { "type": "Point", "coordinates": [ 0.071513710226236, 51.506298553326623 ] } },
{ "type": "Feature", "properties": { "max_height": 3.6570382118225098, "mean_height": 1.5942833423614502, "std_height": 1.4485397338867188, "count_pixels": 41, "percent_cover": 0.95526561043802416, "percent_above_0.1m": 56.09756097560976, "low_level_<0.5": 0.0, "mid_level_0.5-2": 2.4390243902439024, "tall_2+": 53.658536585365859 }, "geometry": { "type": "Point", "coordinates": [ 0.071418844017795, 51.506408144951344 ] } },
{ "type": "Feature", "properties": { "max_height": 20.237751007080078, "mean_height": 13.935177803039551, "std_height": 7.4363489151000977, "count_pixels": 41, "percent_cover": 0.95526561043802416, "percent_above_0.1m": 100.0, "low_level_<0.5": 0.0, "mid_level_0.5-2": 0.0, "tall_2+": 100.0 }, "geometry": { "type": "Point", "coordinates": [ 0.071618359612528, 51.506404620509407 ] } },
{ "type": "Feature", "properties": { "max_height": 10.720000267028809, "mean_height": 3.402820348739624, "std_height": 2.4235882759094238, "count_pixels": 43, "percent_cover": 1.0018639328984158, "percent_above_0.1m": 90.697674418604649, "low_level_<0.5": 0.0, "mid_level_0.5-2": 0.0, "tall_2+": 90.697674418604649 }, "geometry": { "type": "Point", "coordinates": [ 0.071523493441253, 51.50651421221805 ] } },
{ "type": "Feature", "properties": { "max_height": 3.2235002517700195, "mean_height": 1.1211527585983276, "std_height": 1.3423688411712646, "count_pixels": 41, "percent_cover": 0.95526561043802416, "percent_above_0.1m": 56.09756097560976, "low_level_<0.5": 9.7560975609756095, "mid_level_0.5-2": 9.7560975609756095, "tall_2+": 31.707317073170731 }, "geometry": { "type": "Point", "coordinates": [ 0.071428626870416, 51.506623803831744 ] } },
{ "type": "Feature", "properties": { "max_height": 23.201751708984375, "mean_height": 14.545445442199707, "std_height": 9.3088092803955078, "count_pixels": 41, "percent_cover": 0.95526561043802416, "percent_above_0.1m": 100.0, "low_level_<0.5": 0.0, "mid_level_0.5-2": 0.0, "tall_2+": 100.0 }, "geometry": { "type": "Point", "coordinates": [ 0.07162814330144, 51.506620279406917 ] } },
{ "type": "Feature", "properties": { "max_height": 22.854499816894531, "mean_height": 18.685279846191406, "std_height": 6.8306136131286621, "count_pixels": 43, "percent_cover": 1.0018639328984158, "percent_above_0.1m": 100.0, "low_level_<0.5": 0.0, "mid_level_0.5-2": 9.3023255813953494, "tall_2+": 90.697674418604649 }, "geometry": { "type": "Point", "coordinates": [ 0.0718276596953, 51.506616754641428 ] } },
{ "type": "Feature", "properties": { "max_height": 2.4352502822875977, "mean_height": 0.59941315650939941, "std_height": 0.82322967052459717, "count_pixels": 43, "percent_cover": 1.0018639328984158, "percent_above_0.1m": 48.837209302325576, "low_level_<0.5": 6.9767441860465116, "mid_level_0.5-2": 27.906976744186046, "tall_2+": 11.627906976744185 }, "geometry": { "type": "Point", "coordinates": [ 0.072027176052007, 51.50661322953529 ] } },
{ "type": "Feature", "properties": { "max_height": 2.5669999122619629, "mean_height": 0.7078549861907959, "std_height": 0.94623458385467529, "count_pixels": 43, "percent_cover": 1.0018639328984158, "percent_above_0.1m": 58.139534883720934, "low_level_<0.5": 13.953488372093023, "mid_level_0.5-2": 16.279069767441861, "tall_2+": 18.604651162790699 }, "geometry": { "type": "Point", "coordinates": [ 0.072226692371547, 51.506609704088483 ] } },
{ "type": "Feature", "properties": { "max_height": 22.918502807617188, "mean_height": 3.1580002307891846, "std_height": 5.7880821228027344, "count_pixels": 38, "percent_cover": 0.88536812674743715, "percent_above_0.1m": 63.157894736842103, "low_level_<0.5": 2.6315789473684208, "mid_level_0.5-2": 18.421052631578945, "tall_2+": 36.84210526315789 }, "geometry": { "type": "Point", "coordinates": [ 0.072426208653919, 51.506606178301006 ] } },
{ "type": "Feature", "properties": { "max_height": 3.2922501564025879, "mean_height": 2.4774074554443359, "std_height": 0.94364428520202637, "count_pixels": 43, "percent_cover": 1.0018639328984158, "percent_above_0.1m": 93.023255813953483, "low_level_<0.5": 2.3255813953488373, "mid_level_0.5-2": 11.627906976744185, "tall_2+": 79.069767441860463 }, "geometry": { "type": "Point", "coordinates": [ 0.071533276767766, 51.506729871104547 ] } },
{ "type": "Feature", "properties": { "max_height": 23.053501129150391, "mean_height": 9.0497751235961914, "std_height": 9.0638608932495117, "count_pixels": 41, "percent_cover": 0.95526561043802416, "percent_above_0.1m": 100.0, "low_level_<0.5": 0.0, "mid_level_0.5-2": 7.3170731707317067, "tall_2+": 92.682926829268297 }, "geometry": { "type": "Point", "coordinates": [ 0.071932310391786, 51.506722821590692 ] } },
{ "type": "Feature", "properties": { "max_height": 3.0180001258850098, "mean_height": 2.4090309143066406, "std_height": 0.2587411105632782, "count_pixels": 41, "percent_cover": 0.95526561043802416, "percent_above_0.1m": 100.0, "low_level_<0.5": 0.0, "mid_level_0.5-2": 2.4390243902439024, "tall_2+": 97.560975609756099 }, "geometry": { "type": "Point", "coordinates": [ 0.072131827148058, 51.506719296322792 ] } },
{ "type": "Feature", "properties": { "max_height": 17.240501403808594, "mean_height": 6.548159122467041, "std_height": 5.8184323310852051, "count_pixels": 41, "percent_cover": 0.95526561043802416, "percent_above_0.1m": 100.0, "low_level_<0.5": 0.0, "mid_level_0.5-2": 0.0, "tall_2+": 100.0 }, "geometry": { "type": "Point", "coordinates": [ 0.072331343867158, 51.506715770714209 ] } },
{ "type": "Feature", "properties": { "max_height": 17.158252716064453, "mean_height": 8.3229885101318359, "std_height": 7.1223320960998535, "count_pixels": 41, "percent_cover": 0.95526561043802416, "percent_above_0.1m": 78.048780487804876, "low_level_<0.5": 0.0, "mid_level_0.5-2": 9.7560975609756095, "tall_2+": 68.292682926829272 }, "geometry": { "type": "Point", "coordinates": [ 0.072530860549097, 51.506712244764969 ] } },
{ "type": "Feature", "properties": { "max_height": 3.8647506237030029, "mean_height": 2.0752687454223633, "std_height": 1.5377349853515625, "count_pixels": 41, "percent_cover": 0.95526561043802416, "percent_above_0.1m": 78.048780487804876, "low_level_<0.5": 7.3170731707317067, "mid_level_0.5-2": 14.634146341463413, "tall_2+": 56.09756097560976 }, "geometry": { "type": "Point", "coordinates": [ 0.071438409834535, 51.506839462707184 ] } },
{ "type": "Feature", "properties": { "max_height": 20.904500961303711, "mean_height": 5.1179699897766113, "std_height": 4.6246962547302246, "count_pixels": 41, "percent_cover": 0.95526561043802416, "percent_above_0.1m": 100.0, "low_level_<0.5": 0.0, "mid_level_0.5-2": 0.0, "tall_2+": 100.0 }, "geometry": { "type": "Point", "coordinates": [ 0.071637927101853, 51.506835938299496 ] } },
{ "type": "Feature", "properties": { "max_height": 22.991001129150391, "mean_height": 7.3581748008728027, "std_height": 6.4411683082580566, "count_pixels": 43, "percent_cover": 1.0018639328984158, "percent_above_0.1m": 100.0, "low_level_<0.5": 0.0, "mid_level_0.5-2": 0.0, "tall_2+": 100.0 }, "geometry": { "type": "Point", "coordinates": [ 0.07183744433201, 51.506832413551159 ] } },
{ "type": "Feature", "properties": { "max_height": 3.6005001068115234, "mean_height": 2.6706750392913818, "std_height": 0.31681263446807861, "count_pixels": 43, "percent_cover": 1.0018639328984158, "percent_above_0.1m": 100.0, "low_level_<0.5": 0.0, "mid_level_0.5-2": 0.0, "tall_2+": 100.0 }, "geometry": { "type": "Point", "coordinates": [ 0.072036961525013, 51.506828888462145 ] } },
{ "type": "Feature", "properties": { "max_height": 3.7312507629394531, "mean_height": 2.9465527534484863, "std_height": 0.30602288246154785, "count_pixels": 43, "percent_cover": 1.0018639328984158, "percent_above_0.1m": 100.0, "low_level_<0.5": 0.0, "mid_level_0.5-2": 0.0, "tall_2+": 100.0 }, "geometry": { "type": "Point", "coordinates": [ 0.072236478680846, 51.506825363032476 ] } },
{ "type": "Feature", "properties": { "max_height": 17.392501831054688, "mean_height": 16.535223007202148, "std_height": 1.6368005275726318, "count_pixels": 38, "percent_cover": 0.88536812674743715, "percent_above_0.1m": 100.0, "low_level_<0.5": 0.0, "mid_level_0.5-2": 0.0, "tall_2+": 100.0 }, "geometry": { "type": "Point", "coordinates": [ 0.072435995799514, 51.506821837262109 ] } },
{ "type": "Feature", "properties": { "max_height": 5.6894998550415039, "mean_height": 0.33211064338684082, "std_height": 1.0749304294586182, "count_pixels": 43, "percent_cover": 1.0018639328984158, "percent_above_0.1m": 13.953488372093023, "low_level_<0.5": 4.6511627906976747, "mid_level_0.5-2": 2.3255813953488373, "tall_2+": 6.9767441860465116 }, "geometry": { "type": "Point", "coordinates": [ 0.071343542501734, 51.506949054214871 ] } },
{ "type": "Feature", "properties": { "max_height": 22.637750625610352, "mean_height": 4.7248435020446777, "std_height": 4.0934047698974609, "count_pixels": 43, "percent_cover": 1.0018639328984158, "percent_above_0.1m": 100.0, "low_level_<0.5": 0.0, "mid_level_0.5-2": 0.0, "tall_2+": 100.0 }, "geometry": { "type": "Point", "coordinates": [ 0.071543060205788, 51.506945529986083 ] } },
{ "type": "Feature", "properties": { "max_height": 4.2260007858276367, "mean_height": 3.3643360137939453, "std_height": 0.279176265001297, "count_pixels": 41, "percent_cover": 0.95526561043802416, "percent_above_0.1m": 100.0, "low_level_<0.5": 0.0, "mid_level_0.5-2": 0.0, "tall_2+": 100.0 }, "geometry": { "type": "Point", "coordinates": [ 0.071742577872674, 51.506942005416633 ] } },
{ "type": "Feature", "properties": { "max_height": 3.96875, "mean_height": 3.1267812252044678, "std_height": 0.26399606466293335, "count_pixels": 41, "percent_cover": 0.95526561043802416, "percent_above_0.1m": 100.0, "low_level_<0.5": 0.0, "mid_level_0.5-2": 0.0, "tall_2+": 100.0 }, "geometry": { "type": "Point", "coordinates": [ 0.071942095502407, 51.506938480506534 ] } },
{ "type": "Feature", "properties": { "max_height": 3.6855006217956543, "mean_height": 2.9542016983032227, "std_height": 0.2874448299407959, "count_pixels": 41, "percent_cover": 0.95526561043802416, "percent_above_0.1m": 100.0, "low_level_<0.5": 0.0, "mid_level_0.5-2": 0.0, "tall_2+": 100.0 }, "geometry": { "type": "Point", "coordinates": [ 0.072141613094975, 51.506934955255751 ] } },
{ "type": "Feature", "properties": { "max_height": 21.377752304077148, "mean_height": 8.7652931213378906, "std_height": 7.0344905853271484, "count_pixels": 41, "percent_cover": 0.95526561043802416, "percent_above_0.1m": 100.0, "low_level_<0.5": 0.0, "mid_level_0.5-2": 0.0, "tall_2+": 100.0 }, "geometry": { "type": "Point", "coordinates": [ 0.072341130650378, 51.506931429664299 ] } },
{ "type": "Feature", "properties": { "max_height": 19.755500793457031, "mean_height": 3.4516408443450928, "std_height": 5.5541176795959473, "count_pixels": 41, "percent_cover": 0.95526561043802416, "percent_above_0.1m": 65.853658536585371, "low_level_<0.5": 14.634146341463413, "mid_level_0.5-2": 12.195121951219512, "tall_2+": 31.707317073170731 }, "geometry": { "type": "Point", "coordinates": [ 0.07144819291015, 51.5070551215777 ] } },
{ "type": "Feature", "properties": { "max_height": 23.732751846313477, "mean_height": 5.4542198181152344, "std_height": 5.503537654876709, "count_pixels": 41, "percent_cover": 0.95526561043802416, "percent_above_0.1m": 100.0, "low_level_<0.5": 0.0, "mid_level_0.5-2": 0.0, "tall_2+": 100.0 }, "geometry": { "type": "Point", "coordinates": [ 0.071647711013771, 51.50705159718715 ] } },
{ "type": "Feature", "properties": { "max_height": 23.670501708984375, "mean_height": 12.007018089294434, "std_height": 8.9677953720092773, "count_pixels": 43, "percent_cover": 1.0018639328984158, "percent_above_0.1m": 100.0, "low_level_<0.5": 0.0, "mid_level_0.5-2": 0.0, "tall_2+": 100.0 }, "geometry": { "type": "Point", "coordinates": [ 0.071847229080241, 51.507048072455937 ] } },
{ "type": "Feature", "properties": { "max_height": 23.58900260925293, "mean_height": 12.315354347229004, "std_height": 9.1156930923461914, "count_pixels": 43, "percent_cover": 1.0018639328984158, "percent_above_0.1m": 100.0, "low_level_<0.5": 0.0, "mid_level_0.5-2": 0.0, "tall_2+": 100.0 }, "geometry": { "type": "Point", "coordinates": [ 0.072046747109543, 51.507044547384069 ] } },
{ "type": "Feature", "properties": { "max_height": 23.371501922607422, "mean_height": 10.357378005981445, "std_height": 8.7747802734375, "count_pixels": 43, "percent_cover": 1.0018639328984158, "percent_above_0.1m": 100.0, "low_level_<0.5": 0.0, "mid_level_0.5-2": 0.0, "tall_2+": 100.0 }, "geometry": { "type": "Point", "coordinates": [ 0.072246265101686, 51.507041021971503 ] } },
{ "type": "Feature", "properties": { "max_height": 24.310251235961914, "mean_height": 20.81804084777832, "std_height": 5.994598388671875, "count_pixels": 38, "percent_cover": 0.88536812674743715, "percent_above_0.1m": 100.0, "low_level_<0.5": 0.0, "mid_level_0.5-2": 0.0, "tall_2+": 100.0 }, "geometry": { "type": "Point", "coordinates": [ 0.072445783056659, 51.507037496218295 ] } },
{ "type": "Feature", "properties": { "max_height": 16.811000823974609, "mean_height": 3.8364541530609131, "std_height": 4.7479825019836426, "count_pixels": 43, "percent_cover": 1.0018639328984158, "percent_above_0.1m": 76.744186046511629, "low_level_<0.5": 2.3255813953488373, "mid_level_0.5-2": 23.255813953488371, "tall_2+": 51.162790697674424 }, "geometry": { "type": "Point", "coordinates": [ 0.071552843755303, 51.507161188862696 ] } },
{ "type": "Feature", "properties": { "max_height": 23.712751388549805, "mean_height": 18.752975463867188, "std_height": 7.2405743598937988, "count_pixels": 41, "percent_cover": 0.95526561043802416, "percent_above_0.1m": 100.0, "low_level_<0.5": 0.0, "mid_level_0.5-2": 0.0, "tall_2+": 100.0 }, "geometry": { "type": "Point", "coordinates": [ 0.071752362258506, 51.507157664310391 ] } },
{ "type": "Feature", "properties": { "max_height": 19.524751663208008, "mean_height": 2.3472747802734375, "std_height": 4.3757963180541992, "count_pixels": 41, "percent_cover": 0.95526561043802416, "percent_above_0.1m": 60.975609756097562, "low_level_<0.5": 9.7560975609756095, "mid_level_0.5-2": 12.195121951219512, "tall_2+": 34.146341463414636 }, "geometry": { "type": "Point", "coordinates": [ 0.071657495037205, 51.507267256069881 ] } }
]
}
