{
"type": "FeatureCollection",
"name": "2228180643b6_visibility",
"crs": { "type": "name", "properties": { "name": "urn:ogc:def:crs:OGC:1.3:CRS84" } },
"features": [
{ "type": "Feature", "properties": { "visible_points": 0, "total_points": 46, "visibility_pct": 0.0 }, "geometry": { "type": "Point", "coordinates": [ 0.030455521669072, 51.525692534744024 ] } },
{ "type": "Feature", "properties": { "visible_points": 10, "total_points": 53, "visibility_pct": 18.867924528301888 }, "geometry": { "type": "Point", "coordinates": [ 0.030655123092855, 51.525689074567858 ] } },
{ "type": "Feature", "properties": { "visible_points": 8, "total_points": 59, "visibility_pct": 13.559322033898304 }, "geometry": { "type": "Point", "coordinates": [ 0.030854724476807, 51.525685614052108 ] } },
{ "type": "Feature", "properties": { "visible_points": 0, "total_points": 46, "visibility_pct": 0.0 }, "geometry": { "type": "Point", "coordinates": [ 0.030360516888817, 51.525802095467078 ] } },
{ "type": "Feature", "properties": { "visible_points": 13, "total_points": 53, "visibility_pct": 24.528301886792452 }, "geometry": { "type": "Point", "coordinates": [ 0.030560118803922, 51.525798635448943 ] } },
{ "type": "Feature", "properties": { "visible_points": 14, "total_points": 59, "visibility_pct": 23.728813559322035 }, "geometry": { "type": "Point", "coordinates": [ 0.030759720679189, 51.525795175091247 ] } },
{ "type": "Feature", "properties": { "visible_points": 13, "total_points": 65, "visibility_pct": 20.0 }, "geometry": { "type": "Point", "coordinates": [ 0.030959322514609, 51.525791714393982 ] } },
{ "type": "Feature", "properties": { "visible_points": 11, "total_points": 67, "visibility_pct": 16.417910447761194 }, "geometry": { "type": "Point", "coordinates": [ 0.031158924310186, 51.525788253357149 ] } },
{ "type": "Feature", "properties": { "visible_points": 10, "total_points": 61, "visibility_pct": 16.393442622950818 }, "geometry": { "type": "Point", "coordinates": [ 0.031358526065909, 51.525784791980747 ] } },
{ "type": "Feature", "properties": { "visible_points": 0, "total_points": 44, "visibility_pct": 0.0 }, "geometry": { "type": "Point", "coordinates": [ 0.030265511657097, 51.525911656114737 ] } },
{ "type": "Feature", "properties": { "visible_points": 2, "total_points": 51, "visibility_pct": 3.9215686274509802 }, "geometry": { "type": "Point", "coordinates": [ 0.030465114063519, 51.525908196254655 ] } },
{ "type": "Feature", "properties": { "visible_points": 4, "total_points": 58, "visibility_pct": 6.8965517241379306 }, "geometry": { "type": "Point", "coordinates": [ 0.030664716430107, 51.525904736055011 ] } },
{ "type": "Feature", "properties": { "visible_points": 15, "total_points": 64, "visibility_pct": 23.4375 }, "geometry": { "type": "Point", "coordinates": [ 0.030864318756853, 51.525901275515778 ] } },
{ "type": "Feature", "properties": { "visible_points": 16, "total_points": 67, "visibility_pct": 23.880597014925371 }, "geometry": { "type": "Point", "coordinates": [ 0.031063921043752, 51.525897814636998 ] } },
{ "type": "Feature", "properties": { "visible_points": 15, "total_points": 63, "visibility_pct": 23.809523809523807 }, "geometry": { "type": "Point", "coordinates": [ 0.031263523290802, 51.525894353418643 ] } },
{ "type": "Feature", "properties": { "visible_points": 12, "total_points": 57, "visibility_pct": 21.052631578947366 }, "geometry": { "type": "Point", "coordinates": [ 0.031463125498004, 51.525890891860712 ] } },
{ "type": "Feature", "properties": { "visible_points": 10, "total_points": 50, "visibility_pct": 20.0 }, "geometry": { "type": "Point", "coordinates": [ 0.031662727740697, 51.525887430016283 ] } },
{ "type": "Feature", "properties": { "visible_points": 0, "total_points": 62, "visibility_pct": 0.0 }, "geometry": { "type": "Point", "coordinates": [ 0.030769314547629, 51.526010836562207 ] } },
{ "type": "Feature", "properties": { "visible_points": 0, "total_points": 67, "visibility_pct": 0.0 }, "geometry": { "type": "Point", "coordinates": [ 0.030968917325852, 51.526007375841452 ] } },
{ "type": "Feature", "properties": { "visible_points": 3, "total_points": 64, "visibility_pct": 4.6875 }, "geometry": { "type": "Point", "coordinates": [ 0.031168520064235, 51.526003914781164 ] } },
{ "type": "Feature", "properties": { "visible_points": 11, "total_points": 58, "visibility_pct": 18.96551724137931 }, "geometry": { "type": "Point", "coordinates": [ 0.031368122762763, 51.526000453381279 ] } },
{ "type": "Feature", "properties": { "visible_points": 9, "total_points": 52, "visibility_pct": 17.307692307692307 }, "geometry": { "type": "Point", "coordinates": [ 0.031567725421434, 51.525996991641833 ] } },
{ "type": "Feature", "properties": { "visible_points": 1, "total_points": 46, "visibility_pct": 2.1739130434782608 }, "geometry": { "type": "Point", "coordinates": [ 0.031767328410356, 51.525993529968048 ] } },
{ "type": "Feature", "properties": { "visible_points": 0, "total_points": 58, "visibility_pct": 0.0 }, "geometry": { "type": "Point", "coordinates": [ 0.03127311957606, 51.526110014826457 ] } },
{ "type": "Feature", "properties": { "visible_points": 6, "total_points": 53, "visibility_pct": 11.320754716981133 }, "geometry": { "type": "Point", "coordinates": [ 0.03147272272607, 51.526106553245057 ] } },
{ "type": "Feature", "properties": { "visible_points": 3, "total_points": 47, "visibility_pct": 6.3829787234042552 }, "geometry": { "type": "Point", "coordinates": [ 0.031672325934862, 51.526103091394553 ] } },
{ "type": "Feature", "properties": { "visible_points": 4, "total_points": 52, "visibility_pct": 7.6923076923076925 }, "geometry": { "type": "Point", "coordinates": [ 0.031377719579232, 51.526216114772865 ] } },
{ "type": "Feature", "properties": { "visible_points": 2, "total_points": 47, "visibility_pct": 4.2553191489361701 }, "geometry": { "type": "Point", "coordinates": [ 0.031577323180722, 51.526212653009949 ] } }
]
}
