{
"type": "FeatureCollection",
"name": "3dd75fb95077_foliage",
"crs": { "type": "name", "properties": { "name": "urn:ogc:def:crs:OGC:1.3:CRS84" } },
"features": [
{ "type": "Feature", "properties": { "max_height": 0.029750347137451172, "mean_height": 0.00090133311459794641, "std_height": 0.0046765119768679142, "count_pixels": 43, "percent_cover": 1.4098360655737705, "percent_above_0.1m": 0.0, "low_level_<0.5": 0.0, "mid_level_0.5-2": 0.0, "tall_2+": 0.0 }, "geometry": { "type": "Point", "coordinates": [ -0.006928331459415, 51.531489277385781 ] } },
{ "type": "Feature", "properties": { "max_height": 0.78050017356872559, "mean_height": 0.03741295263171196, "std_height": 0.14417900145053864, "count_pixels": 43, "percent_cover": 1.4098360655737705, "percent_above_0.1m": 9.3023255813953494, "low_level_<0.5": 2.3255813953488373, "mid_level_0.5-2": 4.6511627906976747, "tall_2+": 0.0 }, "geometry": { "type": "Point", "coordinates": [ -0.006728696632327, 51.53148588654188 ] } },
{ "type": "Feature", "properties": { "max_height": 2.599750280380249, "mean_height": 0.27463430166244507, "std_height": 0.53481078147888184, "count_pixels": 41, "percent_cover": 1.3442622950819672, "percent_above_0.1m": 34.146341463414636, "low_level_<0.5": 12.195121951219512, "mid_level_0.5-2": 17.073170731707318, "tall_2+": 2.4390243902439024 }, "geometry": { "type": "Point", "coordinates": [ -0.006529061843379, 51.531482495358397 ] } },
{ "type": "Feature", "properties": { "max_height": 0.93800044059753418, "mean_height": 0.094981871545314789, "std_height": 0.19347919523715973, "count_pixels": 41, "percent_cover": 1.3442622950819672, "percent_above_0.1m": 24.390243902439025, "low_level_<0.5": 19.512195121951219, "mid_level_0.5-2": 4.8780487804878048, "tall_2+": 0.0 }, "geometry": { "type": "Point", "coordinates": [ -0.007023438946804, 51.531598805209555 ] } },
{ "type": "Feature", "properties": { "max_height": 0.0037503242492675781, "mean_height": 0.00020748231327161193, "std_height": 0.00072608119808137417, "count_pixels": 41, "percent_cover": 1.3442622950819672, "percent_above_0.1m": 0.0, "low_level_<0.5": 0.0, "mid_level_0.5-2": 0.0, "tall_2+": 0.0 }, "geometry": { "type": "Point", "coordinates": [ -0.006823803644665, 51.531595414522826 ] } },
{ "type": "Feature", "properties": { "max_height": 1.4090001583099365, "mean_height": 0.034323353320360184, "std_height": 0.21735717356204987, "count_pixels": 41, "percent_cover": 1.3442622950819672, "percent_above_0.1m": 2.4390243902439024, "low_level_<0.5": 0.0, "mid_level_0.5-2": 2.4390243902439024, "tall_2+": 0.0 }, "geometry": { "type": "Point", "coordinates": [ -0.006624168380664, 51.531592023496508 ] } },
{ "type": "Feature", "properties": { "max_height": 1.6225004196166992, "mean_height": 0.072401292622089386, "std_height": 0.27898341417312622, "count_pixels": 43, "percent_cover": 1.4098360655737705, "percent_above_0.1m": 9.3023255813953494, "low_level_<0.5": 0.0, "mid_level_0.5-2": 6.9767441860465116, "tall_2+": 0.0 }, "geometry": { "type": "Point", "coordinates": [ -0.006424533154811, 51.5315886321306 ] } },
{ "type": "Feature", "properties": { "max_height": 1.2855005264282227, "mean_height": 0.24844205379486084, "std_height": 0.33963745832443237, "count_pixels": 43, "percent_cover": 1.4098360655737705, "percent_above_0.1m": 44.186046511627907, "low_level_<0.5": 23.255813953488371, "mid_level_0.5-2": 18.604651162790699, "tall_2+": 0.0 }, "geometry": { "type": "Point", "coordinates": [ -0.00711854687109, 51.531708332958821 ] } },
{ "type": "Feature", "properties": { "max_height": 1.2547502517700195, "mean_height": 0.086500175297260284, "std_height": 0.29110372066497803, "count_pixels": 43, "percent_cover": 1.4098360655737705, "percent_above_0.1m": 9.3023255813953494, "low_level_<0.5": 2.3255813953488373, "mid_level_0.5-2": 6.9767441860465116, "tall_2+": 0.0 }, "geometry": { "type": "Point", "coordinates": [ -0.006918911093901, 51.531704942429243 ] } },
{ "type": "Feature", "properties": { "max_height": 0.0020000934600830078, "mean_height": 0.00010480437049409375, "std_height": 0.00055573100689798594, "count_pixels": 43, "percent_cover": 1.4098360655737705, "percent_above_0.1m": 0.0, "low_level_<0.5": 0.0, "mid_level_0.5-2": 0.0, "tall_2+": 0.0 }, "geometry": { "type": "Point", "coordinates": [ -0.006719275354856, 51.531701551560062 ] } },
{ "type": "Feature", "properties": { "max_height": 1.1697499752044678, "mean_height": 0.096884347498416901, "std_height": 0.27461788058280945, "count_pixels": 41, "percent_cover": 1.3442622950819672, "percent_above_0.1m": 14.634146341463413, "low_level_<0.5": 4.8780487804878048, "mid_level_0.5-2": 7.3170731707317067, "tall_2+": 0.0 }, "geometry": { "type": "Point", "coordinates": [ -0.006519639653942, 51.531698160351333 ] } },
{ "type": "Feature", "properties": { "max_height": 0.9557502269744873, "mean_height": 0.028055086731910706, "std_height": 0.14920268952846527, "count_pixels": 41, "percent_cover": 1.3442622950819672, "percent_above_0.1m": 4.8780487804878048, "low_level_<0.5": 2.4390243902439024, "mid_level_0.5-2": 2.4390243902439024, "tall_2+": 0.0 }, "geometry": { "type": "Point", "coordinates": [ -0.007014018980045, 51.531814470261111 ] } },
{ "type": "Feature", "properties": { "max_height": 0.00075006484985351562, "mean_height": -0.00010349692456657067, "std_height": 0.0004999111988581717, "count_pixels": 41, "percent_cover": 1.3442622950819672, "percent_above_0.1m": 0.0, "low_level_<0.5": 0.0, "mid_level_0.5-2": 0.0, "tall_2+": 0.0 }, "geometry": { "type": "Point", "coordinates": [ -0.006814382765942, 51.531811079549101 ] } },
{ "type": "Feature", "properties": { "max_height": 0.84850025177001953, "mean_height": 0.081536777317523956, "std_height": 0.20398660004138947, "count_pixels": 41, "percent_cover": 1.3442622950819672, "percent_above_0.1m": 17.073170731707318, "low_level_<0.5": 7.3170731707317067, "mid_level_0.5-2": 7.3170731707317067, "tall_2+": 0.0 }, "geometry": { "type": "Point", "coordinates": [ -0.00661474658998, 51.531807688497523 ] } },
{ "type": "Feature", "properties": { "max_height": 1.0679998397827148, "mean_height": 0.042546693235635757, "std_height": 0.1774599701166153, "count_pixels": 43, "percent_cover": 1.4098360655737705, "percent_above_0.1m": 9.3023255813953494, "low_level_<0.5": 0.0, "mid_level_0.5-2": 4.6511627906976747, "tall_2+": 0.0 }, "geometry": { "type": "Point", "coordinates": [ -0.007109127303095, 51.531923998018435 ] } },
{ "type": "Feature", "properties": { "max_height": 0.0012502670288085938, "mean_height": 5.8323839766671881e-05, "std_height": 0.00051948480540886521, "count_pixels": 43, "percent_cover": 1.4098360655737705, "percent_above_0.1m": 0.0, "low_level_<0.5": 0.0, "mid_level_0.5-2": 0.0, "tall_2+": 0.0 }, "geometry": { "type": "Point", "coordinates": [ -0.006909490613937, 51.531920607463597 ] } },
{ "type": "Feature", "properties": { "max_height": 1.0757501125335693, "mean_height": 0.10547112673521042, "std_height": 0.22781620919704437, "count_pixels": 43, "percent_cover": 1.4098360655737705, "percent_above_0.1m": 23.255813953488371, "low_level_<0.5": 13.953488372093023, "mid_level_0.5-2": 6.9767441860465116, "tall_2+": 0.0 }, "geometry": { "type": "Point", "coordinates": [ -0.006709853962917, 51.531917216569184 ] } },
{ "type": "Feature", "properties": { "max_height": 3.8970005512237549, "mean_height": 0.26600626111030579, "std_height": 0.62920093536376953, "count_pixels": 41, "percent_cover": 1.3442622950819672, "percent_above_0.1m": 41.463414634146339, "low_level_<0.5": 17.073170731707318, "mid_level_0.5-2": 17.073170731707318, "tall_2+": 2.4390243902439024 }, "geometry": { "type": "Point", "coordinates": [ -0.00720423606306, 51.532033525701223 ] } },
{ "type": "Feature", "properties": { "max_height": 0.0017504692077636719, "mean_height": -0.00021321598615031689, "std_height": 0.00083839235594496131, "count_pixels": 41, "percent_cover": 1.3442622950819672, "percent_above_0.1m": 0.0, "low_level_<0.5": 0.0, "mid_level_0.5-2": 0.0, "tall_2+": 0.0 }, "geometry": { "type": "Point", "coordinates": [ -0.007004598898841, 51.532030135303543 ] } },
{ "type": "Feature", "properties": { "max_height": 1.4587504863739014, "mean_height": 0.19158551096916199, "std_height": 0.33347287774085999, "count_pixels": 41, "percent_cover": 1.3442622950819672, "percent_above_0.1m": 34.146341463414636, "low_level_<0.5": 14.634146341463413, "mid_level_0.5-2": 14.634146341463413, "tall_2+": 0.0 }, "geometry": { "type": "Point", "coordinates": [ -0.00680496177276, 51.532026744566274 ] } },
{ "type": "Feature", "properties": { "max_height": 1.0137500762939453, "mean_height": 0.22190806269645691, "std_height": 0.30164754390716553, "count_pixels": 38, "percent_cover": 1.2459016393442623, "percent_above_0.1m": 47.368421052631575, "low_level_<0.5": 26.315789473684209, "mid_level_0.5-2": 18.421052631578945, "tall_2+": 0.0 }, "geometry": { "type": "Point", "coordinates": [ -0.007299345259939, 51.532143053309454 ] } },
{ "type": "Feature", "properties": { "max_height": 5.6195001602172852, "mean_height": 1.4460060596466064, "std_height": 1.8160073757171631, "count_pixels": 43, "percent_cover": 1.4098360655737705, "percent_above_0.1m": 55.813953488372093, "low_level_<0.5": 6.9767441860465116, "mid_level_0.5-2": 11.627906976744185, "tall_2+": 32.558139534883722 }, "geometry": { "type": "Point", "coordinates": [ -0.007099707620659, 51.532139663068953 ] } },
{ "type": "Feature", "properties": { "max_height": 6.4795007705688477, "mean_height": 0.66090136766433716, "std_height": 1.2280302047729492, "count_pixels": 43, "percent_cover": 1.4098360655737705, "percent_above_0.1m": 65.116279069767444, "low_level_<0.5": 30.232558139534881, "mid_level_0.5-2": 20.930232558139537, "tall_2+": 9.3023255813953494 }, "geometry": { "type": "Point", "coordinates": [ -0.006900070019516, 51.532136272488849 ] } }
]
}
