{
"type": "FeatureCollection",
"name": "88a1d7a64044_foliage",
"crs": { "type": "name", "properties": { "name": "urn:ogc:def:crs:OGC:1.3:CRS84" } },
"features": [
{ "type": "Feature", "properties": { "max_height": 1.2592501640319824, "mean_height": 0.10583934187889099, "std_height": 0.299550861120224, "count_pixels": 42, "percent_cover": 1.0758196721311475, "percent_above_0.1m": 16.666666666666664, "low_level_<0.5": 2.3809523809523809, "mid_level_0.5-2": 9.5238095238095237, "tall_2+": 0.0 }, "geometry": { "type": "Point", "coordinates": [ 0.059141644197694, 51.500373892902068 ] } },
{ "type": "Feature", "properties": { "max_height": 10.928999900817871, "mean_height": 1.7972917556762695, "std_height": 2.8115520477294922, "count_pixels": 42, "percent_cover": 1.0758196721311475, "percent_above_0.1m": 54.761904761904766, "low_level_<0.5": 11.904761904761903, "mid_level_0.5-2": 14.285714285714285, "tall_2+": 28.571428571428569 }, "geometry": { "type": "Point", "coordinates": [ 0.059341135330866, 51.500370389530531 ] } },
{ "type": "Feature", "properties": { "max_height": 9.8470001220703125, "mean_height": 2.5798234939575195, "std_height": 3.0072002410888672, "count_pixels": 41, "percent_cover": 1.0502049180327868, "percent_above_0.1m": 70.731707317073173, "low_level_<0.5": 12.195121951219512, "mid_level_0.5-2": 14.634146341463413, "tall_2+": 43.902439024390247 }, "geometry": { "type": "Point", "coordinates": [ 0.059540626426417, 51.50036688581924 ] } },
{ "type": "Feature", "properties": { "max_height": 7.5580005645751953, "mean_height": 1.9962739944458008, "std_height": 2.1501739025115967, "count_pixels": 42, "percent_cover": 1.0758196721311475, "percent_above_0.1m": 80.952380952380949, "low_level_<0.5": 19.047619047619047, "mid_level_0.5-2": 26.190476190476193, "tall_2+": 33.333333333333329 }, "geometry": { "type": "Point", "coordinates": [ 0.05974011748435, 51.500363381768217 ] } },
{ "type": "Feature", "properties": { "max_height": 12.794251441955566, "mean_height": 8.3492984771728516, "std_height": 4.3387966156005859, "count_pixels": 42, "percent_cover": 1.0758196721311475, "percent_above_0.1m": 95.238095238095227, "low_level_<0.5": 0.0, "mid_level_0.5-2": 11.904761904761903, "tall_2+": 83.333333333333343 }, "geometry": { "type": "Point", "coordinates": [ 0.059939608504663, 51.500359877377427 ] } },
{ "type": "Feature", "properties": { "max_height": 0.4225001335144043, "mean_height": 0.01975008100271225, "std_height": 0.080016784369945526, "count_pixels": 41, "percent_cover": 1.0502049180327868, "percent_above_0.1m": 7.3170731707317067, "low_level_<0.5": 7.3170731707317067, "mid_level_0.5-2": 0.0, "tall_2+": 0.0 }, "geometry": { "type": "Point", "coordinates": [ 0.058847270309274, 51.500486976348526 ] } },
{ "type": "Feature", "properties": { "max_height": 0.86400008201599121, "mean_height": 0.025946503505110741, "std_height": 0.13412810862064362, "count_pixels": 42, "percent_cover": 1.0758196721311475, "percent_above_0.1m": 4.7619047619047619, "low_level_<0.5": 2.3809523809523809, "mid_level_0.5-2": 2.3809523809523809, "tall_2+": 0.0 }, "geometry": { "type": "Point", "coordinates": [ 0.059046761925775, 51.500483473475995 ] } },
{ "type": "Feature", "properties": { "max_height": 1.0087502002716064, "mean_height": 0.035511989146471024, "std_height": 0.15715867280960083, "count_pixels": 42, "percent_cover": 1.0758196721311475, "percent_above_0.1m": 4.7619047619047619, "low_level_<0.5": 2.3809523809523809, "mid_level_0.5-2": 2.3809523809523809, "tall_2+": 0.0 }, "geometry": { "type": "Point", "coordinates": [ 0.059246253504527, 51.500479970263946 ] } },
{ "type": "Feature", "properties": { "max_height": 7.1972508430480957, "mean_height": 0.29342874884605408, "std_height": 1.262906551361084, "count_pixels": 42, "percent_cover": 1.0758196721311475, "percent_above_0.1m": 9.5238095238095237, "low_level_<0.5": 2.3809523809523809, "mid_level_0.5-2": 2.3809523809523809, "tall_2+": 4.7619047619047619 }, "geometry": { "type": "Point", "coordinates": [ 0.059445745047984, 51.500476466713849 ] } },
{ "type": "Feature", "properties": { "max_height": 9.058751106262207, "mean_height": 2.4135417938232422, "std_height": 2.7070531845092773, "count_pixels": 42, "percent_cover": 1.0758196721311475, "percent_above_0.1m": 61.904761904761905, "low_level_<0.5": 0.0, "mid_level_0.5-2": 16.666666666666664, "tall_2+": 45.238095238095241 }, "geometry": { "type": "Point", "coordinates": [ 0.059645236553052, 51.500472962824944 ] } },
{ "type": "Feature", "properties": { "max_height": 3.6877501010894775, "mean_height": 0.79833561182022095, "std_height": 1.0251274108886719, "count_pixels": 38, "percent_cover": 0.97336065573770492, "percent_above_0.1m": 60.526315789473685, "low_level_<0.5": 18.421052631578945, "mid_level_0.5-2": 31.578947368421051, "tall_2+": 10.526315789473683 }, "geometry": { "type": "Point", "coordinates": [ 0.059844728020427, 51.500469458596278 ] } },
{ "type": "Feature", "properties": { "max_height": 0.60900008678436279, "mean_height": 0.029637018218636513, "std_height": 0.12015213072299957, "count_pixels": 42, "percent_cover": 1.0758196721311475, "percent_above_0.1m": 7.1428571428571423, "low_level_<0.5": 0.0, "mid_level_0.5-2": 4.7619047619047619, "tall_2+": 0.0 }, "geometry": { "type": "Point", "coordinates": [ 0.05895187934726, 51.500593054167886 ] } },
{ "type": "Feature", "properties": { "max_height": 0.1800001859664917, "mean_height": 0.012875063344836235, "std_height": 0.033881913870573044, "count_pixels": 42, "percent_cover": 1.0758196721311475, "percent_above_0.1m": 2.3809523809523809, "low_level_<0.5": 2.3809523809523809, "mid_level_0.5-2": 0.0, "tall_2+": 0.0 }, "geometry": { "type": "Point", "coordinates": [ 0.05915137138394, 51.500589551115453 ] } },
{ "type": "Feature", "properties": { "max_height": 2.0590000152587891, "mean_height": 0.18664295971393585, "std_height": 0.49595913290977478, "count_pixels": 42, "percent_cover": 1.0758196721311475, "percent_above_0.1m": 14.285714285714285, "low_level_<0.5": 0.0, "mid_level_0.5-2": 11.904761904761903, "tall_2+": 2.3809523809523809 }, "geometry": { "type": "Point", "coordinates": [ 0.059350863381766, 51.500586047723758 ] } },
{ "type": "Feature", "properties": { "max_height": 0.0010000467300415039, "mean_height": 0.00010373534314567223, "std_height": 0.00034469790989533067, "count_pixels": 41, "percent_cover": 1.0502049180327868, "percent_above_0.1m": 0.0, "low_level_<0.5": 0.0, "mid_level_0.5-2": 0.0, "tall_2+": 0.0 }, "geometry": { "type": "Point", "coordinates": [ 0.059550355341125, 51.500582543995378 ] } },
{ "type": "Feature", "properties": { "max_height": 2.1527502536773682, "mean_height": 0.22939890623092651, "std_height": 0.53036600351333618, "count_pixels": 42, "percent_cover": 1.0758196721311475, "percent_above_0.1m": 23.809523809523807, "low_level_<0.5": 9.5238095238095237, "mid_level_0.5-2": 11.904761904761903, "tall_2+": 2.3809523809523809 }, "geometry": { "type": "Point", "coordinates": [ 0.059749847261622, 51.50057903992721 ] } },
{ "type": "Feature", "properties": { "max_height": 2.8025000095367432, "mean_height": 0.40100008249282837, "std_height": 0.580302894115448, "count_pixels": 42, "percent_cover": 1.0758196721311475, "percent_above_0.1m": 66.666666666666657, "low_level_<0.5": 26.190476190476193, "mid_level_0.5-2": 19.047619047619047, "tall_2+": 4.7619047619047619 }, "geometry": { "type": "Point", "coordinates": [ 0.059949339143258, 51.500575535519225 ] } },
{ "type": "Feature", "properties": { "max_height": 7.3565001487731934, "mean_height": 1.4419879913330078, "std_height": 2.3159575462341309, "count_pixels": 41, "percent_cover": 1.0502049180327868, "percent_above_0.1m": 58.536585365853654, "low_level_<0.5": 14.634146341463413, "mid_level_0.5-2": 19.512195121951219, "tall_2+": 24.390243902439025 }, "geometry": { "type": "Point", "coordinates": [ 0.058856996394096, 51.500702634937753 ] } },
{ "type": "Feature", "properties": { "max_height": 1.06600022315979, "mean_height": 0.02525603398680687, "std_height": 0.16254431009292603, "count_pixels": 42, "percent_cover": 1.0758196721311475, "percent_above_0.1m": 2.3809523809523809, "low_level_<0.5": 0.0, "mid_level_0.5-2": 2.3809523809523809, "tall_2+": 0.0 }, "geometry": { "type": "Point", "coordinates": [ 0.059056488898922, 51.500699132052141 ] } },
{ "type": "Feature", "properties": { "max_height": 0.00050008296966552734, "mean_height": -1.1824426110251807e-05, "std_height": 0.00024973051040433347, "count_pixels": 42, "percent_cover": 1.0758196721311475, "percent_above_0.1m": 0.0, "low_level_<0.5": 0.0, "mid_level_0.5-2": 0.0, "tall_2+": 0.0 }, "geometry": { "type": "Point", "coordinates": [ 0.059255981364829, 51.500695628826712 ] } },
{ "type": "Feature", "properties": { "max_height": 0.012750148773193359, "mean_height": 0.00038102979306131601, "std_height": 0.0021347843576222658, "count_pixels": 42, "percent_cover": 1.0758196721311475, "percent_above_0.1m": 0.0, "low_level_<0.5": 0.0, "mid_level_0.5-2": 0.0, "tall_2+": 0.0 }, "geometry": { "type": "Point", "coordinates": [ 0.059455473791805, 51.500692125261459 ] } },
{ "type": "Feature", "properties": { "max_height": 2.0280001163482666, "mean_height": 0.10086908936500549, "std_height": 0.34240818023681641, "count_pixels": 42, "percent_cover": 1.0758196721311475, "percent_above_0.1m": 11.904761904761903, "low_level_<0.5": 4.7619047619047619, "mid_level_0.5-2": 4.7619047619047619, "tall_2+": 2.3809523809523809 }, "geometry": { "type": "Point", "coordinates": [ 0.059654966179849, 51.500688621356375 ] } },
{ "type": "Feature", "properties": { "max_height": 0.23225009441375732, "mean_height": 0.029585599899291992, "std_height": 0.055856499820947647, "count_pixels": 38, "percent_cover": 0.97336065573770492, "percent_above_0.1m": 13.157894736842104, "low_level_<0.5": 5.2631578947368416, "mid_level_0.5-2": 0.0, "tall_2+": 0.0 }, "geometry": { "type": "Point", "coordinates": [ 0.059854458528959, 51.500685117111466 ] } },
{ "type": "Feature", "properties": { "max_height": 1.4000002145767212, "mean_height": 0.18477387726306915, "std_height": 0.32205772399902344, "count_pixels": 42, "percent_cover": 1.0758196721311475, "percent_above_0.1m": 33.333333333333329, "low_level_<0.5": 11.904761904761903, "mid_level_0.5-2": 16.666666666666664, "tall_2+": 0.0 }, "geometry": { "type": "Point", "coordinates": [ 0.060053950839131, 51.500681612526762 ] } },
{ "type": "Feature", "properties": { "max_height": 7.3810000419616699, "mean_height": 0.77415496110916138, "std_height": 1.3018341064453125, "count_pixels": 42, "percent_cover": 1.0758196721311475, "percent_above_0.1m": 61.904761904761905, "low_level_<0.5": 21.428571428571427, "mid_level_0.5-2": 21.428571428571427, "tall_2+": 14.285714285714285 }, "geometry": { "type": "Point", "coordinates": [ 0.058961605984686, 51.500808712905155 ] } },
{ "type": "Feature", "properties": { "max_height": 0.33424997329711914, "mean_height": 0.024446504190564156, "std_height": 0.067024298012256622, "count_pixels": 42, "percent_cover": 1.0758196721311475, "percent_above_0.1m": 7.1428571428571423, "low_level_<0.5": 4.7619047619047619, "mid_level_0.5-2": 0.0, "tall_2+": 0.0 }, "geometry": { "type": "Point", "coordinates": [ 0.059161098918741, 51.50080520984654 ] } },
{ "type": "Feature", "properties": { "max_height": 2.165250301361084, "mean_height": 0.20066078007221222, "std_height": 0.39708629250526428, "count_pixels": 42, "percent_cover": 1.0758196721311475, "percent_above_0.1m": 42.857142857142854, "low_level_<0.5": 26.190476190476193, "mid_level_0.5-2": 7.1428571428571423, "tall_2+": 2.3809523809523809 }, "geometry": { "type": "Point", "coordinates": [ 0.059360591813872, 51.500801706448094 ] } },
{ "type": "Feature", "properties": { "max_height": 1.2455000877380371, "mean_height": 0.070591509342193604, "std_height": 0.25311502814292908, "count_pixels": 41, "percent_cover": 1.0502049180327868, "percent_above_0.1m": 9.7560975609756095, "low_level_<0.5": 4.8780487804878048, "mid_level_0.5-2": 4.8780487804878048, "tall_2+": 0.0 }, "geometry": { "type": "Point", "coordinates": [ 0.059560084670075, 51.500798202709838 ] } },
{ "type": "Feature", "properties": { "max_height": 0.24000012874603271, "mean_height": 0.026750065386295319, "std_height": 0.061757341027259827, "count_pixels": 42, "percent_cover": 1.0758196721311475, "percent_above_0.1m": 11.904761904761903, "low_level_<0.5": 9.5238095238095237, "mid_level_0.5-2": 0.0, "tall_2+": 0.0 }, "geometry": { "type": "Point", "coordinates": [ 0.059759577487342, 51.500794698631758 ] } },
{ "type": "Feature", "properties": { "max_height": 1.2732503414154053, "mean_height": 0.13434532284736633, "std_height": 0.31340318918228149, "count_pixels": 42, "percent_cover": 1.0758196721311475, "percent_above_0.1m": 21.428571428571427, "low_level_<0.5": 4.7619047619047619, "mid_level_0.5-2": 11.904761904761903, "tall_2+": 0.0 }, "geometry": { "type": "Point", "coordinates": [ 0.059959070265674, 51.500791194213832 ] } },
{ "type": "Feature", "properties": { "max_height": 5.592750072479248, "mean_height": 2.1731829643249512, "std_height": 2.1342751979827881, "count_pixels": 41, "percent_cover": 1.0502049180327868, "percent_above_0.1m": 87.804878048780495, "low_level_<0.5": 19.512195121951219, "mid_level_0.5-2": 26.829268292682929, "tall_2+": 39.024390243902438 }, "geometry": { "type": "Point", "coordinates": [ 0.058866722641218, 51.500918293674495 ] } },
{ "type": "Feature", "properties": { "max_height": 0.88275015354156494, "mean_height": 0.073297701776027679, "std_height": 0.22057920694351196, "count_pixels": 42, "percent_cover": 1.0758196721311475, "percent_above_0.1m": 11.904761904761903, "low_level_<0.5": 2.3809523809523809, "mid_level_0.5-2": 7.1428571428571423, "tall_2+": 0.0 }, "geometry": { "type": "Point", "coordinates": [ 0.059066216043427, 51.500914790782709 ] } },
{ "type": "Feature", "properties": { "max_height": 1.3232501745223999, "mean_height": 0.080303646624088287, "std_height": 0.21990418434143066, "count_pixels": 42, "percent_cover": 1.0758196721311475, "percent_above_0.1m": 16.666666666666664, "low_level_<0.5": 9.5238095238095237, "mid_level_0.5-2": 2.3809523809523809, "tall_2+": 0.0 }, "geometry": { "type": "Point", "coordinates": [ 0.059265709406719, 51.500911287551077 ] } },
{ "type": "Feature", "properties": { "max_height": 0.4170001745223999, "mean_height": 0.033904809504747391, "std_height": 0.08277352899312973, "count_pixels": 42, "percent_cover": 1.0758196721311475, "percent_above_0.1m": 14.285714285714285, "low_level_<0.5": 11.904761904761903, "mid_level_0.5-2": 0.0, "tall_2+": 0.0 }, "geometry": { "type": "Point", "coordinates": [ 0.059465202731077, 51.500907783979621 ] } },
{ "type": "Feature", "properties": { "max_height": 0.029000043869018555, "mean_height": 0.0020595816895365715, "std_height": 0.0063491677865386009, "count_pixels": 42, "percent_cover": 1.0758196721311475, "percent_above_0.1m": 0.0, "low_level_<0.5": 0.0, "mid_level_0.5-2": 0.0, "tall_2+": 0.0 }, "geometry": { "type": "Point", "coordinates": [ 0.059664696016506, 51.500904280068355 ] } },
{ "type": "Feature", "properties": { "max_height": 0.98749995231628418, "mean_height": 0.064197428524494171, "std_height": 0.19355320930480957, "count_pixels": 38, "percent_cover": 0.97336065573770492, "percent_above_0.1m": 10.526315789473683, "low_level_<0.5": 5.2631578947368416, "mid_level_0.5-2": 5.2631578947368416, "tall_2+": 0.0 }, "geometry": { "type": "Point", "coordinates": [ 0.059864189262996, 51.50090077581725 ] } },
{ "type": "Feature", "properties": { "max_height": 2.1957502365112305, "mean_height": 0.27197033166885376, "std_height": 0.45374217629432678, "count_pixels": 42, "percent_cover": 1.0758196721311475, "percent_above_0.1m": 40.476190476190474, "low_level_<0.5": 9.5238095238095237, "mid_level_0.5-2": 23.809523809523807, "tall_2+": 2.3809523809523809 }, "geometry": { "type": "Point", "coordinates": [ 0.060063682470551, 51.500897271226329 ] } },
{ "type": "Feature", "properties": { "max_height": 5.6785001754760742, "mean_height": 1.2918096780776978, "std_height": 1.8217229843139648, "count_pixels": 42, "percent_cover": 1.0758196721311475, "percent_above_0.1m": 66.666666666666657, "low_level_<0.5": 14.285714285714285, "mid_level_0.5-2": 26.190476190476193, "tall_2+": 21.428571428571427 }, "geometry": { "type": "Point", "coordinates": [ 0.058971332738889, 51.501024371635197 ] } },
{ "type": "Feature", "properties": { "max_height": 6.5200004577636719, "mean_height": 0.53207159042358398, "std_height": 1.2286306619644165, "count_pixels": 42, "percent_cover": 1.0758196721311475, "percent_above_0.1m": 30.952380952380953, "low_level_<0.5": 7.1428571428571423, "mid_level_0.5-2": 16.666666666666664, "tall_2+": 7.1428571428571423 }, "geometry": { "type": "Point", "coordinates": [ 0.059170826570333, 51.501020868570393 ] } },
{ "type": "Feature", "properties": { "max_height": 9.1992502212524414, "mean_height": 1.5828157663345337, "std_height": 2.3979990482330322, "count_pixels": 42, "percent_cover": 1.0758196721311475, "percent_above_0.1m": 52.380952380952387, "low_level_<0.5": 11.904761904761903, "mid_level_0.5-2": 9.5238095238095237, "tall_2+": 30.952380952380953 }, "geometry": { "type": "Point", "coordinates": [ 0.059370320362857, 51.501017365165744 ] } },
{ "type": "Feature", "properties": { "max_height": 6.1155004501342773, "mean_height": 0.4751707911491394, "std_height": 1.1100165843963623, "count_pixels": 41, "percent_cover": 1.0502049180327868, "percent_above_0.1m": 31.707317073170731, "low_level_<0.5": 14.634146341463413, "mid_level_0.5-2": 9.7560975609756095, "tall_2+": 7.3170731707317067 }, "geometry": { "type": "Point", "coordinates": [ 0.059569814116445, 51.501013861421292 ] } },
{ "type": "Feature", "properties": { "max_height": 0.71000003814697266, "mean_height": 0.078970298171043396, "std_height": 0.17144647240638733, "count_pixels": 42, "percent_cover": 1.0758196721311475, "percent_above_0.1m": 21.428571428571427, "low_level_<0.5": 11.904761904761903, "mid_level_0.5-2": 4.7619047619047619, "tall_2+": 0.0 }, "geometry": { "type": "Point", "coordinates": [ 0.059769307831101, 51.501010357336995 ] } }
]
}
