{
"type": "FeatureCollection",
"name": "f30190d81153_visibility",
"crs": { "type": "name", "properties": { "name": "urn:ogc:def:crs:OGC:1.3:CRS84" } },
"features": [
{ "type": "Feature", "properties": { "visible_points": 5, "total_points": 70, "visibility_pct": 7.1428571428571423 }, "geometry": { "type": "Point", "coordinates": [ 0.06168993441755, 51.51287609834209 ] } },
{ "type": "Feature", "properties": { "visible_points": 2, "total_points": 69, "visibility_pct": 2.8985507246376812 }, "geometry": { "type": "Point", "coordinates": [ 0.061889478782116, 51.512872590990867 ] } },
{ "type": "Feature", "properties": { "visible_points": 6, "total_points": 65, "visibility_pct": 9.2307692307692317 }, "geometry": { "type": "Point", "coordinates": [ 0.06208902310523, 51.512869083300053 ] } },
{ "type": "Feature", "properties": { "visible_points": 1, "total_points": 60, "visibility_pct": 1.6666666666666667 }, "geometry": { "type": "Point", "coordinates": [ 0.062288567386886, 51.512865575269693 ] } },
{ "type": "Feature", "properties": { "visible_points": 0, "total_points": 53, "visibility_pct": 0.0 }, "geometry": { "type": "Point", "coordinates": [ 0.062488111627083, 51.512862066899778 ] } },
{ "type": "Feature", "properties": { "visible_points": 3, "total_points": 76, "visibility_pct": 3.9473684210526314 }, "geometry": { "type": "Point", "coordinates": [ 0.061595031807599, 51.512985680892847 ] } },
{ "type": "Feature", "properties": { "visible_points": 0, "total_points": 78, "visibility_pct": 0.0 }, "geometry": { "type": "Point", "coordinates": [ 0.061794576679596, 51.512982173702106 ] } },
{ "type": "Feature", "properties": { "visible_points": 0, "total_points": 74, "visibility_pct": 0.0 }, "geometry": { "type": "Point", "coordinates": [ 0.061994121510144, 51.512978666171769 ] } },
{ "type": "Feature", "properties": { "visible_points": 0, "total_points": 69, "visibility_pct": 0.0 }, "geometry": { "type": "Point", "coordinates": [ 0.062193666299234, 51.512975158301892 ] } },
{ "type": "Feature", "properties": { "visible_points": 0, "total_points": 62, "visibility_pct": 0.0 }, "geometry": { "type": "Point", "coordinates": [ 0.062393211046863, 51.512971650092432 ] } },
{ "type": "Feature", "properties": { "visible_points": 0, "total_points": 81, "visibility_pct": 0.0 }, "geometry": { "type": "Point", "coordinates": [ 0.061500128731672, 51.513095263365862 ] } },
{ "type": "Feature", "properties": { "visible_points": 0, "total_points": 84, "visibility_pct": 0.0 }, "geometry": { "type": "Point", "coordinates": [ 0.061699674111107, 51.513091756335605 ] } },
{ "type": "Feature", "properties": { "visible_points": 0, "total_points": 84, "visibility_pct": 0.0 }, "geometry": { "type": "Point", "coordinates": [ 0.061899219449085, 51.513088248965779 ] } },
{ "type": "Feature", "properties": { "visible_points": 0, "total_points": 80, "visibility_pct": 0.0 }, "geometry": { "type": "Point", "coordinates": [ 0.062098764745614, 51.513084741256371 ] } },
{ "type": "Feature", "properties": { "visible_points": 0, "total_points": 73, "visibility_pct": 0.0 }, "geometry": { "type": "Point", "coordinates": [ 0.062298310000678, 51.513081233207402 ] } },
{ "type": "Feature", "properties": { "visible_points": 5, "total_points": 74, "visibility_pct": 6.756756756756757 }, "geometry": { "type": "Point", "coordinates": [ 0.061205679261461, 51.513208352291429 ] } },
{ "type": "Feature", "properties": { "visible_points": 0, "total_points": 85, "visibility_pct": 0.0 }, "geometry": { "type": "Point", "coordinates": [ 0.06140522518977, 51.513204845761202 ] } },
{ "type": "Feature", "properties": { "visible_points": 0, "total_points": 90, "visibility_pct": 0.0 }, "geometry": { "type": "Point", "coordinates": [ 0.061604771076637, 51.513201338891413 ] } },
{ "type": "Feature", "properties": { "visible_points": 0, "total_points": 92, "visibility_pct": 0.0 }, "geometry": { "type": "Point", "coordinates": [ 0.061804316922055, 51.513197831682085 ] } },
{ "type": "Feature", "properties": { "visible_points": 0, "total_points": 91, "visibility_pct": 0.0 }, "geometry": { "type": "Point", "coordinates": [ 0.06200386272602, 51.51319432413316 ] } },
{ "type": "Feature", "properties": { "visible_points": 5, "total_points": 85, "visibility_pct": 5.8823529411764701 }, "geometry": { "type": "Point", "coordinates": [ 0.062203408488528, 51.513190816244666 ] } },
{ "type": "Feature", "properties": { "visible_points": 6, "total_points": 74, "visibility_pct": 8.1081081081081088 }, "geometry": { "type": "Point", "coordinates": [ 0.061110774746139, 51.513317934448551 ] } },
{ "type": "Feature", "properties": { "visible_points": 0, "total_points": 86, "visibility_pct": 0.0 }, "geometry": { "type": "Point", "coordinates": [ 0.061310321181888, 51.513314428078829 ] } },
{ "type": "Feature", "properties": { "visible_points": 0, "total_points": 94, "visibility_pct": 0.0 }, "geometry": { "type": "Point", "coordinates": [ 0.061509867576187, 51.513310921369538 ] } },
{ "type": "Feature", "properties": { "visible_points": 0, "total_points": 98, "visibility_pct": 0.0 }, "geometry": { "type": "Point", "coordinates": [ 0.061709413929043, 51.513307414320671 ] } },
{ "type": "Feature", "properties": { "visible_points": 0, "total_points": 99, "visibility_pct": 0.0 }, "geometry": { "type": "Point", "coordinates": [ 0.06190896024045, 51.513303906932244 ] } },
{ "type": "Feature", "properties": { "visible_points": 10, "total_points": 97, "visibility_pct": 10.309278350515463 }, "geometry": { "type": "Point", "coordinates": [ 0.062108506510404, 51.513300399204233 ] } },
{ "type": "Feature", "properties": { "visible_points": 10, "total_points": 74, "visibility_pct": 13.513513513513514 }, "geometry": { "type": "Point", "coordinates": [ 0.061015869764828, 51.513427516527997 ] } },
{ "type": "Feature", "properties": { "visible_points": 0, "total_points": 86, "visibility_pct": 0.0 }, "geometry": { "type": "Point", "coordinates": [ 0.061215416708012, 51.513424010318751 ] } },
{ "type": "Feature", "properties": { "visible_points": 0, "total_points": 95, "visibility_pct": 0.0 }, "geometry": { "type": "Point", "coordinates": [ 0.061414963609757, 51.513420503769936 ] } },
{ "type": "Feature", "properties": { "visible_points": 0, "total_points": 101, "visibility_pct": 0.0 }, "geometry": { "type": "Point", "coordinates": [ 0.061614510470054, 51.513416996881567 ] } },
{ "type": "Feature", "properties": { "visible_points": 0, "total_points": 103, "visibility_pct": 0.0 }, "geometry": { "type": "Point", "coordinates": [ 0.061814057288904, 51.513413489653622 ] } },
{ "type": "Feature", "properties": { "visible_points": 11, "total_points": 101, "visibility_pct": 10.891089108910892 }, "geometry": { "type": "Point", "coordinates": [ 0.062013604066296, 51.513409982086095 ] } },
{ "type": "Feature", "properties": { "visible_points": 0, "total_points": 84, "visibility_pct": 0.0 }, "geometry": { "type": "Point", "coordinates": [ 0.061120511768152, 51.513533592480968 ] } },
{ "type": "Feature", "properties": { "visible_points": 0, "total_points": 95, "visibility_pct": 0.0 }, "geometry": { "type": "Point", "coordinates": [ 0.061320059177331, 51.513530086092636 ] } },
{ "type": "Feature", "properties": { "visible_points": 2, "total_points": 102, "visibility_pct": 1.9607843137254901 }, "geometry": { "type": "Point", "coordinates": [ 0.061519606545077, 51.513526579364758 ] } },
{ "type": "Feature", "properties": { "visible_points": 4, "total_points": 106, "visibility_pct": 3.7735849056603774 }, "geometry": { "type": "Point", "coordinates": [ 0.06171915387137, 51.513523072297296 ] } },
{ "type": "Feature", "properties": { "visible_points": 15, "total_points": 105, "visibility_pct": 14.285714285714285 }, "geometry": { "type": "Point", "coordinates": [ 0.061918701156214, 51.51351956489026 ] } },
{ "type": "Feature", "properties": { "visible_points": 11, "total_points": 97, "visibility_pct": 11.340206185567011 }, "geometry": { "type": "Point", "coordinates": [ 0.062118248399599, 51.513516057143654 ] } },
{ "type": "Feature", "properties": { "visible_points": 0, "total_points": 82, "visibility_pct": 0.0 }, "geometry": { "type": "Point", "coordinates": [ 0.061025606362292, 51.513643174565466 ] } },
{ "type": "Feature", "properties": { "visible_points": 0, "total_points": 94, "visibility_pct": 0.0 }, "geometry": { "type": "Point", "coordinates": [ 0.061225154278923, 51.513639668337639 ] } },
{ "type": "Feature", "properties": { "visible_points": 0, "total_points": 103, "visibility_pct": 0.0 }, "geometry": { "type": "Point", "coordinates": [ 0.061424702154109, 51.513636161770243 ] } },
{ "type": "Feature", "properties": { "visible_points": 0, "total_points": 108, "visibility_pct": 0.0 }, "geometry": { "type": "Point", "coordinates": [ 0.061624249987851, 51.513632654863258 ] } },
{ "type": "Feature", "properties": { "visible_points": 19, "total_points": 109, "visibility_pct": 17.431192660550458 }, "geometry": { "type": "Point", "coordinates": [ 0.061823797780143, 51.513629147616712 ] } },
{ "type": "Feature", "properties": { "visible_points": 17, "total_points": 102, "visibility_pct": 16.666666666666664 }, "geometry": { "type": "Point", "coordinates": [ 0.062023345530982, 51.513625640030597 ] } },
{ "type": "Feature", "properties": { "visible_points": 11, "total_points": 78, "visibility_pct": 14.102564102564102 }, "geometry": { "type": "Point", "coordinates": [ 0.060930700490436, 51.513752756572238 ] } },
{ "type": "Feature", "properties": { "visible_points": 0, "total_points": 91, "visibility_pct": 0.0 }, "geometry": { "type": "Point", "coordinates": [ 0.061130248914514, 51.513749250504915 ] } },
{ "type": "Feature", "properties": { "visible_points": 0, "total_points": 102, "visibility_pct": 0.0 }, "geometry": { "type": "Point", "coordinates": [ 0.061329797297148, 51.513745744098003 ] } },
{ "type": "Feature", "properties": { "visible_points": 0, "total_points": 110, "visibility_pct": 0.0 }, "geometry": { "type": "Point", "coordinates": [ 0.061529345638344, 51.513742237351522 ] } },
{ "type": "Feature", "properties": { "visible_points": 24, "total_points": 113, "visibility_pct": 21.238938053097346 }, "geometry": { "type": "Point", "coordinates": [ 0.061728893938082, 51.513738730265466 ] } },
{ "type": "Feature", "properties": { "visible_points": 22, "total_points": 107, "visibility_pct": 20.5607476635514 }, "geometry": { "type": "Point", "coordinates": [ 0.061928442196375, 51.513735222839827 ] } },
{ "type": "Feature", "properties": { "visible_points": 21, "total_points": 83, "visibility_pct": 25.301204819277107 }, "geometry": { "type": "Point", "coordinates": [ 0.061035343084102, 51.513858832594472 ] } },
{ "type": "Feature", "properties": { "visible_points": 19, "total_points": 96, "visibility_pct": 19.791666666666664 }, "geometry": { "type": "Point", "coordinates": [ 0.061234891974192, 51.513855326348065 ] } },
{ "type": "Feature", "properties": { "visible_points": 24, "total_points": 108, "visibility_pct": 22.222222222222221 }, "geometry": { "type": "Point", "coordinates": [ 0.061434440822834, 51.513851819762081 ] } },
{ "type": "Feature", "properties": { "visible_points": 22, "total_points": 114, "visibility_pct": 19.298245614035086 }, "geometry": { "type": "Point", "coordinates": [ 0.061633989630032, 51.513848312836515 ] } },
{ "type": "Feature", "properties": { "visible_points": 25, "total_points": 112, "visibility_pct": 22.321428571428573 }, "geometry": { "type": "Point", "coordinates": [ 0.061833538395778, 51.513844805571367 ] } },
{ "type": "Feature", "properties": { "visible_points": 25, "total_points": 106, "visibility_pct": 23.584905660377359 }, "geometry": { "type": "Point", "coordinates": [ 0.062033087120071, 51.513841297966643 ] } },
{ "type": "Feature", "properties": { "visible_points": 18, "total_points": 99, "visibility_pct": 18.181818181818183 }, "geometry": { "type": "Point", "coordinates": [ 0.062232635802904, 51.513837790022322 ] } },
{ "type": "Feature", "properties": { "visible_points": 9, "total_points": 74, "visibility_pct": 12.162162162162163 }, "geometry": { "type": "Point", "coordinates": [ 0.060940436787691, 51.513968414606339 ] } },
{ "type": "Feature", "properties": { "visible_points": 18, "total_points": 86, "visibility_pct": 20.930232558139537 }, "geometry": { "type": "Point", "coordinates": [ 0.061139986185228, 51.513964908520421 ] } },
{ "type": "Feature", "properties": { "visible_points": 21, "total_points": 98, "visibility_pct": 21.428571428571427 }, "geometry": { "type": "Point", "coordinates": [ 0.061339535541333, 51.513961402094921 ] } },
{ "type": "Feature", "properties": { "visible_points": 23, "total_points": 108, "visibility_pct": 21.296296296296298 }, "geometry": { "type": "Point", "coordinates": [ 0.061539084855982, 51.513957895329845 ] } },
{ "type": "Feature", "properties": { "visible_points": 25, "total_points": 109, "visibility_pct": 22.935779816513762 }, "geometry": { "type": "Point", "coordinates": [ 0.061738634129188, 51.513954388225187 ] } },
{ "type": "Feature", "properties": { "visible_points": 28, "total_points": 105, "visibility_pct": 26.666666666666668 }, "geometry": { "type": "Point", "coordinates": [ 0.061938183360939, 51.513950880780946 ] } },
{ "type": "Feature", "properties": { "visible_points": 26, "total_points": 102, "visibility_pct": 25.490196078431371 }, "geometry": { "type": "Point", "coordinates": [ 0.062137732551235, 51.51394737299713 ] } },
{ "type": "Feature", "properties": { "visible_points": 25, "total_points": 96, "visibility_pct": 26.041666666666668 }, "geometry": { "type": "Point", "coordinates": [ 0.062337281700064, 51.513943864873745 ] } },
{ "type": "Feature", "properties": { "visible_points": 15, "total_points": 90, "visibility_pct": 16.666666666666664 }, "geometry": { "type": "Point", "coordinates": [ 0.062536830807434, 51.513940356410778 ] } },
{ "type": "Feature", "properties": { "visible_points": 9, "total_points": 64, "visibility_pct": 14.0625 }, "geometry": { "type": "Point", "coordinates": [ 0.060845530025269, 51.514077996540493 ] } },
{ "type": "Feature", "properties": { "visible_points": 17, "total_points": 75, "visibility_pct": 22.666666666666664 }, "geometry": { "type": "Point", "coordinates": [ 0.061045079930263, 51.514074490615052 ] } },
{ "type": "Feature", "properties": { "visible_points": 21, "total_points": 86, "visibility_pct": 24.418604651162788 }, "geometry": { "type": "Point", "coordinates": [ 0.06124462979382, 51.514070984350049 ] } },
{ "type": "Feature", "properties": { "visible_points": 22, "total_points": 96, "visibility_pct": 22.916666666666664 }, "geometry": { "type": "Point", "coordinates": [ 0.061444179615933, 51.514067477745471 ] } },
{ "type": "Feature", "properties": { "visible_points": 23, "total_points": 103, "visibility_pct": 22.330097087378643 }, "geometry": { "type": "Point", "coordinates": [ 0.061643729396597, 51.514063970801303 ] } },
{ "type": "Feature", "properties": { "visible_points": 31, "total_points": 102, "visibility_pct": 30.392156862745097 }, "geometry": { "type": "Point", "coordinates": [ 0.061843279135812, 51.514060463517559 ] } },
{ "type": "Feature", "properties": { "visible_points": 29, "total_points": 100, "visibility_pct": 28.999999999999996 }, "geometry": { "type": "Point", "coordinates": [ 0.062042828833569, 51.514056955894226 ] } },
{ "type": "Feature", "properties": { "visible_points": 25, "total_points": 96, "visibility_pct": 26.041666666666668 }, "geometry": { "type": "Point", "coordinates": [ 0.062242378489866, 51.514053447931339 ] } },
{ "type": "Feature", "properties": { "visible_points": 24, "total_points": 91, "visibility_pct": 26.373626373626376 }, "geometry": { "type": "Point", "coordinates": [ 0.062441928104704, 51.51404993962884 ] } },
{ "type": "Feature", "properties": { "visible_points": 17, "total_points": 86, "visibility_pct": 19.767441860465116 }, "geometry": { "type": "Point", "coordinates": [ 0.062641477678067, 51.514046430986767 ] } },
{ "type": "Feature", "properties": { "visible_points": 6, "total_points": 80, "visibility_pct": 7.5 }, "geometry": { "type": "Point", "coordinates": [ 0.062841027209967, 51.514042922005139 ] } },
{ "type": "Feature", "properties": { "visible_points": 0, "total_points": 64, "visibility_pct": 0.0 }, "geometry": { "type": "Point", "coordinates": [ 0.060950173209289, 51.514184072631984 ] } },
{ "type": "Feature", "properties": { "visible_points": 0, "total_points": 74, "visibility_pct": 0.0 }, "geometry": { "type": "Point", "coordinates": [ 0.061149723580303, 51.514180566527486 ] } },
{ "type": "Feature", "properties": { "visible_points": 0, "total_points": 83, "visibility_pct": 0.0 }, "geometry": { "type": "Point", "coordinates": [ 0.061349273909878, 51.514177060083391 ] } },
{ "type": "Feature", "properties": { "visible_points": 8, "total_points": 91, "visibility_pct": 8.791208791208792 }, "geometry": { "type": "Point", "coordinates": [ 0.061548824198003, 51.514173553299706 ] } },
{ "type": "Feature", "properties": { "visible_points": 23, "total_points": 95, "visibility_pct": 24.210526315789473 }, "geometry": { "type": "Point", "coordinates": [ 0.061748374444684, 51.514170046176467 ] } },
{ "type": "Feature", "properties": { "visible_points": 26, "total_points": 95, "visibility_pct": 27.368421052631582 }, "geometry": { "type": "Point", "coordinates": [ 0.061947924649907, 51.514166538713617 ] } },
{ "type": "Feature", "properties": { "visible_points": 27, "total_points": 93, "visibility_pct": 29.032258064516132 }, "geometry": { "type": "Point", "coordinates": [ 0.062147474813673, 51.514163030911206 ] } },
{ "type": "Feature", "properties": { "visible_points": 25, "total_points": 90, "visibility_pct": 27.777777777777779 }, "geometry": { "type": "Point", "coordinates": [ 0.062347024935979, 51.514159522769205 ] } },
{ "type": "Feature", "properties": { "visible_points": 21, "total_points": 86, "visibility_pct": 24.418604651162788 }, "geometry": { "type": "Point", "coordinates": [ 0.062546575016813, 51.514156014287622 ] } },
{ "type": "Feature", "properties": { "visible_points": 13, "total_points": 81, "visibility_pct": 16.049382716049383 }, "geometry": { "type": "Point", "coordinates": [ 0.062746125056183, 51.51415250546647 ] } },
{ "type": "Feature", "properties": { "visible_points": 0, "total_points": 76, "visibility_pct": 0.0 }, "geometry": { "type": "Point", "coordinates": [ 0.062945675054078, 51.514148996305728 ] } },
{ "type": "Feature", "properties": { "visible_points": 2, "total_points": 71, "visibility_pct": 2.8169014084507045 }, "geometry": { "type": "Point", "coordinates": [ 0.063145225010493, 51.514145486805411 ] } },
{ "type": "Feature", "properties": { "visible_points": 2, "total_points": 66, "visibility_pct": 3.0303030303030303 }, "geometry": { "type": "Point", "coordinates": [ 0.063344774925428, 51.514141976965519 ] } },
{ "type": "Feature", "properties": { "visible_points": 1, "total_points": 62, "visibility_pct": 1.6129032258064515 }, "geometry": { "type": "Point", "coordinates": [ 0.061054816900778, 51.51429014862719 ] } },
{ "type": "Feature", "properties": { "visible_points": 0, "total_points": 70, "visibility_pct": 0.0 }, "geometry": { "type": "Point", "coordinates": [ 0.061254367737809, 51.514286642343599 ] } },
{ "type": "Feature", "properties": { "visible_points": 0, "total_points": 78, "visibility_pct": 0.0 }, "geometry": { "type": "Point", "coordinates": [ 0.061453918533408, 51.514283135720412 ] } },
{ "type": "Feature", "properties": { "visible_points": 0, "total_points": 84, "visibility_pct": 0.0 }, "geometry": { "type": "Point", "coordinates": [ 0.06165346928755, 51.514279628757642 ] } },
{ "type": "Feature", "properties": { "visible_points": 0, "total_points": 87, "visibility_pct": 0.0 }, "geometry": { "type": "Point", "coordinates": [ 0.061853020000242, 51.514276121455303 ] } },
{ "type": "Feature", "properties": { "visible_points": 0, "total_points": 87, "visibility_pct": 0.0 }, "geometry": { "type": "Point", "coordinates": [ 0.062052570671479, 51.51427261381339 ] } },
{ "type": "Feature", "properties": { "visible_points": 0, "total_points": 86, "visibility_pct": 0.0 }, "geometry": { "type": "Point", "coordinates": [ 0.062252121301255, 51.514269105831858 ] } },
{ "type": "Feature", "properties": { "visible_points": 3, "total_points": 84, "visibility_pct": 3.5714285714285712 }, "geometry": { "type": "Point", "coordinates": [ 0.062451671889565, 51.514265597510786 ] } },
{ "type": "Feature", "properties": { "visible_points": 12, "total_points": 81, "visibility_pct": 14.814814814814813 }, "geometry": { "type": "Point", "coordinates": [ 0.06265122243641, 51.514262088850103 ] } },
{ "type": "Feature", "properties": { "visible_points": 7, "total_points": 77, "visibility_pct": 9.0909090909090917 }, "geometry": { "type": "Point", "coordinates": [ 0.062850772941779, 51.514258579849837 ] } },
{ "type": "Feature", "properties": { "visible_points": 1, "total_points": 73, "visibility_pct": 1.3698630136986301 }, "geometry": { "type": "Point", "coordinates": [ 0.063050323405675, 51.514255070510004 ] } },
{ "type": "Feature", "properties": { "visible_points": 0, "total_points": 69, "visibility_pct": 0.0 }, "geometry": { "type": "Point", "coordinates": [ 0.063249873828088, 51.514251560830594 ] } },
{ "type": "Feature", "properties": { "visible_points": 1, "total_points": 62, "visibility_pct": 1.6129032258064515 }, "geometry": { "type": "Point", "coordinates": [ 0.063449424209023, 51.514248050811588 ] } },
{ "type": "Feature", "properties": { "visible_points": 0, "total_points": 54, "visibility_pct": 0.0 }, "geometry": { "type": "Point", "coordinates": [ 0.063648974548455, 51.514244540452999 ] } },
{ "type": "Feature", "properties": { "visible_points": 0, "total_points": 79, "visibility_pct": 0.0 }, "geometry": { "type": "Point", "coordinates": [ 0.06215721720053, 51.514378688816812 ] } },
{ "type": "Feature", "properties": { "visible_points": 1, "total_points": 79, "visibility_pct": 1.2658227848101267 }, "geometry": { "type": "Point", "coordinates": [ 0.062356768296318, 51.514375180656216 ] } },
{ "type": "Feature", "properties": { "visible_points": 1, "total_points": 78, "visibility_pct": 1.2820512820512819 }, "geometry": { "type": "Point", "coordinates": [ 0.062556319350641, 51.514371672156038 ] } },
{ "type": "Feature", "properties": { "visible_points": 0, "total_points": 76, "visibility_pct": 0.0 }, "geometry": { "type": "Point", "coordinates": [ 0.062755870363488, 51.514368163316263 ] } },
{ "type": "Feature", "properties": { "visible_points": 3, "total_points": 73, "visibility_pct": 4.10958904109589 }, "geometry": { "type": "Point", "coordinates": [ 0.062955421334861, 51.514364654136898 ] } },
{ "type": "Feature", "properties": { "visible_points": 2, "total_points": 69, "visibility_pct": 2.8985507246376812 }, "geometry": { "type": "Point", "coordinates": [ 0.063154972264762, 51.514361144617979 ] } },
{ "type": "Feature", "properties": { "visible_points": 0, "total_points": 64, "visibility_pct": 0.0 }, "geometry": { "type": "Point", "coordinates": [ 0.063354523153174, 51.514357634759442 ] } },
{ "type": "Feature", "properties": { "visible_points": 0, "total_points": 57, "visibility_pct": 0.0 }, "geometry": { "type": "Point", "coordinates": [ 0.063554074000101, 51.514354124561358 ] } },
{ "type": "Feature", "properties": { "visible_points": 0, "total_points": 49, "visibility_pct": 0.0 }, "geometry": { "type": "Point", "coordinates": [ 0.063753624805534, 51.51435061402367 ] } },
{ "type": "Feature", "properties": { "visible_points": 1, "total_points": 42, "visibility_pct": 2.3809523809523809 }, "geometry": { "type": "Point", "coordinates": [ 0.063953175569476, 51.514347103146399 ] } },
{ "type": "Feature", "properties": { "visible_points": 5, "total_points": 44, "visibility_pct": 11.363636363636363 }, "geometry": { "type": "Point", "coordinates": [ 0.063858275570109, 51.51445668749799 ] } },
{ "type": "Feature", "properties": { "visible_points": 5, "total_points": 37, "visibility_pct": 13.513513513513514 }, "geometry": { "type": "Point", "coordinates": [ 0.064057826800046, 51.514453176441641 ] } }
]
}
