{
"type": "FeatureCollection",
"name": "ISLIN_32_toilets",
"crs": { "type": "name", "properties": { "name": "urn:ogc:def:crs:OGC:1.3:CRS84" } },
"features": [
{ "type": "Feature", "properties": { "name": "Highbury Crescent", "payment_info": "Free", "accessible": "False", "radar": "Unknown", "women": "Unknown", "men": "Unknown", "baby_change": "Unknown", "Mon": "00:00-00:00", "Tue": "00:00-00:00", "Wed": "00:00-00:00", "Thu": "00:00-00:00", "Fri": "00:00-00:00", "Sat": "00:00-00:00", "Sun": "00:00-00:00", "index_right": 102, "park_offical_id": "ISLIN_32" }, "geometry": { "type": "Point", "coordinates": [ -0.1037269, 51.5471417 ] } },
{ "type": "Feature", "properties": { "name": "Islington Central Library", "payment_info": "Cost unknown", "accessible": "True", "radar": "False", "women": "True", "men": "True", "baby_change": "Unknown", "Mon": "09:00-17:00", "Tue": "09:00-17:00", "Wed": "09:00-17:00", "Thu": "09:00-17:00", "Fri": "09:00-17:00", "Sat": "Closed", "Sun": "Closed", "index_right": 102, "park_offical_id": "ISLIN_32" }, "geometry": { "type": "Point", "coordinates": [ -0.107167661, 51.549147236 ] } },
{ "type": "Feature", "properties": { "name": "Islington Green Essex Road", "payment_info": "40p", "accessible": "True", "radar": "True", "women": "True", "men": "True", "baby_change": "Unknown", "Mon": "00:00-00:00", "Tue": "00:00-00:00", "Wed": "00:00-00:00", "Thu": "00:00-00:00", "Fri": "00:00-00:00", "Sat": "00:00-00:00", "Sun": "00:00-00:00", "index_right": 102, "park_offical_id": "ISLIN_32" }, "geometry": { "type": "Point", "coordinates": [ -0.102481842, 51.536272494 ] } }
]
}
