{
"type": "FeatureCollection",
"name": "8494ed22c710_foliage",
"crs": { "type": "name", "properties": { "name": "urn:ogc:def:crs:OGC:1.3:CRS84" } },
"features": [
{ "type": "Feature", "properties": { "max_height": 1.7675018310546875, "mean_height": 0.056310925632715225, "std_height": 0.27469587326049805, "count_pixels": 42, "percent_cover": 0.45751633986928109, "percent_above_0.1m": 4.7619047619047619, "low_level_<0.5": 2.3809523809523809, "mid_level_0.5-2": 2.3809523809523809, "tall_2+": 0.0 }, "geometry": { "type": "Point", "coordinates": [ 0.079389610476054, 51.380009282648828 ] } },
{ "type": "Feature", "properties": { "max_height": 7.9300003051757812, "mean_height": 2.4280233383178711, "std_height": 2.3689396381378174, "count_pixels": 43, "percent_cover": 0.4684095860566449, "percent_above_0.1m": 67.441860465116278, "low_level_<0.5": 4.6511627906976747, "mid_level_0.5-2": 9.3023255813953494, "tall_2+": 53.488372093023251 }, "geometry": { "type": "Point", "coordinates": [ 0.079588571298553, 51.380005751357139 ] } },
{ "type": "Feature", "properties": { "max_height": 11.745002746582031, "mean_height": 3.058391809463501, "std_height": 4.0329384803771973, "count_pixels": 42, "percent_cover": 0.45751633986928109, "percent_above_0.1m": 54.761904761904766, "low_level_<0.5": 7.1428571428571423, "mid_level_0.5-2": 9.5238095238095237, "tall_2+": 38.095238095238095 }, "geometry": { "type": "Point", "coordinates": [ 0.079787532080506, 51.380002219727849 ] } },
{ "type": "Feature", "properties": { "max_height": 6.9799957275390625, "mean_height": 0.59164559841156006, "std_height": 1.4140642881393433, "count_pixels": 41, "percent_cover": 0.44662309368191722, "percent_above_0.1m": 26.829268292682929, "low_level_<0.5": 2.4390243902439024, "mid_level_0.5-2": 9.7560975609756095, "tall_2+": 12.195121951219512 }, "geometry": { "type": "Point", "coordinates": [ 0.079493973104411, 51.380115343584151 ] } },
{ "type": "Feature", "properties": { "max_height": 0.00499725341796875, "mean_height": -0.0013414708664640784, "std_height": 0.0042445538565516472, "count_pixels": 41, "percent_cover": 0.44662309368191722, "percent_above_0.1m": 0.0, "low_level_<0.5": 0.0, "mid_level_0.5-2": 0.0, "tall_2+": 0.0 }, "geometry": { "type": "Point", "coordinates": [ 0.079692934375184, 51.380111812109 ] } },
{ "type": "Feature", "properties": { "max_height": 5.7925033569335938, "mean_height": 1.3465476036071777, "std_height": 1.6278731822967529, "count_pixels": 42, "percent_cover": 0.45751633986928109, "percent_above_0.1m": 61.904761904761905, "low_level_<0.5": 11.904761904761903, "mid_level_0.5-2": 16.666666666666664, "tall_2+": 33.333333333333329 }, "geometry": { "type": "Point", "coordinates": [ 0.079891895605418, 51.380108280296241 ] } },
{ "type": "Feature", "properties": { "max_height": 1.662506103515625, "mean_height": 0.14221049845218658, "std_height": 0.36226809024810791, "count_pixels": 43, "percent_cover": 0.4684095860566449, "percent_above_0.1m": 20.930232558139537, "low_level_<0.5": 6.9767441860465116, "mid_level_0.5-2": 9.3023255813953494, "tall_2+": 0.0 }, "geometry": { "type": "Point", "coordinates": [ 0.079598336221611, 51.380221404418023 ] } },
{ "type": "Feature", "properties": { "max_height": 6.9849929809570312, "mean_height": 0.67726224660873413, "std_height": 1.6871620416641235, "count_pixels": 42, "percent_cover": 0.45751633986928109, "percent_above_0.1m": 23.809523809523807, "low_level_<0.5": 2.3809523809523809, "mid_level_0.5-2": 9.5238095238095237, "tall_2+": 11.904761904761903 }, "geometry": { "type": "Point", "coordinates": [ 0.079797297940658, 51.380217872759403 ] } },
{ "type": "Feature", "properties": { "max_height": 1.5100021362304688, "mean_height": 0.26054885983467102, "std_height": 0.44820374250411987, "count_pixels": 41, "percent_cover": 0.44662309368191722, "percent_above_0.1m": 31.707317073170731, "low_level_<0.5": 7.3170731707317067, "mid_level_0.5-2": 21.951219512195124, "tall_2+": 0.0 }, "geometry": { "type": "Point", "coordinates": [ 0.079702699827647, 51.380327465150472 ] } },
{ "type": "Feature", "properties": { "max_height": 6.9474945068359375, "mean_height": 1.6650598049163818, "std_height": 1.8810110092163086, "count_pixels": 42, "percent_cover": 0.45751633986928109, "percent_above_0.1m": 69.047619047619051, "low_level_<0.5": 7.1428571428571423, "mid_level_0.5-2": 23.809523809523807, "tall_2+": 35.714285714285715 }, "geometry": { "type": "Point", "coordinates": [ 0.079901661994981, 51.380323933308389 ] } },
{ "type": "Feature", "properties": { "max_height": 0.2975006103515625, "mean_height": 0.018895171582698822, "std_height": 0.055521916598081589, "count_pixels": 43, "percent_cover": 0.4684095860566449, "percent_above_0.1m": 4.6511627906976747, "low_level_<0.5": 4.6511627906976747, "mid_level_0.5-2": 0.0, "tall_2+": 0.0 }, "geometry": { "type": "Point", "coordinates": [ 0.080100624121764, 51.380320401128692 ] } },
{ "type": "Feature", "properties": { "max_height": 0.50250244140625, "mean_height": 0.03232521191239357, "std_height": 0.08939206600189209, "count_pixels": 43, "percent_cover": 0.4684095860566449, "percent_above_0.1m": 13.953488372093023, "low_level_<0.5": 6.9767441860465116, "mid_level_0.5-2": 2.3255813953488373, "tall_2+": 0.0 }, "geometry": { "type": "Point", "coordinates": [ 0.080299586207999, 51.380316868611409 ] } },
{ "type": "Feature", "properties": { "max_height": 0.032501220703125, "mean_height": 0.0020241509191691875, "std_height": 0.0084385154768824577, "count_pixels": 42, "percent_cover": 0.45751633986928109, "percent_above_0.1m": 0.0, "low_level_<0.5": 0.0, "mid_level_0.5-2": 0.0, "tall_2+": 0.0 }, "geometry": { "type": "Point", "coordinates": [ 0.080498548253681, 51.380313335756512 ] } },
{ "type": "Feature", "properties": { "max_height": 0.9324951171875, "mean_height": 0.11160768568515778, "std_height": 0.23658248782157898, "count_pixels": 42, "percent_cover": 0.45751633986928109, "percent_above_0.1m": 21.428571428571427, "low_level_<0.5": 4.7619047619047619, "mid_level_0.5-2": 11.904761904761903, "tall_2+": 0.0 }, "geometry": { "type": "Point", "coordinates": [ 0.080697510258805, 51.380309802564021 ] } },
{ "type": "Feature", "properties": { "max_height": 1.18499755859375, "mean_height": 0.14383821189403534, "std_height": 0.27699878811836243, "count_pixels": 43, "percent_cover": 0.4684095860566449, "percent_above_0.1m": 27.906976744186046, "low_level_<0.5": 13.953488372093023, "mid_level_0.5-2": 13.953488372093023, "tall_2+": 0.0 }, "geometry": { "type": "Point", "coordinates": [ 0.08089647222336, 51.380306269033923 ] } },
{ "type": "Feature", "properties": { "max_height": 3.1199951171875, "mean_height": 0.3958137035369873, "std_height": 0.73744034767150879, "count_pixels": 43, "percent_cover": 0.4684095860566449, "percent_above_0.1m": 37.209302325581397, "low_level_<0.5": 13.953488372093023, "mid_level_0.5-2": 18.604651162790699, "tall_2+": 4.6511627906976747 }, "geometry": { "type": "Point", "coordinates": [ 0.081095434147355, 51.380302735166239 ] } },
{ "type": "Feature", "properties": { "max_height": 4.2574996948242188, "mean_height": 0.4439886212348938, "std_height": 0.99617534875869751, "count_pixels": 42, "percent_cover": 0.45751633986928109, "percent_above_0.1m": 30.952380952380953, "low_level_<0.5": 11.904761904761903, "mid_level_0.5-2": 11.904761904761903, "tall_2+": 7.1428571428571423 }, "geometry": { "type": "Point", "coordinates": [ 0.081294396030777, 51.380299200960948 ] } },
{ "type": "Feature", "properties": { "max_height": 6.6725006103515625, "mean_height": 0.79548758268356323, "std_height": 1.4527437686920166, "count_pixels": 41, "percent_cover": 0.44662309368191722, "percent_above_0.1m": 53.658536585365859, "low_level_<0.5": 17.073170731707318, "mid_level_0.5-2": 21.951219512195124, "tall_2+": 12.195121951219512 }, "geometry": { "type": "Point", "coordinates": [ 0.081493357873633, 51.380295666418071 ] } },
{ "type": "Feature", "properties": { "max_height": 1.660003662109375, "mean_height": 0.30857214331626892, "std_height": 0.52707928419113159, "count_pixels": 42, "percent_cover": 0.45751633986928109, "percent_above_0.1m": 35.714285714285715, "low_level_<0.5": 11.904761904761903, "mid_level_0.5-2": 21.428571428571427, "tall_2+": 0.0 }, "geometry": { "type": "Point", "coordinates": [ 0.079807063922537, 51.38043352578147 ] } },
{ "type": "Feature", "properties": { "max_height": 0.0149993896484375, "mean_height": 0.00024469886557199061, "std_height": 0.0067117712460458279, "count_pixels": 41, "percent_cover": 0.44662309368191722, "percent_above_0.1m": 0.0, "low_level_<0.5": 0.0, "mid_level_0.5-2": 0.0, "tall_2+": 0.0 }, "geometry": { "type": "Point", "coordinates": [ 0.080006026538149, 51.380429993755911 ] } },
{ "type": "Feature", "properties": { "max_height": 4.157501220703125, "mean_height": 0.67329257726669312, "std_height": 1.1626054048538208, "count_pixels": 41, "percent_cover": 0.44662309368191722, "percent_above_0.1m": 39.024390243902438, "low_level_<0.5": 9.7560975609756095, "mid_level_0.5-2": 17.073170731707318, "tall_2+": 12.195121951219512 }, "geometry": { "type": "Point", "coordinates": [ 0.080204989113212, 51.380426461392744 ] } },
{ "type": "Feature", "properties": { "max_height": 7.62939453125e-06, "mean_height": -0.0040848893113434315, "std_height": 0.0061176340095698833, "count_pixels": 41, "percent_cover": 0.44662309368191722, "percent_above_0.1m": 0.0, "low_level_<0.5": 0.0, "mid_level_0.5-2": 0.0, "tall_2+": 0.0 }, "geometry": { "type": "Point", "coordinates": [ 0.080403951647724, 51.380422928691971 ] } },
{ "type": "Feature", "properties": { "max_height": 0.01749420166015625, "mean_height": -6.5452171838842332e-05, "std_height": 0.0059451931156218052, "count_pixels": 38, "percent_cover": 0.41394335511982566, "percent_above_0.1m": 0.0, "low_level_<0.5": 0.0, "mid_level_0.5-2": 0.0, "tall_2+": 0.0 }, "geometry": { "type": "Point", "coordinates": [ 0.08060291414168, 51.380419395653618 ] } },
{ "type": "Feature", "properties": { "max_height": 3.1649932861328125, "mean_height": 0.2556096613407135, "std_height": 0.68770259618759155, "count_pixels": 41, "percent_cover": 0.44662309368191722, "percent_above_0.1m": 14.634146341463413, "low_level_<0.5": 0.0, "mid_level_0.5-2": 9.7560975609756095, "tall_2+": 4.8780487804878048 }, "geometry": { "type": "Point", "coordinates": [ 0.080801876595073, 51.380415862277651 ] } },
{ "type": "Feature", "properties": { "max_height": 5.0074920654296875, "mean_height": 0.68091470003128052, "std_height": 1.267359733581543, "count_pixels": 41, "percent_cover": 0.44662309368191722, "percent_above_0.1m": 29.268292682926827, "low_level_<0.5": 0.0, "mid_level_0.5-2": 12.195121951219512, "tall_2+": 17.073170731707318 }, "geometry": { "type": "Point", "coordinates": [ 0.081000839007903, 51.380412328564084 ] } },
{ "type": "Feature", "properties": { "max_height": 2.6875, "mean_height": 0.14000013470649719, "std_height": 0.50733047723770142, "count_pixels": 41, "percent_cover": 0.44662309368191722, "percent_above_0.1m": 12.195121951219512, "low_level_<0.5": 2.4390243902439024, "mid_level_0.5-2": 4.8780487804878048, "tall_2+": 2.4390243902439024 }, "geometry": { "type": "Point", "coordinates": [ 0.081199801380166, 51.380408794512924 ] } },
{ "type": "Feature", "properties": { "max_height": 4.092498779296875, "mean_height": 0.39821425080299377, "std_height": 0.87347149848937988, "count_pixels": 42, "percent_cover": 0.45751633986928109, "percent_above_0.1m": 26.190476190476193, "low_level_<0.5": 2.3809523809523809, "mid_level_0.5-2": 14.285714285714285, "tall_2+": 7.1428571428571423 }, "geometry": { "type": "Point", "coordinates": [ 0.081398763711854, 51.380405260124149 ] } },
{ "type": "Feature", "properties": { "max_height": 6.2050018310546875, "mean_height": 1.7964538335800171, "std_height": 1.734938383102417, "count_pixels": 43, "percent_cover": 0.4684095860566449, "percent_above_0.1m": 76.744186046511629, "low_level_<0.5": 9.3023255813953494, "mid_level_0.5-2": 25.581395348837212, "tall_2+": 41.860465116279073 }, "geometry": { "type": "Point", "coordinates": [ 0.081597726002967, 51.380401725397789 ] } },
{ "type": "Feature", "properties": { "max_height": 7.3349990844726562, "mean_height": 3.4601788520812988, "std_height": 2.3944854736328125, "count_pixels": 42, "percent_cover": 0.45751633986928109, "percent_above_0.1m": 83.333333333333343, "low_level_<0.5": 2.3809523809523809, "mid_level_0.5-2": 11.904761904761903, "tall_2+": 69.047619047619051 }, "geometry": { "type": "Point", "coordinates": [ 0.081796688966412, 51.380398190118264 ] } },
{ "type": "Feature", "properties": { "max_height": 14.205001831054688, "mean_height": 4.0677385330200195, "std_height": 3.7244875431060791, "count_pixels": 42, "percent_cover": 0.45751633986928109, "percent_above_0.1m": 92.857142857142861, "low_level_<0.5": 7.1428571428571423, "mid_level_0.5-2": 28.571428571428569, "tall_2+": 57.142857142857139 }, "geometry": { "type": "Point", "coordinates": [ 0.081995652826565, 51.380394654131955 ] } },
{ "type": "Feature", "properties": { "max_height": 1.6975021362304688, "mean_height": 0.074573427438735962, "std_height": 0.28812551498413086, "count_pixels": 41, "percent_cover": 0.44662309368191722, "percent_above_0.1m": 9.7560975609756095, "low_level_<0.5": 4.8780487804878048, "mid_level_0.5-2": 4.8780487804878048, "tall_2+": 0.0 }, "geometry": { "type": "Point", "coordinates": [ 0.07971246540183, 51.38054311818243 ] } },
{ "type": "Feature", "properties": { "max_height": 0.56749725341796875, "mean_height": 0.011606852523982525, "std_height": 0.086955122649669647, "count_pixels": 42, "percent_cover": 0.45751633986928109, "percent_above_0.1m": 2.3809523809523809, "low_level_<0.5": 0.0, "mid_level_0.5-2": 2.3809523809523809, "tall_2+": 0.0 }, "geometry": { "type": "Point", "coordinates": [ 0.079911428506275, 51.380539586311016 ] } },
{ "type": "Feature", "properties": { "max_height": 0.0149993896484375, "mean_height": -0.0012205257080495358, "std_height": 0.0050976574420928955, "count_pixels": 43, "percent_cover": 0.4684095860566449, "percent_above_0.1m": 0.0, "low_level_<0.5": 0.0, "mid_level_0.5-2": 0.0, "tall_2+": 0.0 }, "geometry": { "type": "Point", "coordinates": [ 0.080110391570169, 51.380536054101981 ] } },
{ "type": "Feature", "properties": { "max_height": 3.5374984741210938, "mean_height": 0.49662744998931885, "std_height": 1.0115960836410522, "count_pixels": 43, "percent_cover": 0.4684095860566449, "percent_above_0.1m": 27.906976744186046, "low_level_<0.5": 6.9767441860465116, "mid_level_0.5-2": 9.3023255813953494, "tall_2+": 11.627906976744185 }, "geometry": { "type": "Point", "coordinates": [ 0.080309354593517, 51.380532521555352 ] } },
{ "type": "Feature", "properties": { "max_height": 0.00749969482421875, "mean_height": -0.00178509671241045, "std_height": 0.0040922532789409161, "count_pixels": 42, "percent_cover": 0.45751633986928109, "percent_above_0.1m": 0.0, "low_level_<0.5": 0.0, "mid_level_0.5-2": 0.0, "tall_2+": 0.0 }, "geometry": { "type": "Point", "coordinates": [ 0.080508317576305, 51.380528988671102 ] } },
{ "type": "Feature", "properties": { "max_height": 1.5174942016601562, "mean_height": 0.054821379482746124, "std_height": 0.24368627369403839, "count_pixels": 42, "percent_cover": 0.45751633986928109, "percent_above_0.1m": 7.1428571428571423, "low_level_<0.5": 4.7619047619047619, "mid_level_0.5-2": 2.3809523809523809, "tall_2+": 0.0 }, "geometry": { "type": "Point", "coordinates": [ 0.080707280518536, 51.380525455449266 ] } },
{ "type": "Feature", "properties": { "max_height": 1.654998779296875, "mean_height": 0.08883773535490036, "std_height": 0.30280101299285889, "count_pixels": 43, "percent_cover": 0.4684095860566449, "percent_above_0.1m": 11.627906976744185, "low_level_<0.5": 2.3255813953488373, "mid_level_0.5-2": 9.3023255813953494, "tall_2+": 0.0 }, "geometry": { "type": "Point", "coordinates": [ 0.080906243420203, 51.380521921889837 ] } },
{ "type": "Feature", "properties": { "max_height": 4.2125015258789062, "mean_height": 0.42395374178886414, "std_height": 0.90971547365188599, "count_pixels": 43, "percent_cover": 0.4684095860566449, "percent_above_0.1m": 27.906976744186046, "low_level_<0.5": 2.3255813953488373, "mid_level_0.5-2": 16.279069767441861, "tall_2+": 6.9767441860465116 }, "geometry": { "type": "Point", "coordinates": [ 0.081105206281307, 51.380518387992787 ] } },
{ "type": "Feature", "properties": { "max_height": 1.9775009155273438, "mean_height": 0.097857154905796051, "std_height": 0.37705230712890625, "count_pixels": 42, "percent_cover": 0.45751633986928109, "percent_above_0.1m": 7.1428571428571423, "low_level_<0.5": 0.0, "mid_level_0.5-2": 7.1428571428571423, "tall_2+": 0.0 }, "geometry": { "type": "Point", "coordinates": [ 0.081304169101836, 51.38051485375815 ] } },
{ "type": "Feature", "properties": { "max_height": 3.4399948120117188, "mean_height": 0.27524381875991821, "std_height": 0.67288917303085327, "count_pixels": 41, "percent_cover": 0.44662309368191722, "percent_above_0.1m": 19.512195121951219, "low_level_<0.5": 0.0, "mid_level_0.5-2": 17.073170731707318, "tall_2+": 2.4390243902439024 }, "geometry": { "type": "Point", "coordinates": [ 0.081503131881793, 51.380511319185914 ] } },
{ "type": "Feature", "properties": { "max_height": 6.4850006103515625, "mean_height": 1.5120741128921509, "std_height": 1.9523266553878784, "count_pixels": 41, "percent_cover": 0.44662309368191722, "percent_above_0.1m": 58.536585365853654, "low_level_<0.5": 9.7560975609756095, "mid_level_0.5-2": 17.073170731707318, "tall_2+": 31.707317073170731 }, "geometry": { "type": "Point", "coordinates": [ 0.081702094893829, 51.380507784229657 ] } },
{ "type": "Feature", "properties": { "max_height": 15.447502136230469, "mean_height": 5.0284857749938965, "std_height": 4.9417076110839844, "count_pixels": 38, "percent_cover": 0.41394335511982566, "percent_above_0.1m": 76.31578947368422, "low_level_<0.5": 0.0, "mid_level_0.5-2": 18.421052631578945, "tall_2+": 57.894736842105267 }, "geometry": { "type": "Point", "coordinates": [ 0.081901058837165, 51.380504248516694 ] } },
{ "type": "Feature", "properties": { "max_height": 0.0124969482421875, "mean_height": -0.00053605576977133751, "std_height": 0.0056303702294826508, "count_pixels": 42, "percent_cover": 0.45751633986928109, "percent_above_0.1m": 0.0, "low_level_<0.5": 0.0, "mid_level_0.5-2": 0.0, "tall_2+": 0.0 }, "geometry": { "type": "Point", "coordinates": [ 0.079816830026139, 51.380649178794009 ] } },
{ "type": "Feature", "properties": { "max_height": 2.790008544921875, "mean_height": 0.3255494236946106, "std_height": 0.74182146787643433, "count_pixels": 41, "percent_cover": 0.44662309368191722, "percent_above_0.1m": 26.829268292682929, "low_level_<0.5": 9.7560975609756095, "mid_level_0.5-2": 9.7560975609756095, "tall_2+": 7.3170731707317067 }, "geometry": { "type": "Point", "coordinates": [ 0.080015793578869, 51.380645646739119 ] } },
{ "type": "Feature", "properties": { "max_height": 0.875, "mean_height": 0.050792787224054337, "std_height": 0.16723883152008057, "count_pixels": 41, "percent_cover": 0.44662309368191722, "percent_above_0.1m": 12.195121951219512, "low_level_<0.5": 7.3170731707317067, "mid_level_0.5-2": 2.4390243902439024, "tall_2+": 0.0 }, "geometry": { "type": "Point", "coordinates": [ 0.08021475709105, 51.380642114346614 ] } },
{ "type": "Feature", "properties": { "max_height": 0.00499725341796875, "mean_height": -0.0020740788895636797, "std_height": 0.0041283410973846912, "count_pixels": 41, "percent_cover": 0.44662309368191722, "percent_above_0.1m": 0.0, "low_level_<0.5": 0.0, "mid_level_0.5-2": 0.0, "tall_2+": 0.0 }, "geometry": { "type": "Point", "coordinates": [ 0.080413720562676, 51.380638581616495 ] } },
{ "type": "Feature", "properties": { "max_height": 2.6800003051757812, "mean_height": 0.23138146102428436, "std_height": 0.63101792335510254, "count_pixels": 38, "percent_cover": 0.41394335511982566, "percent_above_0.1m": 18.421052631578945, "low_level_<0.5": 7.8947368421052628, "mid_level_0.5-2": 5.2631578947368416, "tall_2+": 5.2631578947368416 }, "geometry": { "type": "Point", "coordinates": [ 0.080612683993745, 51.380635048548797 ] } },
{ "type": "Feature", "properties": { "max_height": 0.01000213623046875, "mean_height": -0.00097451556939631701, "std_height": 0.0039378697983920574, "count_pixels": 41, "percent_cover": 0.44662309368191722, "percent_above_0.1m": 0.0, "low_level_<0.5": 0.0, "mid_level_0.5-2": 0.0, "tall_2+": 0.0 }, "geometry": { "type": "Point", "coordinates": [ 0.080811647384254, 51.38063151514347 ] } },
{ "type": "Feature", "properties": { "max_height": 0.00749969482421875, "mean_height": -0.0010977024212479591, "std_height": 0.0051520704291760921, "count_pixels": 41, "percent_cover": 0.44662309368191722, "percent_above_0.1m": 0.0, "low_level_<0.5": 0.0, "mid_level_0.5-2": 0.0, "tall_2+": 0.0 }, "geometry": { "type": "Point", "coordinates": [ 0.081010610734199, 51.380627981400558 ] } },
{ "type": "Feature", "properties": { "max_height": 0.01000213623046875, "mean_height": 0.00079308485146611929, "std_height": 0.0047956961207091808, "count_pixels": 41, "percent_cover": 0.44662309368191722, "percent_above_0.1m": 0.0, "low_level_<0.5": 0.0, "mid_level_0.5-2": 0.0, "tall_2+": 0.0 }, "geometry": { "type": "Point", "coordinates": [ 0.08120957404357, 51.380624447320052 ] } },
{ "type": "Feature", "properties": { "max_height": 0.0175018310546875, "mean_height": -0.0016664777649566531, "std_height": 0.0064474986866116524, "count_pixels": 42, "percent_cover": 0.45751633986928109, "percent_above_0.1m": 0.0, "low_level_<0.5": 0.0, "mid_level_0.5-2": 0.0, "tall_2+": 0.0 }, "geometry": { "type": "Point", "coordinates": [ 0.081408537312375, 51.380620912901925 ] } },
{ "type": "Feature", "properties": { "max_height": 4.0475006103515625, "mean_height": 0.52540749311447144, "std_height": 0.986980140209198, "count_pixels": 43, "percent_cover": 0.4684095860566449, "percent_above_0.1m": 30.232558139534881, "low_level_<0.5": 2.3255813953488373, "mid_level_0.5-2": 20.930232558139537, "tall_2+": 6.9767441860465116 }, "geometry": { "type": "Point", "coordinates": [ 0.081607500540603, 51.380617378146198 ] } },
{ "type": "Feature", "properties": { "max_height": 10.004997253417969, "mean_height": 5.0950584411621094, "std_height": 3.2717866897583008, "count_pixels": 42, "percent_cover": 0.45751633986928109, "percent_above_0.1m": 83.333333333333343, "low_level_<0.5": 0.0, "mid_level_0.5-2": 7.1428571428571423, "tall_2+": 76.19047619047619 }, "geometry": { "type": "Point", "coordinates": [ 0.081806464499422, 51.380613842813027 ] } },
{ "type": "Feature", "properties": { "max_height": 3.5475006103515625, "mean_height": 0.3141079843044281, "std_height": 0.78002083301544189, "count_pixels": 42, "percent_cover": 0.45751633986928109, "percent_above_0.1m": 21.428571428571427, "low_level_<0.5": 2.3809523809523809, "mid_level_0.5-2": 14.285714285714285, "tall_2+": 4.7619047619047619 }, "geometry": { "type": "Point", "coordinates": [ 0.079921195139304, 51.380755239304129 ] } },
{ "type": "Feature", "properties": { "max_height": 0.34000396728515625, "mean_height": 0.014360649511218071, "std_height": 0.069135628640651703, "count_pixels": 43, "percent_cover": 0.4684095860566449, "percent_above_0.1m": 4.6511627906976747, "low_level_<0.5": 4.6511627906976747, "mid_level_0.5-2": 0.0, "tall_2+": 0.0 }, "geometry": { "type": "Point", "coordinates": [ 0.080120159140322, 51.380751707065762 ] } },
{ "type": "Feature", "properties": { "max_height": 0.01250457763671875, "mean_height": 0.00058107596123591065, "std_height": 0.0042045502923429012, "count_pixels": 43, "percent_cover": 0.4684095860566449, "percent_above_0.1m": 0.0, "low_level_<0.5": 0.0, "mid_level_0.5-2": 0.0, "tall_2+": 0.0 }, "geometry": { "type": "Point", "coordinates": [ 0.080319123100785, 51.380748174489774 ] } },
{ "type": "Feature", "properties": { "max_height": 0.08249664306640625, "mean_height": 0.0017262413166463375, "std_height": 0.013154864311218262, "count_pixels": 42, "percent_cover": 0.45751633986928109, "percent_above_0.1m": 0.0, "low_level_<0.5": 0.0, "mid_level_0.5-2": 0.0, "tall_2+": 0.0 }, "geometry": { "type": "Point", "coordinates": [ 0.080518087020699, 51.380744641576207 ] } },
{ "type": "Feature", "properties": { "max_height": 0.00499725341796875, "mean_height": -0.0012497674906626344, "std_height": 0.003283951198682189, "count_pixels": 42, "percent_cover": 0.45751633986928109, "percent_above_0.1m": 0.0, "low_level_<0.5": 0.0, "mid_level_0.5-2": 0.0, "tall_2+": 0.0 }, "geometry": { "type": "Point", "coordinates": [ 0.080717050900051, 51.380741108325026 ] } },
{ "type": "Feature", "properties": { "max_height": 0.01251220703125, "mean_height": -0.0014522463316097856, "std_height": 0.0039354432374238968, "count_pixels": 43, "percent_cover": 0.4684095860566449, "percent_above_0.1m": 0.0, "low_level_<0.5": 0.0, "mid_level_0.5-2": 0.0, "tall_2+": 0.0 }, "geometry": { "type": "Point", "coordinates": [ 0.080916014738837, 51.380737574736223 ] } },
{ "type": "Feature", "properties": { "max_height": 0.01000213623046875, "mean_height": 0.00098898250143975019, "std_height": 0.0038177678361535072, "count_pixels": 43, "percent_cover": 0.4684095860566449, "percent_above_0.1m": 0.0, "low_level_<0.5": 0.0, "mid_level_0.5-2": 0.0, "tall_2+": 0.0 }, "geometry": { "type": "Point", "coordinates": [ 0.081114978537059, 51.380734040809841 ] } },
{ "type": "Feature", "properties": { "max_height": 0.01000213623046875, "mean_height": -5.8673678722698241e-05, "std_height": 0.0038748951628804207, "count_pixels": 42, "percent_cover": 0.45751633986928109, "percent_above_0.1m": 0.0, "low_level_<0.5": 0.0, "mid_level_0.5-2": 0.0, "tall_2+": 0.0 }, "geometry": { "type": "Point", "coordinates": [ 0.081313942294707, 51.380730506545845 ] } },
{ "type": "Feature", "properties": { "max_height": 5.3299942016601562, "mean_height": 0.30963468551635742, "std_height": 1.0524591207504272, "count_pixels": 41, "percent_cover": 0.44662309368191722, "percent_above_0.1m": 12.195121951219512, "low_level_<0.5": 2.4390243902439024, "mid_level_0.5-2": 2.4390243902439024, "tall_2+": 7.3170731707317067 }, "geometry": { "type": "Point", "coordinates": [ 0.081512906011783, 51.38072697194422 ] } },
{ "type": "Feature", "properties": { "max_height": 12.299995422363281, "mean_height": 5.5210371017456055, "std_height": 3.1699450016021729, "count_pixels": 41, "percent_cover": 0.44662309368191722, "percent_above_0.1m": 90.243902439024396, "low_level_<0.5": 0.0, "mid_level_0.5-2": 7.3170731707317067, "tall_2+": 82.926829268292678 }, "geometry": { "type": "Point", "coordinates": [ 0.081711870004637, 51.380723436951321 ] } },
{ "type": "Feature", "properties": { "max_height": 0.00749969482421875, "mean_height": -0.00067045632749795914, "std_height": 0.0033141246531158686, "count_pixels": 41, "percent_cover": 0.44662309368191722, "percent_above_0.1m": 0.0, "low_level_<0.5": 0.0, "mid_level_0.5-2": 0.0, "tall_2+": 0.0 }, "geometry": { "type": "Point", "coordinates": [ 0.080025560741329, 51.380861299712805 ] } },
{ "type": "Feature", "properties": { "max_height": 0.02249908447265625, "mean_height": 0.00048772300942800939, "std_height": 0.0057970248162746429, "count_pixels": 41, "percent_cover": 0.44662309368191722, "percent_above_0.1m": 0.0, "low_level_<0.5": 0.0, "mid_level_0.5-2": 0.0, "tall_2+": 0.0 }, "geometry": { "type": "Point", "coordinates": [ 0.080224525190636, 51.380857767290955 ] } },
{ "type": "Feature", "properties": { "max_height": 0.0149993896484375, "mean_height": 0.0016470188274979591, "std_height": 0.0049263290129601955, "count_pixels": 41, "percent_cover": 0.44662309368191722, "percent_above_0.1m": 0.0, "low_level_<0.5": 0.0, "mid_level_0.5-2": 0.0, "tall_2+": 0.0 }, "geometry": { "type": "Point", "coordinates": [ 0.080423489599389, 51.380854234531512 ] } },
{ "type": "Feature", "properties": { "max_height": 0.01500701904296875, "mean_height": 0.0023022701498121023, "std_height": 0.0051418603397905827, "count_pixels": 38, "percent_cover": 0.41394335511982566, "percent_above_0.1m": 0.0, "low_level_<0.5": 0.0, "mid_level_0.5-2": 0.0, "tall_2+": 0.0 }, "geometry": { "type": "Point", "coordinates": [ 0.080622453967587, 51.38085070143444 ] } },
{ "type": "Feature", "properties": { "max_height": 0.0124969482421875, "mean_height": -0.00012095381680410355, "std_height": 0.0046181799843907356, "count_pixels": 41, "percent_cover": 0.44662309368191722, "percent_above_0.1m": 0.0, "low_level_<0.5": 0.0, "mid_level_0.5-2": 0.0, "tall_2+": 0.0 }, "geometry": { "type": "Point", "coordinates": [ 0.080821418295222, 51.380847167999789 ] } },
{ "type": "Feature", "properties": { "max_height": 0.0149993896484375, "mean_height": -0.0014021338429301977, "std_height": 0.0048779542557895184, "count_pixels": 41, "percent_cover": 0.44662309368191722, "percent_above_0.1m": 0.0, "low_level_<0.5": 0.0, "mid_level_0.5-2": 0.0, "tall_2+": 0.0 }, "geometry": { "type": "Point", "coordinates": [ 0.08102038258229, 51.380843634227524 ] } },
{ "type": "Feature", "properties": { "max_height": 0.01000213623046875, "mean_height": -0.00048753691953606904, "std_height": 0.0036719886120408773, "count_pixels": 41, "percent_cover": 0.44662309368191722, "percent_above_0.1m": 0.0, "low_level_<0.5": 0.0, "mid_level_0.5-2": 0.0, "tall_2+": 0.0 }, "geometry": { "type": "Point", "coordinates": [ 0.081219346828791, 51.380840100117659 ] } },
{ "type": "Feature", "properties": { "max_height": 9.3449935913085938, "mean_height": 0.88392841815948486, "std_height": 2.1035416126251221, "count_pixels": 42, "percent_cover": 0.45751633986928109, "percent_above_0.1m": 23.809523809523807, "low_level_<0.5": 2.3809523809523809, "mid_level_0.5-2": 7.1428571428571423, "tall_2+": 14.285714285714285 }, "geometry": { "type": "Point", "coordinates": [ 0.081418311034719, 51.38083656567018 ] } },
{ "type": "Feature", "properties": { "max_height": 11.837493896484375, "mean_height": 7.2602901458740234, "std_height": 3.041515588760376, "count_pixels": 43, "percent_cover": 0.4684095860566449, "percent_above_0.1m": 97.674418604651152, "low_level_<0.5": 0.0, "mid_level_0.5-2": 6.9767441860465116, "tall_2+": 90.697674418604649 }, "geometry": { "type": "Point", "coordinates": [ 0.081617275200063, 51.380833030885093 ] } },
{ "type": "Feature", "properties": { "max_height": 0.01749420166015625, "mean_height": -0.0012788994936272502, "std_height": 0.0056121242232620716, "count_pixels": 43, "percent_cover": 0.4684095860566449, "percent_above_0.1m": 0.0, "low_level_<0.5": 0.0, "mid_level_0.5-2": 0.0, "tall_2+": 0.0 }, "geometry": { "type": "Point", "coordinates": [ 0.080129926832218, 51.380967360020023 ] } },
{ "type": "Feature", "properties": { "max_height": 7.75250244140625, "mean_height": 1.5066858530044556, "std_height": 2.3611159324645996, "count_pixels": 43, "percent_cover": 0.4684095860566449, "percent_above_0.1m": 39.534883720930232, "low_level_<0.5": 2.3255813953488373, "mid_level_0.5-2": 6.9767441860465116, "tall_2+": 30.232558139534881 }, "geometry": { "type": "Point", "coordinates": [ 0.08032889172982, 51.38096382741471 ] } },
{ "type": "Feature", "properties": { "max_height": 0.032501220703125, "mean_height": 7.2660901651033782e-07, "std_height": 0.0069002881646156311, "count_pixels": 42, "percent_cover": 0.45751633986928109, "percent_above_0.1m": 0.0, "low_level_<0.5": 0.0, "mid_level_0.5-2": 0.0, "tall_2+": 0.0 }, "geometry": { "type": "Point", "coordinates": [ 0.080527856586863, 51.380960294471784 ] } },
{ "type": "Feature", "properties": { "max_height": 0.0149993896484375, "mean_height": -0.00047574724885635078, "std_height": 0.0052402280271053314, "count_pixels": 42, "percent_cover": 0.45751633986928109, "percent_above_0.1m": 0.0, "low_level_<0.5": 0.0, "mid_level_0.5-2": 0.0, "tall_2+": 0.0 }, "geometry": { "type": "Point", "coordinates": [ 0.080726821403345, 51.380956761191236 ] } },
{ "type": "Feature", "properties": { "max_height": 0.0149993896484375, "mean_height": -0.00081421609502285719, "std_height": 0.0051913871429860592, "count_pixels": 43, "percent_cover": 0.4684095860566449, "percent_above_0.1m": 0.0, "low_level_<0.5": 0.0, "mid_level_0.5-2": 0.0, "tall_2+": 0.0 }, "geometry": { "type": "Point", "coordinates": [ 0.080925786179268, 51.380953227573123 ] } },
{ "type": "Feature", "properties": { "max_height": 0.02249908447265625, "mean_height": -0.00087152526248246431, "std_height": 0.005414456594735384, "count_pixels": 43, "percent_cover": 0.4684095860566449, "percent_above_0.1m": 0.0, "low_level_<0.5": 0.0, "mid_level_0.5-2": 0.0, "tall_2+": 0.0 }, "geometry": { "type": "Point", "coordinates": [ 0.081124750914616, 51.380949693617367 ] } },
{ "type": "Feature", "properties": { "max_height": 10.302497863769531, "mean_height": 1.0357731580734253, "std_height": 2.3636023998260498, "count_pixels": 42, "percent_cover": 0.45751633986928109, "percent_above_0.1m": 26.190476190476193, "low_level_<0.5": 2.3809523809523809, "mid_level_0.5-2": 9.5238095238095237, "tall_2+": 14.285714285714285 }, "geometry": { "type": "Point", "coordinates": [ 0.081323715609397, 51.380946159324012 ] } },
{ "type": "Feature", "properties": { "max_height": 13.50250244140625, "mean_height": 8.3681087493896484, "std_height": 2.8037097454071045, "count_pixels": 41, "percent_cover": 0.44662309368191722, "percent_above_0.1m": 100.0, "low_level_<0.5": 0.0, "mid_level_0.5-2": 0.0, "tall_2+": 100.0 }, "geometry": { "type": "Point", "coordinates": [ 0.081522680263601, 51.380942624693049 ] } },
{ "type": "Feature", "properties": { "max_height": 10.302497863769531, "mean_height": 5.8809757232666016, "std_height": 3.4050998687744141, "count_pixels": 41, "percent_cover": 0.44662309368191722, "percent_above_0.1m": 85.365853658536579, "low_level_<0.5": 0.0, "mid_level_0.5-2": 2.4390243902439024, "tall_2+": 82.926829268292678 }, "geometry": { "type": "Point", "coordinates": [ 0.080433258757871, 51.381069887437015 ] } },
{ "type": "Feature", "properties": { "max_height": 11.202499389648438, "mean_height": 3.1996707916259766, "std_height": 3.5482780933380127, "count_pixels": 38, "percent_cover": 0.41394335511982566, "percent_above_0.1m": 65.789473684210535, "low_level_<0.5": 0.0, "mid_level_0.5-2": 18.421052631578945, "tall_2+": 44.736842105263158 }, "geometry": { "type": "Point", "coordinates": [ 0.080632224063206, 51.381066354310605 ] } },
{ "type": "Feature", "properties": { "max_height": 9.9050064086914062, "mean_height": 2.6997575759887695, "std_height": 3.4681215286254883, "count_pixels": 41, "percent_cover": 0.44662309368191722, "percent_above_0.1m": 51.219512195121951, "low_level_<0.5": 0.0, "mid_level_0.5-2": 12.195121951219512, "tall_2+": 39.024390243902438 }, "geometry": { "type": "Point", "coordinates": [ 0.080831189327978, 51.381062820846594 ] } },
{ "type": "Feature", "properties": { "max_height": 12.339996337890625, "mean_height": 5.1104869842529297, "std_height": 3.9909732341766357, "count_pixels": 41, "percent_cover": 0.44662309368191722, "percent_above_0.1m": 78.048780487804876, "low_level_<0.5": 0.0, "mid_level_0.5-2": 9.7560975609756095, "tall_2+": 68.292682926829272 }, "geometry": { "type": "Point", "coordinates": [ 0.081030154552185, 51.381059287044977 ] } },
{ "type": "Feature", "properties": { "max_height": 10.832496643066406, "mean_height": 4.7509145736694336, "std_height": 3.7763383388519287, "count_pixels": 41, "percent_cover": 0.44662309368191722, "percent_above_0.1m": 75.609756097560975, "low_level_<0.5": 0.0, "mid_level_0.5-2": 9.7560975609756095, "tall_2+": 65.853658536585371 }, "geometry": { "type": "Point", "coordinates": [ 0.081229119735818, 51.381055752905752 ] } },
{ "type": "Feature", "properties": { "max_height": 12.074996948242188, "mean_height": 7.3770837783813477, "std_height": 3.0908901691436768, "count_pixels": 42, "percent_cover": 0.45751633986928109, "percent_above_0.1m": 100.0, "low_level_<0.5": 2.3809523809523809, "mid_level_0.5-2": 9.5238095238095237, "tall_2+": 88.095238095238088 }, "geometry": { "type": "Point", "coordinates": [ 0.081428084878884, 51.38105221842892 ] } },
{ "type": "Feature", "properties": { "max_height": 1.0400009155273438, "mean_height": 0.051844824105501175, "std_height": 0.1787099689245224, "count_pixels": 42, "percent_cover": 0.45751633986928109, "percent_above_0.1m": 7.1428571428571423, "low_level_<0.5": 2.3809523809523809, "mid_level_0.5-2": 4.7619047619047619, "tall_2+": 0.0 }, "geometry": { "type": "Point", "coordinates": [ 0.080736592028427, 51.381172414047967 ] } },
{ "type": "Feature", "properties": { "max_height": 7.0825042724609375, "mean_height": 0.66372168064117432, "std_height": 1.6918697357177734, "count_pixels": 43, "percent_cover": 0.4684095860566449, "percent_above_0.1m": 16.279069767441861, "low_level_<0.5": 0.0, "mid_level_0.5-2": 2.3255813953488373, "tall_2+": 13.953488372093023 }, "geometry": { "type": "Point", "coordinates": [ 0.080935557741488, 51.38116888040048 ] } },
{ "type": "Feature", "properties": { "max_height": 10.06500244140625, "mean_height": 0.80145424604415894, "std_height": 2.2389495372772217, "count_pixels": 43, "percent_cover": 0.4684095860566449, "percent_above_0.1m": 23.255813953488371, "low_level_<0.5": 6.9767441860465116, "mid_level_0.5-2": 4.6511627906976747, "tall_2+": 11.627906976744185 }, "geometry": { "type": "Point", "coordinates": [ 0.081134523413983, 51.381165346415386 ] } },
{ "type": "Feature", "properties": { "max_height": 8.7024993896484375, "mean_height": 1.1263090372085571, "std_height": 1.8000965118408203, "count_pixels": 42, "percent_cover": 0.45751633986928109, "percent_above_0.1m": 54.761904761904766, "low_level_<0.5": 4.7619047619047619, "mid_level_0.5-2": 30.952380952380953, "tall_2+": 19.047619047619047 }, "geometry": { "type": "Point", "coordinates": [ 0.081333489045902, 51.381161812092678 ] } }
]
}
