{
"type": "FeatureCollection",
"name": "0b98d34bccbd_foliage",
"crs": { "type": "name", "properties": { "name": "urn:ogc:def:crs:OGC:1.3:CRS84" } },
"features": [
{ "type": "Feature", "properties": { "max_height": 8.7854995727539062, "mean_height": 0.88786602020263672, "std_height": 1.5901170969009399, "count_pixels": 41, "percent_cover": 1.7336152219873151, "percent_above_0.1m": 43.902439024390247, "low_level_<0.5": 2.4390243902439024, "mid_level_0.5-2": 26.829268292682929, "tall_2+": 14.634146341463413 }, "geometry": { "type": "Point", "coordinates": [ -0.331024993050257, 51.427857095849852 ] } },
{ "type": "Feature", "properties": { "max_height": 14.328499794006348, "mean_height": 2.8805794715881348, "std_height": 4.0060200691223145, "count_pixels": 41, "percent_cover": 1.7336152219873151, "percent_above_0.1m": 51.219512195121951, "low_level_<0.5": 2.4390243902439024, "mid_level_0.5-2": 9.7560975609756095, "tall_2+": 39.024390243902438 }, "geometry": { "type": "Point", "coordinates": [ -0.330825771821559, 51.427854257596202 ] } },
{ "type": "Feature", "properties": { "max_height": 16.713001251220703, "mean_height": 8.5931262969970703, "std_height": 5.4059915542602539, "count_pixels": 42, "percent_cover": 1.7758985200845665, "percent_above_0.1m": 92.857142857142861, "low_level_<0.5": 2.3809523809523809, "mid_level_0.5-2": 0.0, "tall_2+": 90.476190476190482 }, "geometry": { "type": "Point", "coordinates": [ -0.330626550627987, 51.427851419004121 ] } },
{ "type": "Feature", "properties": { "max_height": 7.2602500915527344, "mean_height": 2.2255871295928955, "std_height": 3.0208797454833984, "count_pixels": 43, "percent_cover": 1.8181818181818181, "percent_above_0.1m": 58.139534883720934, "low_level_<0.5": 11.627906976744185, "mid_level_0.5-2": 13.953488372093023, "tall_2+": 30.232558139534881 }, "geometry": { "type": "Point", "coordinates": [ -0.331120674057981, 51.427966366950173 ] } },
{ "type": "Feature", "properties": { "max_height": 0.32550048828125, "mean_height": 0.019755829125642776, "std_height": 0.060733824968338013, "count_pixels": 43, "percent_cover": 1.8181818181818181, "percent_above_0.1m": 11.627906976744185, "low_level_<0.5": 4.6511627906976747, "mid_level_0.5-2": 0.0, "tall_2+": 0.0 }, "geometry": { "type": "Point", "coordinates": [ -0.330921452294526, 51.42796352885378 ] } },
{ "type": "Feature", "properties": { "max_height": 0.13224983215332031, "mean_height": 0.0053213662467896938, "std_height": 0.021190214902162552, "count_pixels": 42, "percent_cover": 1.7758985200845665, "percent_above_0.1m": 2.3809523809523809, "low_level_<0.5": 0.0, "mid_level_0.5-2": 0.0, "tall_2+": 0.0 }, "geometry": { "type": "Point", "coordinates": [ -0.330722230566201, 51.427960690418978 ] } },
{ "type": "Feature", "properties": { "max_height": 6.7047510147094727, "mean_height": 2.9831669330596924, "std_height": 2.2808852195739746, "count_pixels": 42, "percent_cover": 1.7758985200845665, "percent_above_0.1m": 78.571428571428569, "low_level_<0.5": 2.3809523809523809, "mid_level_0.5-2": 16.666666666666664, "tall_2+": 59.523809523809526 }, "geometry": { "type": "Point", "coordinates": [ -0.330523008872999, 51.427957851645751 ] } },
{ "type": "Feature", "properties": { "max_height": 7.1569995880126953, "mean_height": 7.0012502670288086, "std_height": 0.05080011859536171, "count_pixels": 36, "percent_cover": 1.522198731501057, "percent_above_0.1m": 100.0, "low_level_<0.5": 0.0, "mid_level_0.5-2": 0.0, "tall_2+": 100.0 }, "geometry": { "type": "Point", "coordinates": [ -0.331216355565332, 51.428075637975581 ] } },
{ "type": "Feature", "properties": { "max_height": 7.2430000305175781, "mean_height": 1.0104329586029053, "std_height": 2.2137513160705566, "count_pixels": 41, "percent_cover": 1.7336152219873151, "percent_above_0.1m": 24.390243902439025, "low_level_<0.5": 2.4390243902439024, "mid_level_0.5-2": 4.8780487804878048, "tall_2+": 17.073170731707318 }, "geometry": { "type": "Point", "coordinates": [ -0.331017133267123, 51.42807280003646 ] } },
{ "type": "Feature", "properties": { "max_height": 0.97499942779541016, "mean_height": 0.056652393192052841, "std_height": 0.17101219296455383, "count_pixels": 41, "percent_cover": 1.7336152219873151, "percent_above_0.1m": 12.195121951219512, "low_level_<0.5": 9.7560975609756095, "mid_level_0.5-2": 2.4390243902439024, "tall_2+": 0.0 }, "geometry": { "type": "Point", "coordinates": [ -0.330817911004037, 51.428069961758929 ] } },
{ "type": "Feature", "properties": { "max_height": 4.6622505187988281, "mean_height": 0.2811429500579834, "std_height": 0.87458336353302002, "count_pixels": 42, "percent_cover": 1.7758985200845665, "percent_above_0.1m": 16.666666666666664, "low_level_<0.5": 4.7619047619047619, "mid_level_0.5-2": 7.1428571428571423, "tall_2+": 4.7619047619047619 }, "geometry": { "type": "Point", "coordinates": [ -0.330618688776072, 51.428067123142974 ] } },
{ "type": "Feature", "properties": { "max_height": 8.4295005798339844, "mean_height": 1.4275476932525635, "std_height": 1.4230575561523438, "count_pixels": 42, "percent_cover": 1.7758985200845665, "percent_above_0.1m": 92.857142857142861, "low_level_<0.5": 11.904761904761903, "mid_level_0.5-2": 61.904761904761905, "tall_2+": 19.047619047619047 }, "geometry": { "type": "Point", "coordinates": [ -0.330419466583237, 51.428064284188615 ] } },
{ "type": "Feature", "properties": { "max_height": 7.1717500686645508, "mean_height": 3.3793783187866211, "std_height": 3.218513011932373, "count_pixels": 43, "percent_cover": 1.8181818181818181, "percent_above_0.1m": 65.116279069767444, "low_level_<0.5": 4.6511627906976747, "mid_level_0.5-2": 6.9767441860465116, "tall_2+": 53.488372093023251 }, "geometry": { "type": "Point", "coordinates": [ -0.33111281473935, 51.428182071144199 ] } },
{ "type": "Feature", "properties": { "max_height": 0.97999954223632812, "mean_height": 0.027877897024154663, "std_height": 0.14891853928565979, "count_pixels": 43, "percent_cover": 1.8181818181818181, "percent_above_0.1m": 4.6511627906976747, "low_level_<0.5": 2.3255813953488373, "mid_level_0.5-2": 2.3255813953488373, "tall_2+": 0.0 }, "geometry": { "type": "Point", "coordinates": [ -0.330913591941501, 51.428179233023968 ] } },
{ "type": "Feature", "properties": { "max_height": 0.18949985504150391, "mean_height": 0.016523838043212891, "std_height": 0.044780246913433075, "count_pixels": 42, "percent_cover": 1.7758985200845665, "percent_above_0.1m": 7.1428571428571423, "low_level_<0.5": 4.7619047619047619, "mid_level_0.5-2": 0.0, "tall_2+": 0.0 }, "geometry": { "type": "Point", "coordinates": [ -0.330714369178772, 51.428176394565284 ] } },
{ "type": "Feature", "properties": { "max_height": 3.3805007934570312, "mean_height": 1.0799702405929565, "std_height": 0.99842000007629395, "count_pixels": 42, "percent_cover": 1.7758985200845665, "percent_above_0.1m": 71.428571428571431, "low_level_<0.5": 9.5238095238095237, "mid_level_0.5-2": 38.095238095238095, "tall_2+": 21.428571428571427 }, "geometry": { "type": "Point", "coordinates": [ -0.330515146451172, 51.428173555768197 ] } },
{ "type": "Feature", "properties": { "max_height": 10.793000221252441, "mean_height": 4.6184515953063965, "std_height": 3.2906625270843506, "count_pixels": 41, "percent_cover": 1.7336152219873151, "percent_above_0.1m": 82.926829268292678, "low_level_<0.5": 2.4390243902439024, "mid_level_0.5-2": 7.3170731707317067, "tall_2+": 73.170731707317074 }, "geometry": { "type": "Point", "coordinates": [ -0.3310092733786, 51.428288504214052 ] } },
{ "type": "Feature", "properties": { "max_height": 7.4992494583129883, "mean_height": 0.948932945728302, "std_height": 2.1083698272705078, "count_pixels": 41, "percent_cover": 1.7336152219873151, "percent_above_0.1m": 21.951219512195124, "low_level_<0.5": 0.0, "mid_level_0.5-2": 2.4390243902439024, "tall_2+": 17.073170731707318 }, "geometry": { "type": "Point", "coordinates": [ -0.330810050081104, 51.428285665912668 ] } },
{ "type": "Feature", "properties": { "max_height": 2.3870000839233398, "mean_height": 0.66197043657302856, "std_height": 0.85548818111419678, "count_pixels": 42, "percent_cover": 1.7758985200845665, "percent_above_0.1m": 45.238095238095241, "low_level_<0.5": 4.7619047619047619, "mid_level_0.5-2": 28.571428571428569, "tall_2+": 11.904761904761903 }, "geometry": { "type": "Point", "coordinates": [ -0.330610826818732, 51.428282827272845 ] } },
{ "type": "Feature", "properties": { "max_height": 6.1990013122558594, "mean_height": 3.218320369720459, "std_height": 1.528978705406189, "count_pixels": 43, "percent_cover": 1.8181818181818181, "percent_above_0.1m": 90.697674418604649, "low_level_<0.5": 0.0, "mid_level_0.5-2": 11.627906976744185, "tall_2+": 79.069767441860463 }, "geometry": { "type": "Point", "coordinates": [ -0.33090573148307, 51.428394937185139 ] } },
{ "type": "Feature", "properties": { "max_height": 8.7724990844726562, "mean_height": 2.0110952854156494, "std_height": 2.502371072769165, "count_pixels": 42, "percent_cover": 1.7758985200845665, "percent_above_0.1m": 71.428571428571431, "low_level_<0.5": 14.285714285714285, "mid_level_0.5-2": 16.666666666666664, "tall_2+": 35.714285714285715 }, "geometry": { "type": "Point", "coordinates": [ -0.330706507685927, 51.428392098702588 ] } },
{ "type": "Feature", "properties": { "max_height": 3.797999382019043, "mean_height": 1.2146402597427368, "std_height": 1.0385572910308838, "count_pixels": 41, "percent_cover": 1.7336152219873151, "percent_above_0.1m": 80.487804878048792, "low_level_<0.5": 12.195121951219512, "mid_level_0.5-2": 39.024390243902438, "tall_2+": 29.268292682926827 }, "geometry": { "type": "Point", "coordinates": [ -0.330802189052756, 51.428501370057425 ] } }
]
}
