{
"type": "FeatureCollection",
"name": "5dfe641061b6_foliage",
"crs": { "type": "name", "properties": { "name": "urn:ogc:def:crs:OGC:1.3:CRS84" } },
"features": [
{ "type": "Feature", "properties": { "max_height": 13.486001968383789, "mean_height": 2.5652039051055908, "std_height": 4.1523556709289551, "count_pixels": 43, "percent_cover": 1.1008704557091653, "percent_above_0.1m": 48.837209302325576, "low_level_<0.5": 6.9767441860465116, "mid_level_0.5-2": 9.3023255813953494, "tall_2+": 30.232558139534881 }, "geometry": { "type": "Point", "coordinates": [ -0.233016555623781, 51.482374679329666 ] } },
{ "type": "Feature", "properties": { "max_height": 10.856500625610352, "mean_height": 1.2577799558639526, "std_height": 2.810178279876709, "count_pixels": 42, "percent_cover": 1.0752688172043012, "percent_above_0.1m": 50.0, "low_level_<0.5": 21.428571428571427, "mid_level_0.5-2": 9.5238095238095237, "tall_2+": 14.285714285714285 }, "geometry": { "type": "Point", "coordinates": [ -0.232817106504154, 51.482371674860694 ] } },
{ "type": "Feature", "properties": { "max_height": 3.036750316619873, "mean_height": 0.74222040176391602, "std_height": 0.85136318206787109, "count_pixels": 42, "percent_cover": 1.0752688172043012, "percent_above_0.1m": 59.523809523809526, "low_level_<0.5": 9.5238095238095237, "mid_level_0.5-2": 33.333333333333329, "tall_2+": 14.285714285714285 }, "geometry": { "type": "Point", "coordinates": [ -0.232617657419082, 51.482368670053056 ] } },
{ "type": "Feature", "properties": { "max_height": 2.6695003509521484, "mean_height": 0.2706037163734436, "std_height": 0.61479705572128296, "count_pixels": 41, "percent_cover": 1.0496671786994367, "percent_above_0.1m": 21.951219512195124, "low_level_<0.5": 2.4390243902439024, "mid_level_0.5-2": 14.634146341463413, "tall_2+": 4.8780487804878048 }, "geometry": { "type": "Point", "coordinates": [ -0.232418208368566, 51.482365664906716 ] } },
{ "type": "Feature", "properties": { "max_height": 2.2350001335144043, "mean_height": 0.22831109166145325, "std_height": 0.39015606045722961, "count_pixels": 41, "percent_cover": 1.0496671786994367, "percent_above_0.1m": 43.902439024390247, "low_level_<0.5": 19.512195121951219, "mid_level_0.5-2": 14.634146341463413, "tall_2+": 2.4390243902439024 }, "geometry": { "type": "Point", "coordinates": [ -0.232218759352619, 51.482362659421696 ] } },
{ "type": "Feature", "properties": { "max_height": 2.5665006637573242, "mean_height": 0.30800029635429382, "std_height": 0.47168704867362976, "count_pixels": 36, "percent_cover": 0.92165898617511521, "percent_above_0.1m": 47.222222222222221, "low_level_<0.5": 22.222222222222221, "mid_level_0.5-2": 22.222222222222221, "tall_2+": 2.7777777777777777 }, "geometry": { "type": "Point", "coordinates": [ -0.23201931037124, 51.482359653597982 ] } },
{ "type": "Feature", "properties": { "max_height": 0.40875053405761719, "mean_height": 0.05312822014093399, "std_height": 0.11011491715908051, "count_pixels": 41, "percent_cover": 1.0496671786994367, "percent_above_0.1m": 21.951219512195124, "low_level_<0.5": 17.073170731707318, "mid_level_0.5-2": 0.0, "tall_2+": 0.0 }, "geometry": { "type": "Point", "coordinates": [ -0.233112113617539, 51.482484030813097 ] } },
{ "type": "Feature", "properties": { "max_height": 3.0632505416870117, "mean_height": 0.45682942867279053, "std_height": 0.62958145141601562, "count_pixels": 41, "percent_cover": 1.0496671786994367, "percent_above_0.1m": 58.536585365853654, "low_level_<0.5": 24.390243902439025, "mid_level_0.5-2": 29.268292682926827, "tall_2+": 2.4390243902439024 }, "geometry": { "type": "Point", "coordinates": [ -0.232912664010846, 51.482481026494817 ] } },
{ "type": "Feature", "properties": { "max_height": 2.3052501678466797, "mean_height": 0.31390482187271118, "std_height": 0.59705471992492676, "count_pixels": 42, "percent_cover": 1.0752688172043012, "percent_above_0.1m": 33.333333333333329, "low_level_<0.5": 14.285714285714285, "mid_level_0.5-2": 14.285714285714285, "tall_2+": 4.7619047619047619 }, "geometry": { "type": "Point", "coordinates": [ -0.232713214438711, 51.482478021837814 ] } },
{ "type": "Feature", "properties": { "max_height": 2.3757505416870117, "mean_height": 0.16223219037055969, "std_height": 0.45712646842002869, "count_pixels": 42, "percent_cover": 1.0752688172043012, "percent_above_0.1m": 14.285714285714285, "low_level_<0.5": 0.0, "mid_level_0.5-2": 11.904761904761903, "tall_2+": 2.3809523809523809 }, "geometry": { "type": "Point", "coordinates": [ -0.232513764901138, 51.48247501684213 ] } },
{ "type": "Feature", "properties": { "max_height": 0.049499988555908203, "mean_height": 0.0017383819213137031, "std_height": 0.0082940179854631424, "count_pixels": 43, "percent_cover": 1.1008704557091653, "percent_above_0.1m": 0.0, "low_level_<0.5": 0.0, "mid_level_0.5-2": 0.0, "tall_2+": 0.0 }, "geometry": { "type": "Point", "coordinates": [ -0.232314315398118, 51.48247201150776 ] } },
{ "type": "Feature", "properties": { "max_height": 4.6774997711181641, "mean_height": 1.2645407915115356, "std_height": 1.6094341278076172, "count_pixels": 43, "percent_cover": 1.1008704557091653, "percent_above_0.1m": 48.837209302325576, "low_level_<0.5": 2.3255813953488373, "mid_level_0.5-2": 13.953488372093023, "tall_2+": 32.558139534883722 }, "geometry": { "type": "Point", "coordinates": [ -0.232114865929675, 51.482469005834695 ] } },
{ "type": "Feature", "properties": { "max_height": 1.0600004196166992, "mean_height": 0.14155255258083344, "std_height": 0.27355900406837463, "count_pixels": 43, "percent_cover": 1.1008704557091653, "percent_above_0.1m": 25.581395348837212, "low_level_<0.5": 9.3023255813953494, "mid_level_0.5-2": 13.953488372093023, "tall_2+": 0.0 }, "geometry": { "type": "Point", "coordinates": [ -0.231915416495794, 51.482465999822956 ] } },
{ "type": "Feature", "properties": { "max_height": 4.9254999160766602, "mean_height": 0.60208165645599365, "std_height": 1.2647496461868286, "count_pixels": 43, "percent_cover": 1.1008704557091653, "percent_above_0.1m": 48.837209302325576, "low_level_<0.5": 25.581395348837212, "mid_level_0.5-2": 13.953488372093023, "tall_2+": 9.3023255813953494 }, "geometry": { "type": "Point", "coordinates": [ -0.233207672063787, 51.482593382228032 ] } },
{ "type": "Feature", "properties": { "max_height": 6.3412504196166992, "mean_height": 1.3746980428695679, "std_height": 1.8516113758087158, "count_pixels": 43, "percent_cover": 1.1008704557091653, "percent_above_0.1m": 60.465116279069761, "low_level_<0.5": 4.6511627906976747, "mid_level_0.5-2": 30.232558139534881, "tall_2+": 23.255813953488371 }, "geometry": { "type": "Point", "coordinates": [ -0.233008221970032, 51.482590378060401 ] } },
{ "type": "Feature", "properties": { "max_height": 1.3240001201629639, "mean_height": 0.11139288544654846, "std_height": 0.29727920889854431, "count_pixels": 42, "percent_cover": 1.0752688172043012, "percent_above_0.1m": 16.666666666666664, "low_level_<0.5": 4.7619047619047619, "mid_level_0.5-2": 9.5238095238095237, "tall_2+": 0.0 }, "geometry": { "type": "Point", "coordinates": [ -0.232808771910833, 51.482587373554068 ] } },
{ "type": "Feature", "properties": { "max_height": 0.0, "mean_height": 0.0, "std_height": 0.0, "count_pixels": 42, "percent_cover": 1.0752688172043012, "percent_above_0.1m": 0.0, "low_level_<0.5": 0.0, "mid_level_0.5-2": 0.0, "tall_2+": 0.0 }, "geometry": { "type": "Point", "coordinates": [ -0.232609321886191, 51.482584368709034 ] } },
{ "type": "Feature", "properties": { "max_height": 0.0, "mean_height": 0.0, "std_height": 0.0, "count_pixels": 41, "percent_cover": 1.0496671786994367, "percent_above_0.1m": 0.0, "low_level_<0.5": 0.0, "mid_level_0.5-2": 0.0, "tall_2+": 0.0 }, "geometry": { "type": "Point", "coordinates": [ -0.23240987189611, 51.48258136352532 ] } },
{ "type": "Feature", "properties": { "max_height": 0.1432502269744873, "mean_height": 0.0051768524572253227, "std_height": 0.022753313183784485, "count_pixels": 41, "percent_cover": 1.0496671786994367, "percent_above_0.1m": 2.4390243902439024, "low_level_<0.5": 0.0, "mid_level_0.5-2": 0.0, "tall_2+": 0.0 }, "geometry": { "type": "Point", "coordinates": [ -0.232210421940595, 51.482578358002911 ] } },
{ "type": "Feature", "properties": { "max_height": 0.69950008392333984, "mean_height": 0.078534871339797974, "std_height": 0.16068899631500244, "count_pixels": 36, "percent_cover": 0.92165898617511521, "percent_above_0.1m": 22.222222222222221, "low_level_<0.5": 16.666666666666664, "mid_level_0.5-2": 2.7777777777777777, "tall_2+": 0.0 }, "geometry": { "type": "Point", "coordinates": [ -0.232010972019641, 51.482575352141801 ] } },
{ "type": "Feature", "properties": { "max_height": 3.7852506637573242, "mean_height": 0.4937380850315094, "std_height": 0.94228899478912354, "count_pixels": 41, "percent_cover": 1.0496671786994367, "percent_above_0.1m": 36.585365853658537, "low_level_<0.5": 12.195121951219512, "mid_level_0.5-2": 12.195121951219512, "tall_2+": 9.7560975609756095 }, "geometry": { "type": "Point", "coordinates": [ -0.231811522133269, 51.482572345942017 ] } },
{ "type": "Feature", "properties": { "max_height": 8.4450016021728516, "mean_height": 0.8227076530456543, "std_height": 1.6083920001983643, "count_pixels": 41, "percent_cover": 1.0496671786994367, "percent_above_0.1m": 46.341463414634148, "low_level_<0.5": 12.195121951219512, "mid_level_0.5-2": 19.512195121951219, "tall_2+": 14.634146341463413 }, "geometry": { "type": "Point", "coordinates": [ -0.233103780381718, 51.48269972955746 ] } },
{ "type": "Feature", "properties": { "max_height": 3.6887500286102295, "mean_height": 0.55224394798278809, "std_height": 0.9790605902671814, "count_pixels": 41, "percent_cover": 1.0496671786994367, "percent_above_0.1m": 36.585365853658537, "low_level_<0.5": 7.3170731707317067, "mid_level_0.5-2": 21.951219512195124, "tall_2+": 7.3170731707317067 }, "geometry": { "type": "Point", "coordinates": [ -0.232904329835448, 51.482696725201791 ] } },
{ "type": "Feature", "properties": { "max_height": 0.0, "mean_height": 0.0, "std_height": 0.0, "count_pixels": 42, "percent_cover": 1.0752688172043012, "percent_above_0.1m": 0.0, "low_level_<0.5": 0.0, "mid_level_0.5-2": 0.0, "tall_2+": 0.0 }, "geometry": { "type": "Point", "coordinates": [ -0.232704879323742, 51.482693720507427 ] } },
{ "type": "Feature", "properties": { "max_height": 0.0, "mean_height": 0.0, "std_height": 0.0, "count_pixels": 42, "percent_cover": 1.0752688172043012, "percent_above_0.1m": 0.0, "low_level_<0.5": 0.0, "mid_level_0.5-2": 0.0, "tall_2+": 0.0 }, "geometry": { "type": "Point", "coordinates": [ -0.232505428846589, 51.482690715474369 ] } },
{ "type": "Feature", "properties": { "max_height": 0.0, "mean_height": 0.0, "std_height": 0.0, "count_pixels": 43, "percent_cover": 1.1008704557091653, "percent_above_0.1m": 0.0, "low_level_<0.5": 0.0, "mid_level_0.5-2": 0.0, "tall_2+": 0.0 }, "geometry": { "type": "Point", "coordinates": [ -0.232305978404, 51.482687710102603 ] } },
{ "type": "Feature", "properties": { "max_height": 0.0, "mean_height": -1.162151966127567e-05, "std_height": 7.5316056609153748e-05, "count_pixels": 43, "percent_cover": 1.1008704557091653, "percent_above_0.1m": 0.0, "low_level_<0.5": 0.0, "mid_level_0.5-2": 0.0, "tall_2+": 0.0 }, "geometry": { "type": "Point", "coordinates": [ -0.23210652799598, 51.482684704392163 ] } },
{ "type": "Feature", "properties": { "max_height": 1.1020002365112305, "mean_height": 0.1044420450925827, "std_height": 0.2092612236738205, "count_pixels": 43, "percent_cover": 1.1008704557091653, "percent_above_0.1m": 27.906976744186046, "low_level_<0.5": 16.279069767441861, "mid_level_0.5-2": 4.6511627906976747, "tall_2+": 0.0 }, "geometry": { "type": "Point", "coordinates": [ -0.231907077622527, 51.482681698343008 ] } },
{ "type": "Feature", "properties": { "max_height": 0.67750024795532227, "mean_height": 0.090023405849933624, "std_height": 0.13065433502197266, "count_pixels": 43, "percent_cover": 1.1008704557091653, "percent_above_0.1m": 32.558139534883722, "low_level_<0.5": 23.255813953488371, "mid_level_0.5-2": 2.3255813953488373, "tall_2+": 0.0 }, "geometry": { "type": "Point", "coordinates": [ -0.232999888212565, 51.482806076781024 ] } },
{ "type": "Feature", "properties": { "max_height": 0.20650029182434082, "mean_height": 0.016642939299345016, "std_height": 0.040819533169269562, "count_pixels": 42, "percent_cover": 1.0752688172043012, "percent_above_0.1m": 4.7619047619047619, "low_level_<0.5": 2.3809523809523809, "mid_level_0.5-2": 0.0, "tall_2+": 0.0 }, "geometry": { "type": "Point", "coordinates": [ -0.232800437213787, 51.482803072237317 ] } },
{ "type": "Feature", "properties": { "max_height": 2.4862501621246338, "mean_height": 0.05963096022605896, "std_height": 0.37898284196853638, "count_pixels": 42, "percent_cover": 1.0752688172043012, "percent_above_0.1m": 2.3809523809523809, "low_level_<0.5": 0.0, "mid_level_0.5-2": 0.0, "tall_2+": 2.3809523809523809 }, "geometry": { "type": "Point", "coordinates": [ -0.232600986249561, 51.482800067354901 ] } },
{ "type": "Feature", "properties": { "max_height": 0.7090001106262207, "mean_height": 0.024445133283734322, "std_height": 0.1116408035159111, "count_pixels": 41, "percent_cover": 1.0496671786994367, "percent_above_0.1m": 4.8780487804878048, "low_level_<0.5": 0.0, "mid_level_0.5-2": 2.4390243902439024, "tall_2+": 0.0 }, "geometry": { "type": "Point", "coordinates": [ -0.2324015353199, 51.482797062133805 ] } },
{ "type": "Feature", "properties": { "max_height": 0.0067498683929443359, "mean_height": 0.00017683098849374801, "std_height": 0.001042146934196353, "count_pixels": 41, "percent_cover": 1.0496671786994367, "percent_above_0.1m": 0.0, "low_level_<0.5": 0.0, "mid_level_0.5-2": 0.0, "tall_2+": 0.0 }, "geometry": { "type": "Point", "coordinates": [ -0.232202084424803, 51.482794056574015 ] } },
{ "type": "Feature", "properties": { "max_height": 0.28999996185302734, "mean_height": 0.025139013305306435, "std_height": 0.074948333203792572, "count_pixels": 36, "percent_cover": 0.92165898617511521, "percent_above_0.1m": 11.111111111111111, "low_level_<0.5": 8.3333333333333321, "mid_level_0.5-2": 0.0, "tall_2+": 0.0 }, "geometry": { "type": "Point", "coordinates": [ -0.232002633564274, 51.48279105067553 ] } },
{ "type": "Feature", "properties": { "max_height": 0.62625026702880859, "mean_height": 0.056652668863534927, "std_height": 0.11588708311319351, "count_pixels": 41, "percent_cover": 1.0496671786994367, "percent_above_0.1m": 19.512195121951219, "low_level_<0.5": 14.634146341463413, "mid_level_0.5-2": 2.4390243902439024, "tall_2+": 0.0 }, "geometry": { "type": "Point", "coordinates": [ -0.232895995556332, 51.482912423898668 ] } },
{ "type": "Feature", "properties": { "max_height": 1.0232501029968262, "mean_height": 0.081988319754600525, "std_height": 0.19548898935317993, "count_pixels": 42, "percent_cover": 1.0752688172043012, "percent_above_0.1m": 23.809523809523807, "low_level_<0.5": 14.285714285714285, "mid_level_0.5-2": 4.7619047619047619, "tall_2+": 0.0 }, "geometry": { "type": "Point", "coordinates": [ -0.232696544105032, 51.482909419166923 ] } },
{ "type": "Feature", "properties": { "max_height": 3.6850006580352783, "mean_height": 0.32894062995910645, "std_height": 0.71110773086547852, "count_pixels": 42, "percent_cover": 1.0752688172043012, "percent_above_0.1m": 33.333333333333329, "low_level_<0.5": 11.904761904761903, "mid_level_0.5-2": 14.285714285714285, "tall_2+": 4.7619047619047619 }, "geometry": { "type": "Point", "coordinates": [ -0.232497092688298, 51.482906414096483 ] } },
{ "type": "Feature", "properties": { "max_height": 0.2910003662109375, "mean_height": 0.020395472645759583, "std_height": 0.060834258794784546, "count_pixels": 43, "percent_cover": 1.1008704557091653, "percent_above_0.1m": 6.9767441860465116, "low_level_<0.5": 6.9767441860465116, "mid_level_0.5-2": 0.0, "tall_2+": 0.0 }, "geometry": { "type": "Point", "coordinates": [ -0.23229764130612, 51.482903408687356 ] } },
{ "type": "Feature", "properties": { "max_height": 1.2285003662109375, "mean_height": 0.10265136510133743, "std_height": 0.28344962000846863, "count_pixels": 43, "percent_cover": 1.1008704557091653, "percent_above_0.1m": 13.953488372093023, "low_level_<0.5": 4.6511627906976747, "mid_level_0.5-2": 9.3023255813953494, "tall_2+": 0.0 }, "geometry": { "type": "Point", "coordinates": [ -0.232098189958514, 51.482900402939514 ] } },
{ "type": "Feature", "properties": { "max_height": 8.7972507476806641, "mean_height": 0.77257764339447021, "std_height": 1.8706260919570923, "count_pixels": 42, "percent_cover": 1.0752688172043012, "percent_above_0.1m": 47.619047619047613, "low_level_<0.5": 21.428571428571427, "mid_level_0.5-2": 7.1428571428571423, "tall_2+": 11.904761904761903 }, "geometry": { "type": "Point", "coordinates": [ -0.232592650509191, 51.483015765990665 ] } },
{ "type": "Feature", "properties": { "max_height": 3.982250452041626, "mean_height": 0.31281107664108276, "std_height": 0.70985424518585205, "count_pixels": 41, "percent_cover": 1.0496671786994367, "percent_above_0.1m": 39.024390243902438, "low_level_<0.5": 19.512195121951219, "mid_level_0.5-2": 12.195121951219512, "tall_2+": 4.8780487804878048 }, "geometry": { "type": "Point", "coordinates": [ -0.23239319863994, 51.483012760732159 ] } },
{ "type": "Feature", "properties": { "max_height": 3.8450002670288086, "mean_height": 0.55170750617980957, "std_height": 0.94390541315078735, "count_pixels": 41, "percent_cover": 1.0496671786994367, "percent_above_0.1m": 46.341463414634148, "low_level_<0.5": 2.4390243902439024, "mid_level_0.5-2": 21.951219512195124, "tall_2+": 9.7560975609756095 }, "geometry": { "type": "Point", "coordinates": [ -0.232193746805245, 51.483009755134987 ] } },
{ "type": "Feature", "properties": { "max_height": 0.58599996566772461, "mean_height": 0.08140990138053894, "std_height": 0.14149594306945801, "count_pixels": 36, "percent_cover": 0.92165898617511521, "percent_above_0.1m": 22.222222222222221, "low_level_<0.5": 16.666666666666664, "mid_level_0.5-2": 2.7777777777777777, "tall_2+": 0.0 }, "geometry": { "type": "Point", "coordinates": [ -0.231994295005131, 51.48300674919912 ] } }
]
}
