{
"type": "FeatureCollection",
"name": "f5edd597e97d_visibility",
"crs": { "type": "name", "properties": { "name": "urn:ogc:def:crs:OGC:1.3:CRS84" } },
"features": [
{ "type": "Feature", "properties": { "visible_points": 1, "total_points": 71, "visibility_pct": 1.4084507042253522 }, "geometry": { "type": "Point", "coordinates": [ -0.287448386928175, 51.483268646622015 ] } },
{ "type": "Feature", "properties": { "visible_points": 22, "total_points": 70, "visibility_pct": 31.428571428571427 }, "geometry": { "type": "Point", "coordinates": [ -0.287248928326015, 51.483265735080515 ] } },
{ "type": "Feature", "properties": { "visible_points": 27, "total_points": 67, "visibility_pct": 40.298507462686565 }, "geometry": { "type": "Point", "coordinates": [ -0.287049469757374, 51.483262823199581 ] } },
{ "type": "Feature", "properties": { "visible_points": 18, "total_points": 80, "visibility_pct": 22.5 }, "geometry": { "type": "Point", "coordinates": [ -0.287743537395182, 51.483380867122165 ] } },
{ "type": "Feature", "properties": { "visible_points": 20, "total_points": 82, "visibility_pct": 24.390243902439025 }, "geometry": { "type": "Point", "coordinates": [ -0.287544078272418, 51.483377956083899 ] } },
{ "type": "Feature", "properties": { "visible_points": 28, "total_points": 82, "visibility_pct": 34.146341463414636 }, "geometry": { "type": "Point", "coordinates": [ -0.287344619183172, 51.483375044706207 ] } },
{ "type": "Feature", "properties": { "visible_points": 35, "total_points": 79, "visibility_pct": 44.303797468354425 }, "geometry": { "type": "Point", "coordinates": [ -0.287145160127443, 51.483372132989111 ] } },
{ "type": "Feature", "properties": { "visible_points": 30, "total_points": 69, "visibility_pct": 43.478260869565219 }, "geometry": { "type": "Point", "coordinates": [ -0.28674624211655, 51.483366308536645 ] } },
{ "type": "Feature", "properties": { "visible_points": 10, "total_points": 79, "visibility_pct": 12.658227848101266 }, "geometry": { "type": "Point", "coordinates": [ -0.288238149000297, 51.483495997069902 ] } },
{ "type": "Feature", "properties": { "visible_points": 16, "total_points": 85, "visibility_pct": 18.823529411764707 }, "geometry": { "type": "Point", "coordinates": [ -0.288038689323433, 51.483493086874304 ] } },
{ "type": "Feature", "properties": { "visible_points": 22, "total_points": 90, "visibility_pct": 24.444444444444443 }, "geometry": { "type": "Point", "coordinates": [ -0.287839229680072, 51.483490176339274 ] } },
{ "type": "Feature", "properties": { "visible_points": 19, "total_points": 92, "visibility_pct": 20.652173913043477 }, "geometry": { "type": "Point", "coordinates": [ -0.287639770070224, 51.483487265464824 ] } },
{ "type": "Feature", "properties": { "visible_points": 25, "total_points": 94, "visibility_pct": 26.595744680851062 }, "geometry": { "type": "Point", "coordinates": [ -0.287440310493884, 51.483484354250955 ] } },
{ "type": "Feature", "properties": { "visible_points": 35, "total_points": 92, "visibility_pct": 38.04347826086957 }, "geometry": { "type": "Point", "coordinates": [ -0.287240850951065, 51.483481442697681 ] } },
{ "type": "Feature", "properties": { "visible_points": 39, "total_points": 82, "visibility_pct": 47.560975609756099 }, "geometry": { "type": "Point", "coordinates": [ -0.286841931965983, 51.483475618572825 ] } },
{ "type": "Feature", "properties": { "visible_points": 31, "total_points": 74, "visibility_pct": 41.891891891891895 }, "geometry": { "type": "Point", "coordinates": [ -0.286642472523732, 51.483472706001287 ] } },
{ "type": "Feature", "properties": { "visible_points": 19, "total_points": 81, "visibility_pct": 23.456790123456788 }, "geometry": { "type": "Point", "coordinates": [ -0.288533302910378, 51.483608215570747 ] } },
{ "type": "Feature", "properties": { "visible_points": 0, "total_points": 86, "visibility_pct": 0.0 }, "geometry": { "type": "Point", "coordinates": [ -0.288333842712932, 51.483605305878392 ] } },
{ "type": "Feature", "properties": { "visible_points": 17, "total_points": 92, "visibility_pct": 18.478260869565215 }, "geometry": { "type": "Point", "coordinates": [ -0.288134382548982, 51.48360239584661 ] } },
{ "type": "Feature", "properties": { "visible_points": 11, "total_points": 97, "visibility_pct": 11.340206185567011 }, "geometry": { "type": "Point", "coordinates": [ -0.287934922418532, 51.483599485475416 ] } },
{ "type": "Feature", "properties": { "visible_points": 15, "total_points": 102, "visibility_pct": 14.705882352941178 }, "geometry": { "type": "Point", "coordinates": [ -0.287735462321594, 51.483596574764789 ] } },
{ "type": "Feature", "properties": { "visible_points": 18, "total_points": 104, "visibility_pct": 17.307692307692307 }, "geometry": { "type": "Point", "coordinates": [ -0.287536002258159, 51.483593663714743 ] } },
{ "type": "Feature", "properties": { "visible_points": 30, "total_points": 105, "visibility_pct": 28.571428571428569 }, "geometry": { "type": "Point", "coordinates": [ -0.287336542228247, 51.483590752325277 ] } },
{ "type": "Feature", "properties": { "visible_points": 31, "total_points": 101, "visibility_pct": 30.693069306930692 }, "geometry": { "type": "Point", "coordinates": [ -0.287137082231844, 51.483587840596371 ] } },
{ "type": "Feature", "properties": { "visible_points": 37, "total_points": 95, "visibility_pct": 38.94736842105263 }, "geometry": { "type": "Point", "coordinates": [ -0.286937622268974, 51.483584928528053 ] } },
{ "type": "Feature", "properties": { "visible_points": 37, "total_points": 87, "visibility_pct": 42.528735632183903 }, "geometry": { "type": "Point", "coordinates": [ -0.286738162339623, 51.483582016120337 ] } },
{ "type": "Feature", "properties": { "visible_points": 25, "total_points": 77, "visibility_pct": 32.467532467532465 }, "geometry": { "type": "Point", "coordinates": [ -0.286538702443802, 51.483579103373174 ] } },
{ "type": "Feature", "properties": { "visible_points": 23, "total_points": 83, "visibility_pct": 27.710843373493976 }, "geometry": { "type": "Point", "coordinates": [ -0.288828458281707, 51.483720433323533 ] } },
{ "type": "Feature", "properties": { "visible_points": 34, "total_points": 88, "visibility_pct": 38.636363636363633 }, "geometry": { "type": "Point", "coordinates": [ -0.288628997563681, 51.483717524134434 ] } },
{ "type": "Feature", "properties": { "visible_points": 26, "total_points": 93, "visibility_pct": 27.956989247311824 }, "geometry": { "type": "Point", "coordinates": [ -0.288429536879139, 51.483714614605901 ] } },
{ "type": "Feature", "properties": { "visible_points": 23, "total_points": 98, "visibility_pct": 23.469387755102041 }, "geometry": { "type": "Point", "coordinates": [ -0.288230076228097, 51.483711704737949 ] } },
{ "type": "Feature", "properties": { "visible_points": 0, "total_points": 103, "visibility_pct": 0.0 }, "geometry": { "type": "Point", "coordinates": [ -0.288030615610561, 51.483708794530571 ] } },
{ "type": "Feature", "properties": { "visible_points": 15, "total_points": 108, "visibility_pct": 13.888888888888889 }, "geometry": { "type": "Point", "coordinates": [ -0.287831155026526, 51.483705883983774 ] } },
{ "type": "Feature", "properties": { "visible_points": 21, "total_points": 112, "visibility_pct": 18.75 }, "geometry": { "type": "Point", "coordinates": [ -0.287631694476002, 51.483702973097571 ] } },
{ "type": "Feature", "properties": { "visible_points": 5, "total_points": 114, "visibility_pct": 4.3859649122807012 }, "geometry": { "type": "Point", "coordinates": [ -0.287432233958989, 51.483700061871907 ] } },
{ "type": "Feature", "properties": { "visible_points": 40, "total_points": 114, "visibility_pct": 35.087719298245609 }, "geometry": { "type": "Point", "coordinates": [ -0.287232773475493, 51.483697150306838 ] } },
{ "type": "Feature", "properties": { "visible_points": 44, "total_points": 108, "visibility_pct": 40.74074074074074 }, "geometry": { "type": "Point", "coordinates": [ -0.287033313025516, 51.483694238402343 ] } },
{ "type": "Feature", "properties": { "visible_points": 45, "total_points": 99, "visibility_pct": 45.454545454545453 }, "geometry": { "type": "Point", "coordinates": [ -0.286833852609069, 51.483691326158414 ] } },
{ "type": "Feature", "properties": { "visible_points": 40, "total_points": 89, "visibility_pct": 44.943820224719097 }, "geometry": { "type": "Point", "coordinates": [ -0.286634392226144, 51.483688413575081 ] } },
{ "type": "Feature", "properties": { "visible_points": 4, "total_points": 78, "visibility_pct": 5.1282051282051277 }, "geometry": { "type": "Point", "coordinates": [ -0.286434931876752, 51.483685500652314 ] } },
{ "type": "Feature", "properties": { "visible_points": 29, "total_points": 80, "visibility_pct": 36.25 }, "geometry": { "type": "Point", "coordinates": [ -0.289323076097343, 51.483835558569751 ] } },
{ "type": "Feature", "properties": { "visible_points": 0, "total_points": 85, "visibility_pct": 0.0 }, "geometry": { "type": "Point", "coordinates": [ -0.289123614852442, 51.483832650227143 ] } },
{ "type": "Feature", "properties": { "visible_points": 0, "total_points": 90, "visibility_pct": 0.0 }, "geometry": { "type": "Point", "coordinates": [ -0.288924153640952, 51.483829741545478 ] } },
{ "type": "Feature", "properties": { "visible_points": 41, "total_points": 95, "visibility_pct": 43.15789473684211 }, "geometry": { "type": "Point", "coordinates": [ -0.288724692462885, 51.483826832524713 ] } },
{ "type": "Feature", "properties": { "visible_points": 45, "total_points": 100, "visibility_pct": 45.0 }, "geometry": { "type": "Point", "coordinates": [ -0.288525231318243, 51.483823923164856 ] } },
{ "type": "Feature", "properties": { "visible_points": 15, "total_points": 104, "visibility_pct": 14.423076923076922 }, "geometry": { "type": "Point", "coordinates": [ -0.288325770207026, 51.483821013465914 ] } },
{ "type": "Feature", "properties": { "visible_points": 16, "total_points": 109, "visibility_pct": 14.678899082568808 }, "geometry": { "type": "Point", "coordinates": [ -0.288126309129244, 51.483818103427893 ] } },
{ "type": "Feature", "properties": { "visible_points": 0, "total_points": 113, "visibility_pct": 0.0 }, "geometry": { "type": "Point", "coordinates": [ -0.28792684808489, 51.483815193050773 ] } },
{ "type": "Feature", "properties": { "visible_points": 0, "total_points": 116, "visibility_pct": 0.0 }, "geometry": { "type": "Point", "coordinates": [ -0.287727387073983, 51.483812282334576 ] } },
{ "type": "Feature", "properties": { "visible_points": 0, "total_points": 118, "visibility_pct": 0.0 }, "geometry": { "type": "Point", "coordinates": [ -0.287527926095194, 51.483809371279484 ] } },
{ "type": "Feature", "properties": { "visible_points": 37, "total_points": 120, "visibility_pct": 30.833333333333336 }, "geometry": { "type": "Point", "coordinates": [ -0.287328465139667, 51.483806459885756 ] } },
{ "type": "Feature", "properties": { "visible_points": 43, "total_points": 117, "visibility_pct": 36.752136752136757 }, "geometry": { "type": "Point", "coordinates": [ -0.287129004205488, 51.483803548148416 ] } },
{ "type": "Feature", "properties": { "visible_points": 47, "total_points": 109, "visibility_pct": 43.119266055045877 }, "geometry": { "type": "Point", "coordinates": [ -0.286929543304818, 51.483800636071813 ] } },
{ "type": "Feature", "properties": { "visible_points": 45, "total_points": 100, "visibility_pct": 45.0 }, "geometry": { "type": "Point", "coordinates": [ -0.286730082437663, 51.483797723655968 ] } },
{ "type": "Feature", "properties": { "visible_points": 14, "total_points": 90, "visibility_pct": 15.555555555555555 }, "geometry": { "type": "Point", "coordinates": [ -0.286530621604024, 51.483794810900896 ] } },
{ "type": "Feature", "properties": { "visible_points": 5, "total_points": 78, "visibility_pct": 6.4102564102564097 }, "geometry": { "type": "Point", "coordinates": [ -0.286331160803908, 51.483791897806604 ] } },
{ "type": "Feature", "properties": { "visible_points": 31, "total_points": 82, "visibility_pct": 37.804878048780488 }, "geometry": { "type": "Point", "coordinates": [ -0.289618233284816, 51.483947773990977 ] } },
{ "type": "Feature", "properties": { "visible_points": 45, "total_points": 87, "visibility_pct": 51.724137931034484 }, "geometry": { "type": "Point", "coordinates": [ -0.28941877154853, 51.48394486614842 ] } },
{ "type": "Feature", "properties": { "visible_points": 53, "total_points": 92, "visibility_pct": 57.608695652173914 }, "geometry": { "type": "Point", "coordinates": [ -0.289219309845596, 51.483941957967126 ] } },
{ "type": "Feature", "properties": { "visible_points": 52, "total_points": 97, "visibility_pct": 53.608247422680414 }, "geometry": { "type": "Point", "coordinates": [ -0.289019848176002, 51.483939049447081 ] } },
{ "type": "Feature", "properties": { "visible_points": 60, "total_points": 102, "visibility_pct": 58.82352941176471 }, "geometry": { "type": "Point", "coordinates": [ -0.288820386539762, 51.48393614058827 ] } },
{ "type": "Feature", "properties": { "visible_points": 57, "total_points": 106, "visibility_pct": 53.773584905660378 }, "geometry": { "type": "Point", "coordinates": [ -0.288620924936873, 51.483933231390722 ] } },
{ "type": "Feature", "properties": { "visible_points": 55, "total_points": 110, "visibility_pct": 50.0 }, "geometry": { "type": "Point", "coordinates": [ -0.288421463367341, 51.48393032185443 ] } },
{ "type": "Feature", "properties": { "visible_points": 43, "total_points": 114, "visibility_pct": 37.719298245614034 }, "geometry": { "type": "Point", "coordinates": [ -0.288222001831176, 51.483927411979387 ] } },
{ "type": "Feature", "properties": { "visible_points": 34, "total_points": 117, "visibility_pct": 29.059829059829063 }, "geometry": { "type": "Point", "coordinates": [ -0.28802254032837, 51.483924501765586 ] } },
{ "type": "Feature", "properties": { "visible_points": 0, "total_points": 119, "visibility_pct": 0.0 }, "geometry": { "type": "Point", "coordinates": [ -0.287823078858937, 51.483921591213026 ] } },
{ "type": "Feature", "properties": { "visible_points": 4, "total_points": 120, "visibility_pct": 3.3333333333333335 }, "geometry": { "type": "Point", "coordinates": [ -0.287623617422876, 51.483918680321743 ] } },
{ "type": "Feature", "properties": { "visible_points": 17, "total_points": 120, "visibility_pct": 14.166666666666666 }, "geometry": { "type": "Point", "coordinates": [ -0.287424156019812, 51.483915769091119 ] } },
{ "type": "Feature", "properties": { "visible_points": 44, "total_points": 120, "visibility_pct": 36.666666666666664 }, "geometry": { "type": "Point", "coordinates": [ -0.287224694647687, 51.48391285751795 ] } },
{ "type": "Feature", "properties": { "visible_points": 53, "total_points": 117, "visibility_pct": 45.299145299145302 }, "geometry": { "type": "Point", "coordinates": [ -0.28702523330896, 51.483909945605831 ] } },
{ "type": "Feature", "properties": { "visible_points": 47, "total_points": 110, "visibility_pct": 42.727272727272727 }, "geometry": { "type": "Point", "coordinates": [ -0.286825772003636, 51.483907033354782 ] } },
{ "type": "Feature", "properties": { "visible_points": 46, "total_points": 101, "visibility_pct": 45.544554455445549 }, "geometry": { "type": "Point", "coordinates": [ -0.286626310731723, 51.483904120764798 ] } },
{ "type": "Feature", "properties": { "visible_points": 11, "total_points": 90, "visibility_pct": 12.222222222222221 }, "geometry": { "type": "Point", "coordinates": [ -0.286426849493212, 51.483901207835885 ] } },
{ "type": "Feature", "properties": { "visible_points": 29, "total_points": 78, "visibility_pct": 37.179487179487182 }, "geometry": { "type": "Point", "coordinates": [ -0.29011285376242, 51.484062895573878 ] } },
{ "type": "Feature", "properties": { "visible_points": 37, "total_points": 84, "visibility_pct": 44.047619047619044 }, "geometry": { "type": "Point", "coordinates": [ -0.289913391475087, 51.484059988559807 ] } },
{ "type": "Feature", "properties": { "visible_points": 46, "total_points": 89, "visibility_pct": 51.68539325842697 }, "geometry": { "type": "Point", "coordinates": [ -0.289713929221074, 51.484057081206998 ] } },
{ "type": "Feature", "properties": { "visible_points": 55, "total_points": 94, "visibility_pct": 58.51063829787234 }, "geometry": { "type": "Point", "coordinates": [ -0.289514467000408, 51.484054173515425 ] } },
{ "type": "Feature", "properties": { "visible_points": 60, "total_points": 99, "visibility_pct": 60.606060606060609 }, "geometry": { "type": "Point", "coordinates": [ -0.289315004813077, 51.4840512654851 ] } },
{ "type": "Feature", "properties": { "visible_points": 63, "total_points": 103, "visibility_pct": 61.165048543689316 }, "geometry": { "type": "Point", "coordinates": [ -0.289115542659092, 51.484048357116045 ] } },
{ "type": "Feature", "properties": { "visible_points": 65, "total_points": 108, "visibility_pct": 60.185185185185183 }, "geometry": { "type": "Point", "coordinates": [ -0.288916080538455, 51.484045448408224 ] } },
{ "type": "Feature", "properties": { "visible_points": 66, "total_points": 112, "visibility_pct": 58.928571428571431 }, "geometry": { "type": "Point", "coordinates": [ -0.288716618451173, 51.484042539361653 ] } },
{ "type": "Feature", "properties": { "visible_points": 69, "total_points": 115, "visibility_pct": 60.0 }, "geometry": { "type": "Point", "coordinates": [ -0.288517156397245, 51.484039629976323 ] } },
{ "type": "Feature", "properties": { "visible_points": 67, "total_points": 118, "visibility_pct": 56.779661016949156 }, "geometry": { "type": "Point", "coordinates": [ -0.288317694376675, 51.484036720252256 ] } },
{ "type": "Feature", "properties": { "visible_points": 28, "total_points": 120, "visibility_pct": 23.333333333333332 }, "geometry": { "type": "Point", "coordinates": [ -0.288118232389472, 51.48403381018943 ] } },
{ "type": "Feature", "properties": { "visible_points": 23, "total_points": 120, "visibility_pct": 19.166666666666668 }, "geometry": { "type": "Point", "coordinates": [ -0.287918770435637, 51.484030899787861 ] } },
{ "type": "Feature", "properties": { "visible_points": 23, "total_points": 120, "visibility_pct": 19.166666666666668 }, "geometry": { "type": "Point", "coordinates": [ -0.287719308515169, 51.484027989047533 ] } },
{ "type": "Feature", "properties": { "visible_points": 46, "total_points": 120, "visibility_pct": 38.333333333333336 }, "geometry": { "type": "Point", "coordinates": [ -0.287519846628083, 51.484025077968468 ] } },
{ "type": "Feature", "properties": { "visible_points": 64, "total_points": 120, "visibility_pct": 53.333333333333336 }, "geometry": { "type": "Point", "coordinates": [ -0.287320384774371, 51.484022166550659 ] } },
{ "type": "Feature", "properties": { "visible_points": 62, "total_points": 120, "visibility_pct": 51.666666666666671 }, "geometry": { "type": "Point", "coordinates": [ -0.287120922954046, 51.484019254794063 ] } },
{ "type": "Feature", "properties": { "visible_points": 55, "total_points": 116, "visibility_pct": 47.413793103448278 }, "geometry": { "type": "Point", "coordinates": [ -0.286921461167107, 51.484016342698766 ] } },
{ "type": "Feature", "properties": { "visible_points": 48, "total_points": 109, "visibility_pct": 44.036697247706428 }, "geometry": { "type": "Point", "coordinates": [ -0.28672199941356, 51.484013430264703 ] } },
{ "type": "Feature", "properties": { "visible_points": 47, "total_points": 99, "visibility_pct": 47.474747474747474 }, "geometry": { "type": "Point", "coordinates": [ -0.286522537693406, 51.484010517491889 ] } },
{ "type": "Feature", "properties": { "visible_points": 11, "total_points": 88, "visibility_pct": 12.5 }, "geometry": { "type": "Point", "coordinates": [ -0.286323076006649, 51.484007604380317 ] } },
{ "type": "Feature", "properties": { "visible_points": 36, "total_points": 77, "visibility_pct": 46.753246753246749 }, "geometry": { "type": "Point", "coordinates": [ -0.290408013923566, 51.484175108943461 ] } },
{ "type": "Feature", "properties": { "visible_points": 38, "total_points": 85, "visibility_pct": 44.705882352941181 }, "geometry": { "type": "Point", "coordinates": [ -0.290208551118509, 51.484172202419131 ] } },
{ "type": "Feature", "properties": { "visible_points": 0, "total_points": 91, "visibility_pct": 0.0 }, "geometry": { "type": "Point", "coordinates": [ -0.290009088346776, 51.484169295556043 ] } },
{ "type": "Feature", "properties": { "visible_points": 50, "total_points": 96, "visibility_pct": 52.083333333333336 }, "geometry": { "type": "Point", "coordinates": [ -0.289809625608385, 51.484166388354204 ] } },
{ "type": "Feature", "properties": { "visible_points": 59, "total_points": 101, "visibility_pct": 58.415841584158414 }, "geometry": { "type": "Point", "coordinates": [ -0.289610162903319, 51.484163480813642 ] } },
{ "type": "Feature", "properties": { "visible_points": 66, "total_points": 105, "visibility_pct": 62.857142857142854 }, "geometry": { "type": "Point", "coordinates": [ -0.289410700231597, 51.484160572934307 ] } },
{ "type": "Feature", "properties": { "visible_points": 73, "total_points": 109, "visibility_pct": 66.972477064220186 }, "geometry": { "type": "Point", "coordinates": [ -0.28921123759322, 51.484157664716207 ] } },
{ "type": "Feature", "properties": { "visible_points": 76, "total_points": 113, "visibility_pct": 67.256637168141594 }, "geometry": { "type": "Point", "coordinates": [ -0.289011774988185, 51.48415475615937 ] } },
{ "type": "Feature", "properties": { "visible_points": 79, "total_points": 116, "visibility_pct": 68.103448275862064 }, "geometry": { "type": "Point", "coordinates": [ -0.2888123124165, 51.484151847263767 ] } },
{ "type": "Feature", "properties": { "visible_points": 80, "total_points": 118, "visibility_pct": 67.796610169491515 }, "geometry": { "type": "Point", "coordinates": [ -0.288612849878175, 51.484148938029442 ] } },
{ "type": "Feature", "properties": { "visible_points": 83, "total_points": 120, "visibility_pct": 69.166666666666671 }, "geometry": { "type": "Point", "coordinates": [ -0.288413387373204, 51.484146028456351 ] } },
{ "type": "Feature", "properties": { "visible_points": 72, "total_points": 120, "visibility_pct": 60.0 }, "geometry": { "type": "Point", "coordinates": [ -0.288213924901599, 51.484143118544495 ] } },
{ "type": "Feature", "properties": { "visible_points": 60, "total_points": 120, "visibility_pct": 50.0 }, "geometry": { "type": "Point", "coordinates": [ -0.288014462463355, 51.484140208293894 ] } },
{ "type": "Feature", "properties": { "visible_points": 51, "total_points": 120, "visibility_pct": 42.5 }, "geometry": { "type": "Point", "coordinates": [ -0.287815000058484, 51.484137297704549 ] } },
{ "type": "Feature", "properties": { "visible_points": 61, "total_points": 120, "visibility_pct": 50.833333333333329 }, "geometry": { "type": "Point", "coordinates": [ -0.287615537686986, 51.484134386776439 ] } },
{ "type": "Feature", "properties": { "visible_points": 74, "total_points": 120, "visibility_pct": 61.666666666666671 }, "geometry": { "type": "Point", "coordinates": [ -0.287416075348869, 51.484131475509599 ] } },
{ "type": "Feature", "properties": { "visible_points": 70, "total_points": 120, "visibility_pct": 58.333333333333336 }, "geometry": { "type": "Point", "coordinates": [ -0.28721661304413, 51.484128563904008 ] } },
{ "type": "Feature", "properties": { "visible_points": 66, "total_points": 120, "visibility_pct": 55.000000000000007 }, "geometry": { "type": "Point", "coordinates": [ -0.287017150772777, 51.484125651959651 ] } },
{ "type": "Feature", "properties": { "visible_points": 55, "total_points": 115, "visibility_pct": 47.826086956521742 }, "geometry": { "type": "Point", "coordinates": [ -0.286817688534813, 51.484122739676565 ] } },
{ "type": "Feature", "properties": { "visible_points": 49, "total_points": 107, "visibility_pct": 45.794392523364486 }, "geometry": { "type": "Point", "coordinates": [ -0.286618226330243, 51.484119827054698 ] } },
{ "type": "Feature", "properties": { "visible_points": 43, "total_points": 97, "visibility_pct": 44.329896907216494 }, "geometry": { "type": "Point", "coordinates": [ -0.28641876415907, 51.484116914094095 ] } },
{ "type": "Feature", "properties": { "visible_points": 29, "total_points": 86, "visibility_pct": 33.720930232558139 }, "geometry": { "type": "Point", "coordinates": [ -0.286219302021301, 51.484114000794747 ] } },
{ "type": "Feature", "properties": { "visible_points": 31, "total_points": 68, "visibility_pct": 45.588235294117645 }, "geometry": { "type": "Point", "coordinates": [ -0.290703175537854, 51.484287321603475 ] } },
{ "type": "Feature", "properties": { "visible_points": 33, "total_points": 79, "visibility_pct": 41.77215189873418 }, "geometry": { "type": "Point", "coordinates": [ -0.29050371221509, 51.484284415568908 ] } },
{ "type": "Feature", "properties": { "visible_points": 43, "total_points": 90, "visibility_pct": 47.777777777777779 }, "geometry": { "type": "Point", "coordinates": [ -0.290304248925643, 51.484281509195569 ] } },
{ "type": "Feature", "properties": { "visible_points": 52, "total_points": 98, "visibility_pct": 53.061224489795919 }, "geometry": { "type": "Point", "coordinates": [ -0.290104785669527, 51.484278602483485 ] } },
{ "type": "Feature", "properties": { "visible_points": 62, "total_points": 103, "visibility_pct": 60.194174757281552 }, "geometry": { "type": "Point", "coordinates": [ -0.289905322446735, 51.484275695432636 ] } },
{ "type": "Feature", "properties": { "visible_points": 67, "total_points": 107, "visibility_pct": 62.616822429906534 }, "geometry": { "type": "Point", "coordinates": [ -0.289705859257277, 51.484272788043029 ] } },
{ "type": "Feature", "properties": { "visible_points": 71, "total_points": 111, "visibility_pct": 63.963963963963963 }, "geometry": { "type": "Point", "coordinates": [ -0.289506396101164, 51.484269880314685 ] } },
{ "type": "Feature", "properties": { "visible_points": 76, "total_points": 114, "visibility_pct": 66.666666666666657 }, "geometry": { "type": "Point", "coordinates": [ -0.289306932978382, 51.484266972247596 ] } },
{ "type": "Feature", "properties": { "visible_points": 84, "total_points": 117, "visibility_pct": 71.794871794871796 }, "geometry": { "type": "Point", "coordinates": [ -0.289107469888954, 51.484264063841721 ] } },
{ "type": "Feature", "properties": { "visible_points": 87, "total_points": 119, "visibility_pct": 73.109243697478988 }, "geometry": { "type": "Point", "coordinates": [ -0.288908006832869, 51.484261155097109 ] } },
{ "type": "Feature", "properties": { "visible_points": 93, "total_points": 120, "visibility_pct": 77.5 }, "geometry": { "type": "Point", "coordinates": [ -0.288708543810137, 51.484258246013752 ] } },
{ "type": "Feature", "properties": { "visible_points": 93, "total_points": 120, "visibility_pct": 77.5 }, "geometry": { "type": "Point", "coordinates": [ -0.288509080820765, 51.48425533659163 ] } },
{ "type": "Feature", "properties": { "visible_points": 88, "total_points": 120, "visibility_pct": 73.333333333333329 }, "geometry": { "type": "Point", "coordinates": [ -0.288309617864753, 51.484252426830771 ] } },
{ "type": "Feature", "properties": { "visible_points": 75, "total_points": 120, "visibility_pct": 62.5 }, "geometry": { "type": "Point", "coordinates": [ -0.288110154942104, 51.484249516731126 ] } },
{ "type": "Feature", "properties": { "visible_points": 63, "total_points": 120, "visibility_pct": 52.5 }, "geometry": { "type": "Point", "coordinates": [ -0.28791069205282, 51.484246606292771 ] } },
{ "type": "Feature", "properties": { "visible_points": 64, "total_points": 120, "visibility_pct": 53.333333333333336 }, "geometry": { "type": "Point", "coordinates": [ -0.287711229196915, 51.484243695515644 ] } },
{ "type": "Feature", "properties": { "visible_points": 81, "total_points": 120, "visibility_pct": 67.5 }, "geometry": { "type": "Point", "coordinates": [ -0.287511766374383, 51.484240784399766 ] } },
{ "type": "Feature", "properties": { "visible_points": 82, "total_points": 120, "visibility_pct": 68.333333333333329 }, "geometry": { "type": "Point", "coordinates": [ -0.28731230358523, 51.48423787294513 ] } },
{ "type": "Feature", "properties": { "visible_points": 74, "total_points": 120, "visibility_pct": 61.666666666666671 }, "geometry": { "type": "Point", "coordinates": [ -0.287112840829464, 51.484234961151749 ] } },
{ "type": "Feature", "properties": { "visible_points": 58, "total_points": 120, "visibility_pct": 48.333333333333336 }, "geometry": { "type": "Point", "coordinates": [ -0.286913378107082, 51.484232049019617 ] } },
{ "type": "Feature", "properties": { "visible_points": 50, "total_points": 114, "visibility_pct": 43.859649122807014 }, "geometry": { "type": "Point", "coordinates": [ -0.286713915418091, 51.484229136548734 ] } },
{ "type": "Feature", "properties": { "visible_points": 49, "total_points": 105, "visibility_pct": 46.666666666666664 }, "geometry": { "type": "Point", "coordinates": [ -0.286514452762501, 51.4842262237391 ] } },
{ "type": "Feature", "properties": { "visible_points": 46, "total_points": 95, "visibility_pct": 48.421052631578945 }, "geometry": { "type": "Point", "coordinates": [ -0.286314990140303, 51.4842233105907 ] } },
{ "type": "Feature", "properties": { "visible_points": 34, "total_points": 83, "visibility_pct": 40.963855421686745 }, "geometry": { "type": "Point", "coordinates": [ -0.286115527551517, 51.484220397103577 ] } },
{ "type": "Feature", "properties": { "visible_points": 29, "total_points": 66, "visibility_pct": 43.939393939393938 }, "geometry": { "type": "Point", "coordinates": [ -0.290798874764827, 51.484396628009115 ] } },
{ "type": "Feature", "properties": { "visible_points": 31, "total_points": 78, "visibility_pct": 39.743589743589745 }, "geometry": { "type": "Point", "coordinates": [ -0.290599410957672, 51.484393722125539 ] } },
{ "type": "Feature", "properties": { "visible_points": 42, "total_points": 90, "visibility_pct": 46.666666666666664 }, "geometry": { "type": "Point", "coordinates": [ -0.290399947183832, 51.484390815903197 ] } },
{ "type": "Feature", "properties": { "visible_points": 52, "total_points": 102, "visibility_pct": 50.980392156862742 }, "geometry": { "type": "Point", "coordinates": [ -0.290200483443325, 51.48438790934209 ] } },
{ "type": "Feature", "properties": { "visible_points": 65, "total_points": 109, "visibility_pct": 59.633027522935777 }, "geometry": { "type": "Point", "coordinates": [ -0.290001019736138, 51.484385002442245 ] } },
{ "type": "Feature", "properties": { "visible_points": 76, "total_points": 113, "visibility_pct": 67.256637168141594 }, "geometry": { "type": "Point", "coordinates": [ -0.289801556062285, 51.484382095203628 ] } },
{ "type": "Feature", "properties": { "visible_points": 80, "total_points": 116, "visibility_pct": 68.965517241379317 }, "geometry": { "type": "Point", "coordinates": [ -0.289602092421769, 51.484379187626274 ] } },
{ "type": "Feature", "properties": { "visible_points": 80, "total_points": 118, "visibility_pct": 67.796610169491515 }, "geometry": { "type": "Point", "coordinates": [ -0.289402628814591, 51.484376279710148 ] } },
{ "type": "Feature", "properties": { "visible_points": 88, "total_points": 120, "visibility_pct": 73.333333333333329 }, "geometry": { "type": "Point", "coordinates": [ -0.289203165240762, 51.484373371455277 ] } },
{ "type": "Feature", "properties": { "visible_points": 94, "total_points": 120, "visibility_pct": 78.333333333333329 }, "geometry": { "type": "Point", "coordinates": [ -0.289003701700274, 51.484370462861634 ] } },
{ "type": "Feature", "properties": { "visible_points": 95, "total_points": 120, "visibility_pct": 79.166666666666657 }, "geometry": { "type": "Point", "coordinates": [ -0.28880423819314, 51.484367553929253 ] } },
{ "type": "Feature", "properties": { "visible_points": 100, "total_points": 120, "visibility_pct": 83.333333333333343 }, "geometry": { "type": "Point", "coordinates": [ -0.288604774719358, 51.484364644658122 ] } },
{ "type": "Feature", "properties": { "visible_points": 96, "total_points": 120, "visibility_pct": 80.0 }, "geometry": { "type": "Point", "coordinates": [ -0.288405311278938, 51.484361735048225 ] } },
{ "type": "Feature", "properties": { "visible_points": 85, "total_points": 120, "visibility_pct": 70.833333333333343 }, "geometry": { "type": "Point", "coordinates": [ -0.28820584787188, 51.484358825099584 ] } },
{ "type": "Feature", "properties": { "visible_points": 71, "total_points": 120, "visibility_pct": 59.166666666666664 }, "geometry": { "type": "Point", "coordinates": [ -0.288006384498188, 51.484355914812191 ] } },
{ "type": "Feature", "properties": { "visible_points": 64, "total_points": 120, "visibility_pct": 53.333333333333336 }, "geometry": { "type": "Point", "coordinates": [ -0.287806921157868, 51.484353004186033 ] } },
{ "type": "Feature", "properties": { "visible_points": 73, "total_points": 120, "visibility_pct": 60.833333333333329 }, "geometry": { "type": "Point", "coordinates": [ -0.287607457850921, 51.484350093221117 ] } },
{ "type": "Feature", "properties": { "visible_points": 89, "total_points": 120, "visibility_pct": 74.166666666666671 }, "geometry": { "type": "Point", "coordinates": [ -0.287407994577355, 51.484347181917478 ] } },
{ "type": "Feature", "properties": { "visible_points": 80, "total_points": 120, "visibility_pct": 66.666666666666657 }, "geometry": { "type": "Point", "coordinates": [ -0.287208531337165, 51.484344270275059 ] } },
{ "type": "Feature", "properties": { "visible_points": 66, "total_points": 120, "visibility_pct": 55.000000000000007 }, "geometry": { "type": "Point", "coordinates": [ -0.28700906813037, 51.484341358293896 ] } },
{ "type": "Feature", "properties": { "visible_points": 52, "total_points": 120, "visibility_pct": 43.333333333333336 }, "geometry": { "type": "Point", "coordinates": [ -0.286809604956955, 51.484338445973989 ] } },
{ "type": "Feature", "properties": { "visible_points": 49, "total_points": 113, "visibility_pct": 43.362831858407077 }, "geometry": { "type": "Point", "coordinates": [ -0.286610141816944, 51.484335533315296 ] } },
{ "type": "Feature", "properties": { "visible_points": 49, "total_points": 104, "visibility_pct": 47.115384615384613 }, "geometry": { "type": "Point", "coordinates": [ -0.286410678710321, 51.484332620317879 ] } },
{ "type": "Feature", "properties": { "visible_points": 47, "total_points": 93, "visibility_pct": 50.537634408602152 }, "geometry": { "type": "Point", "coordinates": [ -0.286211215637106, 51.484329706981718 ] } },
{ "type": "Feature", "properties": { "visible_points": 4, "total_points": 81, "visibility_pct": 4.9382716049382713 }, "geometry": { "type": "Point", "coordinates": [ -0.28601175259729, 51.484326793306799 ] } },
{ "type": "Feature", "properties": { "visible_points": 26, "total_points": 62, "visibility_pct": 41.935483870967744 }, "geometry": { "type": "Point", "coordinates": [ -0.290894574442863, 51.48450593434594 ] } },
{ "type": "Feature", "properties": { "visible_points": 30, "total_points": 74, "visibility_pct": 40.54054054054054 }, "geometry": { "type": "Point", "coordinates": [ -0.290695110151312, 51.484503028613361 ] } },
{ "type": "Feature", "properties": { "visible_points": 37, "total_points": 86, "visibility_pct": 43.02325581395349 }, "geometry": { "type": "Point", "coordinates": [ -0.290495645893086, 51.484500122542023 ] } },
{ "type": "Feature", "properties": { "visible_points": 48, "total_points": 99, "visibility_pct": 48.484848484848484 }, "geometry": { "type": "Point", "coordinates": [ -0.290296181668174, 51.484497216131906 ] } },
{ "type": "Feature", "properties": { "visible_points": 60, "total_points": 112, "visibility_pct": 53.571428571428569 }, "geometry": { "type": "Point", "coordinates": [ -0.290096717476598, 51.484494309383045 ] } },
{ "type": "Feature", "properties": { "visible_points": 71, "total_points": 117, "visibility_pct": 60.683760683760681 }, "geometry": { "type": "Point", "coordinates": [ -0.289897253318345, 51.484491402295426 ] } },
{ "type": "Feature", "properties": { "visible_points": 78, "total_points": 119, "visibility_pct": 65.546218487394952 }, "geometry": { "type": "Point", "coordinates": [ -0.289697789193431, 51.484488494869048 ] } },
{ "type": "Feature", "properties": { "visible_points": 81, "total_points": 120, "visibility_pct": 67.5 }, "geometry": { "type": "Point", "coordinates": [ -0.289498325101848, 51.484485587103912 ] } },
{ "type": "Feature", "properties": { "visible_points": 87, "total_points": 120, "visibility_pct": 72.5 }, "geometry": { "type": "Point", "coordinates": [ -0.289298861043615, 51.484482679000024 ] } },
{ "type": "Feature", "properties": { "visible_points": 91, "total_points": 120, "visibility_pct": 75.833333333333329 }, "geometry": { "type": "Point", "coordinates": [ -0.289099397018721, 51.484479770557364 ] } },
{ "type": "Feature", "properties": { "visible_points": 95, "total_points": 120, "visibility_pct": 79.166666666666657 }, "geometry": { "type": "Point", "coordinates": [ -0.288899933027181, 51.484476861775974 ] } },
{ "type": "Feature", "properties": { "visible_points": 101, "total_points": 120, "visibility_pct": 84.166666666666671 }, "geometry": { "type": "Point", "coordinates": [ -0.288700469068994, 51.484473952655804 ] } },
{ "type": "Feature", "properties": { "visible_points": 105, "total_points": 120, "visibility_pct": 87.5 }, "geometry": { "type": "Point", "coordinates": [ -0.288501005144162, 51.484471043196905 ] } },
{ "type": "Feature", "properties": { "visible_points": 94, "total_points": 120, "visibility_pct": 78.333333333333329 }, "geometry": { "type": "Point", "coordinates": [ -0.28830154125269, 51.48446813339924 ] } },
{ "type": "Feature", "properties": { "visible_points": 80, "total_points": 120, "visibility_pct": 66.666666666666657 }, "geometry": { "type": "Point", "coordinates": [ -0.288102077394588, 51.484465223262809 ] } },
{ "type": "Feature", "properties": { "visible_points": 67, "total_points": 120, "visibility_pct": 55.833333333333336 }, "geometry": { "type": "Point", "coordinates": [ -0.287902613569853, 51.484462312787642 ] } },
{ "type": "Feature", "properties": { "visible_points": 65, "total_points": 120, "visibility_pct": 54.166666666666664 }, "geometry": { "type": "Point", "coordinates": [ -0.287703149778489, 51.484459401973687 ] } },
{ "type": "Feature", "properties": { "visible_points": 77, "total_points": 120, "visibility_pct": 64.166666666666671 }, "geometry": { "type": "Point", "coordinates": [ -0.287503686020504, 51.484456490821017 ] } },
{ "type": "Feature", "properties": { "visible_points": 82, "total_points": 120, "visibility_pct": 68.333333333333329 }, "geometry": { "type": "Point", "coordinates": [ -0.287304222295897, 51.484453579329568 ] } },
{ "type": "Feature", "properties": { "visible_points": 68, "total_points": 120, "visibility_pct": 56.666666666666664 }, "geometry": { "type": "Point", "coordinates": [ -0.287104758604674, 51.484450667499388 ] } },
{ "type": "Feature", "properties": { "visible_points": 56, "total_points": 120, "visibility_pct": 46.666666666666664 }, "geometry": { "type": "Point", "coordinates": [ -0.286905294946839, 51.484447755330429 ] } },
{ "type": "Feature", "properties": { "visible_points": 51, "total_points": 119, "visibility_pct": 42.857142857142854 }, "geometry": { "type": "Point", "coordinates": [ -0.2867058313224, 51.484444842822725 ] } },
{ "type": "Feature", "properties": { "visible_points": 54, "total_points": 112, "visibility_pct": 48.214285714285715 }, "geometry": { "type": "Point", "coordinates": [ -0.286506367731356, 51.484441929976278 ] } },
{ "type": "Feature", "properties": { "visible_points": 52, "total_points": 102, "visibility_pct": 50.980392156862742 }, "geometry": { "type": "Point", "coordinates": [ -0.286306904173706, 51.484439016791065 ] } },
{ "type": "Feature", "properties": { "visible_points": 0, "total_points": 90, "visibility_pct": 0.0 }, "geometry": { "type": "Point", "coordinates": [ -0.286107440649468, 51.4844361032671 ] } },
{ "type": "Feature", "properties": { "visible_points": 1, "total_points": 78, "visibility_pct": 1.2820512820512819 }, "geometry": { "type": "Point", "coordinates": [ -0.285907977158632, 51.484433189404385 ] } },
{ "type": "Feature", "properties": { "visible_points": 18, "total_points": 56, "visibility_pct": 32.142857142857146 }, "geometry": { "type": "Point", "coordinates": [ -0.29099027457196, 51.484615240613962 ] } },
{ "type": "Feature", "properties": { "visible_points": 4, "total_points": 68, "visibility_pct": 5.8823529411764701 }, "geometry": { "type": "Point", "coordinates": [ -0.290790809796021, 51.484612335032367 ] } },
{ "type": "Feature", "properties": { "visible_points": 30, "total_points": 80, "visibility_pct": 37.5 }, "geometry": { "type": "Point", "coordinates": [ -0.290591345053397, 51.484609429112012 ] } },
{ "type": "Feature", "properties": { "visible_points": 41, "total_points": 93, "visibility_pct": 44.086021505376344 }, "geometry": { "type": "Point", "coordinates": [ -0.290391880344089, 51.4846065228529 ] } },
{ "type": "Feature", "properties": { "visible_points": 51, "total_points": 106, "visibility_pct": 48.113207547169814 }, "geometry": { "type": "Point", "coordinates": [ -0.290192415668112, 51.484603616255036 ] } },
{ "type": "Feature", "properties": { "visible_points": 69, "total_points": 115, "visibility_pct": 60.0 }, "geometry": { "type": "Point", "coordinates": [ -0.289992951025457, 51.484600709318414 ] } },
{ "type": "Feature", "properties": { "visible_points": 72, "total_points": 118, "visibility_pct": 61.016949152542374 }, "geometry": { "type": "Point", "coordinates": [ -0.289793486416144, 51.484597802043012 ] } },
{ "type": "Feature", "properties": { "visible_points": 78, "total_points": 120, "visibility_pct": 65.0 }, "geometry": { "type": "Point", "coordinates": [ -0.289594021840157, 51.484594894428874 ] } },
{ "type": "Feature", "properties": { "visible_points": 84, "total_points": 120, "visibility_pct": 70.0 }, "geometry": { "type": "Point", "coordinates": [ -0.289394557297516, 51.484591986475969 ] } },
{ "type": "Feature", "properties": { "visible_points": 87, "total_points": 120, "visibility_pct": 72.5 }, "geometry": { "type": "Point", "coordinates": [ -0.289195092788219, 51.484589078184307 ] } },
{ "type": "Feature", "properties": { "visible_points": 90, "total_points": 120, "visibility_pct": 75.0 }, "geometry": { "type": "Point", "coordinates": [ -0.288995628312269, 51.484586169553886 ] } },
{ "type": "Feature", "properties": { "visible_points": 97, "total_points": 120, "visibility_pct": 80.833333333333329 }, "geometry": { "type": "Point", "coordinates": [ -0.288796163869668, 51.484583260584714 ] } },
{ "type": "Feature", "properties": { "visible_points": 102, "total_points": 120, "visibility_pct": 85.0 }, "geometry": { "type": "Point", "coordinates": [ -0.288596699460425, 51.484580351276769 ] } },
{ "type": "Feature", "properties": { "visible_points": 96, "total_points": 120, "visibility_pct": 80.0 }, "geometry": { "type": "Point", "coordinates": [ -0.28839723508454, 51.484577441630087 ] } },
{ "type": "Feature", "properties": { "visible_points": 85, "total_points": 120, "visibility_pct": 70.833333333333343 }, "geometry": { "type": "Point", "coordinates": [ -0.288197770742022, 51.484574531644647 ] } },
{ "type": "Feature", "properties": { "visible_points": 74, "total_points": 120, "visibility_pct": 61.666666666666671 }, "geometry": { "type": "Point", "coordinates": [ -0.287998306432868, 51.484571621320455 ] } },
{ "type": "Feature", "properties": { "visible_points": 64, "total_points": 120, "visibility_pct": 53.333333333333336 }, "geometry": { "type": "Point", "coordinates": [ -0.287798842157086, 51.484568710657491 ] } },
{ "type": "Feature", "properties": { "visible_points": 64, "total_points": 120, "visibility_pct": 53.333333333333336 }, "geometry": { "type": "Point", "coordinates": [ -0.287599377914682, 51.484565799655762 ] } },
{ "type": "Feature", "properties": { "visible_points": 72, "total_points": 120, "visibility_pct": 60.0 }, "geometry": { "type": "Point", "coordinates": [ -0.287399913705648, 51.48456288831531 ] } },
{ "type": "Feature", "properties": { "visible_points": 60, "total_points": 120, "visibility_pct": 50.0 }, "geometry": { "type": "Point", "coordinates": [ -0.287200449530006, 51.484559976636078 ] } },
{ "type": "Feature", "properties": { "visible_points": 52, "total_points": 120, "visibility_pct": 43.333333333333336 }, "geometry": { "type": "Point", "coordinates": [ -0.287000985387749, 51.484557064618095 ] } },
{ "type": "Feature", "properties": { "visible_points": 50, "total_points": 120, "visibility_pct": 41.666666666666671 }, "geometry": { "type": "Point", "coordinates": [ -0.286801521278877, 51.48455415226136 ] } },
{ "type": "Feature", "properties": { "visible_points": 52, "total_points": 118, "visibility_pct": 44.067796610169488 }, "geometry": { "type": "Point", "coordinates": [ -0.286602057203407, 51.484551239565882 ] } },
{ "type": "Feature", "properties": { "visible_points": 51, "total_points": 110, "visibility_pct": 46.36363636363636 }, "geometry": { "type": "Point", "coordinates": [ -0.286402593161327, 51.48454832653163 ] } },
{ "type": "Feature", "properties": { "visible_points": 48, "total_points": 99, "visibility_pct": 48.484848484848484 }, "geometry": { "type": "Point", "coordinates": [ -0.286203129152652, 51.484545413158635 ] } },
{ "type": "Feature", "properties": { "visible_points": 33, "total_points": 87, "visibility_pct": 37.931034482758619 }, "geometry": { "type": "Point", "coordinates": [ -0.286003665177388, 51.484542499446881 ] } },
{ "type": "Feature", "properties": { "visible_points": 15, "total_points": 74, "visibility_pct": 20.27027027027027 }, "geometry": { "type": "Point", "coordinates": [ -0.285804201235525, 51.484539585396362 ] } },
{ "type": "Feature", "properties": { "visible_points": 12, "total_points": 60, "visibility_pct": 20.0 }, "geometry": { "type": "Point", "coordinates": [ -0.290886509891799, 51.484721641382556 ] } },
{ "type": "Feature", "properties": { "visible_points": 21, "total_points": 72, "visibility_pct": 29.166666666666668 }, "geometry": { "type": "Point", "coordinates": [ -0.290687044664772, 51.484718735613214 ] } },
{ "type": "Feature", "properties": { "visible_points": 32, "total_points": 84, "visibility_pct": 38.095238095238095 }, "geometry": { "type": "Point", "coordinates": [ -0.290487579471068, 51.484715829505085 ] } },
{ "type": "Feature", "properties": { "visible_points": 0, "total_points": 96, "visibility_pct": 0.0 }, "geometry": { "type": "Point", "coordinates": [ -0.290288114310693, 51.484712923058218 ] } },
{ "type": "Feature", "properties": { "visible_points": 42, "total_points": 105, "visibility_pct": 40.0 }, "geometry": { "type": "Point", "coordinates": [ -0.290088649183636, 51.484710016272572 ] } },
{ "type": "Feature", "properties": { "visible_points": 27, "total_points": 111, "visibility_pct": 24.324324324324326 }, "geometry": { "type": "Point", "coordinates": [ -0.289889184089909, 51.484707109148175 ] } },
{ "type": "Feature", "properties": { "visible_points": 69, "total_points": 115, "visibility_pct": 60.0 }, "geometry": { "type": "Point", "coordinates": [ -0.289689719029523, 51.484704201685012 ] } },
{ "type": "Feature", "properties": { "visible_points": 74, "total_points": 118, "visibility_pct": 62.711864406779661 }, "geometry": { "type": "Point", "coordinates": [ -0.289490254002473, 51.484701293883106 ] } },
{ "type": "Feature", "properties": { "visible_points": 79, "total_points": 120, "visibility_pct": 65.833333333333329 }, "geometry": { "type": "Point", "coordinates": [ -0.289290789008766, 51.484698385742433 ] } },
{ "type": "Feature", "properties": { "visible_points": 81, "total_points": 120, "visibility_pct": 67.5 }, "geometry": { "type": "Point", "coordinates": [ -0.289091324048402, 51.48469547726301 ] } },
{ "type": "Feature", "properties": { "visible_points": 87, "total_points": 120, "visibility_pct": 72.5 }, "geometry": { "type": "Point", "coordinates": [ -0.288891859121391, 51.484692568444814 ] } },
{ "type": "Feature", "properties": { "visible_points": 90, "total_points": 120, "visibility_pct": 75.0 }, "geometry": { "type": "Point", "coordinates": [ -0.288692394227735, 51.484689659287866 ] } },
{ "type": "Feature", "properties": { "visible_points": 87, "total_points": 120, "visibility_pct": 72.5 }, "geometry": { "type": "Point", "coordinates": [ -0.288492929367433, 51.484686749792154 ] } },
{ "type": "Feature", "properties": { "visible_points": 86, "total_points": 120, "visibility_pct": 71.666666666666671 }, "geometry": { "type": "Point", "coordinates": [ -0.288293464540496, 51.484683839957675 ] } },
{ "type": "Feature", "properties": { "visible_points": 78, "total_points": 120, "visibility_pct": 65.0 }, "geometry": { "type": "Point", "coordinates": [ -0.288093999746926, 51.48468092978446 ] } },
{ "type": "Feature", "properties": { "visible_points": 72, "total_points": 120, "visibility_pct": 60.0 }, "geometry": { "type": "Point", "coordinates": [ -0.28789453498672, 51.484678019272479 ] } },
{ "type": "Feature", "properties": { "visible_points": 59, "total_points": 120, "visibility_pct": 49.166666666666664 }, "geometry": { "type": "Point", "coordinates": [ -0.287695070259891, 51.484675108421747 ] } },
{ "type": "Feature", "properties": { "visible_points": 73, "total_points": 120, "visibility_pct": 60.833333333333329 }, "geometry": { "type": "Point", "coordinates": [ -0.287495605566438, 51.484672197232243 ] } },
{ "type": "Feature", "properties": { "visible_points": 69, "total_points": 120, "visibility_pct": 57.5 }, "geometry": { "type": "Point", "coordinates": [ -0.287296140906364, 51.484669285703987 ] } },
{ "type": "Feature", "properties": { "visible_points": 56, "total_points": 120, "visibility_pct": 46.666666666666664 }, "geometry": { "type": "Point", "coordinates": [ -0.287096676279681, 51.48466637383698 ] } },
{ "type": "Feature", "properties": { "visible_points": 48, "total_points": 119, "visibility_pct": 40.336134453781511 }, "geometry": { "type": "Point", "coordinates": [ -0.286897211686381, 51.484663461631222 ] } },
{ "type": "Feature", "properties": { "visible_points": 50, "total_points": 119, "visibility_pct": 42.016806722689076 }, "geometry": { "type": "Point", "coordinates": [ -0.286697747126478, 51.484660549086698 ] } },
{ "type": "Feature", "properties": { "visible_points": 53, "total_points": 115, "visibility_pct": 46.086956521739133 }, "geometry": { "type": "Point", "coordinates": [ -0.286498282599966, 51.484657636203409 ] } },
{ "type": "Feature", "properties": { "visible_points": 50, "total_points": 106, "visibility_pct": 47.169811320754718 }, "geometry": { "type": "Point", "coordinates": [ -0.286298818106861, 51.484654722981382 ] } },
{ "type": "Feature", "properties": { "visible_points": 46, "total_points": 93, "visibility_pct": 49.462365591397848 }, "geometry": { "type": "Point", "coordinates": [ -0.286099353647154, 51.484651809420598 ] } },
{ "type": "Feature", "properties": { "visible_points": 30, "total_points": 81, "visibility_pct": 37.037037037037038 }, "geometry": { "type": "Point", "coordinates": [ -0.285899889220859, 51.484648895521048 ] } },
{ "type": "Feature", "properties": { "visible_points": 0, "total_points": 73, "visibility_pct": 0.0 }, "geometry": { "type": "Point", "coordinates": [ -0.290583279049117, 51.48482513608846 ] } },
{ "type": "Feature", "properties": { "visible_points": 19, "total_points": 84, "visibility_pct": 22.61904761904762 }, "geometry": { "type": "Point", "coordinates": [ -0.290383813404332, 51.484822229792599 ] } },
{ "type": "Feature", "properties": { "visible_points": 18, "total_points": 93, "visibility_pct": 19.35483870967742 }, "geometry": { "type": "Point", "coordinates": [ -0.290184347792873, 51.484819323157943 ] } },
{ "type": "Feature", "properties": { "visible_points": 23, "total_points": 100, "visibility_pct": 23.0 }, "geometry": { "type": "Point", "coordinates": [ -0.289984882214742, 51.484816416184543 ] } },
{ "type": "Feature", "properties": { "visible_points": 2, "total_points": 105, "visibility_pct": 1.9047619047619049 }, "geometry": { "type": "Point", "coordinates": [ -0.289785416669944, 51.484813508872364 ] } },
{ "type": "Feature", "properties": { "visible_points": 58, "total_points": 109, "visibility_pct": 53.211009174311933 }, "geometry": { "type": "Point", "coordinates": [ -0.289585951158486, 51.484810601221447 ] } },
{ "type": "Feature", "properties": { "visible_points": 65, "total_points": 112, "visibility_pct": 58.035714285714292 }, "geometry": { "type": "Point", "coordinates": [ -0.289386485680367, 51.484807693231751 ] } },
{ "type": "Feature", "properties": { "visible_points": 71, "total_points": 114, "visibility_pct": 62.280701754385973 }, "geometry": { "type": "Point", "coordinates": [ -0.289187020235591, 51.484804784903304 ] } },
{ "type": "Feature", "properties": { "visible_points": 78, "total_points": 115, "visibility_pct": 67.826086956521735 }, "geometry": { "type": "Point", "coordinates": [ -0.288987554824164, 51.484801876236098 ] } },
{ "type": "Feature", "properties": { "visible_points": 80, "total_points": 115, "visibility_pct": 69.565217391304344 }, "geometry": { "type": "Point", "coordinates": [ -0.288788089446089, 51.484798967230127 ] } },
{ "type": "Feature", "properties": { "visible_points": 83, "total_points": 115, "visibility_pct": 72.173913043478265 }, "geometry": { "type": "Point", "coordinates": [ -0.288588624101371, 51.484796057885411 ] } },
{ "type": "Feature", "properties": { "visible_points": 82, "total_points": 115, "visibility_pct": 71.304347826086953 }, "geometry": { "type": "Point", "coordinates": [ -0.288389158790013, 51.484793148201916 ] } },
{ "type": "Feature", "properties": { "visible_points": 79, "total_points": 115, "visibility_pct": 68.695652173913047 }, "geometry": { "type": "Point", "coordinates": [ -0.28818969351202, 51.484790238179677 ] } },
{ "type": "Feature", "properties": { "visible_points": 72, "total_points": 115, "visibility_pct": 62.608695652173921 }, "geometry": { "type": "Point", "coordinates": [ -0.287990228267393, 51.484787327818665 ] } },
{ "type": "Feature", "properties": { "visible_points": 61, "total_points": 115, "visibility_pct": 53.04347826086957 }, "geometry": { "type": "Point", "coordinates": [ -0.287790763056137, 51.484784417118917 ] } },
{ "type": "Feature", "properties": { "visible_points": 53, "total_points": 115, "visibility_pct": 46.086956521739133 }, "geometry": { "type": "Point", "coordinates": [ -0.287591297878259, 51.484781506080388 ] } },
{ "type": "Feature", "properties": { "visible_points": 71, "total_points": 115, "visibility_pct": 61.739130434782609 }, "geometry": { "type": "Point", "coordinates": [ -0.287391832733759, 51.484778594703116 ] } },
{ "type": "Feature", "properties": { "visible_points": 57, "total_points": 114, "visibility_pct": 50.0 }, "geometry": { "type": "Point", "coordinates": [ -0.287192367622642, 51.484775682987085 ] } },
{ "type": "Feature", "properties": { "visible_points": 46, "total_points": 114, "visibility_pct": 40.350877192982452 }, "geometry": { "type": "Point", "coordinates": [ -0.286992902544915, 51.484772770932274 ] } },
{ "type": "Feature", "properties": { "visible_points": 46, "total_points": 114, "visibility_pct": 40.350877192982452 }, "geometry": { "type": "Point", "coordinates": [ -0.28679343750057, 51.484769858538719 ] } },
{ "type": "Feature", "properties": { "visible_points": 47, "total_points": 114, "visibility_pct": 41.228070175438596 }, "geometry": { "type": "Point", "coordinates": [ -0.286593972489631, 51.48476694580642 ] } },
{ "type": "Feature", "properties": { "visible_points": 45, "total_points": 106, "visibility_pct": 42.452830188679243 }, "geometry": { "type": "Point", "coordinates": [ -0.286394507512087, 51.484764032735356 ] } },
{ "type": "Feature", "properties": { "visible_points": 43, "total_points": 95, "visibility_pct": 45.263157894736842 }, "geometry": { "type": "Point", "coordinates": [ -0.286195042567941, 51.484761119325526 ] } },
{ "type": "Feature", "properties": { "visible_points": 38, "total_points": 83, "visibility_pct": 45.783132530120483 }, "geometry": { "type": "Point", "coordinates": [ -0.285995577657206, 51.484758205576945 ] } },
{ "type": "Feature", "properties": { "visible_points": 0, "total_points": 71, "visibility_pct": 0.0 }, "geometry": { "type": "Point", "coordinates": [ -0.285796112779882, 51.484755291489599 ] } },
{ "type": "Feature", "properties": { "visible_points": 14, "total_points": 80, "visibility_pct": 17.5 }, "geometry": { "type": "Point", "coordinates": [ -0.290280046853179, 51.48492862997449 ] } },
{ "type": "Feature", "properties": { "visible_points": 25, "total_points": 87, "visibility_pct": 28.735632183908045 }, "geometry": { "type": "Point", "coordinates": [ -0.29008058079064, 51.484925723152081 ] } },
{ "type": "Feature", "properties": { "visible_points": 32, "total_points": 93, "visibility_pct": 34.408602150537639 }, "geometry": { "type": "Point", "coordinates": [ -0.289881114761433, 51.484922815990913 ] } },
{ "type": "Feature", "properties": { "visible_points": 41, "total_points": 97, "visibility_pct": 42.268041237113401 }, "geometry": { "type": "Point", "coordinates": [ -0.28968164876556, 51.48491990849098 ] } },
{ "type": "Feature", "properties": { "visible_points": 51, "total_points": 101, "visibility_pct": 50.495049504950494 }, "geometry": { "type": "Point", "coordinates": [ -0.289482182803027, 51.484917000652274 ] } },
{ "type": "Feature", "properties": { "visible_points": 64, "total_points": 104, "visibility_pct": 61.53846153846154 }, "geometry": { "type": "Point", "coordinates": [ -0.289282716873832, 51.484914092474824 ] } },
{ "type": "Feature", "properties": { "visible_points": 70, "total_points": 106, "visibility_pct": 66.037735849056602 }, "geometry": { "type": "Point", "coordinates": [ -0.289083250977993, 51.484911183958609 ] } },
{ "type": "Feature", "properties": { "visible_points": 71, "total_points": 107, "visibility_pct": 66.355140186915889 }, "geometry": { "type": "Point", "coordinates": [ -0.288883785115497, 51.484908275103621 ] } },
{ "type": "Feature", "properties": { "visible_points": 74, "total_points": 107, "visibility_pct": 69.158878504672899 }, "geometry": { "type": "Point", "coordinates": [ -0.288684319286362, 51.484905365909867 ] } },
{ "type": "Feature", "properties": { "visible_points": 75, "total_points": 107, "visibility_pct": 70.09345794392523 }, "geometry": { "type": "Point", "coordinates": [ -0.288484853490578, 51.484902456377363 ] } },
{ "type": "Feature", "properties": { "visible_points": 75, "total_points": 107, "visibility_pct": 70.09345794392523 }, "geometry": { "type": "Point", "coordinates": [ -0.288285387728161, 51.484899546506092 ] } },
{ "type": "Feature", "properties": { "visible_points": 67, "total_points": 107, "visibility_pct": 62.616822429906534 }, "geometry": { "type": "Point", "coordinates": [ -0.288085921999112, 51.484896636296085 ] } },
{ "type": "Feature", "properties": { "visible_points": 58, "total_points": 107, "visibility_pct": 54.205607476635507 }, "geometry": { "type": "Point", "coordinates": [ -0.287886456303427, 51.484893725747284 ] } },
{ "type": "Feature", "properties": { "visible_points": 50, "total_points": 107, "visibility_pct": 46.728971962616825 }, "geometry": { "type": "Point", "coordinates": [ -0.287686990641119, 51.484890814859739 ] } },
{ "type": "Feature", "properties": { "visible_points": 53, "total_points": 107, "visibility_pct": 49.532710280373834 }, "geometry": { "type": "Point", "coordinates": [ -0.28748752501219, 51.484887903633449 ] } },
{ "type": "Feature", "properties": { "visible_points": 37, "total_points": 106, "visibility_pct": 34.905660377358487 }, "geometry": { "type": "Point", "coordinates": [ -0.287288059416639, 51.484884992068373 ] } },
{ "type": "Feature", "properties": { "visible_points": 41, "total_points": 106, "visibility_pct": 38.679245283018872 }, "geometry": { "type": "Point", "coordinates": [ -0.287088593854477, 51.48488208016456 ] } },
{ "type": "Feature", "properties": { "visible_points": 39, "total_points": 106, "visibility_pct": 36.79245283018868 }, "geometry": { "type": "Point", "coordinates": [ -0.286889128325702, 51.484879167921974 ] } },
{ "type": "Feature", "properties": { "visible_points": 38, "total_points": 106, "visibility_pct": 35.849056603773583 }, "geometry": { "type": "Point", "coordinates": [ -0.286689662830322, 51.48487625534063 ] } },
{ "type": "Feature", "properties": { "visible_points": 40, "total_points": 103, "visibility_pct": 38.834951456310677 }, "geometry": { "type": "Point", "coordinates": [ -0.286490197368338, 51.484873342420521 ] } },
{ "type": "Feature", "properties": { "visible_points": 40, "total_points": 93, "visibility_pct": 43.01075268817204 }, "geometry": { "type": "Point", "coordinates": [ -0.286290731939755, 51.484870429161653 ] } },
{ "type": "Feature", "properties": { "visible_points": 38, "total_points": 83, "visibility_pct": 45.783132530120483 }, "geometry": { "type": "Point", "coordinates": [ -0.286091266544575, 51.484867515564048 ] } },
{ "type": "Feature", "properties": { "visible_points": 26, "total_points": 72, "visibility_pct": 36.111111111111107 }, "geometry": { "type": "Point", "coordinates": [ -0.285891801182807, 51.484864601627685 ] } },
{ "type": "Feature", "properties": { "visible_points": 4, "total_points": 61, "visibility_pct": 6.557377049180328 }, "geometry": { "type": "Point", "coordinates": [ -0.285692335854451, 51.484861687352542 ] } },
{ "type": "Feature", "properties": { "visible_points": 14, "total_points": 80, "visibility_pct": 17.5 }, "geometry": { "type": "Point", "coordinates": [ -0.289976813303982, 51.485032123040639 ] } },
{ "type": "Feature", "properties": { "visible_points": 14, "total_points": 85, "visibility_pct": 16.470588235294116 }, "geometry": { "type": "Point", "coordinates": [ -0.289777346823699, 51.485029215691704 ] } },
{ "type": "Feature", "properties": { "visible_points": 0, "total_points": 89, "visibility_pct": 0.0 }, "geometry": { "type": "Point", "coordinates": [ -0.289577880376749, 51.485026308003995 ] } },
{ "type": "Feature", "properties": { "visible_points": 0, "total_points": 92, "visibility_pct": 0.0 }, "geometry": { "type": "Point", "coordinates": [ -0.289378413963139, 51.485023399977528 ] } },
{ "type": "Feature", "properties": { "visible_points": 51, "total_points": 95, "visibility_pct": 53.684210526315788 }, "geometry": { "type": "Point", "coordinates": [ -0.289178947582878, 51.485020491612282 ] } },
{ "type": "Feature", "properties": { "visible_points": 57, "total_points": 97, "visibility_pct": 58.762886597938149 }, "geometry": { "type": "Point", "coordinates": [ -0.288979481235962, 51.485017582908291 ] } },
{ "type": "Feature", "properties": { "visible_points": 60, "total_points": 98, "visibility_pct": 61.224489795918366 }, "geometry": { "type": "Point", "coordinates": [ -0.288780014922401, 51.485014673865521 ] } },
{ "type": "Feature", "properties": { "visible_points": 63, "total_points": 98, "visibility_pct": 64.285714285714292 }, "geometry": { "type": "Point", "coordinates": [ -0.288580548642196, 51.485011764484007 ] } },
{ "type": "Feature", "properties": { "visible_points": 64, "total_points": 98, "visibility_pct": 65.306122448979593 }, "geometry": { "type": "Point", "coordinates": [ -0.288381082395351, 51.485008854763727 ] } },
{ "type": "Feature", "properties": { "visible_points": 59, "total_points": 98, "visibility_pct": 60.204081632653065 }, "geometry": { "type": "Point", "coordinates": [ -0.288181616181873, 51.485005944704675 ] } },
{ "type": "Feature", "properties": { "visible_points": 47, "total_points": 98, "visibility_pct": 47.959183673469383 }, "geometry": { "type": "Point", "coordinates": [ -0.28798215000176, 51.485003034306871 ] } },
{ "type": "Feature", "properties": { "visible_points": 38, "total_points": 98, "visibility_pct": 38.775510204081634 }, "geometry": { "type": "Point", "coordinates": [ -0.28778268385502, 51.485000123570302 ] } },
{ "type": "Feature", "properties": { "visible_points": 0, "total_points": 98, "visibility_pct": 0.0 }, "geometry": { "type": "Point", "coordinates": [ -0.287583217741657, 51.484997212494974 ] } },
{ "type": "Feature", "properties": { "visible_points": 39, "total_points": 97, "visibility_pct": 40.206185567010309 }, "geometry": { "type": "Point", "coordinates": [ -0.287383751661677, 51.484994301080881 ] } },
{ "type": "Feature", "properties": { "visible_points": 37, "total_points": 97, "visibility_pct": 38.144329896907216 }, "geometry": { "type": "Point", "coordinates": [ -0.287184285615075, 51.48499138932803 ] } },
{ "type": "Feature", "properties": { "visible_points": 25, "total_points": 97, "visibility_pct": 25.773195876288657 }, "geometry": { "type": "Point", "coordinates": [ -0.286984819601865, 51.484988477236413 ] } },
{ "type": "Feature", "properties": { "visible_points": 0, "total_points": 97, "visibility_pct": 0.0 }, "geometry": { "type": "Point", "coordinates": [ -0.286785353622044, 51.484985564806038 ] } },
{ "type": "Feature", "properties": { "visible_points": 26, "total_points": 96, "visibility_pct": 27.083333333333332 }, "geometry": { "type": "Point", "coordinates": [ -0.286585887675618, 51.484982652036926 ] } },
{ "type": "Feature", "properties": { "visible_points": 0, "total_points": 90, "visibility_pct": 0.0 }, "geometry": { "type": "Point", "coordinates": [ -0.286386421762592, 51.484979738929034 ] } },
{ "type": "Feature", "properties": { "visible_points": 29, "total_points": 81, "visibility_pct": 35.802469135802468 }, "geometry": { "type": "Point", "coordinates": [ -0.28618695588297, 51.484976825482377 ] } },
{ "type": "Feature", "properties": { "visible_points": 0, "total_points": 71, "visibility_pct": 0.0 }, "geometry": { "type": "Point", "coordinates": [ -0.285987490036755, 51.484973911696962 ] } },
{ "type": "Feature", "properties": { "visible_points": 16, "total_points": 61, "visibility_pct": 26.229508196721312 }, "geometry": { "type": "Point", "coordinates": [ -0.285788024223951, 51.484970997572802 ] } },
{ "type": "Feature", "properties": { "visible_points": 2, "total_points": 76, "visibility_pct": 2.6315789473684208 }, "geometry": { "type": "Point", "coordinates": [ -0.289673578401538, 51.4851356152869 ] } },
{ "type": "Feature", "properties": { "visible_points": 0, "total_points": 80, "visibility_pct": 0.0 }, "geometry": { "type": "Point", "coordinates": [ -0.289474111503508, 51.485132707411417 ] } },
{ "type": "Feature", "properties": { "visible_points": 7, "total_points": 83, "visibility_pct": 8.4337349397590362 }, "geometry": { "type": "Point", "coordinates": [ -0.289274644638824, 51.485129799197168 ] } },
{ "type": "Feature", "properties": { "visible_points": 42, "total_points": 85, "visibility_pct": 49.411764705882355 }, "geometry": { "type": "Point", "coordinates": [ -0.289075177807487, 51.48512689064416 ] } },
{ "type": "Feature", "properties": { "visible_points": 47, "total_points": 87, "visibility_pct": 54.022988505747129 }, "geometry": { "type": "Point", "coordinates": [ -0.288875711009501, 51.485123981752388 ] } },
{ "type": "Feature", "properties": { "visible_points": 50, "total_points": 88, "visibility_pct": 56.81818181818182 }, "geometry": { "type": "Point", "coordinates": [ -0.288676244244869, 51.485121072521842 ] } },
{ "type": "Feature", "properties": { "visible_points": 38, "total_points": 88, "visibility_pct": 43.18181818181818 }, "geometry": { "type": "Point", "coordinates": [ -0.288476777513596, 51.485118162952539 ] } },
{ "type": "Feature", "properties": { "visible_points": 35, "total_points": 88, "visibility_pct": 39.772727272727273 }, "geometry": { "type": "Point", "coordinates": [ -0.288277310815686, 51.485115253044484 ] } },
{ "type": "Feature", "properties": { "visible_points": 30, "total_points": 88, "visibility_pct": 34.090909090909086 }, "geometry": { "type": "Point", "coordinates": [ -0.288077844151145, 51.485112342797663 ] } },
{ "type": "Feature", "properties": { "visible_points": 14, "total_points": 88, "visibility_pct": 15.909090909090908 }, "geometry": { "type": "Point", "coordinates": [ -0.28787837751997, 51.48510943221207 ] } },
{ "type": "Feature", "properties": { "visible_points": 3, "total_points": 88, "visibility_pct": 3.4090909090909087 }, "geometry": { "type": "Point", "coordinates": [ -0.287678910922172, 51.485106521287719 ] } },
{ "type": "Feature", "properties": { "visible_points": 19, "total_points": 87, "visibility_pct": 21.839080459770116 }, "geometry": { "type": "Point", "coordinates": [ -0.287479444357753, 51.485103610024602 ] } },
{ "type": "Feature", "properties": { "visible_points": 25, "total_points": 87, "visibility_pct": 28.735632183908045 }, "geometry": { "type": "Point", "coordinates": [ -0.287279977826715, 51.485100698422727 ] } },
{ "type": "Feature", "properties": { "visible_points": 8, "total_points": 87, "visibility_pct": 9.1954022988505741 }, "geometry": { "type": "Point", "coordinates": [ -0.287080511329063, 51.485097786482086 ] } },
{ "type": "Feature", "properties": { "visible_points": 9, "total_points": 87, "visibility_pct": 10.344827586206897 }, "geometry": { "type": "Point", "coordinates": [ -0.286881044864801, 51.485094874202694 ] } },
{ "type": "Feature", "properties": { "visible_points": 12, "total_points": 86, "visibility_pct": 13.953488372093023 }, "geometry": { "type": "Point", "coordinates": [ -0.286681578433934, 51.48509196158453 ] } },
{ "type": "Feature", "properties": { "visible_points": 12, "total_points": 83, "visibility_pct": 14.457831325301203 }, "geometry": { "type": "Point", "coordinates": [ -0.286482112036465, 51.485089048627593 ] } },
{ "type": "Feature", "properties": { "visible_points": 11, "total_points": 77, "visibility_pct": 14.285714285714285 }, "geometry": { "type": "Point", "coordinates": [ -0.286282645672392, 51.485086135331926 ] } },
{ "type": "Feature", "properties": { "visible_points": 9, "total_points": 69, "visibility_pct": 13.043478260869565 }, "geometry": { "type": "Point", "coordinates": [ -0.286083179341728, 51.485083221697472 ] } },
{ "type": "Feature", "properties": { "visible_points": 2, "total_points": 60, "visibility_pct": 3.3333333333333335 }, "geometry": { "type": "Point", "coordinates": [ -0.285883713044477, 51.485080307724274 ] } },
{ "type": "Feature", "properties": { "visible_points": 28, "total_points": 73, "visibility_pct": 38.356164383561641 }, "geometry": { "type": "Point", "coordinates": [ -0.289170874830074, 51.485236198311235 ] } },
{ "type": "Feature", "properties": { "visible_points": 35, "total_points": 75, "visibility_pct": 46.666666666666664 }, "geometry": { "type": "Point", "coordinates": [ -0.288971407547662, 51.485233289570445 ] } },
{ "type": "Feature", "properties": { "visible_points": 34, "total_points": 76, "visibility_pct": 44.736842105263158 }, "geometry": { "type": "Point", "coordinates": [ -0.288771940298597, 51.485230380490883 ] } },
{ "type": "Feature", "properties": { "visible_points": 24, "total_points": 77, "visibility_pct": 31.168831168831169 }, "geometry": { "type": "Point", "coordinates": [ -0.288572473082901, 51.485227471072569 ] } },
{ "type": "Feature", "properties": { "visible_points": 2, "total_points": 77, "visibility_pct": 2.5974025974025974 }, "geometry": { "type": "Point", "coordinates": [ -0.28837300590055, 51.485224561315491 ] } },
{ "type": "Feature", "properties": { "visible_points": 18, "total_points": 77, "visibility_pct": 23.376623376623375 }, "geometry": { "type": "Point", "coordinates": [ -0.288173538751579, 51.485221651219646 ] } },
{ "type": "Feature", "properties": { "visible_points": 2, "total_points": 77, "visibility_pct": 2.5974025974025974 }, "geometry": { "type": "Point", "coordinates": [ -0.287974071635972, 51.485218740785029 ] } },
{ "type": "Feature", "properties": { "visible_points": 5, "total_points": 77, "visibility_pct": 6.4935064935064926 }, "geometry": { "type": "Point", "coordinates": [ -0.287774604553735, 51.485215830011668 ] } },
{ "type": "Feature", "properties": { "visible_points": 10, "total_points": 76, "visibility_pct": 13.157894736842104 }, "geometry": { "type": "Point", "coordinates": [ -0.287575137504874, 51.485212918899521 ] } }
]
}
