{
"type": "FeatureCollection",
"name": "HILLI_56_walking",
"crs": { "type": "name", "properties": { "name": "urn:ogc:def:crs:OGC:1.3:CRS84" } },
"features": [
{"type":"Feature","properties":{"highway":"footway","name":null,"category":"Footpath (pedestrian only)"},"geometry":{"type":"MultiLineString","coordinates":[[[-0.4012272,51.5781961],[-0.4011636,51.5782568],[-0.4014169,51.5787151]]]}},
{"type":"Feature","properties":{"highway":"footway","name":null,"category":"Footpath (pedestrian only)"},"geometry":{"type":"MultiLineString","coordinates":[[[-0.4031343,51.5787274],[-0.4041451,51.5784942]]]}},
{"type":"Feature","properties":{"highway":"footway","name":null,"category":"Footpath (pedestrian only)"},"geometry":{"type":"MultiLineString","coordinates":[[[-0.3918173,51.5933373],[-0.3933405,51.5930829],[-0.3936274,51.5930194],[-0.3942953,51.5927069],[-0.3950676,51.5924399],[-0.3957576,51.5922601]]]}},
{"type":"Feature","properties":{"highway":"footway","name":null,"category":"Footpath (pedestrian only)"},"geometry":{"type":"MultiLineString","coordinates":[[[-0.3933405,51.5930829],[-0.3931543,51.5928154]]]}},
{"type":"Feature","properties":{"highway":"footway","name":null,"category":"Footpath (pedestrian only)"},"geometry":{"type":"MultiLineString","coordinates":[[[-0.4102397,51.5798726],[-0.4103821,51.579922],[-0.4105431,51.5799779],[-0.4105526,51.5800073],[-0.4105698,51.58006],[-0.4106286,51.580099]]]}},
{"type":"Feature","properties":{"highway":"footway","name":null,"category":"Footpath (pedestrian only)"},"geometry":{"type":"MultiLineString","coordinates":[[[-0.4104701,51.579868],[-0.4103821,51.579922],[-0.4103453,51.5799607]]]}},
{"type":"Feature","properties":{"highway":"footway","name":null,"category":"Footpath (pedestrian only)"},"geometry":{"type":"MultiLineString","coordinates":[[[-0.4105526,51.5800073],[-0.4104619,51.5800131]]]}},
{"type":"Feature","properties":{"highway":"footway","name":null,"category":"Footpath (pedestrian only)"},"geometry":{"type":"MultiLineString","coordinates":[[[-0.4090265,51.5823295],[-0.4086507,51.5822579],[-0.4084595,51.5822476],[-0.4078013,51.5822755],[-0.4075725,51.5822812],[-0.4073589,51.5822842],[-0.4064286,51.5824633],[-0.406014,51.5825253],[-0.405935,51.5825409],[-0.4050071,51.5827567],[-0.4045645,51.5828648],[-0.4040862,51.5829769],[-0.4040708,51.5829805],[-0.4039288,51.5830167],[-0.4032717,51.5831732],[-0.4028487,51.5832786],[-0.4027847,51.583294],[-0.4026853,51.5833193],[-0.4026707,51.583351],[-0.4024049,51.5834126],[-0.4014842,51.5836066],[-0.4011807,51.5836858],[-0.4008763,51.5838022]]]}},
{"type":"Feature","properties":{"highway":"footway","name":null,"category":"Footpath (pedestrian only)"},"geometry":{"type":"MultiLineString","coordinates":[[[-0.4026173,51.5836037],[-0.4025016,51.5835879],[-0.4024049,51.5834126],[-0.4023781,51.5833937]]]}},
{"type":"Feature","properties":{"highway":"footway","name":null,"category":"Footpath (pedestrian only)"},"geometry":{"type":"MultiLineString","coordinates":[[[-0.4068196,51.5819462],[-0.406923,51.5820077],[-0.4073589,51.5822842]]]}},
{"type":"Feature","properties":{"highway":"footway","name":null,"category":"Footpath (pedestrian only)"},"geometry":{"type":"MultiLineString","coordinates":[[[-0.4099375,51.5800908],[-0.4099327,51.5800551],[-0.4097772,51.5798532],[-0.4098309,51.5795932],[-0.409804,51.5793817],[-0.4096906,51.5789411],[-0.4096334,51.5788348],[-0.4095948,51.5787831],[-0.4093212,51.5782998],[-0.4091013,51.5778397],[-0.408656,51.5769029],[-0.4086077,51.576797],[-0.4085808,51.5767613],[-0.4085595,51.5767403],[-0.4084934,51.5767011],[-0.4083257,51.5766122],[-0.4081967,51.5765746],[-0.408149,51.5765474]]]}},
{"type":"Feature","properties":{"highway":"footway","name":null,"category":"Footpath (pedestrian only)"},"geometry":{"type":"MultiLineString","coordinates":[[[-0.4066035,51.5786709],[-0.4064401,51.5786955],[-0.4064637,51.5787613],[-0.406388,51.5788138],[-0.4065101,51.5788893],[-0.406613,51.5789529],[-0.4067156,51.5791355],[-0.4067713,51.5792947],[-0.4068804,51.5794486],[-0.4070896,51.5796132],[-0.4072506,51.5797399],[-0.4073897,51.5798801],[-0.4074807,51.5799902],[-0.4077486,51.5800779],[-0.407916,51.5801089],[-0.4081438,51.5801511],[-0.4082349,51.5801249],[-0.4082841,51.5801107]]]}},
{"type":"Feature","properties":{"highway":"footway","name":null,"category":"Footpath (pedestrian only)"},"geometry":{"type":"MultiLineString","coordinates":[[[-0.4045645,51.5828648],[-0.4044234,51.5825582],[-0.4046259,51.5825186],[-0.4046398,51.5825504]]]}},
{"type":"Feature","properties":{"highway":"path","name":null,"category":"Shared path"},"geometry":{"type":"MultiLineString","coordinates":[[[-0.4141128,51.5887094],[-0.4142393,51.5887749],[-0.4147432,51.5890628],[-0.414779,51.5891758],[-0.4148423,51.5893225],[-0.4149216,51.5896742],[-0.4149284,51.5897197],[-0.4149389,51.5897908]]]}},
{"type":"Feature","properties":{"highway":"path","name":null,"category":"Shared path"},"geometry":{"type":"MultiLineString","coordinates":[[[-0.4148027,51.5885508],[-0.414817,51.5887963],[-0.4147432,51.5890628]]]}},
{"type":"Feature","properties":{"highway":"bridleway","name":null,"category":"Bridleway"},"geometry":{"type":"MultiLineString","coordinates":[[[-0.4201272,51.592726],[-0.4200036,51.5925631],[-0.4199277,51.5924217],[-0.4197591,51.5922226],[-0.419641,51.5919711],[-0.4194807,51.5917248],[-0.4194217,51.5915257],[-0.4192024,51.591248],[-0.4190928,51.5910961],[-0.4190806,51.5910723],[-0.4190651,51.5910422],[-0.4189241,51.5908865],[-0.418666,51.590929],[-0.4186374,51.5909337],[-0.418356,51.5909941],[-0.4178155,51.5911104],[-0.417288,51.5912113],[-0.4169338,51.5912795],[-0.4165543,51.5913685],[-0.4163097,51.5914104],[-0.416082,51.5914628],[-0.4158965,51.5914209],[-0.4157784,51.5912952],[-0.4156856,51.591159],[-0.4154579,51.5909127],[-0.4151628,51.590504],[-0.4150616,51.5902997],[-0.4149519,51.5900953],[-0.4149097,51.5899696],[-0.4148509,51.5898063]]]}},
{"type":"Feature","properties":{"highway":"path","name":null,"category":"Shared path"},"geometry":{"type":"MultiLineString","coordinates":[[[-0.4150671,51.5856818],[-0.4151278,51.5857647],[-0.4151375,51.5858982],[-0.4151712,51.5859427],[-0.4151501,51.5860056],[-0.4151122,51.5860685],[-0.41507,51.5861392],[-0.4150405,51.5862152],[-0.4150363,51.5862912],[-0.4150869,51.5863672],[-0.4152007,51.5864196],[-0.4152387,51.5865008],[-0.415323,51.5865506],[-0.4153356,51.586603],[-0.4153736,51.5866737],[-0.4154073,51.5867235],[-0.4155127,51.5867864],[-0.4156182,51.5868388],[-0.4157405,51.5868938],[-0.4158126,51.5869221],[-0.4158079,51.58703],[-0.4158164,51.5871505],[-0.4157742,51.5872187],[-0.4157826,51.5872789],[-0.4157953,51.5873444],[-0.4157953,51.5874256],[-0.4158501,51.5874859],[-0.4158712,51.5875724],[-0.4159218,51.5876667],[-0.4159808,51.5877348],[-0.4160651,51.5878108],[-0.4160954,51.5879106],[-0.4160352,51.5879523],[-0.4159328,51.588023],[-0.4158658,51.5880747],[-0.4157957,51.5881102],[-0.4157129,51.588148],[-0.4156523,51.5881663],[-0.4153399,51.5882955],[-0.4152091,51.5883479],[-0.4151248,51.5884055],[-0.415011,51.5884391],[-0.4149473,51.5884686],[-0.4148308,51.5885172],[-0.4148027,51.5885508],[-0.4145756,51.5886313],[-0.4144818,51.5886729],[-0.4143827,51.5886754],[-0.4142393,51.5886754],[-0.4141128,51.5887094],[-0.4139905,51.5886806],[-0.4138513,51.5886256],[-0.4137501,51.5885575],[-0.4136784,51.5884605],[-0.4136152,51.5883583],[-0.4135646,51.5883007],[-0.4134507,51.5882064],[-0.4132779,51.5881226],[-0.4131092,51.5880833],[-0.4128899,51.5880571],[-0.4126622,51.5880361],[-0.412523,51.5880518],[-0.4124092,51.5880675],[-0.4122574,51.5880964],[-0.4121182,51.5881357],[-0.4119369,51.588175]]]}},
{"type":"Feature","properties":{"highway":"footway","name":null,"category":"Footpath (pedestrian only)"},"geometry":{"type":"MultiLineString","coordinates":[[[-0.4014051,51.5873385],[-0.401536,51.5873682],[-0.4016181,51.5873761],[-0.401868,51.5873955],[-0.4019514,51.5873948],[-0.4020219,51.5873897],[-0.402118,51.5873703],[-0.4021682,51.5873567],[-0.4022533,51.5873337],[-0.4023557,51.5873071],[-0.4023922,51.5872948],[-0.4025946,51.5872531],[-0.4027555,51.5872107]]]}},
{"type":"Feature","properties":{"highway":"footway","name":null,"category":"Footpath (pedestrian only)"},"geometry":{"type":"MultiLineString","coordinates":[[[-0.4023968,51.5871457],[-0.4022827,51.5869635],[-0.4021711,51.5867854]]]}},
{"type":"Feature","properties":{"highway":"footway","name":null,"category":"Footpath (pedestrian only)"},"geometry":{"type":"MultiLineString","coordinates":[[[-0.4024686,51.5869172],[-0.4022827,51.5869635],[-0.402093,51.5870109]]]}},
{"type":"Feature","properties":{"highway":"footway","name":null,"category":"Footpath (pedestrian only)"},"geometry":{"type":"MultiLineString","coordinates":[[[-0.402583,51.587101],[-0.4023968,51.5871457],[-0.4022054,51.5871917],[-0.402093,51.5870109],[-0.4019811,51.586831],[-0.4021711,51.5867854],[-0.4023586,51.5867404],[-0.4024686,51.5869172],[-0.4025493,51.5870469],[-0.402583,51.587101]]]}},
{"type":"Feature","properties":{"highway":"footway","name":null,"category":"Footpath (pedestrian only)"},"geometry":{"type":"MultiLineString","coordinates":[[[-0.4042426,51.5826315],[-0.4042219,51.5825963],[-0.4044234,51.5825582]]]}},
{"type":"Feature","properties":{"highway":"footway","name":null,"category":"Footpath (pedestrian only)"},"geometry":{"type":"MultiLineString","coordinates":[[[-0.4032717,51.5831732],[-0.403123,51.5828735]]]}},
{"type":"Feature","properties":{"highway":"footway","name":null,"category":"Footpath (pedestrian only)"},"geometry":{"type":"MultiLineString","coordinates":[[[-0.4085138,51.5821523],[-0.4084595,51.5822476]]]}},
{"type":"Feature","properties":{"highway":"footway","name":null,"category":"Footpath (pedestrian only)"},"geometry":{"type":"MultiLineString","coordinates":[[[-0.4088692,51.5824101],[-0.4089718,51.5825365],[-0.4092575,51.5827894],[-0.4093242,51.5828345],[-0.4093631,51.5828608],[-0.4093606,51.5829463]]]}},
{"type":"Feature","properties":{"highway":"footway","name":null,"category":"Footpath (pedestrian only)"},"geometry":{"type":"MultiLineString","coordinates":[[[-0.4089718,51.5825365],[-0.4089385,51.5825422],[-0.4089664,51.5825724],[-0.4089198,51.5825839],[-0.4088863,51.5825399],[-0.4088322,51.5825596],[-0.4087485,51.5825395]]]}},
{"type":"Feature","properties":{"highway":"path","name":null,"category":"Shared path"},"geometry":{"type":"MultiLineString","coordinates":[[[-0.4055975,51.581869],[-0.4056063,51.5818849],[-0.4056163,51.581903]]]}},
{"type":"Feature","properties":{"highway":"footway","name":null,"category":"Footpath (pedestrian only)"},"geometry":{"type":"MultiLineString","coordinates":[[[-0.4025493,51.5870469],[-0.4025873,51.5870394],[-0.4026522,51.5870186],[-0.4027168,51.5869995],[-0.4027286,51.586996],[-0.4027977,51.5869711],[-0.4028523,51.58695],[-0.4028718,51.5869401],[-0.4029057,51.5869229],[-0.4029288,51.5868973],[-0.4029445,51.5868709],[-0.4029482,51.5868551]]]}},
{"type":"Feature","properties":{"highway":"footway","name":null,"category":"Footpath (pedestrian only)"},"geometry":{"type":"MultiLineString","coordinates":[[[-0.4036264,51.5866689],[-0.4037416,51.5865957],[-0.4038435,51.5865475],[-0.4039188,51.5865106],[-0.4039867,51.5864834],[-0.4040753,51.586457],[-0.4041893,51.5864201],[-0.404273,51.5863945],[-0.4043531,51.5863719],[-0.4044198,51.5863462],[-0.4044999,51.586292],[-0.4045509,51.5862377],[-0.4045824,51.5861894],[-0.4046443,51.5861043],[-0.4046807,51.5860462],[-0.4047268,51.5859882],[-0.4047741,51.5859422],[-0.4048275,51.5858758],[-0.4048699,51.5858465],[-0.4049342,51.585814],[-0.4049827,51.5857923]]]}},
{"type":"Feature","properties":{"highway":"footway","name":null,"category":"Footpath (pedestrian only)"},"geometry":{"type":"MultiLineString","coordinates":[[[-0.4036264,51.5866689],[-0.4034905,51.5867706],[-0.403408,51.5868505],[-0.4032418,51.5869744]]]}},
{"type":"Feature","properties":{"highway":"footway","name":null,"category":"Footpath (pedestrian only)"},"geometry":{"type":"MultiLineString","coordinates":[[[-0.4036252,51.5873488],[-0.4034716,51.5871376],[-0.4034644,51.5871279],[-0.4034779,51.5870997],[-0.4035107,51.5870734],[-0.4035956,51.5870711],[-0.4036751,51.5870842],[-0.4037256,51.5871085],[-0.4037542,51.5871488],[-0.4037484,51.587198],[-0.403646,51.5873197],[-0.4036252,51.5873488]]]}},
{"type":"Feature","properties":{"highway":"footway","name":null,"category":"Footpath (pedestrian only)"},"geometry":{"type":"MultiLineString","coordinates":[[[-0.4027168,51.5869995],[-0.4027749,51.5870962],[-0.4027803,51.5871078],[-0.4028442,51.5871096],[-0.4028997,51.5871114],[-0.4030495,51.5871098],[-0.4030686,51.58714],[-0.4032293,51.5870765],[-0.4032418,51.5869744]]]}},
{"type":"Feature","properties":{"highway":"footway","name":null,"category":"Footpath (pedestrian only)"},"geometry":{"type":"MultiLineString","coordinates":[[[-0.4046259,51.5825186],[-0.4045008,51.5822569],[-0.4043792,51.5819887]]]}},
{"type":"Feature","properties":{"highway":"footway","name":null,"category":"Footpath (pedestrian only)"},"geometry":{"type":"MultiLineString","coordinates":[[[-0.4101226,51.5840527],[-0.410028,51.5840697],[-0.4095249,51.5841998],[-0.4086211,51.5845332],[-0.4070868,51.5852329]]]}},
{"type":"Feature","properties":{"highway":"footway","name":null,"category":"Footpath (pedestrian only)"},"geometry":{"type":"MultiLineString","coordinates":[[[-0.4067272,51.585084],[-0.4067666,51.5851136]]]}},
{"type":"Feature","properties":{"highway":"footway","name":"Celandine Route R135","category":"Footpath (pedestrian only)"},"geometry":{"type":"MultiLineString","coordinates":[[[-0.4124371,51.5836505],[-0.4127428,51.5836334],[-0.4130818,51.5835666],[-0.4133209,51.5835452],[-0.4136014,51.5834422],[-0.4139802,51.5832141],[-0.4144566,51.5829483],[-0.4150205,51.5827864],[-0.4155089,51.5826115],[-0.4158175,51.5825841],[-0.4161146,51.5824896],[-0.4169605,51.5822355],[-0.4173034,51.5821966],[-0.4174241,51.5821516],[-0.4175502,51.5820499],[-0.4182422,51.5818199],[-0.4190832,51.5816501]]]}},
{"type":"Feature","properties":{"highway":"path","name":null,"category":"Shared path"},"geometry":{"type":"MultiLineString","coordinates":[[[-0.4160352,51.5879523],[-0.4159999,51.5881997],[-0.4160428,51.5886379],[-0.4161029,51.5888289]]]}},
{"type":"Feature","properties":{"highway":"path","name":null,"category":"Shared path"},"geometry":{"type":"MultiLineString","coordinates":[[[-0.4163392,51.5891427],[-0.4160804,51.5894178],[-0.4158255,51.5894928],[-0.4155278,51.5895712],[-0.4151738,51.5896445],[-0.4149552,51.5896678]]]}},
{"type":"Feature","properties":{"highway":"path","name":null,"category":"Shared path"},"geometry":{"type":"MultiLineString","coordinates":[[[-0.4149552,51.5896678],[-0.4149726,51.5896178],[-0.4150558,51.5894778],[-0.4153884,51.5893795],[-0.4154339,51.5893145],[-0.4154661,51.5892395],[-0.4155761,51.5890845],[-0.4161029,51.5888289]]]}},
{"type":"Feature","properties":{"highway":"path","name":null,"category":"Shared path"},"geometry":{"type":"MultiLineString","coordinates":[[[-0.4151122,51.5860685],[-0.4153454,51.5862232],[-0.4157424,51.5862032],[-0.4169011,51.5867565],[-0.4174268,51.5869484]]]}},
{"type":"Feature","properties":{"highway":"path","name":null,"category":"Shared path"},"geometry":{"type":"MultiLineString","coordinates":[[[-0.4178667,51.5869898],[-0.4175675,51.5872383],[-0.4173946,51.5873964],[-0.4170406,51.5875631],[-0.416354,51.5878564],[-0.4160954,51.5879106]]]}},
{"type":"Feature","properties":{"highway":"path","name":null,"category":"Shared path"},"geometry":{"type":"MultiLineString","coordinates":[[[-0.4149552,51.5896678],[-0.4149284,51.5897197]]]}},
{"type":"Feature","properties":{"highway":"path","name":null,"category":"Shared path"},"geometry":{"type":"MultiLineString","coordinates":[[[-0.4182481,51.5902737],[-0.4178171,51.590416],[-0.4176897,51.5904044],[-0.4174241,51.590406],[-0.4173303,51.590456],[-0.4169873,51.5907563],[-0.416512,51.5908034],[-0.4159748,51.5908804],[-0.415775,51.5909061],[-0.4156166,51.5907435],[-0.4155752,51.5905851],[-0.4153962,51.5904139],[-0.4152859,51.5902941],[-0.4152653,51.5902299],[-0.4150311,51.589986],[-0.4149389,51.5897908]]]}},
{"type":"Feature","properties":{"highway":"footway","name":"R196","category":"Footpath (pedestrian only)"},"geometry":{"type":"MultiLineString","coordinates":[[[-0.4081168,51.5927487],[-0.4085837,51.5926174],[-0.4086853,51.5925733],[-0.4087667,51.5925379],[-0.4089303,51.5924513],[-0.4090842,51.5923698],[-0.4092061,51.592289],[-0.4092227,51.592278],[-0.4099952,51.5918214],[-0.4101024,51.5918947],[-0.4102258,51.5919847],[-0.4103975,51.592018],[-0.410537,51.5920014],[-0.4108028,51.5918841]]]}},
{"type":"Feature","properties":{"highway":"footway","name":null,"category":"Footpath (pedestrian only)"},"geometry":{"type":"MultiLineString","coordinates":[[[-0.40942,51.5835213],[-0.409468,51.5835295],[-0.4094452,51.5837187]]]}},
{"type":"Feature","properties":{"highway":"path","name":null,"category":"Shared path"},"geometry":{"type":"MultiLineString","coordinates":[[[-0.4123878,51.5903624],[-0.4123642,51.5901491]]]}},
{"type":"Feature","properties":{"highway":"path","name":null,"category":"Shared path"},"geometry":{"type":"MultiLineString","coordinates":[[[-0.4104461,51.590088],[-0.4106734,51.5900678]]]}},
{"type":"Feature","properties":{"highway":"footway","name":null,"category":"Footpath (pedestrian only)"},"geometry":{"type":"MultiLineString","coordinates":[[[-0.4034716,51.5871376],[-0.4033011,51.5871181],[-0.4030686,51.58714],[-0.4030159,51.587145],[-0.4027555,51.5872107]]]}},
{"type":"Feature","properties":{"highway":"footway","name":null,"category":"Footpath (pedestrian only)"},"geometry":{"type":"MultiLineString","coordinates":[[[-0.4028742,51.5881849],[-0.4033214,51.5881091],[-0.4036685,51.5879998],[-0.4037874,51.5879773]]]}},
{"type":"Feature","properties":{"highway":"footway","name":null,"category":"Footpath (pedestrian only)"},"geometry":{"type":"MultiLineString","coordinates":[[[-0.4033214,51.5881091],[-0.4035991,51.588403]]]}},
{"type":"Feature","properties":{"highway":"footway","name":null,"category":"Footpath (pedestrian only)"},"geometry":{"type":"MultiLineString","coordinates":[[[-0.4028742,51.5881849],[-0.4026908,51.5882447],[-0.4024543,51.5882761],[-0.4020367,51.5883668],[-0.4012156,51.5885513],[-0.4007757,51.5886929],[-0.4003385,51.5888862],[-0.3999308,51.5890892],[-0.3993192,51.5894345],[-0.3984958,51.5897795],[-0.3980613,51.5899194],[-0.3969106,51.5900511],[-0.3961377,51.5902005],[-0.3955401,51.5901979]]]}},
{"type":"Feature","properties":{"highway":"footway","name":null,"category":"Footpath (pedestrian only)"},"geometry":{"type":"MultiLineString","coordinates":[[[-0.4025733,51.5880882],[-0.4024543,51.5882761],[-0.4022631,51.5884626],[-0.4022135,51.5887244]]]}},
{"type":"Feature","properties":{"highway":"footway","name":null,"category":"Footpath (pedestrian only)"},"geometry":{"type":"MultiLineString","coordinates":[[[-0.4021682,51.5873567],[-0.4017846,51.5867198],[-0.4023416,51.5866062],[-0.4025108,51.5866796],[-0.4025977,51.5867173],[-0.4029482,51.5868551]]]}},
{"type":"Feature","properties":{"highway":"footway","name":null,"category":"Footpath (pedestrian only)"},"geometry":{"type":"MultiLineString","coordinates":[[[-0.4048275,51.5858758],[-0.404136,51.5855938],[-0.4041345,51.5857574],[-0.4039149,51.5859671],[-0.4033214,51.5860681],[-0.4026628,51.5862424],[-0.4021099,51.5863687],[-0.4018456,51.5864294],[-0.4017846,51.5867198]]]}},
{"type":"Feature","properties":{"highway":"footway","name":null,"category":"Footpath (pedestrian only)"},"geometry":{"type":"MultiLineString","coordinates":[[[-0.4021099,51.5863687],[-0.4023416,51.5866062]]]}},
{"type":"Feature","properties":{"highway":"footway","name":null,"category":"Footpath (pedestrian only)"},"geometry":{"type":"MultiLineString","coordinates":[[[-0.4038007,51.5874552],[-0.4037239,51.5873725],[-0.4043977,51.5870259],[-0.4047108,51.5866797],[-0.404838,51.5863739],[-0.4048699,51.5858465]]]}},
{"type":"Feature","properties":{"highway":"footway","name":null,"category":"Footpath (pedestrian only)"},"geometry":{"type":"MultiLineString","coordinates":[[[-0.4067272,51.585084],[-0.4058296,51.5854196],[-0.4050672,51.5857262],[-0.4049852,51.5857666]]]}},
{"type":"Feature","properties":{"highway":"footway","name":null,"category":"Footpath (pedestrian only)"},"geometry":{"type":"MultiLineString","coordinates":[[[-0.3989247,51.5797134],[-0.3992944,51.5796061],[-0.3993815,51.5795618],[-0.3993326,51.5793887],[-0.3992946,51.5792782],[-0.3992886,51.5791254],[-0.3993007,51.578916],[-0.3993189,51.5787141],[-0.3992886,51.5785821],[-0.3991944,51.5784538],[-0.3990366,51.5782991],[-0.3989872,51.5782508],[-0.3988787,51.5781538],[-0.3987269,51.578018],[-0.3985812,51.5778708],[-0.3984112,51.5777105],[-0.3981261,51.5774311]]]}},
{"type":"Feature","properties":{"highway":"footway","name":null,"category":"Footpath (pedestrian only)"},"geometry":{"type":"MultiLineString","coordinates":[[[-0.3994465,51.5793785],[-0.3995289,51.5793717],[-0.3995968,51.579366]]]}},
{"type":"Feature","properties":{"highway":"footway","name":null,"category":"Footpath (pedestrian only)"},"geometry":{"type":"MultiLineString","coordinates":[[[-0.3984105,51.5773396],[-0.3984373,51.5773909],[-0.3986126,51.5775772],[-0.3986957,51.5776441],[-0.3987286,51.5776721],[-0.3990123,51.5778923],[-0.3990518,51.5779218],[-0.3991793,51.5780368],[-0.3994861,51.5783482],[-0.3995296,51.5783784],[-0.3995428,51.5784073],[-0.3995999,51.578532],[-0.3996009,51.5785413],[-0.3996118,51.578638],[-0.3996256,51.5787601],[-0.3996139,51.5788625],[-0.399609,51.578905],[-0.3995847,51.5790329],[-0.3995891,51.579167],[-0.3996164,51.5791876],[-0.3996826,51.5792199],[-0.3997173,51.5793561],[-0.3997345,51.5794531]]]}},
{"type":"Feature","properties":{"highway":"footway","name":null,"category":"Footpath (pedestrian only)"},"geometry":{"type":"MultiLineString","coordinates":[[[-0.3990586,51.5781694],[-0.3990994,51.5782098],[-0.3990828,51.5782156]]]}},
{"type":"Feature","properties":{"highway":"footway","name":null,"category":"Footpath (pedestrian only)"},"geometry":{"type":"MultiLineString","coordinates":[[[-0.3993815,51.5795618],[-0.3994194,51.5796203],[-0.3994503,51.5796807],[-0.3995184,51.5798149],[-0.3997338,51.5800988],[-0.3998935,51.580321],[-0.4000221,51.5804853],[-0.4000686,51.5805652]]]}},
{"type":"Feature","properties":{"highway":"footway","name":null,"category":"Footpath (pedestrian only)"},"geometry":{"type":"MultiLineString","coordinates":[[[-0.4004291,51.5804352],[-0.4002693,51.5802088],[-0.4001253,51.580019],[-0.3999062,51.5797365],[-0.3998267,51.5796398],[-0.3997706,51.5795457],[-0.3997345,51.5794531]]]}},
{"type":"Feature","properties":{"highway":"footway","name":null,"category":"Footpath (pedestrian only)"},"geometry":{"type":"MultiLineString","coordinates":[[[-0.4002358,51.5802169],[-0.4002107,51.5802244],[-0.4001811,51.5802333]]]}},
{"type":"Feature","properties":{"highway":"footway","name":null,"category":"Footpath (pedestrian only)"},"geometry":{"type":"MultiLineString","coordinates":[[[-0.3997838,51.5799789],[-0.3998517,51.5800664],[-0.3998341,51.5800716]]]}},
{"type":"Feature","properties":{"highway":"footway","name":null,"category":"Footpath (pedestrian only)"},"geometry":{"type":"MultiLineString","coordinates":[[[-0.3994503,51.5796807],[-0.3988638,51.5798778],[-0.3984267,51.5800246]]]}},
{"type":"Feature","properties":{"highway":"footway","name":"Celandine Route","category":"Footpath (pedestrian only)"},"geometry":{"type":"MultiLineString","coordinates":[[[-0.3876679,51.5887314],[-0.3877071,51.5887704],[-0.3877205,51.5887837],[-0.3878119,51.588831],[-0.387988,51.5888811],[-0.3881237,51.5889312],[-0.3897464,51.5892012],[-0.3900388,51.5892395],[-0.3909346,51.5889396],[-0.3911573,51.5888379],[-0.3913558,51.5887279],[-0.3914523,51.5886663],[-0.3917179,51.588558],[-0.3919271,51.588473],[-0.3922633,51.5884693],[-0.3926388,51.5885759],[-0.3928749,51.5886359],[-0.3934435,51.5887692],[-0.3935347,51.5887992],[-0.3936151,51.5888326],[-0.3936956,51.5888692],[-0.3939799,51.5891225],[-0.3941301,51.5893492],[-0.3942499,51.5895945],[-0.3944725,51.5898911],[-0.3946441,51.5900394],[-0.3948651,51.5901457],[-0.3950743,51.590189],[-0.3955401,51.5901979]]]}},
{"type":"Feature","properties":{"highway":"footway","name":null,"category":"Footpath (pedestrian only)"},"geometry":{"type":"MultiLineString","coordinates":[[[-0.4118448,51.5914641],[-0.4125003,51.5917168],[-0.4126843,51.591862],[-0.4127317,51.5918991]]]}},
{"type":"Feature","properties":{"highway":"footway","name":"R57","category":"Footpath (pedestrian only)"},"geometry":{"type":"MultiLineString","coordinates":[[[-0.4126843,51.591862],[-0.4124291,51.5919988],[-0.4115699,51.5924263]]]}},
{"type":"Feature","properties":{"highway":"footway","name":null,"category":"Footpath (pedestrian only)"},"geometry":{"type":"MultiLineString","coordinates":[[[-0.4124923,51.592037],[-0.4124291,51.5919988]]]}},
{"type":"Feature","properties":{"highway":"footway","name":null,"category":"Footpath (pedestrian only)"},"geometry":{"type":"MultiLineString","coordinates":[[[-0.4124923,51.592037],[-0.4125674,51.5921434],[-0.4131709,51.5924984],[-0.4132764,51.5925138]]]}},
{"type":"Feature","properties":{"highway":"footway","name":null,"category":"Footpath (pedestrian only)"},"geometry":{"type":"MultiLineString","coordinates":[[[-0.4110636,51.5907001],[-0.4113577,51.5908199],[-0.4116086,51.5908115]]]}},
{"type":"Feature","properties":{"highway":"footway","name":null,"category":"Footpath (pedestrian only)"},"geometry":{"type":"MultiLineString","coordinates":[[[-0.4089355,51.5925159],[-0.4089303,51.5924513]]]}},
{"type":"Feature","properties":{"highway":"footway","name":null,"category":"Footpath (pedestrian only)"},"geometry":{"type":"MultiLineString","coordinates":[[[-0.4087506,51.5926312],[-0.4086853,51.5925733]]]}},
{"type":"Feature","properties":{"highway":"footway","name":null,"category":"Footpath (pedestrian only)"},"geometry":{"type":"MultiLineString","coordinates":[[[-0.4090788,51.5922548],[-0.4092061,51.592289]]]}},
{"type":"Feature","properties":{"highway":"footway","name":null,"category":"Footpath (pedestrian only)"},"geometry":{"type":"MultiLineString","coordinates":[[[-0.4090465,51.5910418],[-0.4092412,51.5910827],[-0.409518,51.5911148]]]}},
{"type":"Feature","properties":{"highway":"footway","name":null,"category":"Footpath (pedestrian only)"},"geometry":{"type":"MultiLineString","coordinates":[[[-0.4092241,51.5908724],[-0.4092412,51.5910827]]]}},
{"type":"Feature","properties":{"highway":"footway","name":null,"category":"Footpath (pedestrian only)"},"geometry":{"type":"MultiLineString","coordinates":[[[-0.4083357,51.5930007],[-0.4075931,51.5932199],[-0.4075688,51.5933371]]]}},
{"type":"Feature","properties":{"highway":"footway","name":null,"category":"Footpath (pedestrian only)"},"geometry":{"type":"MultiLineString","coordinates":[[[-0.4075931,51.5932199],[-0.4075103,51.5931862]]]}},
{"type":"Feature","properties":{"highway":"footway","name":null,"category":"Footpath (pedestrian only)"},"geometry":{"type":"MultiLineString","coordinates":[[[-0.4041965,51.5926963],[-0.4041024,51.5925924],[-0.4035258,51.5928059],[-0.4031267,51.5929203],[-0.4028583,51.5929356],[-0.4025167,51.5929497],[-0.4024073,51.5929543]]]}},
{"type":"Feature","properties":{"highway":"footway","name":"R52","category":"Footpath (pedestrian only)"},"geometry":{"type":"MultiLineString","coordinates":[[[-0.3962224,51.5931711],[-0.4002952,51.5920798],[-0.4003279,51.592071],[-0.4004089,51.5920465],[-0.4004426,51.5920363]]]}},
{"type":"Feature","properties":{"highway":"footway","name":null,"category":"Footpath (pedestrian only)"},"geometry":{"type":"MultiLineString","coordinates":[[[-0.4003694,51.5915996],[-0.400276,51.5917002],[-0.4003279,51.592071],[-0.4004637,51.5927267],[-0.4005935,51.592826]]]}},
{"type":"Feature","properties":{"highway":"footway","name":null,"category":"Footpath (pedestrian only)"},"geometry":{"type":"MultiLineString","coordinates":[[[-0.406186,51.5933173],[-0.406203,51.593399]]]}},
{"type":"Feature","properties":{"highway":"footway","name":null,"category":"Footpath (pedestrian only)"},"geometry":{"type":"MultiLineString","coordinates":[[[-0.3996009,51.5785413],[-0.3995062,51.5785537],[-0.3993348,51.5785761],[-0.3992886,51.5785821]]]}},
{"type":"Feature","properties":{"highway":"footway","name":null,"category":"Footpath (pedestrian only)"},"geometry":{"type":"MultiLineString","coordinates":[[[-0.3928096,51.5873978],[-0.3911648,51.5875406]]]}},
{"type":"Feature","properties":{"highway":"footway","name":"R54","category":"Footpath (pedestrian only)"},"geometry":{"type":"MultiLineString","coordinates":[[[-0.4041703,51.5936504],[-0.404295,51.5935606],[-0.4038039,51.5928499],[-0.4041965,51.5926963],[-0.4049052,51.5924359],[-0.4051505,51.5926621],[-0.4051838,51.5926557]]]}},
{"type":"Feature","properties":{"highway":"footway","name":null,"category":"Footpath (pedestrian only)"},"geometry":{"type":"MultiLineString","coordinates":[[[-0.4042219,51.5825963],[-0.404038,51.5826301]]]}},
{"type":"Feature","properties":{"highway":"footway","name":null,"category":"Footpath (pedestrian only)"},"geometry":{"type":"MultiLineString","coordinates":[[[-0.4069772,51.5835365],[-0.4067778,51.5835872],[-0.4067167,51.5836025]]]}},
{"type":"Feature","properties":{"highway":"footway","name":null,"category":"Footpath (pedestrian only)"},"geometry":{"type":"MultiLineString","coordinates":[[[-0.4049048,51.5822013],[-0.4048777,51.5821546]]]}},
{"type":"Feature","properties":{"highway":"footway","name":null,"category":"Footpath (pedestrian only)"},"geometry":{"type":"MultiLineString","coordinates":[[[-0.4045008,51.5822569],[-0.4043842,51.5822693],[-0.404302,51.5822963],[-0.4042232,51.5823088],[-0.4041612,51.5822713],[-0.4040824,51.582262],[-0.4040154,51.5822745],[-0.404002,51.5823203],[-0.4038892,51.5823519]]]}},
{"type":"Feature","properties":{"highway":"bridleway","name":null,"category":"Bridleway"},"geometry":{"type":"MultiLineString","coordinates":[[[-0.423196,51.5882853],[-0.4229302,51.5883984],[-0.4222876,51.5885412],[-0.4217475,51.5886676],[-0.421097,51.5887714],[-0.4200596,51.588883],[-0.4187356,51.5891034],[-0.4170307,51.5893936],[-0.4161212,51.5895434],[-0.4159666,51.589572],[-0.4150267,51.5897753],[-0.4149389,51.5897908],[-0.4148509,51.5898063]]]}},
{"type":"Feature","properties":{"highway":"footway","name":null,"category":"Footpath (pedestrian only)"},"geometry":{"type":"MultiLineString","coordinates":[[[-0.4069288,51.5852331],[-0.4067001,51.5852746],[-0.4065271,51.585338]]]}},
{"type":"Feature","properties":{"highway":"footway","name":null,"category":"Footpath (pedestrian only)"},"geometry":{"type":"MultiLineString","coordinates":[[[-0.4070868,51.5852329],[-0.4073701,51.585486]]]}},
{"type":"Feature","properties":{"highway":"footway","name":null,"category":"Footpath (pedestrian only)"},"geometry":{"type":"MultiLineString","coordinates":[[[-0.4064667,51.5848545],[-0.4067272,51.585084]]]}},
{"type":"Feature","properties":{"highway":"footway","name":null,"category":"Footpath (pedestrian only)"},"geometry":{"type":"MultiLineString","coordinates":[[[-0.4067666,51.5851136],[-0.4068863,51.5852018]]]}},
{"type":"Feature","properties":{"highway":"footway","name":null,"category":"Footpath (pedestrian only)"},"geometry":{"type":"MultiLineString","coordinates":[[[-0.4068863,51.5852018],[-0.4069237,51.5852293]]]}},
{"type":"Feature","properties":{"highway":"footway","name":null,"category":"Footpath (pedestrian only)"},"geometry":{"type":"MultiLineString","coordinates":[[[-0.4036252,51.5873488],[-0.4037066,51.5874824],[-0.4037552,51.5875082]]]}},
{"type":"Feature","properties":{"highway":"footway","name":null,"category":"Footpath (pedestrian only)"},"geometry":{"type":"MultiLineString","coordinates":[[[-0.4032418,51.5869744],[-0.4030804,51.5869507],[-0.4030011,51.5869786],[-0.4029744,51.586963]]]}},
{"type":"Feature","properties":{"highway":"footway","name":null,"category":"Footpath (pedestrian only)"},"geometry":{"type":"MultiLineString","coordinates":[[[-0.4029274,51.5869356],[-0.4029057,51.5869229]]]}},
{"type":"Feature","properties":{"highway":"footway","name":null,"category":"Footpath (pedestrian only)"},"geometry":{"type":"MultiLineString","coordinates":[[[-0.403352,51.5869986],[-0.4032418,51.5869744],[-0.4032146,51.5868962],[-0.4032146,51.5868581]]]}},
{"type":"Feature","properties":{"highway":"footway","name":null,"category":"Footpath (pedestrian only)"},"geometry":{"type":"MultiLineString","coordinates":[[[-0.403029,51.5868299],[-0.4029482,51.5868551]]]}},
{"type":"Feature","properties":{"highway":"footway","name":null,"category":"Footpath (pedestrian only)"},"geometry":{"type":"MultiLineString","coordinates":[[[-0.4023557,51.5873071],[-0.4024279,51.5875923]]]}},
{"type":"Feature","properties":{"highway":"footway","name":null,"category":"Footpath (pedestrian only)"},"geometry":{"type":"MultiLineString","coordinates":[[[-0.4025145,51.5879148],[-0.4025594,51.5880366]]]}},
{"type":"Feature","properties":{"highway":"footway","name":null,"category":"Footpath (pedestrian only)"},"geometry":{"type":"MultiLineString","coordinates":[[[-0.4024961,51.5878673],[-0.4025086,51.5878918],[-0.4025145,51.5879148]]]}},
{"type":"Feature","properties":{"highway":"path","name":null,"category":"Shared path"},"geometry":{"type":"MultiLineString","coordinates":[[[-0.4024279,51.5875923],[-0.4024961,51.5878673]]]}},
{"type":"Feature","properties":{"highway":"footway","name":null,"category":"Footpath (pedestrian only)"},"geometry":{"type":"MultiLineString","coordinates":[[[-0.404136,51.5855938],[-0.4040937,51.5855784],[-0.4042126,51.5854531]]]}},
{"type":"Feature","properties":{"highway":"footway","name":null,"category":"Footpath (pedestrian only)"},"geometry":{"type":"MultiLineString","coordinates":[[[-0.4040937,51.5855784],[-0.4037906,51.5854591],[-0.4036817,51.5854816]]]}},
{"type":"Feature","properties":{"highway":"footway","name":null,"category":"Footpath (pedestrian only)"},"geometry":{"type":"MultiLineString","coordinates":[[[-0.4026815,51.5879044],[-0.4025086,51.5878918],[-0.4022436,51.5879201],[-0.4018979,51.5878977]]]}},
{"type":"Feature","properties":{"highway":"footway","name":null,"category":"Footpath (pedestrian only)"},"geometry":{"type":"MultiLineString","coordinates":[[[-0.406066,51.5930167],[-0.4056614,51.5930914]]]}},
{"type":"Feature","properties":{"highway":"footway","name":null,"category":"Footpath (pedestrian only)"},"geometry":{"type":"MultiLineString","coordinates":[[[-0.4053085,51.5926317],[-0.4053373,51.5926262],[-0.4054068,51.5927259],[-0.4056614,51.5930914],[-0.4058175,51.59339],[-0.4058597,51.5934682],[-0.406203,51.593399],[-0.4062711,51.5936227]]]}},
{"type":"Feature","properties":{"highway":"footway","name":null,"category":"Footpath (pedestrian only)"},"geometry":{"type":"MultiLineString","coordinates":[[[-0.4051838,51.5926557],[-0.4053085,51.5926317]]]}},
{"type":"Feature","properties":{"highway":"footway","name":null,"category":"Footpath (pedestrian only)"},"geometry":{"type":"MultiLineString","coordinates":[[[-0.4027803,51.5871078],[-0.4026494,51.5871357]]]}},
{"type":"Feature","properties":{"highway":"footway","name":null,"category":"Footpath (pedestrian only)"},"geometry":{"type":"MultiLineString","coordinates":[[[-0.3956654,51.5921961],[-0.3957216,51.5921866],[-0.3957735,51.5921779]]]}},
{"type":"Feature","properties":{"highway":"footway","name":null,"category":"Footpath (pedestrian only)"},"geometry":{"type":"MultiLineString","coordinates":[[[-0.4001811,51.5802333],[-0.4001626,51.5802385],[-0.4001847,51.5802727]]]}},
{"type":"Feature","properties":{"highway":"footway","name":null,"category":"Footpath (pedestrian only)"},"geometry":{"type":"MultiLineString","coordinates":[[[-0.4002693,51.5802088],[-0.4002358,51.5802169]]]}},
{"type":"Feature","properties":{"highway":"footway","name":null,"category":"Footpath (pedestrian only)"},"geometry":{"type":"MultiLineString","coordinates":[[[-0.3997848,51.580084],[-0.3997338,51.5800988]]]}},
{"type":"Feature","properties":{"highway":"footway","name":null,"category":"Footpath (pedestrian only)"},"geometry":{"type":"MultiLineString","coordinates":[[[-0.3998341,51.5800716],[-0.3998085,51.580078],[-0.3997848,51.580084]]]}},
{"type":"Feature","properties":{"highway":"footway","name":null,"category":"Footpath (pedestrian only)"},"geometry":{"type":"MultiLineString","coordinates":[[[-0.3996883,51.5793585],[-0.3997173,51.5793561]]]}},
{"type":"Feature","properties":{"highway":"footway","name":null,"category":"Footpath (pedestrian only)"},"geometry":{"type":"MultiLineString","coordinates":[[[-0.3996445,51.5793621],[-0.3996652,51.5793604],[-0.3996883,51.5793585]]]}},
{"type":"Feature","properties":{"highway":"footway","name":null,"category":"Footpath (pedestrian only)"},"geometry":{"type":"MultiLineString","coordinates":[[[-0.3993326,51.5793887],[-0.3994465,51.5793785]]]}},
{"type":"Feature","properties":{"highway":"footway","name":null,"category":"Footpath (pedestrian only)"},"geometry":{"type":"MultiLineString","coordinates":[[[-0.3995968,51.579366],[-0.3996445,51.5793621]]]}},
{"type":"Feature","properties":{"highway":"footway","name":null,"category":"Footpath (pedestrian only)"},"geometry":{"type":"MultiLineString","coordinates":[[[-0.3990315,51.5782352],[-0.3989872,51.5782508]]]}},
{"type":"Feature","properties":{"highway":"footway","name":null,"category":"Footpath (pedestrian only)"},"geometry":{"type":"MultiLineString","coordinates":[[[-0.3990828,51.5782156],[-0.3990566,51.5782256],[-0.3990315,51.5782352]]]}},
{"type":"Feature","properties":{"highway":"footway","name":null,"category":"Footpath (pedestrian only)"},"geometry":{"type":"MultiLineString","coordinates":[[[-0.4069237,51.5852293],[-0.4069288,51.5852331],[-0.4070868,51.5852329]]]}},
{"type":"Feature","properties":{"highway":"footway","name":null,"category":"Footpath (pedestrian only)"},"geometry":{"type":"MultiLineString","coordinates":[[[-0.4025594,51.5880366],[-0.4025733,51.5880882],[-0.4028742,51.5881849]]]}},
{"type":"Feature","properties":{"highway":"footway","name":null,"category":"Footpath (pedestrian only)"},"geometry":{"type":"MultiLineString","coordinates":[[[-0.4048184,51.5881477],[-0.4043993,51.588263],[-0.4040768,51.5883085],[-0.4038661,51.5881592],[-0.4038122,51.5881583]]]}},
{"type":"Feature","properties":{"highway":"footway","name":null,"category":"Footpath (pedestrian only)"},"geometry":{"type":"MultiLineString","coordinates":[[[-0.405601,51.5881658],[-0.4056357,51.5882555],[-0.4056927,51.5883657]]]}},
{"type":"Feature","properties":{"highway":"footway","name":null,"category":"Footpath (pedestrian only)"},"geometry":{"type":"MultiLineString","coordinates":[[[-0.405601,51.5881658],[-0.4058585,51.5881113],[-0.4060953,51.5880637],[-0.4062243,51.5875875],[-0.4062388,51.5875325]]]}},
{"type":"Feature","properties":{"highway":"footway","name":null,"category":"Footpath (pedestrian only)"},"geometry":{"type":"MultiLineString","coordinates":[[[-0.4055493,51.5881591],[-0.4048184,51.5881477]]]}},
{"type":"Feature","properties":{"highway":"footway","name":null,"category":"Footpath (pedestrian only)"},"geometry":{"type":"MultiLineString","coordinates":[[[-0.4055493,51.5881591],[-0.405601,51.5881658]]]}},
{"type":"Feature","properties":{"highway":"bridleway","name":"R182","category":"Bridleway"},"geometry":{"type":"MultiLineString","coordinates":[[[-0.4148509,51.5898063],[-0.4142714,51.5899086],[-0.4134995,51.5901088]]]}},
{"type":"Feature","properties":{"highway":"footway","name":null,"category":"Footpath (pedestrian only)"},"geometry":{"type":"MultiLineString","coordinates":[[[-0.40968,51.5824268],[-0.4096743,51.5822984],[-0.409689,51.5822225],[-0.4097038,51.5821459],[-0.4097038,51.58212],[-0.4097072,51.5820627]]]}},
{"type":"Feature","properties":{"highway":"path","name":null,"category":"Shared path"},"geometry":{"type":"MultiLineString","coordinates":[[[-0.406388,51.5788138],[-0.4054785,51.5789812]]]}},
{"type":"Feature","properties":{"highway":"footway","name":null,"category":"Footpath (pedestrian only)"},"geometry":{"type":"MultiLineString","coordinates":[[[-0.4072506,51.5797399],[-0.4072996,51.5800238],[-0.4073097,51.5800847],[-0.4077486,51.5800779]]]}},
{"type":"Feature","properties":{"highway":"footway","name":null,"category":"Footpath (pedestrian only)"},"geometry":{"type":"MultiLineString","coordinates":[[[-0.4073097,51.5800847],[-0.4075142,51.5802798],[-0.4076076,51.5805072],[-0.4078707,51.5809046],[-0.4083824,51.580952],[-0.4084586,51.5814801],[-0.4085953,51.5816669],[-0.4086767,51.5818606],[-0.4085138,51.5821523]]]}},
{"type":"Feature","properties":{"highway":"footway","name":null,"category":"Footpath (pedestrian only)"},"geometry":{"type":"MultiLineString","coordinates":[[[-0.4072996,51.5800238],[-0.4071971,51.580031]]]}},
{"type":"Feature","properties":{"highway":"path","name":null,"category":"Shared path"},"geometry":{"type":"MultiLineString","coordinates":[[[-0.407916,51.5801089],[-0.4080961,51.5801957],[-0.4082008,51.5802964],[-0.4083708,51.5803887],[-0.4086197,51.5804052],[-0.4087924,51.5804427],[-0.4090066,51.5805013],[-0.4092731,51.5805449],[-0.4094646,51.5805667],[-0.4096262,51.5805793],[-0.4097993,51.5806026]]]}},
{"type":"Feature","properties":{"highway":"path","name":null,"category":"Shared path"},"geometry":{"type":"MultiLineString","coordinates":[[[-0.4049132,51.5797948],[-0.4055067,51.5796823],[-0.4058376,51.5796153],[-0.406503,51.5794806]]]}},
{"type":"Feature","properties":{"highway":"path","name":null,"category":"Shared path"},"geometry":{"type":"MultiLineString","coordinates":[[[-0.4060753,51.5800947],[-0.4058376,51.5796153],[-0.4056366,51.5791969]]]}},
{"type":"Feature","properties":{"highway":"footway","name":"Ellis Close","category":"Footpath (pedestrian only)"},"geometry":{"type":"MultiLineString","coordinates":[[[-0.40912,51.5829827],[-0.4093208,51.5829974],[-0.409356,51.5829991],[-0.4093606,51.5829463]]]}},
{"type":"Feature","properties":{"highway":"footway","name":null,"category":"Footpath (pedestrian only)"},"geometry":{"type":"MultiLineString","coordinates":[[[-0.4113885,51.580658],[-0.412091,51.580968]]]}},
{"type":"Feature","properties":{"highway":"footway","name":null,"category":"Footpath (pedestrian only)"},"geometry":{"type":"MultiLineString","coordinates":[[[-0.4090806,51.5808566],[-0.4095325,51.5810467],[-0.4104159,51.5814351],[-0.4107758,51.5815855]]]}},
{"type":"Feature","properties":{"highway":"footway","name":null,"category":"Footpath (pedestrian only)"},"geometry":{"type":"MultiLineString","coordinates":[[[-0.409248,51.580704],[-0.4096963,51.5808981],[-0.4105899,51.5812795],[-0.4109471,51.5814327]]]}},
{"type":"Feature","properties":{"highway":"footway","name":null,"category":"Footpath (pedestrian only)"},"geometry":{"type":"MultiLineString","coordinates":[[[-0.4110888,51.5812757],[-0.410763,51.5811247],[-0.4098673,51.580743],[-0.4097943,51.5807053],[-0.4096425,51.5806503],[-0.4095556,51.5806115]]]}},
{"type":"Feature","properties":{"highway":"footway","name":null,"category":"Footpath (pedestrian only)"},"geometry":{"type":"MultiLineString","coordinates":[[[-0.4100348,51.5805911],[-0.4109254,51.5809794],[-0.4112963,51.5811375]]]}},
{"type":"Feature","properties":{"highway":"footway","name":null,"category":"Footpath (pedestrian only)"},"geometry":{"type":"MultiLineString","coordinates":[[[-0.4113481,51.580925],[-0.4111041,51.580817],[-0.4102195,51.580427]]]}},
{"type":"Feature","properties":{"highway":"footway","name":null,"category":"Footpath (pedestrian only)"},"geometry":{"type":"MultiLineString","coordinates":[[[-0.4090466,51.5810689],[-0.4093643,51.5811993],[-0.4102486,51.5815848],[-0.4106168,51.5817413]]]}},
{"type":"Feature","properties":{"highway":"footway","name":null,"category":"Footpath (pedestrian only)"},"geometry":{"type":"MultiLineString","coordinates":[[[-0.410323,51.5818526],[-0.4102631,51.5818268],[-0.4100705,51.581744],[-0.409187,51.5813601]]]}},
{"type":"Feature","properties":{"highway":"footway","name":null,"category":"Footpath (pedestrian only)"},"geometry":{"type":"MultiLineString","coordinates":[[[-0.4091495,51.5813941],[-0.4091497,51.5815637],[-0.4099071,51.5818902]]]}},
{"type":"Feature","properties":{"highway":"footway","name":null,"category":"Footpath (pedestrian only)"},"geometry":{"type":"MultiLineString","coordinates":[[[-0.4097072,51.5820627],[-0.4096208,51.5820906],[-0.4094889,51.5821986]]]}},
{"type":"Feature","properties":{"highway":"footway","name":null,"category":"Footpath (pedestrian only)"},"geometry":{"type":"MultiLineString","coordinates":[[[-0.4091788,51.5818164],[-0.4097292,51.5820437]]]}},
{"type":"Feature","properties":{"highway":"footway","name":null,"category":"Footpath (pedestrian only)"},"geometry":{"type":"MultiLineString","coordinates":[[[-0.3926683,51.5883507],[-0.3926119,51.5883991],[-0.3925073,51.5884107],[-0.3923548,51.5883635],[-0.3921973,51.5883378],[-0.3919271,51.588473]]]}},
{"type":"Feature","properties":{"highway":"footway","name":null,"category":"Footpath (pedestrian only)"},"geometry":{"type":"MultiLineString","coordinates":[[[-0.3930874,51.5879697],[-0.3930491,51.5880374],[-0.3929687,51.5881124],[-0.3928802,51.5881874],[-0.3928077,51.5882441],[-0.3927393,51.5883099]]]}},
{"type":"Feature","properties":{"highway":"footway","name":null,"category":"Footpath (pedestrian only)"},"geometry":{"type":"MultiLineString","coordinates":[[[-0.3927393,51.5883099],[-0.3926683,51.5883507]]]}},
{"type":"Feature","properties":{"highway":"path","name":null,"category":"Shared path"},"geometry":{"type":"MultiLineString","coordinates":[[[-0.4037314,51.5877472],[-0.4037886,51.5877307],[-0.403937,51.5876878],[-0.4040402,51.5877025],[-0.4043175,51.5876013],[-0.404589,51.5876381],[-0.4046436,51.5874732],[-0.4047828,51.5873563],[-0.4048161,51.5873283],[-0.4051243,51.5872529],[-0.4053321,51.5872507],[-0.4054838,51.5873237],[-0.4049425,51.5874795],[-0.4049243,51.5875811],[-0.4047984,51.5877172],[-0.4046989,51.5879526],[-0.4044358,51.5880053],[-0.4042616,51.5880131],[-0.4041706,51.5880172],[-0.4039498,51.5880706],[-0.4038661,51.5881592]]]}},
{"type":"Feature","properties":{"highway":"path","name":null,"category":"Shared path"},"geometry":{"type":"MultiLineString","coordinates":[[[-0.4042616,51.5880131],[-0.4041207,51.5879284],[-0.4040312,51.5878254],[-0.404036,51.5877769],[-0.4040388,51.5877483],[-0.4040402,51.5877025]]]}},
{"type":"Feature","properties":{"highway":"path","name":null,"category":"Shared path"},"geometry":{"type":"MultiLineString","coordinates":[[[-0.404036,51.5877769],[-0.4043181,51.5878643],[-0.4044672,51.5878297],[-0.4045266,51.5877387],[-0.404589,51.5876381]]]}},
{"type":"Feature","properties":{"highway":"path","name":null,"category":"Shared path"},"geometry":{"type":"MultiLineString","coordinates":[[[-0.4047828,51.5873563],[-0.4048883,51.5874478],[-0.4049425,51.5874795]]]}},
{"type":"Feature","properties":{"highway":"path","name":null,"category":"Shared path"},"geometry":{"type":"MultiLineString","coordinates":[[[-0.4065305,51.5882646],[-0.406078,51.5884611]]]}},
{"type":"Feature","properties":{"highway":"path","name":null,"category":"Shared path"},"geometry":{"type":"MultiLineString","coordinates":[[[-0.4068949,51.5880414],[-0.4068173,51.5880907]]]}},
{"type":"Feature","properties":{"highway":"path","name":null,"category":"Shared path"},"geometry":{"type":"MultiLineString","coordinates":[[[-0.4050941,51.5912934],[-0.4048028,51.5913974],[-0.404565,51.5915606],[-0.4045867,51.591704],[-0.4044417,51.5918249],[-0.4043734,51.5920486],[-0.4043141,51.592253],[-0.404074,51.5923938],[-0.404015,51.5924595],[-0.4041024,51.5925924]]]}},
{"type":"Feature","properties":{"highway":"path","name":null,"category":"Shared path"},"geometry":{"type":"MultiLineString","coordinates":[[[-0.4027944,51.5914267],[-0.4026947,51.5915192],[-0.4026103,51.5917081],[-0.4027664,51.5919046],[-0.402905,51.5920426],[-0.4030895,51.5920718],[-0.4031226,51.5923187],[-0.4031989,51.592411],[-0.4034255,51.5926848],[-0.4035258,51.5928059]]]}},
{"type":"Feature","properties":{"highway":"path","name":null,"category":"Shared path"},"geometry":{"type":"MultiLineString","coordinates":[[[-0.404015,51.5924595],[-0.4036806,51.5925425],[-0.4034255,51.5926848],[-0.4031222,51.59272],[-0.4027533,51.5927908],[-0.4025167,51.5929497]]]}},
{"type":"Feature","properties":{"highway":"path","name":null,"category":"Shared path"},"geometry":{"type":"MultiLineString","coordinates":[[[-0.4031989,51.592411],[-0.4035321,51.5921939],[-0.4036046,51.5919608],[-0.4038236,51.5918365],[-0.4043476,51.5916852],[-0.404565,51.5915606]]]}},
{"type":"Feature","properties":{"highway":"path","name":null,"category":"Shared path"},"geometry":{"type":"MultiLineString","coordinates":[[[-0.3973624,51.5939367],[-0.3967427,51.5939308],[-0.3965521,51.593929],[-0.3965085,51.5938947]]]}},
{"type":"Feature","properties":{"highway":"path","name":null,"category":"Shared path"},"geometry":{"type":"MultiLineString","coordinates":[[[-0.3967427,51.5939308],[-0.3968426,51.5943154],[-0.3968701,51.5946983],[-0.3968869,51.5948872],[-0.3971112,51.5953108],[-0.3972583,51.5956065]]]}},
{"type":"Feature","properties":{"highway":"footway","name":null,"category":"Footpath (pedestrian only)"},"geometry":{"type":"MultiLineString","coordinates":[[[-0.4041179,51.5830277],[-0.4040862,51.5829769]]]}},
{"type":"Feature","properties":{"highway":"footway","name":null,"category":"Footpath (pedestrian only)"},"geometry":{"type":"MultiLineString","coordinates":[[[-0.4089556,51.5929907],[-0.4093333,51.5929733]]]}},
{"type":"Feature","properties":{"highway":"footway","name":null,"category":"Footpath (pedestrian only)"},"geometry":{"type":"MultiLineString","coordinates":[[[-0.4093606,51.5829463],[-0.4094358,51.5829523],[-0.4095085,51.5829575]]]}},
{"type":"Feature","properties":{"highway":"footway","name":null,"category":"Footpath (pedestrian only)"},"geometry":{"type":"MultiLineString","coordinates":[[[-0.4095085,51.5829575],[-0.4094665,51.5833363],[-0.4094898,51.5833986],[-0.4094969,51.583418]]]}},
{"type":"Feature","properties":{"highway":"footway","name":null,"category":"Footpath (pedestrian only)"},"geometry":{"type":"MultiLineString","coordinates":[[[-0.40942,51.5835213],[-0.4094543,51.5834647],[-0.4094969,51.583418]]]}},
{"type":"Feature","properties":{"highway":"footway","name":null,"category":"Footpath (pedestrian only)"},"geometry":{"type":"MultiLineString","coordinates":[[[-0.4034716,51.5871376],[-0.4036751,51.5870842],[-0.4036852,51.587067],[-0.403695,51.5870487],[-0.4038496,51.5868626],[-0.4039066,51.5868053],[-0.4039018,51.5867714],[-0.4038617,51.5867473],[-0.4037877,51.5867194],[-0.403704,51.5866945],[-0.4036264,51.5866689]]]}},
{"type":"Feature","properties":{"highway":"path","name":null,"category":"Shared path"},"geometry":{"type":"MultiLineString","coordinates":[[[-0.4169873,51.5907563],[-0.4167082,51.5905426],[-0.4162665,51.5903485],[-0.4156417,51.5900941],[-0.4151569,51.5898933],[-0.4150267,51.5897753]]]}}
]
}
