{
"type": "FeatureCollection",
"name": "464ed14ad835_visibility",
"crs": { "type": "name", "properties": { "name": "urn:ogc:def:crs:OGC:1.3:CRS84" } },
"features": [
{ "type": "Feature", "properties": { "visible_points": 40, "total_points": 63, "visibility_pct": 63.492063492063487 }, "geometry": { "type": "Point", "coordinates": [ -0.388570606993386, 51.562495652608355 ] } },
{ "type": "Feature", "properties": { "visible_points": 43, "total_points": 65, "visibility_pct": 66.153846153846146 }, "geometry": { "type": "Point", "coordinates": [ -0.38837079189992, 51.562492907769432 ] } },
{ "type": "Feature", "properties": { "visible_points": 43, "total_points": 66, "visibility_pct": 65.151515151515156 }, "geometry": { "type": "Point", "coordinates": [ -0.388170976838393, 51.5624901625904 ] } },
{ "type": "Feature", "properties": { "visible_points": 46, "total_points": 70, "visibility_pct": 65.714285714285708 }, "geometry": { "type": "Point", "coordinates": [ -0.388666700371002, 51.56260488256023 ] } },
{ "type": "Feature", "properties": { "visible_points": 49, "total_points": 75, "visibility_pct": 65.333333333333329 }, "geometry": { "type": "Point", "coordinates": [ -0.38846688478419, 51.56260213788034 ] } },
{ "type": "Feature", "properties": { "visible_points": 53, "total_points": 77, "visibility_pct": 68.831168831168839 }, "geometry": { "type": "Point", "coordinates": [ -0.388267069229308, 51.562599392860335 ] } },
{ "type": "Feature", "properties": { "visible_points": 52, "total_points": 77, "visibility_pct": 67.532467532467535 }, "geometry": { "type": "Point", "coordinates": [ -0.388067253706376, 51.562596647500222 ] } },
{ "type": "Feature", "properties": { "visible_points": 50, "total_points": 75, "visibility_pct": 66.666666666666657 }, "geometry": { "type": "Point", "coordinates": [ -0.387867438215374, 51.562593901799985 ] } },
{ "type": "Feature", "properties": { "visible_points": 45, "total_points": 75, "visibility_pct": 60.0 }, "geometry": { "type": "Point", "coordinates": [ -0.388762794210029, 51.562714112435877 ] } },
{ "type": "Feature", "properties": { "visible_points": 52, "total_points": 83, "visibility_pct": 62.650602409638559 }, "geometry": { "type": "Point", "coordinates": [ -0.388562978129869, 51.562711367915014 ] } },
{ "type": "Feature", "properties": { "visible_points": 57, "total_points": 87, "visibility_pct": 65.517241379310349 }, "geometry": { "type": "Point", "coordinates": [ -0.388363162081636, 51.562708623054071 ] } },
{ "type": "Feature", "properties": { "visible_points": 63, "total_points": 89, "visibility_pct": 70.786516853932582 }, "geometry": { "type": "Point", "coordinates": [ -0.388163346065343, 51.562705877852999 ] } },
{ "type": "Feature", "properties": { "visible_points": 64, "total_points": 88, "visibility_pct": 72.727272727272734 }, "geometry": { "type": "Point", "coordinates": [ -0.387963530080995, 51.562703132311796 ] } },
{ "type": "Feature", "properties": { "visible_points": 57, "total_points": 85, "visibility_pct": 67.058823529411754 }, "geometry": { "type": "Point", "coordinates": [ -0.387763714128582, 51.562700386430492 ] } },
{ "type": "Feature", "properties": { "visible_points": 51, "total_points": 79, "visibility_pct": 64.556962025316452 }, "geometry": { "type": "Point", "coordinates": [ -0.387563898208125, 51.56269764020908 ] } },
{ "type": "Feature", "properties": { "visible_points": 47, "total_points": 75, "visibility_pct": 62.666666666666671 }, "geometry": { "type": "Point", "coordinates": [ -0.388858888510476, 51.562823342235298 ] } },
{ "type": "Feature", "properties": { "visible_points": 57, "total_points": 86, "visibility_pct": 66.279069767441854 }, "geometry": { "type": "Point", "coordinates": [ -0.388659071936957, 51.562820597873504 ] } },
{ "type": "Feature", "properties": { "visible_points": 63, "total_points": 96, "visibility_pct": 65.625 }, "geometry": { "type": "Point", "coordinates": [ -0.388459255395378, 51.56281785317158 ] } },
{ "type": "Feature", "properties": { "visible_points": 71, "total_points": 100, "visibility_pct": 71.0 }, "geometry": { "type": "Point", "coordinates": [ -0.388259438885726, 51.562815108129534 ] } },
{ "type": "Feature", "properties": { "visible_points": 76, "total_points": 100, "visibility_pct": 76.0 }, "geometry": { "type": "Point", "coordinates": [ -0.388059622408014, 51.562812362747394 ] } },
{ "type": "Feature", "properties": { "visible_points": 71, "total_points": 98, "visibility_pct": 72.448979591836732 }, "geometry": { "type": "Point", "coordinates": [ -0.387859805962247, 51.562809617025138 ] } },
{ "type": "Feature", "properties": { "visible_points": 62, "total_points": 92, "visibility_pct": 67.391304347826093 }, "geometry": { "type": "Point", "coordinates": [ -0.38765998954843, 51.562806870962731 ] } },
{ "type": "Feature", "properties": { "visible_points": 59, "total_points": 85, "visibility_pct": 69.411764705882348 }, "geometry": { "type": "Point", "coordinates": [ -0.387460173166558, 51.56280412456023 ] } },
{ "type": "Feature", "properties": { "visible_points": 44, "total_points": 70, "visibility_pct": 62.857142857142854 }, "geometry": { "type": "Point", "coordinates": [ -0.388954983272338, 51.562932571958498 ] } },
{ "type": "Feature", "properties": { "visible_points": 56, "total_points": 83, "visibility_pct": 67.46987951807229 }, "geometry": { "type": "Point", "coordinates": [ -0.388755166205468, 51.562929827755738 ] } },
{ "type": "Feature", "properties": { "visible_points": 66, "total_points": 96, "visibility_pct": 68.75 }, "geometry": { "type": "Point", "coordinates": [ -0.38855534917053, 51.562927083212877 ] } },
{ "type": "Feature", "properties": { "visible_points": 71, "total_points": 107, "visibility_pct": 66.355140186915889 }, "geometry": { "type": "Point", "coordinates": [ -0.388355532167518, 51.5629243383299 ] } },
{ "type": "Feature", "properties": { "visible_points": 79, "total_points": 112, "visibility_pct": 70.535714285714292 }, "geometry": { "type": "Point", "coordinates": [ -0.388155715196452, 51.562921593106772 ] } },
{ "type": "Feature", "properties": { "visible_points": 81, "total_points": 109, "visibility_pct": 74.311926605504581 }, "geometry": { "type": "Point", "coordinates": [ -0.387955898257322, 51.562918847543528 ] } },
{ "type": "Feature", "properties": { "visible_points": 73, "total_points": 103, "visibility_pct": 70.873786407766985 }, "geometry": { "type": "Point", "coordinates": [ -0.387756081350137, 51.562916101640184 ] } },
{ "type": "Feature", "properties": { "visible_points": 67, "total_points": 97, "visibility_pct": 69.072164948453604 }, "geometry": { "type": "Point", "coordinates": [ -0.387556264474904, 51.562913355396724 ] } },
{ "type": "Feature", "properties": { "visible_points": 58, "total_points": 90, "visibility_pct": 64.444444444444443 }, "geometry": { "type": "Point", "coordinates": [ -0.387356447631623, 51.562910608813127 ] } },
{ "type": "Feature", "properties": { "visible_points": 47, "total_points": 82, "visibility_pct": 57.317073170731703 }, "geometry": { "type": "Point", "coordinates": [ -0.387156630820298, 51.562907861889428 ] } },
{ "type": "Feature", "properties": { "visible_points": 33, "total_points": 63, "visibility_pct": 52.380952380952387 }, "geometry": { "type": "Point", "coordinates": [ -0.389051078495629, 51.563041801605493 ] } },
{ "type": "Feature", "properties": { "visible_points": 47, "total_points": 76, "visibility_pct": 61.842105263157897 }, "geometry": { "type": "Point", "coordinates": [ -0.388851260935401, 51.563039057561774 ] } },
{ "type": "Feature", "properties": { "visible_points": 59, "total_points": 89, "visibility_pct": 66.292134831460672 }, "geometry": { "type": "Point", "coordinates": [ -0.388651443407101, 51.563036313177946 ] } },
{ "type": "Feature", "properties": { "visible_points": 72, "total_points": 102, "visibility_pct": 70.588235294117652 }, "geometry": { "type": "Point", "coordinates": [ -0.388451625910734, 51.563033568453996 ] } },
{ "type": "Feature", "properties": { "visible_points": 75, "total_points": 115, "visibility_pct": 65.217391304347828 }, "geometry": { "type": "Point", "coordinates": [ -0.3882518084463, 51.56303082338993 ] } },
{ "type": "Feature", "properties": { "visible_points": 83, "total_points": 116, "visibility_pct": 71.551724137931032 }, "geometry": { "type": "Point", "coordinates": [ -0.38805199101381, 51.563028077985734 ] } },
{ "type": "Feature", "properties": { "visible_points": 81, "total_points": 113, "visibility_pct": 71.681415929203538 }, "geometry": { "type": "Point", "coordinates": [ -0.387852173613256, 51.563025332241416 ] } },
{ "type": "Feature", "properties": { "visible_points": 78, "total_points": 108, "visibility_pct": 72.222222222222214 }, "geometry": { "type": "Point", "coordinates": [ -0.387652356244658, 51.563022586156997 ] } },
{ "type": "Feature", "properties": { "visible_points": 72, "total_points": 102, "visibility_pct": 70.588235294117652 }, "geometry": { "type": "Point", "coordinates": [ -0.387452538908005, 51.563019839732434 ] } },
{ "type": "Feature", "properties": { "visible_points": 65, "total_points": 94, "visibility_pct": 69.148936170212778 }, "geometry": { "type": "Point", "coordinates": [ -0.387252721603313, 51.563017092967769 ] } },
{ "type": "Feature", "properties": { "visible_points": 51, "total_points": 85, "visibility_pct": 60.0 }, "geometry": { "type": "Point", "coordinates": [ -0.387052904330576, 51.563014345862975 ] } },
{ "type": "Feature", "properties": { "visible_points": 36, "total_points": 74, "visibility_pct": 48.648648648648653 }, "geometry": { "type": "Point", "coordinates": [ -0.386853087089805, 51.563011598418072 ] } },
{ "type": "Feature", "properties": { "visible_points": 3, "total_points": 56, "visibility_pct": 5.3571428571428568 }, "geometry": { "type": "Point", "coordinates": [ -0.389147174180345, 51.56315103117624 ] } },
{ "type": "Feature", "properties": { "visible_points": 0, "total_points": 68, "visibility_pct": 0.0 }, "geometry": { "type": "Point", "coordinates": [ -0.388947356126756, 51.56314828729159 ] } },
{ "type": "Feature", "properties": { "visible_points": 50, "total_points": 80, "visibility_pct": 62.5 }, "geometry": { "type": "Point", "coordinates": [ -0.388747538105097, 51.563145543066803 ] } },
{ "type": "Feature", "properties": { "visible_points": 65, "total_points": 93, "visibility_pct": 69.892473118279568 }, "geometry": { "type": "Point", "coordinates": [ -0.388547720115365, 51.5631427985019 ] } },
{ "type": "Feature", "properties": { "visible_points": 73, "total_points": 106, "visibility_pct": 68.867924528301884 }, "geometry": { "type": "Point", "coordinates": [ -0.38834790215757, 51.563140053596868 ] } },
{ "type": "Feature", "properties": { "visible_points": 79, "total_points": 113, "visibility_pct": 69.911504424778755 }, "geometry": { "type": "Point", "coordinates": [ -0.388148084231709, 51.56313730835172 ] } },
{ "type": "Feature", "properties": { "visible_points": 84, "total_points": 116, "visibility_pct": 72.41379310344827 }, "geometry": { "type": "Point", "coordinates": [ -0.387948266337793, 51.563134562766457 ] } },
{ "type": "Feature", "properties": { "visible_points": 84, "total_points": 116, "visibility_pct": 72.41379310344827 }, "geometry": { "type": "Point", "coordinates": [ -0.387748448475822, 51.563131816841043 ] } },
{ "type": "Feature", "properties": { "visible_points": 75, "total_points": 112, "visibility_pct": 66.964285714285708 }, "geometry": { "type": "Point", "coordinates": [ -0.387548630645798, 51.563129070575542 ] } },
{ "type": "Feature", "properties": { "visible_points": 72, "total_points": 106, "visibility_pct": 67.924528301886795 }, "geometry": { "type": "Point", "coordinates": [ -0.387348812847731, 51.563126323969904 ] } },
{ "type": "Feature", "properties": { "visible_points": 62, "total_points": 97, "visibility_pct": 63.917525773195869 }, "geometry": { "type": "Point", "coordinates": [ -0.387148995081621, 51.563123577024143 ] } },
{ "type": "Feature", "properties": { "visible_points": 53, "total_points": 84, "visibility_pct": 63.095238095238095 }, "geometry": { "type": "Point", "coordinates": [ -0.386949177347475, 51.563120829738274 ] } },
{ "type": "Feature", "properties": { "visible_points": 38, "total_points": 72, "visibility_pct": 52.777777777777779 }, "geometry": { "type": "Point", "coordinates": [ -0.386749359645289, 51.563118082112275 ] } },
{ "type": "Feature", "properties": { "visible_points": 39, "total_points": 71, "visibility_pct": 54.929577464788736 }, "geometry": { "type": "Point", "coordinates": [ -0.388843633264521, 51.563254772879425 ] } },
{ "type": "Feature", "properties": { "visible_points": 55, "total_points": 83, "visibility_pct": 66.265060240963862 }, "geometry": { "type": "Point", "coordinates": [ -0.388643814781425, 51.563252028473556 ] } },
{ "type": "Feature", "properties": { "visible_points": 65, "total_points": 94, "visibility_pct": 69.148936170212778 }, "geometry": { "type": "Point", "coordinates": [ -0.388443996330262, 51.563249283727586 ] } },
{ "type": "Feature", "properties": { "visible_points": 71, "total_points": 103, "visibility_pct": 68.932038834951456 }, "geometry": { "type": "Point", "coordinates": [ -0.388244177911033, 51.563246538641458 ] } },
{ "type": "Feature", "properties": { "visible_points": 80, "total_points": 109, "visibility_pct": 73.394495412844037 }, "geometry": { "type": "Point", "coordinates": [ -0.388044359523746, 51.56324379321525 ] } },
{ "type": "Feature", "properties": { "visible_points": 82, "total_points": 114, "visibility_pct": 71.929824561403507 }, "geometry": { "type": "Point", "coordinates": [ -0.387844541168402, 51.563241047448884 ] } },
{ "type": "Feature", "properties": { "visible_points": 81, "total_points": 116, "visibility_pct": 69.827586206896555 }, "geometry": { "type": "Point", "coordinates": [ -0.38764472284501, 51.56323830134243 ] } },
{ "type": "Feature", "properties": { "visible_points": 74, "total_points": 115, "visibility_pct": 64.347826086956516 }, "geometry": { "type": "Point", "coordinates": [ -0.387444904553564, 51.563235554895826 ] } },
{ "type": "Feature", "properties": { "visible_points": 67, "total_points": 107, "visibility_pct": 62.616822429906534 }, "geometry": { "type": "Point", "coordinates": [ -0.387245086294076, 51.563232808109106 ] } },
{ "type": "Feature", "properties": { "visible_points": 57, "total_points": 94, "visibility_pct": 60.638297872340431 }, "geometry": { "type": "Point", "coordinates": [ -0.387045268066552, 51.563230060982271 ] } },
{ "type": "Feature", "properties": { "visible_points": 47, "total_points": 81, "visibility_pct": 58.024691358024697 }, "geometry": { "type": "Point", "coordinates": [ -0.386845449870987, 51.563227313515299 ] } },
{ "type": "Feature", "properties": { "visible_points": 0, "total_points": 69, "visibility_pct": 0.0 }, "geometry": { "type": "Point", "coordinates": [ -0.386645631707389, 51.563224565708204 ] } },
{ "type": "Feature", "properties": { "visible_points": 4, "total_points": 57, "visibility_pct": 7.0175438596491224 }, "geometry": { "type": "Point", "coordinates": [ -0.386445813575769, 51.563221817561001 ] } },
{ "type": "Feature", "properties": { "visible_points": 51, "total_points": 82, "visibility_pct": 62.195121951219512 }, "geometry": { "type": "Point", "coordinates": [ -0.388540090964379, 51.563358513782084 ] } },
{ "type": "Feature", "properties": { "visible_points": 63, "total_points": 91, "visibility_pct": 69.230769230769226 }, "geometry": { "type": "Point", "coordinates": [ -0.388340272051778, 51.563355768855033 ] } },
{ "type": "Feature", "properties": { "visible_points": 73, "total_points": 99, "visibility_pct": 73.73737373737373 }, "geometry": { "type": "Point", "coordinates": [ -0.388140453171122, 51.563353023587844 ] } },
{ "type": "Feature", "properties": { "visible_points": 82, "total_points": 105, "visibility_pct": 78.095238095238102 }, "geometry": { "type": "Point", "coordinates": [ -0.387940634322406, 51.563350277980526 ] } },
{ "type": "Feature", "properties": { "visible_points": 80, "total_points": 111, "visibility_pct": 72.072072072072075 }, "geometry": { "type": "Point", "coordinates": [ -0.387740815505632, 51.563347532033085 ] } },
{ "type": "Feature", "properties": { "visible_points": 73, "total_points": 116, "visibility_pct": 62.931034482758619 }, "geometry": { "type": "Point", "coordinates": [ -0.387540996720813, 51.563344785745535 ] } },
{ "type": "Feature", "properties": { "visible_points": 70, "total_points": 115, "visibility_pct": 60.869565217391312 }, "geometry": { "type": "Point", "coordinates": [ -0.387341177967946, 51.563342039117849 ] } },
{ "type": "Feature", "properties": { "visible_points": 60, "total_points": 103, "visibility_pct": 58.252427184466015 }, "geometry": { "type": "Point", "coordinates": [ -0.387141359247037, 51.563339292150047 ] } },
{ "type": "Feature", "properties": { "visible_points": 54, "total_points": 90, "visibility_pct": 60.0 }, "geometry": { "type": "Point", "coordinates": [ -0.386941540558091, 51.563336544842116 ] } },
{ "type": "Feature", "properties": { "visible_points": 48, "total_points": 77, "visibility_pct": 62.337662337662337 }, "geometry": { "type": "Point", "coordinates": [ -0.386741721901111, 51.563333797194069 ] } },
{ "type": "Feature", "properties": { "visible_points": 22, "total_points": 64, "visibility_pct": 34.375 }, "geometry": { "type": "Point", "coordinates": [ -0.386541903276103, 51.563331049205885 ] } },
{ "type": "Feature", "properties": { "visible_points": 49, "total_points": 79, "visibility_pct": 62.025316455696199 }, "geometry": { "type": "Point", "coordinates": [ -0.388436366653956, 51.563464998992345 ] } },
{ "type": "Feature", "properties": { "visible_points": 66, "total_points": 87, "visibility_pct": 75.862068965517238 }, "geometry": { "type": "Point", "coordinates": [ -0.388236547279926, 51.563462253884204 ] } },
{ "type": "Feature", "properties": { "visible_points": 76, "total_points": 94, "visibility_pct": 80.851063829787222 }, "geometry": { "type": "Point", "coordinates": [ -0.388036727937827, 51.56345950843594 ] } },
{ "type": "Feature", "properties": { "visible_points": 74, "total_points": 100, "visibility_pct": 74.0 }, "geometry": { "type": "Point", "coordinates": [ -0.387836908627679, 51.56345676264754 ] } },
{ "type": "Feature", "properties": { "visible_points": 68, "total_points": 105, "visibility_pct": 64.761904761904759 }, "geometry": { "type": "Point", "coordinates": [ -0.387637089349482, 51.563454016519024 ] } },
{ "type": "Feature", "properties": { "visible_points": 65, "total_points": 107, "visibility_pct": 60.747663551401864 }, "geometry": { "type": "Point", "coordinates": [ -0.387437270103232, 51.563451270050386 ] } },
{ "type": "Feature", "properties": { "visible_points": 61, "total_points": 104, "visibility_pct": 58.653846153846153 }, "geometry": { "type": "Point", "coordinates": [ -0.387237450888941, 51.563448523241604 ] } },
{ "type": "Feature", "properties": { "visible_points": 52, "total_points": 94, "visibility_pct": 55.319148936170215 }, "geometry": { "type": "Point", "coordinates": [ -0.387037631706609, 51.563445776092713 ] } },
{ "type": "Feature", "properties": { "visible_points": 46, "total_points": 82, "visibility_pct": 56.09756097560976 }, "geometry": { "type": "Point", "coordinates": [ -0.386837812556242, 51.563443028603693 ] } },
{ "type": "Feature", "properties": { "visible_points": 33, "total_points": 70, "visibility_pct": 47.142857142857139 }, "geometry": { "type": "Point", "coordinates": [ -0.386637993437844, 51.563440280774557 ] } },
{ "type": "Feature", "properties": { "visible_points": 61, "total_points": 81, "visibility_pct": 75.308641975308646 }, "geometry": { "type": "Point", "coordinates": [ -0.388132822014684, 51.563568738815121 ] } },
{ "type": "Feature", "properties": { "visible_points": 65, "total_points": 87, "visibility_pct": 74.712643678160916 }, "geometry": { "type": "Point", "coordinates": [ -0.387933002211154, 51.563565993185783 ] } },
{ "type": "Feature", "properties": { "visible_points": 65, "total_points": 93, "visibility_pct": 69.892473118279568 }, "geometry": { "type": "Point", "coordinates": [ -0.387733182439571, 51.563563247216301 ] } },
{ "type": "Feature", "properties": { "visible_points": 61, "total_points": 95, "visibility_pct": 64.21052631578948 }, "geometry": { "type": "Point", "coordinates": [ -0.387533362699938, 51.563560500906689 ] } },
{ "type": "Feature", "properties": { "visible_points": 60, "total_points": 95, "visibility_pct": 63.157894736842103 }, "geometry": { "type": "Point", "coordinates": [ -0.387333542992263, 51.563557754256962 ] } },
{ "type": "Feature", "properties": { "visible_points": 54, "total_points": 91, "visibility_pct": 59.340659340659343 }, "geometry": { "type": "Point", "coordinates": [ -0.387133723316545, 51.563555007267105 ] } },
{ "type": "Feature", "properties": { "visible_points": 44, "total_points": 83, "visibility_pct": 53.01204819277109 }, "geometry": { "type": "Point", "coordinates": [ -0.386933903672788, 51.563552259937119 ] } },
{ "type": "Feature", "properties": { "visible_points": 12, "total_points": 72, "visibility_pct": 16.666666666666664 }, "geometry": { "type": "Point", "coordinates": [ -0.386734084061001, 51.563549512267016 ] } },
{ "type": "Feature", "properties": { "visible_points": 56, "total_points": 80, "visibility_pct": 70.0 }, "geometry": { "type": "Point", "coordinates": [ -0.387829275991088, 51.563672477837365 ] } },
{ "type": "Feature", "properties": { "visible_points": 55, "total_points": 82, "visibility_pct": 67.073170731707322 }, "geometry": { "type": "Point", "coordinates": [ -0.387629455758076, 51.563669731686801 ] } },
{ "type": "Feature", "properties": { "visible_points": 55, "total_points": 84, "visibility_pct": 65.476190476190482 }, "geometry": { "type": "Point", "coordinates": [ -0.387429635557006, 51.563666985196107 ] } },
{ "type": "Feature", "properties": { "visible_points": 49, "total_points": 82, "visibility_pct": 59.756097560975604 }, "geometry": { "type": "Point", "coordinates": [ -0.387229815387901, 51.563664238365298 ] } },
{ "type": "Feature", "properties": { "visible_points": 47, "total_points": 78, "visibility_pct": 60.256410256410255 }, "geometry": { "type": "Point", "coordinates": [ -0.387029995250752, 51.563661491194338 ] } },
{ "type": "Feature", "properties": { "visible_points": 34, "total_points": 71, "visibility_pct": 47.887323943661968 }, "geometry": { "type": "Point", "coordinates": [ -0.386830175145572, 51.563658743683256 ] } },
{ "type": "Feature", "properties": { "visible_points": 44, "total_points": 70, "visibility_pct": 62.857142857142854 }, "geometry": { "type": "Point", "coordinates": [ -0.387725549277632, 51.563778962390685 ] } },
{ "type": "Feature", "properties": { "visible_points": 46, "total_points": 72, "visibility_pct": 63.888888888888886 }, "geometry": { "type": "Point", "coordinates": [ -0.387525728583182, 51.563776216059033 ] } },
{ "type": "Feature", "properties": { "visible_points": 43, "total_points": 72, "visibility_pct": 59.722222222222221 }, "geometry": { "type": "Point", "coordinates": [ -0.387325907920678, 51.563773469387236 ] } },
{ "type": "Feature", "properties": { "visible_points": 38, "total_points": 70, "visibility_pct": 54.285714285714285 }, "geometry": { "type": "Point", "coordinates": [ -0.38712608729014, 51.563770722375359 ] } },
{ "type": "Feature", "properties": { "visible_points": 34, "total_points": 65, "visibility_pct": 52.307692307692314 }, "geometry": { "type": "Point", "coordinates": [ -0.386926266691564, 51.563767975023296 ] } },
{ "type": "Feature", "properties": { "visible_points": 32, "total_points": 61, "visibility_pct": 52.459016393442624 }, "geometry": { "type": "Point", "coordinates": [ -0.387422000914889, 51.563882700332996 ] } },
{ "type": "Feature", "properties": { "visible_points": 0, "total_points": 60, "visibility_pct": 0.0 }, "geometry": { "type": "Point", "coordinates": [ -0.387222179790957, 51.563879953480146 ] } },
{ "type": "Feature", "properties": { "visible_points": 21, "total_points": 58, "visibility_pct": 36.206896551724135 }, "geometry": { "type": "Point", "coordinates": [ -0.387022358698977, 51.563877206287145 ] } }
]
}
