{
"type": "FeatureCollection",
"name": "464ed14ad835_foliage",
"crs": { "type": "name", "properties": { "name": "urn:ogc:def:crs:OGC:1.3:CRS84" } },
"features": [
{ "type": "Feature", "properties": { "max_height": 0.85400390625, "mean_height": 0.038561411201953888, "std_height": 0.15890643000602722, "count_pixels": 42, "percent_cover": 0.38503850385038502, "percent_above_0.1m": 7.1428571428571423, "low_level_<0.5": 2.3809523809523809, "mid_level_0.5-2": 4.7619047619047619, "tall_2+": 0.0 }, "geometry": { "type": "Point", "coordinates": [ -0.388570606993386, 51.562495652608355 ] } },
{ "type": "Feature", "properties": { "max_height": 0.00675201416015625, "mean_height": 0.00019082790822722018, "std_height": 0.001453594071790576, "count_pixels": 41, "percent_cover": 0.37587092042537584, "percent_above_0.1m": 0.0, "low_level_<0.5": 0.0, "mid_level_0.5-2": 0.0, "tall_2+": 0.0 }, "geometry": { "type": "Point", "coordinates": [ -0.38837079189992, 51.562492907769432 ] } },
{ "type": "Feature", "properties": { "max_height": 0.70900344848632812, "mean_height": 0.036210197955369949, "std_height": 0.13105675578117371, "count_pixels": 42, "percent_cover": 0.38503850385038502, "percent_above_0.1m": 7.1428571428571423, "low_level_<0.5": 4.7619047619047619, "mid_level_0.5-2": 2.3809523809523809, "tall_2+": 0.0 }, "geometry": { "type": "Point", "coordinates": [ -0.388170976838393, 51.5624901625904 ] } },
{ "type": "Feature", "properties": { "max_height": 4.4060020446777344, "mean_height": 0.2585253119468689, "std_height": 0.90740060806274414, "count_pixels": 42, "percent_cover": 0.38503850385038502, "percent_above_0.1m": 11.904761904761903, "low_level_<0.5": 2.3809523809523809, "mid_level_0.5-2": 4.7619047619047619, "tall_2+": 4.7619047619047619 }, "geometry": { "type": "Point", "coordinates": [ -0.388666700371002, 51.56260488256023 ] } },
{ "type": "Feature", "properties": { "max_height": 0.000751495361328125, "mean_height": 1.9527617041603662e-05, "std_height": 0.00026390585117042065, "count_pixels": 42, "percent_cover": 0.38503850385038502, "percent_above_0.1m": 0.0, "low_level_<0.5": 0.0, "mid_level_0.5-2": 0.0, "tall_2+": 0.0 }, "geometry": { "type": "Point", "coordinates": [ -0.38846688478419, 51.56260213788034 ] } },
{ "type": "Feature", "properties": { "max_height": 0.000751495361328125, "mean_height": -1.0263352123729419e-05, "std_height": 0.00027776215574704111, "count_pixels": 42, "percent_cover": 0.38503850385038502, "percent_above_0.1m": 0.0, "low_level_<0.5": 0.0, "mid_level_0.5-2": 0.0, "tall_2+": 0.0 }, "geometry": { "type": "Point", "coordinates": [ -0.388267069229308, 51.562599392860335 ] } },
{ "type": "Feature", "properties": { "max_height": 0.76300048828125, "mean_height": 0.021365121006965637, "std_height": 0.11772232502698898, "count_pixels": 42, "percent_cover": 0.38503850385038502, "percent_above_0.1m": 4.7619047619047619, "low_level_<0.5": 0.0, "mid_level_0.5-2": 2.3809523809523809, "tall_2+": 0.0 }, "geometry": { "type": "Point", "coordinates": [ -0.388067253706376, 51.562596647500222 ] } },
{ "type": "Feature", "properties": { "max_height": 0.989501953125, "mean_height": 0.028841109946370125, "std_height": 0.15313532948493958, "count_pixels": 42, "percent_cover": 0.38503850385038502, "percent_above_0.1m": 4.7619047619047619, "low_level_<0.5": 2.3809523809523809, "mid_level_0.5-2": 2.3809523809523809, "tall_2+": 0.0 }, "geometry": { "type": "Point", "coordinates": [ -0.387867438215374, 51.562593901799985 ] } },
{ "type": "Feature", "properties": { "max_height": 0.006999969482421875, "mean_height": 0.00042895265505649149, "std_height": 0.0014877141220495105, "count_pixels": 38, "percent_cover": 0.34836817015034838, "percent_above_0.1m": 0.0, "low_level_<0.5": 0.0, "mid_level_0.5-2": 0.0, "tall_2+": 0.0 }, "geometry": { "type": "Point", "coordinates": [ -0.388762794210029, 51.562714112435877 ] } },
{ "type": "Feature", "properties": { "max_height": 0.00250244140625, "mean_height": 0.00010263352305628359, "std_height": 0.00044340972090139985, "count_pixels": 42, "percent_cover": 0.38503850385038502, "percent_above_0.1m": 0.0, "low_level_<0.5": 0.0, "mid_level_0.5-2": 0.0, "tall_2+": 0.0 }, "geometry": { "type": "Point", "coordinates": [ -0.388562978129869, 51.562711367915014 ] } },
{ "type": "Feature", "properties": { "max_height": 0.001499176025390625, "mean_height": 3.8333055272232741e-05, "std_height": 0.0004073617747053504, "count_pixels": 41, "percent_cover": 0.37587092042537584, "percent_above_0.1m": 0.0, "low_level_<0.5": 0.0, "mid_level_0.5-2": 0.0, "tall_2+": 0.0 }, "geometry": { "type": "Point", "coordinates": [ -0.388363162081636, 51.562708623054071 ] } },
{ "type": "Feature", "properties": { "max_height": 0.00174713134765625, "mean_height": 1.4532180330206756e-06, "std_height": 0.00068124686367809772, "count_pixels": 42, "percent_cover": 0.38503850385038502, "percent_above_0.1m": 0.0, "low_level_<0.5": 0.0, "mid_level_0.5-2": 0.0, "tall_2+": 0.0 }, "geometry": { "type": "Point", "coordinates": [ -0.388163346065343, 51.562705877852999 ] } },
{ "type": "Feature", "properties": { "max_height": 0.001003265380859375, "mean_height": -0.00018828255997505039, "std_height": 0.00085529300849884748, "count_pixels": 42, "percent_cover": 0.38503850385038502, "percent_above_0.1m": 0.0, "low_level_<0.5": 0.0, "mid_level_0.5-2": 0.0, "tall_2+": 0.0 }, "geometry": { "type": "Point", "coordinates": [ -0.387963530080995, 51.562703132311796 ] } },
{ "type": "Feature", "properties": { "max_height": 0.02825164794921875, "mean_height": 0.0017151250503957272, "std_height": 0.0051704137586057186, "count_pixels": 41, "percent_cover": 0.37587092042537584, "percent_above_0.1m": 0.0, "low_level_<0.5": 0.0, "mid_level_0.5-2": 0.0, "tall_2+": 0.0 }, "geometry": { "type": "Point", "coordinates": [ -0.387763714128582, 51.562700386430492 ] } },
{ "type": "Feature", "properties": { "max_height": 0.858001708984375, "mean_height": 0.045597165822982788, "std_height": 0.16473439335823059, "count_pixels": 42, "percent_cover": 0.38503850385038502, "percent_above_0.1m": 7.1428571428571423, "low_level_<0.5": 2.3809523809523809, "mid_level_0.5-2": 4.7619047619047619, "tall_2+": 0.0 }, "geometry": { "type": "Point", "coordinates": [ -0.387563898208125, 51.56269764020908 ] } },
{ "type": "Feature", "properties": { "max_height": 0.09549713134765625, "mean_height": 0.0083109540864825249, "std_height": 0.020682990550994873, "count_pixels": 42, "percent_cover": 0.38503850385038502, "percent_above_0.1m": 0.0, "low_level_<0.5": 0.0, "mid_level_0.5-2": 0.0, "tall_2+": 0.0 }, "geometry": { "type": "Point", "coordinates": [ -0.388858888510476, 51.562823342235298 ] } },
{ "type": "Feature", "properties": { "max_height": 0.001003265380859375, "mean_height": -5.7674587878864259e-05, "std_height": 0.00037687551230192184, "count_pixels": 42, "percent_cover": 0.38503850385038502, "percent_above_0.1m": 0.0, "low_level_<0.5": 0.0, "mid_level_0.5-2": 0.0, "tall_2+": 0.0 }, "geometry": { "type": "Point", "coordinates": [ -0.388659071936957, 51.562820597873504 ] } },
{ "type": "Feature", "properties": { "max_height": 0.000751495361328125, "mean_height": -3.9872669731266797e-05, "std_height": 0.00026134779909625649, "count_pixels": 42, "percent_cover": 0.38503850385038502, "percent_above_0.1m": 0.0, "low_level_<0.5": 0.0, "mid_level_0.5-2": 0.0, "tall_2+": 0.0 }, "geometry": { "type": "Point", "coordinates": [ -0.388459255395378, 51.56281785317158 ] } },
{ "type": "Feature", "properties": { "max_height": 0.001255035400390625, "mean_height": -2.252487865916919e-05, "std_height": 0.00056116061750799417, "count_pixels": 42, "percent_cover": 0.38503850385038502, "percent_above_0.1m": 0.0, "low_level_<0.5": 0.0, "mid_level_0.5-2": 0.0, "tall_2+": 0.0 }, "geometry": { "type": "Point", "coordinates": [ -0.388259438885726, 51.562815108129534 ] } },
{ "type": "Feature", "properties": { "max_height": 0.001251220703125, "mean_height": 0.00010308765195077285, "std_height": 0.00035373057471588254, "count_pixels": 42, "percent_cover": 0.38503850385038502, "percent_above_0.1m": 0.0, "low_level_<0.5": 0.0, "mid_level_0.5-2": 0.0, "tall_2+": 0.0 }, "geometry": { "type": "Point", "coordinates": [ -0.388059622408014, 51.562812362747394 ] } },
{ "type": "Feature", "properties": { "max_height": 0.00150299072265625, "mean_height": -1.5894571333774365e-05, "std_height": 0.00046416747500188649, "count_pixels": 42, "percent_cover": 0.38503850385038502, "percent_above_0.1m": 0.0, "low_level_<0.5": 0.0, "mid_level_0.5-2": 0.0, "tall_2+": 0.0 }, "geometry": { "type": "Point", "coordinates": [ -0.387859805962247, 51.562809617025138 ] } },
{ "type": "Feature", "properties": { "max_height": 0.000499725341796875, "mean_height": -0.00011162531154695898, "std_height": 0.00067746470449492335, "count_pixels": 42, "percent_cover": 0.38503850385038502, "percent_above_0.1m": 0.0, "low_level_<0.5": 0.0, "mid_level_0.5-2": 0.0, "tall_2+": 0.0 }, "geometry": { "type": "Point", "coordinates": [ -0.38765998954843, 51.562806870962731 ] } },
{ "type": "Feature", "properties": { "max_height": 0.001003265380859375, "mean_height": -0.00026823344524018466, "std_height": 0.0012074148980900645, "count_pixels": 38, "percent_cover": 0.34836817015034838, "percent_above_0.1m": 0.0, "low_level_<0.5": 0.0, "mid_level_0.5-2": 0.0, "tall_2+": 0.0 }, "geometry": { "type": "Point", "coordinates": [ -0.387460173166558, 51.56280412456023 ] } },
{ "type": "Feature", "properties": { "max_height": 0.08824920654296875, "mean_height": 0.0068709054030478001, "std_height": 0.02048630453646183, "count_pixels": 42, "percent_cover": 0.38503850385038502, "percent_above_0.1m": 0.0, "low_level_<0.5": 0.0, "mid_level_0.5-2": 0.0, "tall_2+": 0.0 }, "geometry": { "type": "Point", "coordinates": [ -0.388954983272338, 51.562932571958498 ] } },
{ "type": "Feature", "properties": { "max_height": 0.000751495361328125, "mean_height": -0.00010369953088229522, "std_height": 0.00051218195585533977, "count_pixels": 38, "percent_cover": 0.34836817015034838, "percent_above_0.1m": 0.0, "low_level_<0.5": 0.0, "mid_level_0.5-2": 0.0, "tall_2+": 0.0 }, "geometry": { "type": "Point", "coordinates": [ -0.388755166205468, 51.562929827755738 ] } },
{ "type": "Feature", "properties": { "max_height": 0.001003265380859375, "mean_height": 6.7483808379620314e-05, "std_height": 0.00041223657899536192, "count_pixels": 42, "percent_cover": 0.38503850385038502, "percent_above_0.1m": 0.0, "low_level_<0.5": 0.0, "mid_level_0.5-2": 0.0, "tall_2+": 0.0 }, "geometry": { "type": "Point", "coordinates": [ -0.38855534917053, 51.562927083212877 ] } },
{ "type": "Feature", "properties": { "max_height": 0.00075531005859375, "mean_height": 3.219232166884467e-05, "std_height": 0.0002717325696721673, "count_pixels": 41, "percent_cover": 0.37587092042537584, "percent_above_0.1m": 0.0, "low_level_<0.5": 0.0, "mid_level_0.5-2": 0.0, "tall_2+": 0.0 }, "geometry": { "type": "Point", "coordinates": [ -0.388355532167518, 51.5629243383299 ] } },
{ "type": "Feature", "properties": { "max_height": 0.001750946044921875, "mean_height": 9.7002302936743945e-05, "std_height": 0.0004812340484932065, "count_pixels": 42, "percent_cover": 0.38503850385038502, "percent_above_0.1m": 0.0, "low_level_<0.5": 0.0, "mid_level_0.5-2": 0.0, "tall_2+": 0.0 }, "geometry": { "type": "Point", "coordinates": [ -0.388155715196452, 51.562921593106772 ] } },
{ "type": "Feature", "properties": { "max_height": 0.001003265380859375, "mean_height": -2.8065272999810986e-05, "std_height": 0.0005752024007961154, "count_pixels": 42, "percent_cover": 0.38503850385038502, "percent_above_0.1m": 0.0, "low_level_<0.5": 0.0, "mid_level_0.5-2": 0.0, "tall_2+": 0.0 }, "geometry": { "type": "Point", "coordinates": [ -0.387955898257322, 51.562918847543528 ] } },
{ "type": "Feature", "properties": { "max_height": 0.000751495361328125, "mean_height": 6.2337734561879188e-05, "std_height": 0.00032164249569177628, "count_pixels": 41, "percent_cover": 0.37587092042537584, "percent_above_0.1m": 0.0, "low_level_<0.5": 0.0, "mid_level_0.5-2": 0.0, "tall_2+": 0.0 }, "geometry": { "type": "Point", "coordinates": [ -0.387756081350137, 51.562916101640184 ] } },
{ "type": "Feature", "properties": { "max_height": 0.0045013427734375, "mean_height": 0.0001565842394484207, "std_height": 0.00079434557119384408, "count_pixels": 42, "percent_cover": 0.38503850385038502, "percent_above_0.1m": 0.0, "low_level_<0.5": 0.0, "mid_level_0.5-2": 0.0, "tall_2+": 0.0 }, "geometry": { "type": "Point", "coordinates": [ -0.387556264474904, 51.562913355396724 ] } },
{ "type": "Feature", "properties": { "max_height": 0.01399993896484375, "mean_height": 0.00054368516430258751, "std_height": 0.0023416175972670317, "count_pixels": 42, "percent_cover": 0.38503850385038502, "percent_above_0.1m": 0.0, "low_level_<0.5": 0.0, "mid_level_0.5-2": 0.0, "tall_2+": 0.0 }, "geometry": { "type": "Point", "coordinates": [ -0.387356447631623, 51.562910608813127 ] } },
{ "type": "Feature", "properties": { "max_height": 0.8079986572265625, "mean_height": 0.01921626552939415, "std_height": 0.12318824976682663, "count_pixels": 42, "percent_cover": 0.38503850385038502, "percent_above_0.1m": 2.3809523809523809, "low_level_<0.5": 0.0, "mid_level_0.5-2": 2.3809523809523809, "tall_2+": 0.0 }, "geometry": { "type": "Point", "coordinates": [ -0.387156630820298, 51.562907861889428 ] } },
{ "type": "Feature", "properties": { "max_height": 14.017002105712891, "mean_height": 2.2161741256713867, "std_height": 4.0036859512329102, "count_pixels": 42, "percent_cover": 0.38503850385038502, "percent_above_0.1m": 33.333333333333329, "low_level_<0.5": 4.7619047619047619, "mid_level_0.5-2": 2.3809523809523809, "tall_2+": 26.190476190476193 }, "geometry": { "type": "Point", "coordinates": [ -0.389051078495629, 51.563041801605493 ] } },
{ "type": "Feature", "properties": { "max_height": 0.000751495361328125, "mean_height": 6.1125982028897852e-05, "std_height": 0.00029798212926834822, "count_pixels": 42, "percent_cover": 0.38503850385038502, "percent_above_0.1m": 0.0, "low_level_<0.5": 0.0, "mid_level_0.5-2": 0.0, "tall_2+": 0.0 }, "geometry": { "type": "Point", "coordinates": [ -0.388851260935401, 51.563039057561774 ] } },
{ "type": "Feature", "properties": { "max_height": 0.00275421142578125, "mean_height": 0.00010908217518590391, "std_height": 0.00053789169760420918, "count_pixels": 42, "percent_cover": 0.38503850385038502, "percent_above_0.1m": 0.0, "low_level_<0.5": 0.0, "mid_level_0.5-2": 0.0, "tall_2+": 0.0 }, "geometry": { "type": "Point", "coordinates": [ -0.388651443407101, 51.563036313177946 ] } },
{ "type": "Feature", "properties": { "max_height": 0.000751495361328125, "mean_height": 3.1516665330855176e-05, "std_height": 0.00030987063655629754, "count_pixels": 42, "percent_cover": 0.38503850385038502, "percent_above_0.1m": 0.0, "low_level_<0.5": 0.0, "mid_level_0.5-2": 0.0, "tall_2+": 0.0 }, "geometry": { "type": "Point", "coordinates": [ -0.388451625910734, 51.563033568453996 ] } },
{ "type": "Feature", "properties": { "max_height": 0.00075531005859375, "mean_height": 7.3205854278057814e-05, "std_height": 0.0002694059512577951, "count_pixels": 42, "percent_cover": 0.38503850385038502, "percent_above_0.1m": 0.0, "low_level_<0.5": 0.0, "mid_level_0.5-2": 0.0, "tall_2+": 0.0 }, "geometry": { "type": "Point", "coordinates": [ -0.3882518084463, 51.56303082338993 ] } },
{ "type": "Feature", "properties": { "max_height": 0.001003265380859375, "mean_height": -4.0235972846858203e-05, "std_height": 0.0003269184089731425, "count_pixels": 42, "percent_cover": 0.38503850385038502, "percent_above_0.1m": 0.0, "low_level_<0.5": 0.0, "mid_level_0.5-2": 0.0, "tall_2+": 0.0 }, "geometry": { "type": "Point", "coordinates": [ -0.38805199101381, 51.563028077985734 ] } },
{ "type": "Feature", "properties": { "max_height": 0.000751495361328125, "mean_height": -5.1316761528141797e-05, "std_height": 0.00041023787343874574, "count_pixels": 42, "percent_cover": 0.38503850385038502, "percent_above_0.1m": 0.0, "low_level_<0.5": 0.0, "mid_level_0.5-2": 0.0, "tall_2+": 0.0 }, "geometry": { "type": "Point", "coordinates": [ -0.387852173613256, 51.563025332241416 ] } },
{ "type": "Feature", "properties": { "max_height": 0.003002166748046875, "mean_height": 3.7329537008190528e-05, "std_height": 0.00061644881498068571, "count_pixels": 42, "percent_cover": 0.38503850385038502, "percent_above_0.1m": 0.0, "low_level_<0.5": 0.0, "mid_level_0.5-2": 0.0, "tall_2+": 0.0 }, "geometry": { "type": "Point", "coordinates": [ -0.387652356244658, 51.563022586156997 ] } },
{ "type": "Feature", "properties": { "max_height": 0.000499725341796875, "mean_height": 1.7065750625988585e-06, "std_height": 0.00027482226141728461, "count_pixels": 38, "percent_cover": 0.34836817015034838, "percent_above_0.1m": 0.0, "low_level_<0.5": 0.0, "mid_level_0.5-2": 0.0, "tall_2+": 0.0 }, "geometry": { "type": "Point", "coordinates": [ -0.387452538908005, 51.563019839732434 ] } },
{ "type": "Feature", "properties": { "max_height": 0.000751495361328125, "mean_height": 1.9981747755082324e-05, "std_height": 0.00033368071308359504, "count_pixels": 42, "percent_cover": 0.38503850385038502, "percent_above_0.1m": 0.0, "low_level_<0.5": 0.0, "mid_level_0.5-2": 0.0, "tall_2+": 0.0 }, "geometry": { "type": "Point", "coordinates": [ -0.387252721603313, 51.563017092967769 ] } },
{ "type": "Feature", "properties": { "max_height": 0.002002716064453125, "mean_height": 8.0852973042055964e-05, "std_height": 0.00072311586700379848, "count_pixels": 41, "percent_cover": 0.37587092042537584, "percent_above_0.1m": 0.0, "low_level_<0.5": 0.0, "mid_level_0.5-2": 0.0, "tall_2+": 0.0 }, "geometry": { "type": "Point", "coordinates": [ -0.387052904330576, 51.563014345862975 ] } },
{ "type": "Feature", "properties": { "max_height": 0.36500167846679688, "mean_height": 0.014049257151782513, "std_height": 0.064285285770893097, "count_pixels": 42, "percent_cover": 0.38503850385038502, "percent_above_0.1m": 4.7619047619047619, "low_level_<0.5": 4.7619047619047619, "mid_level_0.5-2": 0.0, "tall_2+": 0.0 }, "geometry": { "type": "Point", "coordinates": [ -0.386853087089805, 51.563011598418072 ] } },
{ "type": "Feature", "properties": { "max_height": 15.752754211425781, "mean_height": 2.2577147483825684, "std_height": 4.2682690620422363, "count_pixels": 41, "percent_cover": 0.37587092042537584, "percent_above_0.1m": 31.707317073170731, "low_level_<0.5": 2.4390243902439024, "mid_level_0.5-2": 2.4390243902439024, "tall_2+": 26.829268292682929 }, "geometry": { "type": "Point", "coordinates": [ -0.389147174180345, 51.56315103117624 ] } },
{ "type": "Feature", "properties": { "max_height": 15.243003845214844, "mean_height": 3.5143294334411621, "std_height": 4.7180399894714355, "count_pixels": 42, "percent_cover": 0.38503850385038502, "percent_above_0.1m": 52.380952380952387, "low_level_<0.5": 7.1428571428571423, "mid_level_0.5-2": 4.7619047619047619, "tall_2+": 40.476190476190474 }, "geometry": { "type": "Point", "coordinates": [ -0.388947356126756, 51.56314828729159 ] } },
{ "type": "Feature", "properties": { "max_height": 0.00075531005859375, "mean_height": 0.0001791903778212145, "std_height": 0.00027498355484567583, "count_pixels": 38, "percent_cover": 0.34836817015034838, "percent_above_0.1m": 0.0, "low_level_<0.5": 0.0, "mid_level_0.5-2": 0.0, "tall_2+": 0.0 }, "geometry": { "type": "Point", "coordinates": [ -0.388747538105097, 51.563145543066803 ] } },
{ "type": "Feature", "properties": { "max_height": 0.0017547607421875, "mean_height": 9.100777970161289e-05, "std_height": 0.00037349222111515701, "count_pixels": 42, "percent_cover": 0.38503850385038502, "percent_above_0.1m": 0.0, "low_level_<0.5": 0.0, "mid_level_0.5-2": 0.0, "tall_2+": 0.0 }, "geometry": { "type": "Point", "coordinates": [ -0.388547720115365, 51.5631427985019 ] } },
{ "type": "Feature", "properties": { "max_height": 0.000751495361328125, "mean_height": 7.9085184552241117e-06, "std_height": 0.00023680576123297215, "count_pixels": 41, "percent_cover": 0.37587092042537584, "percent_above_0.1m": 0.0, "low_level_<0.5": 0.0, "mid_level_0.5-2": 0.0, "tall_2+": 0.0 }, "geometry": { "type": "Point", "coordinates": [ -0.38834790215757, 51.563140053596868 ] } },
{ "type": "Feature", "properties": { "max_height": 0.000751495361328125, "mean_height": -3.9872669731266797e-05, "std_height": 0.00028334753005765378, "count_pixels": 42, "percent_cover": 0.38503850385038502, "percent_above_0.1m": 0.0, "low_level_<0.5": 0.0, "mid_level_0.5-2": 0.0, "tall_2+": 0.0 }, "geometry": { "type": "Point", "coordinates": [ -0.388148084231709, 51.56313730835172 ] } },
{ "type": "Feature", "properties": { "max_height": 0.0005035400390625, "mean_height": -2.7701968065230176e-05, "std_height": 0.00027928300551138818, "count_pixels": 42, "percent_cover": 0.38503850385038502, "percent_above_0.1m": 0.0, "low_level_<0.5": 0.0, "mid_level_0.5-2": 0.0, "tall_2+": 0.0 }, "geometry": { "type": "Point", "coordinates": [ -0.387948266337793, 51.563134562766457 ] } },
{ "type": "Feature", "properties": { "max_height": 0.00350189208984375, "mean_height": 0.00014198117423802614, "std_height": 0.0010793403489515185, "count_pixels": 41, "percent_cover": 0.37587092042537584, "percent_above_0.1m": 0.0, "low_level_<0.5": 0.0, "mid_level_0.5-2": 0.0, "tall_2+": 0.0 }, "geometry": { "type": "Point", "coordinates": [ -0.387748448475822, 51.563131816841043 ] } },
{ "type": "Feature", "properties": { "max_height": 0.000751495361328125, "mean_height": -0.00014713832933921367, "std_height": 0.00062218232778832316, "count_pixels": 42, "percent_cover": 0.38503850385038502, "percent_above_0.1m": 0.0, "low_level_<0.5": 0.0, "mid_level_0.5-2": 0.0, "tall_2+": 0.0 }, "geometry": { "type": "Point", "coordinates": [ -0.387548630645798, 51.563129070575542 ] } },
{ "type": "Feature", "properties": { "max_height": 0.0005035400390625, "mean_height": 1.3623919130623108e-06, "std_height": 0.00030844146385788918, "count_pixels": 42, "percent_cover": 0.38503850385038502, "percent_above_0.1m": 0.0, "low_level_<0.5": 0.0, "mid_level_0.5-2": 0.0, "tall_2+": 0.0 }, "geometry": { "type": "Point", "coordinates": [ -0.387348812847731, 51.563126323969904 ] } },
{ "type": "Feature", "properties": { "max_height": 0.001255035400390625, "mean_height": 0.00010880969784921035, "std_height": 0.00033263600198552012, "count_pixels": 42, "percent_cover": 0.38503850385038502, "percent_above_0.1m": 0.0, "low_level_<0.5": 0.0, "mid_level_0.5-2": 0.0, "tall_2+": 0.0 }, "geometry": { "type": "Point", "coordinates": [ -0.387148995081621, 51.563123577024143 ] } },
{ "type": "Feature", "properties": { "max_height": 0.001003265380859375, "mean_height": -5.1952541980426759e-05, "std_height": 0.00075693678809329867, "count_pixels": 42, "percent_cover": 0.38503850385038502, "percent_above_0.1m": 0.0, "low_level_<0.5": 0.0, "mid_level_0.5-2": 0.0, "tall_2+": 0.0 }, "geometry": { "type": "Point", "coordinates": [ -0.386949177347475, 51.563120829738274 ] } },
{ "type": "Feature", "properties": { "max_height": 0.001003265380859375, "mean_height": -0.00010553995525697246, "std_height": 0.00055664317915216088, "count_pixels": 42, "percent_cover": 0.38503850385038502, "percent_above_0.1m": 0.0, "low_level_<0.5": 0.0, "mid_level_0.5-2": 0.0, "tall_2+": 0.0 }, "geometry": { "type": "Point", "coordinates": [ -0.386749359645289, 51.563118082112275 ] } },
{ "type": "Feature", "properties": { "max_height": 1.3027496337890625, "mean_height": 0.077508106827735901, "std_height": 0.26073914766311646, "count_pixels": 42, "percent_cover": 0.38503850385038502, "percent_above_0.1m": 9.5238095238095237, "low_level_<0.5": 4.7619047619047619, "mid_level_0.5-2": 4.7619047619047619, "tall_2+": 0.0 }, "geometry": { "type": "Point", "coordinates": [ -0.388843633264521, 51.563254772879425 ] } },
{ "type": "Feature", "properties": { "max_height": 0.005748748779296875, "mean_height": 0.00013896396558266133, "std_height": 0.00097589782672002912, "count_pixels": 42, "percent_cover": 0.38503850385038502, "percent_above_0.1m": 0.0, "low_level_<0.5": 0.0, "mid_level_0.5-2": 0.0, "tall_2+": 0.0 }, "geometry": { "type": "Point", "coordinates": [ -0.388643814781425, 51.563252028473556 ] } },
{ "type": "Feature", "properties": { "max_height": 0.00250244140625, "mean_height": 7.3478338890708983e-05, "std_height": 0.00046057748841121793, "count_pixels": 42, "percent_cover": 0.38503850385038502, "percent_above_0.1m": 0.0, "low_level_<0.5": 0.0, "mid_level_0.5-2": 0.0, "tall_2+": 0.0 }, "geometry": { "type": "Point", "coordinates": [ -0.388443996330262, 51.563249283727586 ] } },
{ "type": "Feature", "properties": { "max_height": 0.002002716064453125, "mean_height": 9.6820651378948241e-05, "std_height": 0.00044316914863884449, "count_pixels": 42, "percent_cover": 0.38503850385038502, "percent_above_0.1m": 0.0, "low_level_<0.5": 0.0, "mid_level_0.5-2": 0.0, "tall_2+": 0.0 }, "geometry": { "type": "Point", "coordinates": [ -0.388244177911033, 51.563246538641458 ] } },
{ "type": "Feature", "properties": { "max_height": 0.001003265380859375, "mean_height": 0.00011453174374764785, "std_height": 0.00038674430106766522, "count_pixels": 42, "percent_cover": 0.38503850385038502, "percent_above_0.1m": 0.0, "low_level_<0.5": 0.0, "mid_level_0.5-2": 0.0, "tall_2+": 0.0 }, "geometry": { "type": "Point", "coordinates": [ -0.388044359523746, 51.56324379321525 ] } },
{ "type": "Feature", "properties": { "max_height": 0.001003265380859375, "mean_height": 4.3051582906628028e-05, "std_height": 0.00033668716787360609, "count_pixels": 42, "percent_cover": 0.38503850385038502, "percent_above_0.1m": 0.0, "low_level_<0.5": 0.0, "mid_level_0.5-2": 0.0, "tall_2+": 0.0 }, "geometry": { "type": "Point", "coordinates": [ -0.387844541168402, 51.563241047448884 ] } },
{ "type": "Feature", "properties": { "max_height": 0.0005035400390625, "mean_height": -0.00010517665214138106, "std_height": 0.00068000797182321548, "count_pixels": 42, "percent_cover": 0.38503850385038502, "percent_above_0.1m": 0.0, "low_level_<0.5": 0.0, "mid_level_0.5-2": 0.0, "tall_2+": 0.0 }, "geometry": { "type": "Point", "coordinates": [ -0.38764472284501, 51.56323830134243 ] } },
{ "type": "Feature", "properties": { "max_height": 0.000751495361328125, "mean_height": 2.1382382328738458e-05, "std_height": 0.00031606003176420927, "count_pixels": 38, "percent_cover": 0.34836817015034838, "percent_above_0.1m": 0.0, "low_level_<0.5": 0.0, "mid_level_0.5-2": 0.0, "tall_2+": 0.0 }, "geometry": { "type": "Point", "coordinates": [ -0.387444904553564, 51.563235554895826 ] } },
{ "type": "Feature", "properties": { "max_height": 0.002498626708984375, "mean_height": 0.00013878231402486563, "std_height": 0.00053199700778350234, "count_pixels": 42, "percent_cover": 0.38503850385038502, "percent_above_0.1m": 0.0, "low_level_<0.5": 0.0, "mid_level_0.5-2": 0.0, "tall_2+": 0.0 }, "geometry": { "type": "Point", "coordinates": [ -0.387245086294076, 51.563232808109106 ] } },
{ "type": "Feature", "properties": { "max_height": 0.000751495361328125, "mean_height": 1.3677085007657297e-05, "std_height": 0.00022085742966737598, "count_pixels": 41, "percent_cover": 0.37587092042537584, "percent_above_0.1m": 0.0, "low_level_<0.5": 0.0, "mid_level_0.5-2": 0.0, "tall_2+": 0.0 }, "geometry": { "type": "Point", "coordinates": [ -0.387045268066552, 51.563230060982271 ] } },
{ "type": "Feature", "properties": { "max_height": 0.000751495361328125, "mean_height": -2.2161573724588379e-05, "std_height": 0.00035692765959538519, "count_pixels": 42, "percent_cover": 0.38503850385038502, "percent_above_0.1m": 0.0, "low_level_<0.5": 0.0, "mid_level_0.5-2": 0.0, "tall_2+": 0.0 }, "geometry": { "type": "Point", "coordinates": [ -0.386845449870987, 51.563227313515299 ] } },
{ "type": "Feature", "properties": { "max_height": 15.770004272460938, "mean_height": 4.6152825355529785, "std_height": 5.2331223487854004, "count_pixels": 42, "percent_cover": 0.38503850385038502, "percent_above_0.1m": 61.904761904761905, "low_level_<0.5": 0.0, "mid_level_0.5-2": 14.285714285714285, "tall_2+": 47.619047619047613 }, "geometry": { "type": "Point", "coordinates": [ -0.386645631707389, 51.563224565708204 ] } },
{ "type": "Feature", "properties": { "max_height": 17.039253234863281, "mean_height": 2.458751916885376, "std_height": 4.9777326583862305, "count_pixels": 42, "percent_cover": 0.38503850385038502, "percent_above_0.1m": 28.571428571428569, "low_level_<0.5": 0.0, "mid_level_0.5-2": 7.1428571428571423, "tall_2+": 21.428571428571427 }, "geometry": { "type": "Point", "coordinates": [ -0.386445813575769, 51.563221817561001 ] } },
{ "type": "Feature", "properties": { "max_height": 0.84825515747070312, "mean_height": 0.020554950460791588, "std_height": 0.12929046154022217, "count_pixels": 42, "percent_cover": 0.38503850385038502, "percent_above_0.1m": 2.3809523809523809, "low_level_<0.5": 0.0, "mid_level_0.5-2": 2.3809523809523809, "tall_2+": 0.0 }, "geometry": { "type": "Point", "coordinates": [ -0.388540090964379, 51.563358513782084 ] } },
{ "type": "Feature", "properties": { "max_height": 0.0005035400390625, "mean_height": -9.583264181856066e-05, "std_height": 0.00036149672814644873, "count_pixels": 41, "percent_cover": 0.37587092042537584, "percent_above_0.1m": 0.0, "low_level_<0.5": 0.0, "mid_level_0.5-2": 0.0, "tall_2+": 0.0 }, "geometry": { "type": "Point", "coordinates": [ -0.388340272051778, 51.563355768855033 ] } },
{ "type": "Feature", "properties": { "max_height": 0.00099945068359375, "mean_height": -5.2406674512894824e-05, "std_height": 0.00050150888273492455, "count_pixels": 42, "percent_cover": 0.38503850385038502, "percent_above_0.1m": 0.0, "low_level_<0.5": 0.0, "mid_level_0.5-2": 0.0, "tall_2+": 0.0 }, "geometry": { "type": "Point", "coordinates": [ -0.388140453171122, 51.563353023587844 ] } },
{ "type": "Feature", "properties": { "max_height": 0.0005035400390625, "mean_height": -4.57763671875e-05, "std_height": 0.00035078130895271897, "count_pixels": 42, "percent_cover": 0.38503850385038502, "percent_above_0.1m": 0.0, "low_level_<0.5": 0.0, "mid_level_0.5-2": 0.0, "tall_2+": 0.0 }, "geometry": { "type": "Point", "coordinates": [ -0.387940634322406, 51.563350277980526 ] } },
{ "type": "Feature", "properties": { "max_height": 0.000751495361328125, "mean_height": 3.2378404284827411e-05, "std_height": 0.00028762983856722713, "count_pixels": 41, "percent_cover": 0.37587092042537584, "percent_above_0.1m": 0.0, "low_level_<0.5": 0.0, "mid_level_0.5-2": 0.0, "tall_2+": 0.0 }, "geometry": { "type": "Point", "coordinates": [ -0.387740815505632, 51.563347532033085 ] } },
{ "type": "Feature", "properties": { "max_height": 0.001251220703125, "mean_height": 0.00012688410060945898, "std_height": 0.00037122509093023837, "count_pixels": 42, "percent_cover": 0.38503850385038502, "percent_above_0.1m": 0.0, "low_level_<0.5": 0.0, "mid_level_0.5-2": 0.0, "tall_2+": 0.0 }, "geometry": { "type": "Point", "coordinates": [ -0.387540996720813, 51.563344785745535 ] } },
{ "type": "Feature", "properties": { "max_height": 0.0005035400390625, "mean_height": 2.5522142095724121e-05, "std_height": 0.00024866065359674394, "count_pixels": 42, "percent_cover": 0.38503850385038502, "percent_above_0.1m": 0.0, "low_level_<0.5": 0.0, "mid_level_0.5-2": 0.0, "tall_2+": 0.0 }, "geometry": { "type": "Point", "coordinates": [ -0.387341177967946, 51.563342039117849 ] } },
{ "type": "Feature", "properties": { "max_height": 0.0019989013671875, "mean_height": 1.9800096197286621e-05, "std_height": 0.00045091885840520263, "count_pixels": 42, "percent_cover": 0.38503850385038502, "percent_above_0.1m": 0.0, "low_level_<0.5": 0.0, "mid_level_0.5-2": 0.0, "tall_2+": 0.0 }, "geometry": { "type": "Point", "coordinates": [ -0.387141359247037, 51.563339292150047 ] } },
{ "type": "Feature", "properties": { "max_height": 0.0007476806640625, "mean_height": 3.1516665330855176e-05, "std_height": 0.00031376298284158111, "count_pixels": 42, "percent_cover": 0.38503850385038502, "percent_above_0.1m": 0.0, "low_level_<0.5": 0.0, "mid_level_0.5-2": 0.0, "tall_2+": 0.0 }, "geometry": { "type": "Point", "coordinates": [ -0.386941540558091, 51.563336544842116 ] } },
{ "type": "Feature", "properties": { "max_height": 0.001750946044921875, "mean_height": -1.0263352123729419e-05, "std_height": 0.00043927069054916501, "count_pixels": 42, "percent_cover": 0.38503850385038502, "percent_above_0.1m": 0.0, "low_level_<0.5": 0.0, "mid_level_0.5-2": 0.0, "tall_2+": 0.0 }, "geometry": { "type": "Point", "coordinates": [ -0.386741721901111, 51.563333797194069 ] } },
{ "type": "Feature", "properties": { "max_height": 6.9635009765625, "mean_height": 0.57304328680038452, "std_height": 1.6759133338928223, "count_pixels": 42, "percent_cover": 0.38503850385038502, "percent_above_0.1m": 11.904761904761903, "low_level_<0.5": 0.0, "mid_level_0.5-2": 2.3809523809523809, "tall_2+": 9.5238095238095237 }, "geometry": { "type": "Point", "coordinates": [ -0.386541903276103, 51.563331049205885 ] } },
{ "type": "Feature", "properties": { "max_height": 2.2367515563964844, "mean_height": 0.10649563372135162, "std_height": 0.39087492227554321, "count_pixels": 42, "percent_cover": 0.38503850385038502, "percent_above_0.1m": 11.904761904761903, "low_level_<0.5": 2.3809523809523809, "mid_level_0.5-2": 4.7619047619047619, "tall_2+": 2.3809523809523809 }, "geometry": { "type": "Point", "coordinates": [ -0.388436366653956, 51.563464998992345 ] } },
{ "type": "Feature", "properties": { "max_height": 0.045253753662109375, "mean_height": 0.004299527034163475, "std_height": 0.01098320446908474, "count_pixels": 42, "percent_cover": 0.38503850385038502, "percent_above_0.1m": 0.0, "low_level_<0.5": 0.0, "mid_level_0.5-2": 0.0, "tall_2+": 0.0 }, "geometry": { "type": "Point", "coordinates": [ -0.388236547279926, 51.563462253884204 ] } },
{ "type": "Feature", "properties": { "max_height": 0.358001708984375, "mean_height": 0.018305279314517975, "std_height": 0.066720791161060333, "count_pixels": 42, "percent_cover": 0.38503850385038502, "percent_above_0.1m": 4.7619047619047619, "low_level_<0.5": 4.7619047619047619, "mid_level_0.5-2": 0.0, "tall_2+": 0.0 }, "geometry": { "type": "Point", "coordinates": [ -0.388036727937827, 51.56345950843594 ] } },
{ "type": "Feature", "properties": { "max_height": 0.001251220703125, "mean_height": 0.00012070791854057461, "std_height": 0.00038663978921249509, "count_pixels": 42, "percent_cover": 0.38503850385038502, "percent_above_0.1m": 0.0, "low_level_<0.5": 0.0, "mid_level_0.5-2": 0.0, "tall_2+": 0.0 }, "geometry": { "type": "Point", "coordinates": [ -0.387836908627679, 51.56345676264754 ] } },
{ "type": "Feature", "properties": { "max_height": 0.000751495361328125, "mean_height": -5.7492936321068555e-05, "std_height": 0.00039213124546222389, "count_pixels": 42, "percent_cover": 0.38503850385038502, "percent_above_0.1m": 0.0, "low_level_<0.5": 0.0, "mid_level_0.5-2": 0.0, "tall_2+": 0.0 }, "geometry": { "type": "Point", "coordinates": [ -0.387637089349482, 51.563454016519024 ] } },
{ "type": "Feature", "properties": { "max_height": 0.0005035400390625, "mean_height": -3.8046586269047111e-05, "std_height": 0.00039557670243084431, "count_pixels": 38, "percent_cover": 0.34836817015034838, "percent_above_0.1m": 0.0, "low_level_<0.5": 0.0, "mid_level_0.5-2": 0.0, "tall_2+": 0.0 }, "geometry": { "type": "Point", "coordinates": [ -0.387437270103232, 51.563451270050386 ] } },
{ "type": "Feature", "properties": { "max_height": 0.000751495361328125, "mean_height": 0.00011444091796875, "std_height": 0.0002996153780259192, "count_pixels": 42, "percent_cover": 0.38503850385038502, "percent_above_0.1m": 0.0, "low_level_<0.5": 0.0, "mid_level_0.5-2": 0.0, "tall_2+": 0.0 }, "geometry": { "type": "Point", "coordinates": [ -0.387237450888941, 51.563448523241604 ] } },
{ "type": "Feature", "properties": { "max_height": 0.00099945068359375, "mean_height": 6.912976095918566e-05, "std_height": 0.00030712017905898392, "count_pixels": 41, "percent_cover": 0.37587092042537584, "percent_above_0.1m": 0.0, "low_level_<0.5": 0.0, "mid_level_0.5-2": 0.0, "tall_2+": 0.0 }, "geometry": { "type": "Point", "coordinates": [ -0.387037631706609, 51.563445776092713 ] } },
{ "type": "Feature", "properties": { "max_height": 0.000751495361328125, "mean_height": -3.4150623832829297e-05, "std_height": 0.00048062586574815214, "count_pixels": 42, "percent_cover": 0.38503850385038502, "percent_above_0.1m": 0.0, "low_level_<0.5": 0.0, "mid_level_0.5-2": 0.0, "tall_2+": 0.0 }, "geometry": { "type": "Point", "coordinates": [ -0.386837812556242, 51.563443028603693 ] } },
{ "type": "Feature", "properties": { "max_height": 1.9039993286132812, "mean_height": 0.1796322762966156, "std_height": 0.48220068216323853, "count_pixels": 42, "percent_cover": 0.38503850385038502, "percent_above_0.1m": 16.666666666666664, "low_level_<0.5": 4.7619047619047619, "mid_level_0.5-2": 11.904761904761903, "tall_2+": 0.0 }, "geometry": { "type": "Point", "coordinates": [ -0.386637993437844, 51.563440280774557 ] } },
{ "type": "Feature", "properties": { "max_height": 0.12275314331054688, "mean_height": 0.011947904713451862, "std_height": 0.024567848071455956, "count_pixels": 42, "percent_cover": 0.38503850385038502, "percent_above_0.1m": 2.3809523809523809, "low_level_<0.5": 0.0, "mid_level_0.5-2": 0.0, "tall_2+": 0.0 }, "geometry": { "type": "Point", "coordinates": [ -0.388132822014684, 51.563568738815121 ] } },
{ "type": "Feature", "properties": { "max_height": 0.009250640869140625, "mean_height": -0.00017129807383753359, "std_height": 0.0025924849323928356, "count_pixels": 42, "percent_cover": 0.38503850385038502, "percent_above_0.1m": 0.0, "low_level_<0.5": 0.0, "mid_level_0.5-2": 0.0, "tall_2+": 0.0 }, "geometry": { "type": "Point", "coordinates": [ -0.387933002211154, 51.563565993185783 ] } },
{ "type": "Feature", "properties": { "max_height": 0.03725433349609375, "mean_height": 0.0011725076474249363, "std_height": 0.0059000784531235695, "count_pixels": 41, "percent_cover": 0.37587092042537584, "percent_above_0.1m": 0.0, "low_level_<0.5": 0.0, "mid_level_0.5-2": 0.0, "tall_2+": 0.0 }, "geometry": { "type": "Point", "coordinates": [ -0.387733182439571, 51.563563247216301 ] } },
{ "type": "Feature", "properties": { "max_height": 0.00075531005859375, "mean_height": -9.9908738775411621e-06, "std_height": 0.00023766708909533918, "count_pixels": 42, "percent_cover": 0.38503850385038502, "percent_above_0.1m": 0.0, "low_level_<0.5": 0.0, "mid_level_0.5-2": 0.0, "tall_2+": 0.0 }, "geometry": { "type": "Point", "coordinates": [ -0.387533362699938, 51.563560500906689 ] } },
{ "type": "Feature", "properties": { "max_height": 0.001003265380859375, "mean_height": -1.0172526344831567e-05, "std_height": 0.00029361329507082701, "count_pixels": 42, "percent_cover": 0.38503850385038502, "percent_above_0.1m": 0.0, "low_level_<0.5": 0.0, "mid_level_0.5-2": 0.0, "tall_2+": 0.0 }, "geometry": { "type": "Point", "coordinates": [ -0.387333542992263, 51.563557754256962 ] } },
{ "type": "Feature", "properties": { "max_height": 0.00099945068359375, "mean_height": -1.0354177902627271e-05, "std_height": 0.00035765304346568882, "count_pixels": 42, "percent_cover": 0.38503850385038502, "percent_above_0.1m": 0.0, "low_level_<0.5": 0.0, "mid_level_0.5-2": 0.0, "tall_2+": 0.0 }, "geometry": { "type": "Point", "coordinates": [ -0.387133723316545, 51.563555007267105 ] } },
{ "type": "Feature", "properties": { "max_height": 0.001499176025390625, "mean_height": -6.3396633777301759e-05, "std_height": 0.00044683006126433611, "count_pixels": 42, "percent_cover": 0.38503850385038502, "percent_above_0.1m": 0.0, "low_level_<0.5": 0.0, "mid_level_0.5-2": 0.0, "tall_2+": 0.0 }, "geometry": { "type": "Point", "coordinates": [ -0.386933903672788, 51.563552259937119 ] } },
{ "type": "Feature", "properties": { "max_height": 2.8072509765625, "mean_height": 0.30894798040390015, "std_height": 0.64024615287780762, "count_pixels": 42, "percent_cover": 0.38503850385038502, "percent_above_0.1m": 28.571428571428569, "low_level_<0.5": 9.5238095238095237, "mid_level_0.5-2": 14.285714285714285, "tall_2+": 4.7619047619047619 }, "geometry": { "type": "Point", "coordinates": [ -0.386734084061001, 51.563549512267016 ] } },
{ "type": "Feature", "properties": { "max_height": 0.02700042724609375, "mean_height": 0.00036493936204351485, "std_height": 0.0043124970979988575, "count_pixels": 42, "percent_cover": 0.38503850385038502, "percent_above_0.1m": 0.0, "low_level_<0.5": 0.0, "mid_level_0.5-2": 0.0, "tall_2+": 0.0 }, "geometry": { "type": "Point", "coordinates": [ -0.387829275991088, 51.563672477837365 ] } },
{ "type": "Feature", "properties": { "max_height": 0.001750946044921875, "mean_height": 3.7420362787088379e-05, "std_height": 0.00032989570172503591, "count_pixels": 42, "percent_cover": 0.38503850385038502, "percent_above_0.1m": 0.0, "low_level_<0.5": 0.0, "mid_level_0.5-2": 0.0, "tall_2+": 0.0 }, "geometry": { "type": "Point", "coordinates": [ -0.387629455758076, 51.563669731686801 ] } },
{ "type": "Feature", "properties": { "max_height": 0.0007476806640625, "mean_height": 1.2046411939081736e-06, "std_height": 0.00029811484273523092, "count_pixels": 38, "percent_cover": 0.34836817015034838, "percent_above_0.1m": 0.0, "low_level_<0.5": 0.0, "mid_level_0.5-2": 0.0, "tall_2+": 0.0 }, "geometry": { "type": "Point", "coordinates": [ -0.387429635557006, 51.563666985196107 ] } },
{ "type": "Feature", "properties": { "max_height": 0.000751495361328125, "mean_height": 1.9800096197286621e-05, "std_height": 0.00028585057589225471, "count_pixels": 42, "percent_cover": 0.38503850385038502, "percent_above_0.1m": 0.0, "low_level_<0.5": 0.0, "mid_level_0.5-2": 0.0, "tall_2+": 0.0 }, "geometry": { "type": "Point", "coordinates": [ -0.387229815387901, 51.563664238365298 ] } },
{ "type": "Feature", "properties": { "max_height": 0.0032501220703125, "mean_height": 1.386316853313474e-05, "std_height": 0.00061695475596934557, "count_pixels": 41, "percent_cover": 0.37587092042537584, "percent_above_0.1m": 0.0, "low_level_<0.5": 0.0, "mid_level_0.5-2": 0.0, "tall_2+": 0.0 }, "geometry": { "type": "Point", "coordinates": [ -0.387029995250752, 51.563661491194338 ] } },
{ "type": "Feature", "properties": { "max_height": 2.8835029602050781, "mean_height": 0.14014489948749542, "std_height": 0.51283872127532959, "count_pixels": 42, "percent_cover": 0.38503850385038502, "percent_above_0.1m": 11.904761904761903, "low_level_<0.5": 4.7619047619047619, "mid_level_0.5-2": 4.7619047619047619, "tall_2+": 2.3809523809523809 }, "geometry": { "type": "Point", "coordinates": [ -0.386830175145572, 51.563658743683256 ] } },
{ "type": "Feature", "properties": { "max_height": 3.5579986572265625, "mean_height": 0.28171557188034058, "std_height": 0.7205655574798584, "count_pixels": 41, "percent_cover": 0.37587092042537584, "percent_above_0.1m": 19.512195121951219, "low_level_<0.5": 4.8780487804878048, "mid_level_0.5-2": 9.7560975609756095, "tall_2+": 4.8780487804878048 }, "geometry": { "type": "Point", "coordinates": [ -0.387725549277632, 51.563778962390685 ] } },
{ "type": "Feature", "properties": { "max_height": 0.0019989013671875, "mean_height": -8.7556385551579297e-05, "std_height": 0.00078783335629850626, "count_pixels": 42, "percent_cover": 0.38503850385038502, "percent_above_0.1m": 0.0, "low_level_<0.5": 0.0, "mid_level_0.5-2": 0.0, "tall_2+": 0.0 }, "geometry": { "type": "Point", "coordinates": [ -0.387525728583182, 51.563776216059033 ] } },
{ "type": "Feature", "properties": { "max_height": 0.000499725341796875, "mean_height": -1.0445004591019824e-05, "std_height": 0.0002179662260459736, "count_pixels": 42, "percent_cover": 0.38503850385038502, "percent_above_0.1m": 0.0, "low_level_<0.5": 0.0, "mid_level_0.5-2": 0.0, "tall_2+": 0.0 }, "geometry": { "type": "Point", "coordinates": [ -0.387325907920678, 51.563773469387236 ] } },
{ "type": "Feature", "properties": { "max_height": 6.5840034484863281, "mean_height": 0.22827547788619995, "std_height": 1.0432703495025635, "count_pixels": 42, "percent_cover": 0.38503850385038502, "percent_above_0.1m": 7.1428571428571423, "low_level_<0.5": 0.0, "mid_level_0.5-2": 4.7619047619047619, "tall_2+": 2.3809523809523809 }, "geometry": { "type": "Point", "coordinates": [ -0.38712608729014, 51.563770722375359 ] } },
{ "type": "Feature", "properties": { "max_height": 1.829254150390625, "mean_height": 0.16937129199504852, "std_height": 0.4199833869934082, "count_pixels": 42, "percent_cover": 0.38503850385038502, "percent_above_0.1m": 21.428571428571427, "low_level_<0.5": 11.904761904761903, "mid_level_0.5-2": 9.5238095238095237, "tall_2+": 0.0 }, "geometry": { "type": "Point", "coordinates": [ -0.386926266691564, 51.563767975023296 ] } },
{ "type": "Feature", "properties": { "max_height": 0.49449920654296875, "mean_height": 0.012830131687223911, "std_height": 0.079187370836734772, "count_pixels": 38, "percent_cover": 0.34836817015034838, "percent_above_0.1m": 2.6315789473684208, "low_level_<0.5": 2.6315789473684208, "mid_level_0.5-2": 0.0, "tall_2+": 0.0 }, "geometry": { "type": "Point", "coordinates": [ -0.387422000914889, 51.563882700332996 ] } },
{ "type": "Feature", "properties": { "max_height": 13.920753479003906, "mean_height": 5.0219244956970215, "std_height": 4.4804778099060059, "count_pixels": 42, "percent_cover": 0.38503850385038502, "percent_above_0.1m": 80.952380952380949, "low_level_<0.5": 7.1428571428571423, "mid_level_0.5-2": 14.285714285714285, "tall_2+": 59.523809523809526 }, "geometry": { "type": "Point", "coordinates": [ -0.387222179790957, 51.563879953480146 ] } },
{ "type": "Feature", "properties": { "max_height": 3.8432540893554688, "mean_height": 0.28301388025283813, "std_height": 0.82403600215911865, "count_pixels": 41, "percent_cover": 0.37587092042537584, "percent_above_0.1m": 17.073170731707318, "low_level_<0.5": 2.4390243902439024, "mid_level_0.5-2": 7.3170731707317067, "tall_2+": 7.3170731707317067 }, "geometry": { "type": "Point", "coordinates": [ -0.387022358698977, 51.563877206287145 ] } }
]
}
