{
"type": "FeatureCollection",
"name": "ef5d5c432647_visibility",
"crs": { "type": "name", "properties": { "name": "urn:ogc:def:crs:OGC:1.3:CRS84" } },
"features": [
{ "type": "Feature", "properties": { "visible_points": 20, "total_points": 46, "visibility_pct": 43.478260869565219 }, "geometry": { "type": "Point", "coordinates": [ -0.460070344592357, 51.501132061115278 ] } },
{ "type": "Feature", "properties": { "visible_points": 21, "total_points": 51, "visibility_pct": 41.17647058823529 }, "geometry": { "type": "Point", "coordinates": [ -0.459870794746399, 51.501129440029651 ] } },
{ "type": "Feature", "properties": { "visible_points": 10, "total_points": 55, "visibility_pct": 18.181818181818183 }, "geometry": { "type": "Point", "coordinates": [ -0.459671244929862, 51.501126818604632 ] } },
{ "type": "Feature", "properties": { "visible_points": 20, "total_points": 46, "visibility_pct": 43.478260869565219 }, "geometry": { "type": "Point", "coordinates": [ -0.4601664813574, 51.501241230745535 ] } },
{ "type": "Feature", "properties": { "visible_points": 23, "total_points": 53, "visibility_pct": 43.39622641509434 }, "geometry": { "type": "Point", "coordinates": [ -0.459966931041543, 51.501238609819218 ] } },
{ "type": "Feature", "properties": { "visible_points": 19, "total_points": 58, "visibility_pct": 32.758620689655174 }, "geometry": { "type": "Point", "coordinates": [ -0.459767380755107, 51.50123598855351 ] } },
{ "type": "Feature", "properties": { "visible_points": 10, "total_points": 61, "visibility_pct": 16.393442622950818 }, "geometry": { "type": "Point", "coordinates": [ -0.459567830498096, 51.501233366948412 ] } },
{ "type": "Feature", "properties": { "visible_points": 9, "total_points": 61, "visibility_pct": 14.754098360655737 }, "geometry": { "type": "Point", "coordinates": [ -0.459368280270515, 51.501230745003888 ] } },
{ "type": "Feature", "properties": { "visible_points": 20, "total_points": 46, "visibility_pct": 43.478260869565219 }, "geometry": { "type": "Point", "coordinates": [ -0.460262618562926, 51.501350400299124 ] } },
{ "type": "Feature", "properties": { "visible_points": 24, "total_points": 53, "visibility_pct": 45.283018867924532 }, "geometry": { "type": "Point", "coordinates": [ -0.460063067777169, 51.501347779532111 ] } },
{ "type": "Feature", "properties": { "visible_points": 22, "total_points": 59, "visibility_pct": 37.288135593220339 }, "geometry": { "type": "Point", "coordinates": [ -0.459863517020826, 51.501345158425757 ] } },
{ "type": "Feature", "properties": { "visible_points": 20, "total_points": 61, "visibility_pct": 32.786885245901637 }, "geometry": { "type": "Point", "coordinates": [ -0.45966396629391, 51.501342536979976 ] } },
{ "type": "Feature", "properties": { "visible_points": 20, "total_points": 61, "visibility_pct": 32.786885245901637 }, "geometry": { "type": "Point", "coordinates": [ -0.459464415596417, 51.50133991519477 ] } },
{ "type": "Feature", "properties": { "visible_points": 12, "total_points": 60, "visibility_pct": 20.0 }, "geometry": { "type": "Point", "coordinates": [ -0.459264864928362, 51.501337293070179 ] } },
{ "type": "Feature", "properties": { "visible_points": 16, "total_points": 58, "visibility_pct": 27.586206896551722 }, "geometry": { "type": "Point", "coordinates": [ -0.459959653727028, 51.501454328221328 ] } },
{ "type": "Feature", "properties": { "visible_points": 19, "total_points": 61, "visibility_pct": 31.147540983606557 }, "geometry": { "type": "Point", "coordinates": [ -0.4597601025302, 51.501451706934866 ] } },
{ "type": "Feature", "properties": { "visible_points": 21, "total_points": 61, "visibility_pct": 34.42622950819672 }, "geometry": { "type": "Point", "coordinates": [ -0.4595605513628, 51.501449085308998 ] } },
{ "type": "Feature", "properties": { "visible_points": 20, "total_points": 61, "visibility_pct": 32.786885245901637 }, "geometry": { "type": "Point", "coordinates": [ -0.459361000224832, 51.501446463343726 ] } },
{ "type": "Feature", "properties": { "visible_points": 17, "total_points": 55, "visibility_pct": 30.909090909090907 }, "geometry": { "type": "Point", "coordinates": [ -0.459161449116292, 51.501443841039041 ] } },
{ "type": "Feature", "properties": { "visible_points": 5, "total_points": 48, "visibility_pct": 10.416666666666668 }, "geometry": { "type": "Point", "coordinates": [ -0.458961898037189, 51.501441218394966 ] } },
{ "type": "Feature", "properties": { "visible_points": 17, "total_points": 61, "visibility_pct": 27.868852459016392 }, "geometry": { "type": "Point", "coordinates": [ -0.459656687569663, 51.501558255346566 ] } },
{ "type": "Feature", "properties": { "visible_points": 17, "total_points": 60, "visibility_pct": 28.333333333333332 }, "geometry": { "type": "Point", "coordinates": [ -0.459457135961777, 51.501555633540619 ] } },
{ "type": "Feature", "properties": { "visible_points": 15, "total_points": 55, "visibility_pct": 27.27272727272727 }, "geometry": { "type": "Point", "coordinates": [ -0.459257584383326, 51.501553011395274 ] } },
{ "type": "Feature", "properties": { "visible_points": 16, "total_points": 48, "visibility_pct": 33.333333333333329 }, "geometry": { "type": "Point", "coordinates": [ -0.459058032834305, 51.501550388910495 ] } },
{ "type": "Feature", "properties": { "visible_points": 16, "total_points": 57, "visibility_pct": 28.07017543859649 }, "geometry": { "type": "Point", "coordinates": [ -0.45955327213921, 51.501664803660852 ] } },
{ "type": "Feature", "properties": { "visible_points": 17, "total_points": 53, "visibility_pct": 32.075471698113205 }, "geometry": { "type": "Point", "coordinates": [ -0.459353720090838, 51.501662181674838 ] } },
{ "type": "Feature", "properties": { "visible_points": 13, "total_points": 48, "visibility_pct": 27.083333333333332 }, "geometry": { "type": "Point", "coordinates": [ -0.4591541680719, 51.501659559349385 ] } }
]
}
