{
"type": "FeatureCollection",
"name": "LEWIS_58_cycling",
"crs": { "type": "name", "properties": { "name": "urn:ogc:def:crs:OGC:1.3:CRS84" } },
"features": [
{"type":"Feature","properties":{"highway":"cycleway","name":null,"category":"Dedicated cycleway"},"geometry":{"type":"MultiLineString","coordinates":[[[-0.021696,51.452076],[-0.0216714,51.4521646]]]}},
{"type":"Feature","properties":{"highway":"cycleway","name":null,"category":"Dedicated cycleway"},"geometry":{"type":"MultiLineString","coordinates":[[[-0.0203829,51.452683],[-0.0203704,51.4526758]]]}},
{"type":"Feature","properties":{"highway":"cycleway","name":null,"category":"Dedicated cycleway"},"geometry":{"type":"MultiLineString","coordinates":[[[-0.0201165,51.4525695],[-0.0199024,51.4525553]]]}},
{"type":"Feature","properties":{"highway":"cycleway","name":null,"category":"Dedicated cycleway"},"geometry":{"type":"MultiLineString","coordinates":[[[-0.0216714,51.4521646],[-0.0215971,51.452297],[-0.0215697,51.4523489],[-0.0214912,51.4524884],[-0.0214302,51.4525774],[-0.0213739,51.4526656],[-0.020411,51.4540537],[-0.0203737,51.4541048],[-0.0198889,51.4548215],[-0.0197508,51.4550066],[-0.019631,51.4551447],[-0.0194043,51.4552536],[-0.0192347,51.4553471],[-0.0191832,51.4553992],[-0.0190799,51.4555262],[-0.0189391,51.455704],[-0.0188744,51.4558003]]]}},
{"type":"Feature","properties":{"highway":"cycleway","name":null,"category":"Dedicated cycleway"},"geometry":{"type":"MultiLineString","coordinates":[[[-0.0226357,51.451959],[-0.022624,51.4520646]]]}},
{"type":"Feature","properties":{"highway":"cycleway","name":null,"category":"Dedicated cycleway"},"geometry":{"type":"MultiLineString","coordinates":[[[-0.0226211,51.4519179],[-0.0226357,51.451959]]]}},
{"type":"Feature","properties":{"highway":"cycleway","name":null,"category":"Dedicated cycleway"},"geometry":{"type":"MultiLineString","coordinates":[[[-0.022624,51.4520646],[-0.0226025,51.4520968],[-0.0225364,51.452076]]]}},
{"type":"Feature","properties":{"highway":"cycleway","name":null,"category":"Dedicated cycleway"},"geometry":{"type":"MultiLineString","coordinates":[[[-0.0226025,51.4520968],[-0.0226339,51.4521147],[-0.0227585,51.4521473],[-0.0228911,51.4521618],[-0.0230067,51.4521959],[-0.0231877,51.4522525],[-0.0232732,51.4522938],[-0.0235069,51.4523672],[-0.0237952,51.4524307],[-0.0241058,51.4524824]]]}},
{"type":"Feature","properties":{"highway":"cycleway","name":null,"category":"Dedicated cycleway"},"geometry":{"type":"MultiLineString","coordinates":[[[-0.0217071,51.45196],[-0.021696,51.452076]]]}},
{"type":"Feature","properties":{"highway":"cycleway","name":null,"category":"Dedicated cycleway"},"geometry":{"type":"MultiLineString","coordinates":[[[-0.0233208,51.454109],[-0.023356,51.45407],[-0.0235482,51.4538959],[-0.0236628,51.4538031]]]}},
{"type":"Feature","properties":{"highway":"cycleway","name":null,"category":"Dedicated cycleway"},"geometry":{"type":"MultiLineString","coordinates":[[[-0.025474,51.4529078],[-0.0253592,51.452912],[-0.0252683,51.4528931],[-0.025043,51.4527961],[-0.0249357,51.452736],[-0.0249035,51.4527092],[-0.024764,51.4527794],[-0.0246003,51.4528934],[-0.0245327,51.4529386],[-0.0244395,51.4530201],[-0.024294,51.4531856],[-0.0241572,51.4533393],[-0.0243253,51.4534626]]]}},
{"type":"Feature","properties":{"highway":"cycleway","name":null,"category":"Dedicated cycleway"},"geometry":{"type":"MultiLineString","coordinates":[[[-0.0226338,51.4547958],[-0.0224444,51.4547109],[-0.0224221,51.4545709],[-0.0223954,51.454447],[-0.0223647,51.4543806],[-0.0223233,51.4543248],[-0.0222975,51.4542647],[-0.0223049,51.4542028],[-0.0223221,51.4541564],[-0.0223451,51.454113],[-0.0223513,51.4540921],[-0.0224145,51.4540809]]]}},
{"type":"Feature","properties":{"highway":"cycleway","name":null,"category":"Dedicated cycleway"},"geometry":{"type":"MultiLineString","coordinates":[[[-0.0229197,51.4545124],[-0.0228923,51.4544986],[-0.0228655,51.4544836],[-0.0228065,51.4544552],[-0.0227582,51.4544401],[-0.0226858,51.4544401],[-0.0226375,51.4544334],[-0.0225839,51.4544184],[-0.0225435,51.4543959],[-0.0224865,51.4543746],[-0.0224291,51.4543754],[-0.0223647,51.4543806]]]}},
{"type":"Feature","properties":{"highway":"cycleway","name":null,"category":"Dedicated cycleway"},"geometry":{"type":"MultiLineString","coordinates":[[[-0.0228414,51.4553393],[-0.0226214,51.4552624],[-0.0225195,51.4552156],[-0.0222899,51.455116]]]}},
{"type":"Feature","properties":{"highway":"cycleway","name":null,"category":"Dedicated cycleway"},"geometry":{"type":"MultiLineString","coordinates":[[[-0.023052,51.4543794],[-0.0230345,51.4543749],[-0.0229728,51.4543449],[-0.0229004,51.4543382],[-0.0228521,51.4543332]]]}},
{"type":"Feature","properties":{"highway":"cycleway","name":null,"category":"Dedicated cycleway"},"geometry":{"type":"MultiLineString","coordinates":[[[-0.0185683,51.4547315],[-0.0186715,51.45509],[-0.0187176,51.4553488],[-0.0187361,51.455414]]]}},
{"type":"Feature","properties":{"highway":"cycleway","name":null,"category":"Dedicated cycleway"},"geometry":{"type":"MultiLineString","coordinates":[[[-0.0244237,51.4600635],[-0.02424,51.4600128],[-0.0239291,51.4599],[-0.0238251,51.4598349],[-0.0233804,51.4597555],[-0.0229609,51.4598106],[-0.0225328,51.4599687],[-0.0222448,51.4601998],[-0.0221873,51.4602779],[-0.0220897,51.4602698],[-0.0219592,51.4602434]]]}},
{"type":"Feature","properties":{"highway":"cycleway","name":null,"category":"Dedicated cycleway"},"geometry":{"type":"MultiLineString","coordinates":[[[-0.0185683,51.4547315],[-0.0184422,51.4549074],[-0.0183785,51.4549893],[-0.0182692,51.4551025],[-0.0181425,51.4552701],[-0.0180453,51.4554024],[-0.0179544,51.4555259],[-0.0178493,51.455696]]]}},
{"type":"Feature","properties":{"highway":"cycleway","name":null,"category":"Dedicated cycleway"},"geometry":{"type":"MultiLineString","coordinates":[[[-0.0188744,51.4558003],[-0.0188458,51.4558513],[-0.0186866,51.4560209],[-0.0185877,51.4561187],[-0.0184928,51.4562028],[-0.01828,51.4563529],[-0.0181891,51.4564362]]]}},
{"type":"Feature","properties":{"highway":"cycleway","name":null,"category":"Dedicated cycleway"},"geometry":{"type":"MultiLineString","coordinates":[[[-0.0256341,51.4602174],[-0.0261711,51.4602686],[-0.0267076,51.4603995],[-0.0274445,51.4605918]]]}},
{"type":"Feature","properties":{"highway":"cycleway","name":null,"category":"Dedicated cycleway"},"geometry":{"type":"MultiLineString","coordinates":[[[-0.0176105,51.4542576],[-0.0176647,51.4542718],[-0.0177498,51.4542975],[-0.0178526,51.4543085],[-0.0180185,51.4543117],[-0.0180335,51.4543107],[-0.0180773,51.4543153],[-0.0181231,51.4543155],[-0.0182119,51.4543122],[-0.0182208,51.4543119],[-0.018248,51.4543109]]]}},
{"type":"Feature","properties":{"highway":"cycleway","name":null,"category":"Dedicated cycleway"},"geometry":{"type":"MultiLineString","coordinates":[[[-0.0216714,51.4521646],[-0.0214968,51.4522005],[-0.0213038,51.4522375],[-0.0211832,51.4522767],[-0.0210472,51.4523209],[-0.020905,51.452363],[-0.0207192,51.4524558],[-0.0206088,51.4525067],[-0.020458,51.4525989],[-0.0203829,51.452683]]]}},
{"type":"Feature","properties":{"highway":"cycleway","name":null,"category":"Dedicated cycleway"},"geometry":{"type":"MultiLineString","coordinates":[[[-0.0181891,51.4564362],[-0.0182015,51.4564725],[-0.0182076,51.4564908]]]}},
{"type":"Feature","properties":{"highway":"cycleway","name":null,"category":"Dedicated cycleway"},"geometry":{"type":"MultiLineString","coordinates":[[[-0.0199024,51.4525553],[-0.0197818,51.452536],[-0.0196055,51.452435],[-0.0192559,51.4522444],[-0.0192215,51.4522037]]]}},
{"type":"Feature","properties":{"highway":"cycleway","name":null,"category":"Dedicated cycleway"},"geometry":{"type":"MultiLineString","coordinates":[[[-0.0203829,51.452683],[-0.0203474,51.4527682],[-0.0202597,51.4529182],[-0.0201085,51.453122],[-0.0199173,51.4533119],[-0.0198122,51.4533908],[-0.0195218,51.4535167],[-0.0193009,51.453596],[-0.0190934,51.4536509],[-0.018918,51.4536776],[-0.0187462,51.4537734],[-0.0186672,51.4538291],[-0.0186083,51.4538706],[-0.0185904,51.4538998],[-0.0185213,51.4540128],[-0.0185165,51.454083]]]}},
{"type":"Feature","properties":{"highway":"cycleway","name":null,"category":"Dedicated cycleway"},"geometry":{"type":"MultiLineString","coordinates":[[[-0.0207005,51.4564568],[-0.020647,51.4564624]]]}},
{"type":"Feature","properties":{"highway":"cycleway","name":"Ladywell Road","category":"Dedicated cycleway"},"geometry":{"type":"MultiLineString","coordinates":[[[-0.020115,51.4566435],[-0.0200256,51.4566605],[-0.01995,51.4566862],[-0.0199212,51.4566932]]]}},
{"type":"Feature","properties":{"highway":"cycleway","name":null,"category":"Dedicated cycleway"},"geometry":{"type":"MultiLineString","coordinates":[[[-0.0187709,51.4555304],[-0.0188439,51.4557472],[-0.0188744,51.4558003]]]}},
{"type":"Feature","properties":{"highway":"cycleway","name":null,"category":"Dedicated cycleway"},"geometry":{"type":"MultiLineString","coordinates":[[[-0.0187361,51.455414],[-0.0187709,51.4555304]]]}},
{"type":"Feature","properties":{"highway":"cycleway","name":null,"category":"Dedicated cycleway"},"geometry":{"type":"MultiLineString","coordinates":[[[-0.0185067,51.4541607],[-0.0185437,51.4542708],[-0.0186246,51.454446],[-0.0186134,51.45461],[-0.0185683,51.4547315]]]}},
{"type":"Feature","properties":{"highway":"cycleway","name":null,"category":"Dedicated cycleway"},"geometry":{"type":"MultiLineString","coordinates":[[[-0.0185165,51.454083],[-0.0185067,51.4541607]]]}},
{"type":"Feature","properties":{"highway":"cycleway","name":null,"category":"Dedicated cycleway"},"geometry":{"type":"MultiLineString","coordinates":[[[-0.0132221,51.4577892],[-0.0131515,51.4577776],[-0.0130954,51.457768]]]}},
{"type":"Feature","properties":{"highway":"cycleway","name":null,"category":"Dedicated cycleway"},"geometry":{"type":"MultiLineString","coordinates":[[[-0.0133169,51.4578826],[-0.0132429,51.457867],[-0.0131903,51.4578557]]]}},
{"type":"Feature","properties":{"highway":"cycleway","name":null,"category":"Dedicated cycleway"},"geometry":{"type":"MultiLineString","coordinates":[[[-0.0131903,51.4578557],[-0.0132221,51.4577892]]]}},
{"type":"Feature","properties":{"highway":"cycleway","name":null,"category":"Dedicated cycleway"},"geometry":{"type":"MultiLineString","coordinates":[[[-0.0133712,51.4577892],[-0.0133169,51.4578826]]]}},
{"type":"Feature","properties":{"highway":"cycleway","name":null,"category":"Dedicated cycleway"},"geometry":{"type":"MultiLineString","coordinates":[[[-0.0130409,51.4578924],[-0.0130954,51.457768]]]}},
{"type":"Feature","properties":{"highway":"cycleway","name":null,"category":"Dedicated cycleway"},"geometry":{"type":"MultiLineString","coordinates":[[[-0.0133895,51.4577599],[-0.0133712,51.4577892]]]}},
{"type":"Feature","properties":{"highway":"cycleway","name":"Whitburn Road","category":"Dedicated cycleway"},"geometry":{"type":"MultiLineString","coordinates":[[[-0.0142913,51.4578321],[-0.0143255,51.4578321],[-0.0144053,51.4578196],[-0.0144568,51.4578323]]]}},
{"type":"Feature","properties":{"highway":"cycleway","name":"Whitburn Road","category":"Dedicated cycleway"},"geometry":{"type":"MultiLineString","coordinates":[[[-0.0134072,51.4577218],[-0.0136259,51.4577591],[-0.013784,51.4577819],[-0.0139713,51.4578089],[-0.0142053,51.4578335],[-0.0142913,51.4578321]]]}},
{"type":"Feature","properties":{"highway":"cycleway","name":null,"category":"Dedicated cycleway"},"geometry":{"type":"MultiLineString","coordinates":[[[-0.0182076,51.4564908],[-0.0182041,51.4565502]]]}},
{"type":"Feature","properties":{"highway":"cycleway","name":null,"category":"Dedicated cycleway"},"geometry":{"type":"MultiLineString","coordinates":[[[-0.0256341,51.4602174],[-0.0250432,51.460163],[-0.0248496,51.4601493],[-0.0246316,51.4601049],[-0.0244237,51.4600635]]]}},
{"type":"Feature","properties":{"highway":"cycleway","name":null,"category":"Dedicated cycleway"},"geometry":{"type":"MultiLineString","coordinates":[[[-0.0274445,51.4605918],[-0.0278542,51.4607405]]]}},
{"type":"Feature","properties":{"highway":"cycleway","name":"Ladywell Road","category":"Dedicated cycleway"},"geometry":{"type":"MultiLineString","coordinates":[[[-0.0206285,51.4564644],[-0.0205862,51.4564728],[-0.0200872,51.4565228]]]}},
{"type":"Feature","properties":{"highway":"cycleway","name":"Ken White Bridge","category":"Dedicated cycleway"},"geometry":{"type":"MultiLineString","coordinates":[[[-0.018248,51.4543109],[-0.018448,51.4542859],[-0.0185437,51.4542708]]]}},
{"type":"Feature","properties":{"highway":"cycleway","name":"Algernon Road","category":"Dedicated cycleway"},"geometry":{"type":"MultiLineString","coordinates":[[[-0.0199212,51.4566932],[-0.0199072,51.4567231],[-0.0198795,51.4567841]]]}},
{"type":"Feature","properties":{"highway":"cycleway","name":null,"category":"Dedicated cycleway"},"geometry":{"type":"MultiLineString","coordinates":[[[-0.0178266,51.4557288],[-0.0178198,51.4557383],[-0.017767,51.4558276],[-0.0177425,51.4558694],[-0.0177462,51.4559365],[-0.017777,51.4559887],[-0.0178129,51.4560427],[-0.0181891,51.4564362]]]}},
{"type":"Feature","properties":{"highway":"cycleway","name":null,"category":"Dedicated cycleway"},"geometry":{"type":"MultiLineString","coordinates":[[[-0.0178493,51.455696],[-0.0178266,51.4557288]]]}},
{"type":"Feature","properties":{"highway":"cycleway","name":null,"category":"Dedicated cycleway"},"geometry":{"type":"MultiLineString","coordinates":[[[-0.0130851,51.4579283],[-0.0130409,51.4578924]]]}},
{"type":"Feature","properties":{"highway":"cycleway","name":null,"category":"Dedicated cycleway"},"geometry":{"type":"MultiLineString","coordinates":[[[-0.0219566,51.4601668],[-0.0218504,51.4601713]]]}},
{"type":"Feature","properties":{"highway":"cycleway","name":null,"category":"Dedicated cycleway"},"geometry":{"type":"MultiLineString","coordinates":[[[-0.0243621,51.4617168],[-0.0241046,51.4615066],[-0.0240338,51.4612329],[-0.0240825,51.4607842],[-0.0240905,51.4607109],[-0.0240889,51.460545],[-0.0244237,51.4600635]]]}},
{"type":"Feature","properties":{"highway":"cycleway","name":null,"category":"Dedicated cycleway"},"geometry":{"type":"MultiLineString","coordinates":[[[-0.0244237,51.4600635],[-0.0246871,51.4596972],[-0.0247273,51.4596296]]]}},
{"type":"Feature","properties":{"highway":"cycleway","name":null,"category":"Dedicated cycleway"},"geometry":{"type":"MultiLineString","coordinates":[[[-0.0137511,51.4569422],[-0.0137237,51.4568717],[-0.0138157,51.4567925],[-0.013953,51.4566837],[-0.0140315,51.4566367],[-0.0141343,51.4566285]]]}},
{"type":"Feature","properties":{"highway":"path","name":null,"category":"Shared path"},"geometry":{"type":"MultiLineString","coordinates":[[[-0.0237115,51.4537804],[-0.0236284,51.4537179],[-0.0235163,51.4536199],[-0.0235788,51.453593]]]}},
{"type":"Feature","properties":{"highway":"cycleway","name":"Amyruth Road","category":"Dedicated cycleway"},"geometry":{"type":"MultiLineString","coordinates":[[[-0.0284244,51.4562844],[-0.0284054,51.4562368],[-0.0284207,51.4561706]]]}},
{"type":"Feature","properties":{"highway":"cycleway","name":null,"category":"Dedicated cycleway"},"geometry":{"type":"MultiLineString","coordinates":[[[-0.0134072,51.4577218],[-0.0133895,51.4577599]]]}},
{"type":"Feature","properties":{"highway":"cycleway","name":null,"category":"Dedicated cycleway"},"geometry":{"type":"MultiLineString","coordinates":[[[-0.0198795,51.4567841],[-0.0198111,51.4567936]]]}},
{"type":"Feature","properties":{"highway":"cycleway","name":null,"category":"Dedicated cycleway"},"geometry":{"type":"MultiLineString","coordinates":[[[-0.0181886,51.454219],[-0.0182119,51.4543122],[-0.0182324,51.4543428],[-0.0182376,51.4543602],[-0.0182347,51.4543745],[-0.0182292,51.4543879],[-0.0182216,51.4543975],[-0.0182075,51.454407],[-0.0181862,51.4544134],[-0.0181577,51.4544148],[-0.0181192,51.454409],[-0.0180838,51.4543903],[-0.0180653,51.4543702],[-0.0180538,51.4543538],[-0.0180427,51.4543372],[-0.0180335,51.4543107]]]}},
{"type":"Feature","properties":{"highway":"cycleway","name":null,"category":"Dedicated cycleway"},"geometry":{"type":"MultiLineString","coordinates":[[[-0.020647,51.4564624],[-0.0206285,51.4564644]]]}},
{"type":"Feature","properties":{"highway":"cycleway","name":null,"category":"Dedicated cycleway"},"geometry":{"type":"MultiLineString","coordinates":[[[-0.0201105,51.4566247],[-0.020115,51.4566435]]]}},
{"type":"Feature","properties":{"highway":"cycle_lane_on_street","name":"Lewisham High Street","category":"Cycle lane on street"},"geometry":{"type":"MultiLineString","coordinates":[[[-0.0145253,51.4564179],[-0.0146119,51.4563266],[-0.0146665,51.4562678],[-0.0147925,51.4561195],[-0.0148695,51.4560298],[-0.0149211,51.4559698],[-0.0150791,51.4557937],[-0.0151736,51.4556945],[-0.0152347,51.4556348],[-0.0154353,51.4554481],[-0.01547,51.455418],[-0.0155057,51.4553867],[-0.015545,51.4553509],[-0.0156191,51.4552786],[-0.0156921,51.4552005],[-0.0157444,51.4551223],[-0.0157853,51.4550449],[-0.0158583,51.4548445]]]}}
]
}
