{
"type": "FeatureCollection",
"name": "LEWIS_60_cycling",
"crs": { "type": "name", "properties": { "name": "urn:ogc:def:crs:OGC:1.3:CRS84" } },
"features": [
{"type":"Feature","properties":{"highway":"cycleway","name":null,"category":"Dedicated cycleway"},"geometry":{"type":"MultiLineString","coordinates":[[[-0.0294882,51.4338951],[-0.0293158,51.4339191],[-0.0291422,51.4339227],[-0.0288851,51.4338865]]]}},
{"type":"Feature","properties":{"highway":"cycleway","name":null,"category":"Dedicated cycleway"},"geometry":{"type":"MultiLineString","coordinates":[[[-0.0280325,51.4335781],[-0.0279274,51.433609]]]}},
{"type":"Feature","properties":{"highway":"cycleway","name":null,"category":"Dedicated cycleway"},"geometry":{"type":"MultiLineString","coordinates":[[[-0.0288851,51.4338865],[-0.0287478,51.433864]]]}},
{"type":"Feature","properties":{"highway":"cycleway","name":null,"category":"Dedicated cycleway"},"geometry":{"type":"MultiLineString","coordinates":[[[-0.0288851,51.4338865],[-0.0289286,51.4338582],[-0.0291796,51.4336948],[-0.0295608,51.4334485],[-0.029657,51.4333917],[-0.0295054,51.4332848],[-0.0294807,51.4332075],[-0.0295246,51.4331082],[-0.0295931,51.4330017],[-0.029639,51.4328857],[-0.0296363,51.4327869],[-0.0296127,51.4326879],[-0.0296498,51.4325971],[-0.0296906,51.4325491],[-0.0298353,51.4324012],[-0.0299582,51.4321949],[-0.0300853,51.4320131],[-0.0301879,51.4319149],[-0.0302491,51.4317758],[-0.0302924,51.4317173],[-0.0304448,51.4316556],[-0.0306375,51.4315213],[-0.030667,51.4315008],[-0.0309374,51.431295],[-0.0312074,51.4310306],[-0.0313523,51.4308408],[-0.0314374,51.4307457],[-0.0313372,51.4307201]]]}},
{"type":"Feature","properties":{"highway":"cycleway","name":null,"category":"Dedicated cycleway"},"geometry":{"type":"MultiLineString","coordinates":[[[-0.0326719,51.4285736],[-0.0327778,51.4285079],[-0.0328196,51.4284262],[-0.0329125,51.4281619],[-0.0329209,51.4281446]]]}},
{"type":"Feature","properties":{"highway":"cycleway","name":null,"category":"Dedicated cycleway"},"geometry":{"type":"MultiLineString","coordinates":[[[-0.0271091,51.4417372],[-0.0272181,51.4417927],[-0.0273711,51.4418409],[-0.0274295,51.4418812],[-0.0274555,51.4419246],[-0.0275665,51.4421602],[-0.0276104,51.4421948],[-0.0277399,51.4422404],[-0.0279008,51.442277],[-0.0279719,51.4422932]]]}},
{"type":"Feature","properties":{"highway":"cycleway","name":null,"category":"Dedicated cycleway"},"geometry":{"type":"MultiLineString","coordinates":[[[-0.0314374,51.4307457],[-0.0315076,51.4307763],[-0.0315581,51.4307983],[-0.0316114,51.4308215]]]}},
{"type":"Feature","properties":{"highway":"cycleway","name":null,"category":"Dedicated cycleway"},"geometry":{"type":"MultiLineString","coordinates":[[[-0.0271091,51.4417372],[-0.0270635,51.4416566],[-0.0270055,51.4415535],[-0.0270005,51.4414764],[-0.0269817,51.4413928],[-0.0269468,51.4412983],[-0.0268315,51.4411353],[-0.0267411,51.4409301],[-0.0267271,51.4408585],[-0.0267269,51.4407299],[-0.0267242,51.4406396],[-0.026696,51.4405518],[-0.0266424,51.4404415],[-0.0265696,51.440323],[-0.0264902,51.4402147],[-0.0264519,51.4401004],[-0.0264399,51.4400369],[-0.0264627,51.4399408],[-0.0264694,51.439868],[-0.0264278,51.4397451],[-0.026384,51.4396949]]]}},
{"type":"Feature","properties":{"highway":"cycleway","name":null,"category":"Dedicated cycleway"},"geometry":{"type":"MultiLineString","coordinates":[[[-0.0267558,51.4420802],[-0.0269264,51.4420641]]]}},
{"type":"Feature","properties":{"highway":"cycleway","name":null,"category":"Dedicated cycleway"},"geometry":{"type":"MultiLineString","coordinates":[[[-0.0284499,51.4337667],[-0.0282874,51.433711],[-0.0281843,51.4336757]]]}},
{"type":"Feature","properties":{"highway":"cycleway","name":null,"category":"Dedicated cycleway"},"geometry":{"type":"MultiLineString","coordinates":[[[-0.0325716,51.4286171],[-0.0326719,51.4285736]]]}},
{"type":"Feature","properties":{"highway":"cycleway","name":null,"category":"Dedicated cycleway"},"geometry":{"type":"MultiLineString","coordinates":[[[-0.0313372,51.4307201],[-0.031148,51.4306708]]]}},
{"type":"Feature","properties":{"highway":"cycleway","name":null,"category":"Dedicated cycleway"},"geometry":{"type":"MultiLineString","coordinates":[[[-0.031148,51.4306708],[-0.0310719,51.4306498],[-0.031337,51.430357],[-0.0314565,51.4302602],[-0.0315674,51.4300518],[-0.0316784,51.4299666],[-0.0318509,51.4298361],[-0.0319495,51.429777],[-0.0319889,51.4297069],[-0.0320085,51.4295228],[-0.0320274,51.4294361],[-0.0321705,51.4291952],[-0.032307,51.429044],[-0.0324195,51.4288871],[-0.0324804,51.4287301],[-0.0325153,51.4286415]]]}},
{"type":"Feature","properties":{"highway":"cycleway","name":null,"category":"Dedicated cycleway"},"geometry":{"type":"MultiLineString","coordinates":[[[-0.031395,51.4335293],[-0.0313003,51.4335361],[-0.0312841,51.4335398],[-0.0312148,51.4335554],[-0.0308859,51.4335575],[-0.0305037,51.4335016],[-0.0303575,51.4334229],[-0.0301415,51.4332923],[-0.0300584,51.4332695],[-0.0299432,51.4332763],[-0.0297988,51.4333198],[-0.029657,51.4333917]]]}},
{"type":"Feature","properties":{"highway":"cycleway","name":null,"category":"Dedicated cycleway"},"geometry":{"type":"MultiLineString","coordinates":[[[-0.0262391,51.4396317],[-0.0261459,51.439579],[-0.02611,51.4395119],[-0.0261207,51.4394576],[-0.0261549,51.4393274],[-0.026271,51.4390573],[-0.0264519,51.4387085],[-0.0265767,51.4384619],[-0.0266633,51.4382831],[-0.026699,51.4381148],[-0.0266918,51.4378776],[-0.0266408,51.4374888],[-0.0265925,51.4371791],[-0.0266015,51.4370311],[-0.0266413,51.436899],[-0.0266826,51.4366817],[-0.0267711,51.436392],[-0.0269133,51.4360375],[-0.0272883,51.4352251],[-0.0276235,51.434636],[-0.0281186,51.4338742],[-0.0282255,51.4338081],[-0.0282647,51.4337991],[-0.0283291,51.4337909],[-0.0284499,51.4337667]]]}},
{"type":"Feature","properties":{"highway":"cycleway","name":null,"category":"Dedicated cycleway"},"geometry":{"type":"MultiLineString","coordinates":[[[-0.0285516,51.4338022],[-0.0284499,51.4337667]]]}},
{"type":"Feature","properties":{"highway":"cycleway","name":null,"category":"Dedicated cycleway"},"geometry":{"type":"MultiLineString","coordinates":[[[-0.0287478,51.433864],[-0.0285516,51.4338022]]]}},
{"type":"Feature","properties":{"highway":"cycleway","name":null,"category":"Dedicated cycleway"},"geometry":{"type":"MultiLineString","coordinates":[[[-0.0316917,51.4284765],[-0.0319611,51.4284742],[-0.0321542,51.428491]]]}},
{"type":"Feature","properties":{"highway":"path","name":null,"category":"Shared path"},"geometry":{"type":"MultiLineString","coordinates":[[[-0.0355024,51.429665],[-0.035454,51.429686],[-0.0351296,51.429699],[-0.0343551,51.4297292],[-0.03424,51.4297375],[-0.0342154,51.4297393]]]}},
{"type":"Feature","properties":{"highway":"path","name":null,"category":"Shared path"},"geometry":{"type":"MultiLineString","coordinates":[[[-0.0341945,51.4295389],[-0.0342285,51.4295377],[-0.03424,51.4297375],[-0.0342547,51.4299911],[-0.0341613,51.4299956],[-0.0342317,51.4306675],[-0.0344868,51.4306484],[-0.0345026,51.4306656],[-0.0342916,51.4306892],[-0.0334401,51.4307256],[-0.032867,51.4307476],[-0.0324638,51.4307557],[-0.0319243,51.4307371],[-0.0317555,51.430731],[-0.0316416,51.4307385],[-0.0315581,51.4307983],[-0.0315214,51.430853],[-0.0315345,51.4309127],[-0.0315432,51.4309322],[-0.0316341,51.4309996],[-0.0317573,51.4310156],[-0.0318327,51.4310117],[-0.031975,51.4310043],[-0.0324943,51.4308932],[-0.0326125,51.4308351],[-0.032879,51.4308328]]]}},
{"type":"Feature","properties":{"highway":"path","name":null,"category":"Shared path"},"geometry":{"type":"MultiLineString","coordinates":[[[-0.0343404,51.4315328],[-0.034332,51.4314668]]]}},
{"type":"Feature","properties":{"highway":"cycleway","name":null,"category":"Dedicated cycleway"},"geometry":{"type":"MultiLineString","coordinates":[[[-0.0331189,51.4278093],[-0.0331488,51.427792],[-0.0331518,51.4277423]]]}},
{"type":"Feature","properties":{"highway":"cycleway","name":null,"category":"Dedicated cycleway"},"geometry":{"type":"MultiLineString","coordinates":[[[-0.0328414,51.4281176],[-0.0328528,51.4280851],[-0.0328649,51.4280503]]]}},
{"type":"Feature","properties":{"highway":"cycleway","name":null,"category":"Dedicated cycleway"},"geometry":{"type":"MultiLineString","coordinates":[[[-0.032884,51.4281373],[-0.0328371,51.4281298]]]}},
{"type":"Feature","properties":{"highway":"cycleway","name":null,"category":"Dedicated cycleway"},"geometry":{"type":"MultiLineString","coordinates":[[[-0.033002,51.4280345],[-0.0330412,51.4280396]]]}},
{"type":"Feature","properties":{"highway":"cycleway","name":null,"category":"Dedicated cycleway"},"geometry":{"type":"MultiLineString","coordinates":[[[-0.0328722,51.4280296],[-0.032961,51.4280362],[-0.032979,51.4280316]]]}},
{"type":"Feature","properties":{"highway":"cycleway","name":null,"category":"Dedicated cycleway"},"geometry":{"type":"MultiLineString","coordinates":[[[-0.0321542,51.428491],[-0.0323634,51.4285211]]]}},
{"type":"Feature","properties":{"highway":"cycleway","name":null,"category":"Dedicated cycleway"},"geometry":{"type":"MultiLineString","coordinates":[[[-0.0323634,51.4285211],[-0.032486,51.4285802],[-0.0325153,51.4286415]]]}},
{"type":"Feature","properties":{"highway":"track","name":null,"category":"Track"},"geometry":{"type":"MultiLineString","coordinates":[[[-0.0265812,51.4326703],[-0.0263892,51.4326159],[-0.026203,51.4325619],[-0.0260838,51.4325322],[-0.0259322,51.4325011],[-0.0258998,51.4325025],[-0.0258716,51.4325119],[-0.0258499,51.4325268],[-0.0258413,51.4325457]]]}},
{"type":"Feature","properties":{"highway":"track","name":null,"category":"Track"},"geometry":{"type":"MultiLineString","coordinates":[[[-0.0225105,51.4328158],[-0.0224724,51.432668],[-0.0224297,51.4325459],[-0.0224075,51.4324765],[-0.0224176,51.4324285],[-0.0224358,51.4324197],[-0.0225289,51.4324071],[-0.0227475,51.4324008]]]}},
{"type":"Feature","properties":{"highway":"track","name":null,"category":"Track"},"geometry":{"type":"MultiLineString","coordinates":[[[-0.0256413,51.4363303],[-0.0256865,51.436046],[-0.025685,51.4360236],[-0.0256736,51.4360054],[-0.0256526,51.4359892],[-0.0255246,51.4359226]]]}},
{"type":"Feature","properties":{"highway":"track","name":null,"category":"Track"},"geometry":{"type":"MultiLineString","coordinates":[[[-0.0251342,51.4352441],[-0.0252946,51.4350254],[-0.025349,51.4349628],[-0.0253743,51.4349471],[-0.0254057,51.4349392],[-0.0254392,51.4349379]]]}},
{"type":"Feature","properties":{"highway":"track","name":null,"category":"Track"},"geometry":{"type":"MultiLineString","coordinates":[[[-0.0290039,51.4293531],[-0.0286631,51.4291578],[-0.0283474,51.4290081],[-0.0281952,51.4289359],[-0.02802,51.4288572],[-0.0278372,51.4287672],[-0.0275941,51.4286558],[-0.0274437,51.4286011]]]}},
{"type":"Feature","properties":{"highway":"cycleway","name":null,"category":"Dedicated cycleway"},"geometry":{"type":"MultiLineString","coordinates":[[[-0.0303776,51.4403547],[-0.0304473,51.4404029],[-0.0304777,51.4404357]]]}},
{"type":"Feature","properties":{"highway":"cycleway","name":null,"category":"Dedicated cycleway"},"geometry":{"type":"MultiLineString","coordinates":[[[-0.0269264,51.4420641],[-0.026975,51.4420724],[-0.0270269,51.4420712],[-0.0271232,51.4419652],[-0.0271382,51.4418538],[-0.0271091,51.4417372]]]}},
{"type":"Feature","properties":{"highway":"cycleway","name":null,"category":"Dedicated cycleway"},"geometry":{"type":"MultiLineString","coordinates":[[[-0.032979,51.4280316],[-0.033002,51.4280345]]]}},
{"type":"Feature","properties":{"highway":"cycleway","name":null,"category":"Dedicated cycleway"},"geometry":{"type":"MultiLineString","coordinates":[[[-0.0328371,51.4281298],[-0.0328414,51.4281176]]]}},
{"type":"Feature","properties":{"highway":"cycleway","name":null,"category":"Dedicated cycleway"},"geometry":{"type":"MultiLineString","coordinates":[[[-0.0328649,51.4280503],[-0.0328722,51.4280296]]]}},
{"type":"Feature","properties":{"highway":"cycleway","name":null,"category":"Dedicated cycleway"},"geometry":{"type":"MultiLineString","coordinates":[[[-0.0330068,51.4281085],[-0.0329742,51.4281472]]]}},
{"type":"Feature","properties":{"highway":"cycleway","name":null,"category":"Dedicated cycleway"},"geometry":{"type":"MultiLineString","coordinates":[[[-0.0330036,51.4281595],[-0.0329707,51.4281535],[-0.0329209,51.4281446]]]}},
{"type":"Feature","properties":{"highway":"cycleway","name":null,"category":"Dedicated cycleway"},"geometry":{"type":"MultiLineString","coordinates":[[[-0.0329742,51.4281472],[-0.0329707,51.4281535]]]}},
{"type":"Feature","properties":{"highway":"cycleway","name":null,"category":"Dedicated cycleway"},"geometry":{"type":"MultiLineString","coordinates":[[[-0.0329209,51.4281446],[-0.032884,51.4281373]]]}},
{"type":"Feature","properties":{"highway":"path","name":null,"category":"Shared path"},"geometry":{"type":"MultiLineString","coordinates":[[[-0.0339068,51.4295438],[-0.0339075,51.4295571],[-0.0341945,51.4295389]]]}},
{"type":"Feature","properties":{"highway":"path","name":null,"category":"Shared path"},"geometry":{"type":"MultiLineString","coordinates":[[[-0.0339078,51.4295231],[-0.0339068,51.4295438]]]}},
{"type":"Feature","properties":{"highway":"cycleway","name":null,"category":"Dedicated cycleway"},"geometry":{"type":"MultiLineString","coordinates":[[[-0.0325153,51.4286415],[-0.0325716,51.4286171]]]}},
{"type":"Feature","properties":{"highway":"cycleway","name":null,"category":"Dedicated cycleway"},"geometry":{"type":"MultiLineString","coordinates":[[[-0.0330315,51.4388973],[-0.033098,51.4389142],[-0.0331799,51.4389333]]]}},
{"type":"Feature","properties":{"highway":"cycleway","name":null,"category":"Dedicated cycleway"},"geometry":{"type":"MultiLineString","coordinates":[[[-0.0332969,51.4390373],[-0.0332784,51.4390789],[-0.0332536,51.4391351]]]}},
{"type":"Feature","properties":{"highway":"cycleway","name":null,"category":"Dedicated cycleway"},"geometry":{"type":"MultiLineString","coordinates":[[[-0.0333017,51.4390265],[-0.0332969,51.4390373]]]}},
{"type":"Feature","properties":{"highway":"cycleway","name":null,"category":"Dedicated cycleway"},"geometry":{"type":"MultiLineString","coordinates":[[[-0.0332536,51.4391351],[-0.0332502,51.4391427]]]}},
{"type":"Feature","properties":{"highway":"cycleway","name":null,"category":"Dedicated cycleway"},"geometry":{"type":"MultiLineString","coordinates":[[[-0.0331341,51.4390915],[-0.0331304,51.4391027],[-0.0331265,51.4391146],[-0.0331194,51.4391362]]]}},
{"type":"Feature","properties":{"highway":"cycleway","name":null,"category":"Dedicated cycleway"},"geometry":{"type":"MultiLineString","coordinates":[[[-0.0331586,51.4390495],[-0.0331341,51.4390915]]]}},
{"type":"Feature","properties":{"highway":"cycleway","name":null,"category":"Dedicated cycleway"},"geometry":{"type":"MultiLineString","coordinates":[[[-0.0331194,51.4391362],[-0.0330722,51.4391775]]]}}
]
}
