{
"type": "FeatureCollection",
"name": "WANDS_22",
"crs": { "type": "name", "properties": { "name": "urn:ogc:def:crs:OGC:1.3:CRS84" } },
"features": [
{ "type": "Feature", "properties": { "osm_id": 7382994325, "name": null, "amenity": "bench", "man_made": null, "leisure": null, "playground": null, "memorial": null }, "geometry": { "type": "Point", "coordinates": [ -0.2010196, 51.460911 ] } },
{ "type": "Feature", "properties": { "osm_id": 7382994322, "name": null, "amenity": "bench", "man_made": null, "leisure": null, "playground": null, "memorial": null }, "geometry": { "type": "Point", "coordinates": [ -0.2013676, 51.4611042 ] } },
{ "type": "Feature", "properties": { "osm_id": 7382994326, "name": null, "amenity": "bench", "man_made": null, "leisure": null, "playground": null, "memorial": null }, "geometry": { "type": "Point", "coordinates": [ -0.2014672, 51.461217 ] } },
{ "type": "Feature", "properties": { "osm_id": 7382994319, "name": null, "amenity": "bench", "man_made": null, "leisure": null, "playground": null, "memorial": null }, "geometry": { "type": "Point", "coordinates": [ -0.2010238, 51.4612659 ] } },
{ "type": "Feature", "properties": { "osm_id": 7382994323, "name": null, "amenity": "bench", "man_made": null, "leisure": null, "playground": null, "memorial": null }, "geometry": { "type": "Point", "coordinates": [ -0.201181, 51.4613507 ] } },
{ "type": "Feature", "properties": { "osm_id": 7859506344, "name": null, "amenity": "bench", "man_made": null, "leisure": null, "playground": null, "memorial": null }, "geometry": { "type": "Point", "coordinates": [ -0.2030787, 51.4613557 ] } },
{ "type": "Feature", "properties": { "osm_id": 7859506347, "name": null, "amenity": "bench", "man_made": null, "leisure": null, "playground": null, "memorial": null }, "geometry": { "type": "Point", "coordinates": [ -0.2034381, 51.4614298 ] } },
{ "type": "Feature", "properties": { "osm_id": 7859506342, "name": null, "amenity": "bench", "man_made": null, "leisure": null, "playground": null, "memorial": null }, "geometry": { "type": "Point", "coordinates": [ -0.2037842, 51.4615143 ] } },
{ "type": "Feature", "properties": { "osm_id": 7859506340, "name": null, "amenity": "bench", "man_made": null, "leisure": null, "playground": null, "memorial": null }, "geometry": { "type": "Point", "coordinates": [ -0.2042458, 51.4616358 ] } },
{ "type": "Feature", "properties": { "osm_id": 7859506346, "name": null, "amenity": "bench", "man_made": null, "leisure": null, "playground": null, "memorial": null }, "geometry": { "type": "Point", "coordinates": [ -0.2045731, 51.4617331 ] } },
{ "type": "Feature", "properties": { "osm_id": 6382062455, "name": null, "amenity": "bench", "man_made": null, "leisure": null, "playground": null, "memorial": null }, "geometry": { "type": "Point", "coordinates": [ -0.2010699, 51.4618643 ] } },
{ "type": "Feature", "properties": { "osm_id": 7859506343, "name": null, "amenity": "bench", "man_made": null, "leisure": null, "playground": null, "memorial": null }, "geometry": { "type": "Point", "coordinates": [ -0.2052643, 51.4619111 ] } },
{ "type": "Feature", "properties": { "osm_id": 7382994320, "name": null, "amenity": "bench", "man_made": null, "leisure": null, "playground": null, "memorial": null }, "geometry": { "type": "Point", "coordinates": [ -0.2009326, 51.4619755 ] } },
{ "type": "Feature", "properties": { "osm_id": 7859506339, "name": null, "amenity": "bench", "man_made": null, "leisure": null, "playground": null, "memorial": null }, "geometry": { "type": "Point", "coordinates": [ -0.2056415, 51.4619818 ] } },
{ "type": "Feature", "properties": { "osm_id": 7859506345, "name": null, "amenity": "bench", "man_made": null, "leisure": null, "playground": null, "memorial": null }, "geometry": { "type": "Point", "coordinates": [ -0.2060903, 51.4620657 ] } },
{ "type": "Feature", "properties": { "osm_id": 7382994327, "name": null, "amenity": "bench", "man_made": null, "leisure": null, "playground": null, "memorial": null }, "geometry": { "type": "Point", "coordinates": [ -0.2015687, 51.4621559 ] } },
{ "type": "Feature", "properties": { "osm_id": 7382994324, "name": null, "amenity": "bench", "man_made": null, "leisure": null, "playground": null, "memorial": null }, "geometry": { "type": "Point", "coordinates": [ -0.2013213, 51.4623829 ] } },
{ "type": "Feature", "properties": { "osm_id": 7382994321, "name": null, "amenity": "bench", "man_made": null, "leisure": null, "playground": null, "memorial": null }, "geometry": { "type": "Point", "coordinates": [ -0.2017226, 51.4623969 ] } },
{ "type": "Feature", "properties": { "osm_id": 7382994328, "name": null, "amenity": "bench", "man_made": null, "leisure": null, "playground": null, "memorial": null }, "geometry": { "type": "Point", "coordinates": [ -0.2018755, 51.4625508 ] } },
{ "type": "Feature", "properties": { "osm_id": 7538737892, "name": null, "amenity": "bench", "man_made": null, "leisure": null, "playground": null, "memorial": null }, "geometry": { "type": "Point", "coordinates": [ -0.2026474, 51.462728 ] } },
{ "type": "Feature", "properties": { "osm_id": 7538737898, "name": null, "amenity": "bench", "man_made": null, "leisure": null, "playground": null, "memorial": null }, "geometry": { "type": "Point", "coordinates": [ -0.2029785, 51.4627716 ] } },
{ "type": "Feature", "properties": { "osm_id": 7538737896, "name": null, "amenity": "bench", "man_made": null, "leisure": null, "playground": null, "memorial": null }, "geometry": { "type": "Point", "coordinates": [ -0.2020215, 51.4629094 ] } },
{ "type": "Feature", "properties": { "osm_id": 7538737888, "name": null, "amenity": "bench", "man_made": null, "leisure": null, "playground": null, "memorial": null }, "geometry": { "type": "Point", "coordinates": [ -0.2025867, 51.462977 ] } },
{ "type": "Feature", "properties": { "osm_id": 7538737890, "name": null, "amenity": "bench", "man_made": null, "leisure": null, "playground": null, "memorial": null }, "geometry": { "type": "Point", "coordinates": [ -0.2041881, 51.4630214 ] } },
{ "type": "Feature", "properties": { "osm_id": 7538737895, "name": null, "amenity": "bench", "man_made": null, "leisure": null, "playground": null, "memorial": null }, "geometry": { "type": "Point", "coordinates": [ -0.2045397, 51.4630822 ] } },
{ "type": "Feature", "properties": { "osm_id": 7538737894, "name": null, "amenity": "bench", "man_made": null, "leisure": null, "playground": null, "memorial": null }, "geometry": { "type": "Point", "coordinates": [ -0.2034546, 51.4631069 ] } },
{ "type": "Feature", "properties": { "osm_id": 7538737901, "name": null, "amenity": "bench", "man_made": null, "leisure": null, "playground": null, "memorial": null }, "geometry": { "type": "Point", "coordinates": [ -0.2053352, 51.4631381 ] } },
{ "type": "Feature", "properties": { "osm_id": 7476889380, "name": null, "amenity": "bench", "man_made": null, "leisure": null, "playground": null, "memorial": null }, "geometry": { "type": "Point", "coordinates": [ -0.2057427, 51.4632044 ] } },
{ "type": "Feature", "properties": { "osm_id": 7476889381, "name": null, "amenity": "bench", "man_made": null, "leisure": null, "playground": null, "memorial": null }, "geometry": { "type": "Point", "coordinates": [ -0.2058093, 51.4632198 ] } },
{ "type": "Feature", "properties": { "osm_id": 7538737900, "name": null, "amenity": "bench", "man_made": null, "leisure": null, "playground": null, "memorial": null }, "geometry": { "type": "Point", "coordinates": [ -0.2041108, 51.4632263 ] } },
{ "type": "Feature", "properties": { "osm_id": 9124492694, "name": null, "amenity": "bench", "man_made": null, "leisure": null, "playground": null, "memorial": null }, "geometry": { "type": "Point", "coordinates": [ -0.2071896, 51.4632783 ] } },
{ "type": "Feature", "properties": { "osm_id": 7538737891, "name": null, "amenity": "bench", "man_made": null, "leisure": null, "playground": null, "memorial": null }, "geometry": { "type": "Point", "coordinates": [ -0.2049119, 51.4633729 ] } },
{ "type": "Feature", "properties": { "osm_id": 9124492683, "name": null, "amenity": "bench", "man_made": null, "leisure": null, "playground": null, "memorial": null }, "geometry": { "type": "Point", "coordinates": [ -0.2063732, 51.463546 ] } },
{ "type": "Feature", "properties": { "osm_id": 7538737897, "name": null, "amenity": "bench", "man_made": null, "leisure": null, "playground": null, "memorial": null }, "geometry": { "type": "Point", "coordinates": [ -0.2062667, 51.4636116 ] } },
{ "type": "Feature", "properties": { "osm_id": 7538737893, "name": null, "amenity": "bench", "man_made": null, "leisure": null, "playground": null, "memorial": null }, "geometry": { "type": "Point", "coordinates": [ -0.207192, 51.463629 ] } },
{ "type": "Feature", "properties": { "osm_id": 9124492674, "name": null, "amenity": "bench", "man_made": null, "leisure": null, "playground": null, "memorial": null }, "geometry": { "type": "Point", "coordinates": [ -0.2067961, 51.4637276 ] } }
]
}
