{
"type": "FeatureCollection",
"name": "4c3e70fcfd64_foliage",
"crs": { "type": "name", "properties": { "name": "urn:ogc:def:crs:OGC:1.3:CRS84" } },
"features": [
{ "type": "Feature", "properties": { "max_height": 3.9287509918212891, "mean_height": 1.4159308671951294, "std_height": 1.2357350587844849, "count_pixels": 43, "percent_cover": 0.38854251377970545, "percent_above_0.1m": 83.720930232558146, "low_level_<0.5": 13.953488372093023, "mid_level_0.5-2": 30.232558139534881, "tall_2+": 30.232558139534881 }, "geometry": { "type": "Point", "coordinates": [ -0.011303993104413, 51.598972701604268 ] } },
{ "type": "Feature", "properties": { "max_height": 12.207002639770508, "mean_height": 2.9755368232727051, "std_height": 2.8615322113037109, "count_pixels": 42, "percent_cover": 0.37950664136622392, "percent_above_0.1m": 80.952380952380949, "low_level_<0.5": 9.5238095238095237, "mid_level_0.5-2": 14.285714285714285, "tall_2+": 57.142857142857139 }, "geometry": { "type": "Point", "coordinates": [ -0.011104063492598, 51.59896931187685 ] } },
{ "type": "Feature", "properties": { "max_height": 9.9775009155273438, "mean_height": 2.7562248706817627, "std_height": 3.0925838947296143, "count_pixels": 38, "percent_cover": 0.34336315171229781, "percent_above_0.1m": 68.421052631578945, "low_level_<0.5": 2.6315789473684208, "mid_level_0.5-2": 23.684210526315788, "tall_2+": 42.105263157894733 }, "geometry": { "type": "Point", "coordinates": [ -0.010904133918563, 51.598965921809018 ] } },
{ "type": "Feature", "properties": { "max_height": 14.362752914428711, "mean_height": 3.3484892845153809, "std_height": 3.7276520729064941, "count_pixels": 42, "percent_cover": 0.37950664136622392, "percent_above_0.1m": 61.904761904761905, "low_level_<0.5": 2.3809523809523809, "mid_level_0.5-2": 9.5238095238095237, "tall_2+": 50.0 }, "geometry": { "type": "Point", "coordinates": [ -0.010704204382313, 51.598962531400801 ] } },
{ "type": "Feature", "properties": { "max_height": 15.516250610351562, "mean_height": 1.506381630897522, "std_height": 3.2112507820129395, "count_pixels": 42, "percent_cover": 0.37950664136622392, "percent_above_0.1m": 28.571428571428569, "low_level_<0.5": 2.3809523809523809, "mid_level_0.5-2": 4.7619047619047619, "tall_2+": 21.428571428571427 }, "geometry": { "type": "Point", "coordinates": [ -0.010504274883857, 51.598959140652155 ] } },
{ "type": "Feature", "properties": { "max_height": 7.5489997863769531, "mean_height": 1.7439031600952148, "std_height": 2.4605224132537842, "count_pixels": 41, "percent_cover": 0.37047076895274239, "percent_above_0.1m": 68.292682926829272, "low_level_<0.5": 17.073170731707318, "mid_level_0.5-2": 19.512195121951219, "tall_2+": 26.829268292682929 }, "geometry": { "type": "Point", "coordinates": [ -0.011399251427079, 51.599082224378698 ] } },
{ "type": "Feature", "properties": { "max_height": 8.5215015411376953, "mean_height": 2.8448545932769775, "std_height": 2.6560409069061279, "count_pixels": 41, "percent_cover": 0.37047076895274239, "percent_above_0.1m": 75.609756097560975, "low_level_<0.5": 4.8780487804878048, "mid_level_0.5-2": 21.951219512195124, "tall_2+": 48.780487804878049 }, "geometry": { "type": "Point", "coordinates": [ -0.011199321344966, 51.599078834809021 ] } },
{ "type": "Feature", "properties": { "max_height": 1.4470005035400391, "mean_height": 0.037429310381412506, "std_height": 0.22024711966514587, "count_pixels": 42, "percent_cover": 0.37950664136622392, "percent_above_0.1m": 2.3809523809523809, "low_level_<0.5": 0.0, "mid_level_0.5-2": 2.3809523809523809, "tall_2+": 0.0 }, "geometry": { "type": "Point", "coordinates": [ -0.010999391300628, 51.599075444898943 ] } },
{ "type": "Feature", "properties": { "max_height": 0.80224990844726562, "mean_height": 0.024238768965005875, "std_height": 0.12590362131595612, "count_pixels": 42, "percent_cover": 0.37950664136622392, "percent_above_0.1m": 4.7619047619047619, "low_level_<0.5": 2.3809523809523809, "mid_level_0.5-2": 2.3809523809523809, "tall_2+": 0.0 }, "geometry": { "type": "Point", "coordinates": [ -0.010799461294076, 51.599072054648452 ] } },
{ "type": "Feature", "properties": { "max_height": 8.5652503967285156, "mean_height": 1.18372642993927, "std_height": 2.4024567604064941, "count_pixels": 41, "percent_cover": 0.37047076895274239, "percent_above_0.1m": 29.268292682926827, "low_level_<0.5": 7.3170731707317067, "mid_level_0.5-2": 2.4390243902439024, "tall_2+": 19.512195121951219 }, "geometry": { "type": "Point", "coordinates": [ -0.010599531325311, 51.599068664057548 ] } },
{ "type": "Feature", "properties": { "max_height": 9.5060014724731445, "mean_height": 2.9615602493286133, "std_height": 2.9335622787475586, "count_pixels": 42, "percent_cover": 0.37950664136622392, "percent_above_0.1m": 69.047619047619051, "low_level_<0.5": 2.3809523809523809, "mid_level_0.5-2": 14.285714285714285, "tall_2+": 52.380952380952387 }, "geometry": { "type": "Point", "coordinates": [ -0.01039960139434, 51.599065273126257 ] } },
{ "type": "Feature", "properties": { "max_height": 4.2450008392333984, "mean_height": 1.2583162784576416, "std_height": 1.3863760232925415, "count_pixels": 42, "percent_cover": 0.37950664136622392, "percent_above_0.1m": 59.523809523809526, "low_level_<0.5": 7.1428571428571423, "mid_level_0.5-2": 14.285714285714285, "tall_2+": 35.714285714285715 }, "geometry": { "type": "Point", "coordinates": [ -0.010199671501161, 51.59906188185456 ] } },
{ "type": "Feature", "properties": { "max_height": 2.8250017166137695, "mean_height": 0.57639604806900024, "std_height": 0.88217383623123169, "count_pixels": 43, "percent_cover": 0.38854251377970545, "percent_above_0.1m": 41.860465116279073, "low_level_<0.5": 11.627906976744185, "mid_level_0.5-2": 16.279069767441861, "tall_2+": 11.627906976744185 }, "geometry": { "type": "Point", "coordinates": [ -0.009999741645785, 51.599058490242463 ] } },
{ "type": "Feature", "properties": { "max_height": 3.7990016937255859, "mean_height": 0.60045939683914185, "std_height": 0.96158862113952637, "count_pixels": 42, "percent_cover": 0.37950664136622392, "percent_above_0.1m": 40.476190476190474, "low_level_<0.5": 9.5238095238095237, "mid_level_0.5-2": 21.428571428571427, "tall_2+": 9.5238095238095237 }, "geometry": { "type": "Point", "coordinates": [ -0.009799811828206, 51.599055098289973 ] } },
{ "type": "Feature", "properties": { "max_height": 3.0552501678466797, "mean_height": 0.33636274933815002, "std_height": 0.68885141611099243, "count_pixels": 38, "percent_cover": 0.34336315171229781, "percent_above_0.1m": 31.578947368421051, "low_level_<0.5": 7.8947368421052628, "mid_level_0.5-2": 13.157894736842104, "tall_2+": 5.2631578947368416 }, "geometry": { "type": "Point", "coordinates": [ -0.009599882048437, 51.599051705997077 ] } },
{ "type": "Feature", "properties": { "max_height": 2.4702510833740234, "mean_height": 0.36996519565582275, "std_height": 0.5978732705116272, "count_pixels": 42, "percent_cover": 0.37950664136622392, "percent_above_0.1m": 45.238095238095241, "low_level_<0.5": 14.285714285714285, "mid_level_0.5-2": 21.428571428571427, "tall_2+": 2.3809523809523809 }, "geometry": { "type": "Point", "coordinates": [ -0.009399952306476, 51.599048313363774 ] } },
{ "type": "Feature", "properties": { "max_height": 8.9017515182495117, "mean_height": 2.5177102088928223, "std_height": 2.9033811092376709, "count_pixels": 43, "percent_cover": 0.38854251377970545, "percent_above_0.1m": 76.744186046511629, "low_level_<0.5": 9.3023255813953494, "mid_level_0.5-2": 23.255813953488371, "tall_2+": 39.534883720930232 }, "geometry": { "type": "Point", "coordinates": [ -0.011294579629831, 51.599188357666293 ] } },
{ "type": "Feature", "properties": { "max_height": 5.5192508697509766, "mean_height": 0.54531031847000122, "std_height": 1.291508674621582, "count_pixels": 42, "percent_cover": 0.37950664136622392, "percent_above_0.1m": 23.809523809523807, "low_level_<0.5": 0.0, "mid_level_0.5-2": 11.904761904761903, "tall_2+": 11.904761904761903 }, "geometry": { "type": "Point", "coordinates": [ -0.011094649115194, 51.599184967913935 ] } },
{ "type": "Feature", "properties": { "max_height": 0.43350028991699219, "mean_height": 0.030849481001496315, "std_height": 0.098845772445201874, "count_pixels": 38, "percent_cover": 0.34336315171229781, "percent_above_0.1m": 7.8947368421052628, "low_level_<0.5": 7.8947368421052628, "mid_level_0.5-2": 0.0, "tall_2+": 0.0 }, "geometry": { "type": "Point", "coordinates": [ -0.010894718638335, 51.599181577821192 ] } },
{ "type": "Feature", "properties": { "max_height": 0.40925025939941406, "mean_height": 0.019054185599088669, "std_height": 0.07676880806684494, "count_pixels": 42, "percent_cover": 0.37950664136622392, "percent_above_0.1m": 4.7619047619047619, "low_level_<0.5": 4.7619047619047619, "mid_level_0.5-2": 0.0, "tall_2+": 0.0 }, "geometry": { "type": "Point", "coordinates": [ -0.010694788199262, 51.599178187388027 ] } },
{ "type": "Feature", "properties": { "max_height": 0.01300048828125, "mean_height": 0.000697158626280725, "std_height": 0.0042090010829269886, "count_pixels": 42, "percent_cover": 0.37950664136622392, "percent_above_0.1m": 0.0, "low_level_<0.5": 0.0, "mid_level_0.5-2": 0.0, "tall_2+": 0.0 }, "geometry": { "type": "Point", "coordinates": [ -0.010494857797984, 51.599174796614477 ] } },
{ "type": "Feature", "properties": { "max_height": 5.5020017623901367, "mean_height": 0.58891749382019043, "std_height": 1.3257464170455933, "count_pixels": 42, "percent_cover": 0.37950664136622392, "percent_above_0.1m": 23.809523809523807, "low_level_<0.5": 2.3809523809523809, "mid_level_0.5-2": 9.5238095238095237, "tall_2+": 11.904761904761903 }, "geometry": { "type": "Point", "coordinates": [ -0.010294927434496, 51.59917140550052 ] } },
{ "type": "Feature", "properties": { "max_height": 0.11800003051757812, "mean_height": 0.0070555848069489002, "std_height": 0.018394650891423225, "count_pixels": 41, "percent_cover": 0.37047076895274239, "percent_above_0.1m": 2.4390243902439024, "low_level_<0.5": 0.0, "mid_level_0.5-2": 0.0, "tall_2+": 0.0 }, "geometry": { "type": "Point", "coordinates": [ -0.010094997108805, 51.599168014046164 ] } },
{ "type": "Feature", "properties": { "max_height": 1.4300003051757812, "mean_height": 0.0362812839448452, "std_height": 0.22039850056171417, "count_pixels": 41, "percent_cover": 0.37047076895274239, "percent_above_0.1m": 2.4390243902439024, "low_level_<0.5": 0.0, "mid_level_0.5-2": 2.4390243902439024, "tall_2+": 0.0 }, "geometry": { "type": "Point", "coordinates": [ -0.009895066820914, 51.599164622251386 ] } },
{ "type": "Feature", "properties": { "max_height": 1.3395004272460938, "mean_height": 0.042548518627882004, "std_height": 0.20389445126056671, "count_pixels": 42, "percent_cover": 0.37950664136622392, "percent_above_0.1m": 4.7619047619047619, "low_level_<0.5": 0.0, "mid_level_0.5-2": 2.3809523809523809, "tall_2+": 0.0 }, "geometry": { "type": "Point", "coordinates": [ -0.009695136570835, 51.599161230116231 ] } },
{ "type": "Feature", "properties": { "max_height": 2.5117511749267578, "mean_height": 0.32257816195487976, "std_height": 0.6286470890045166, "count_pixels": 42, "percent_cover": 0.37950664136622392, "percent_above_0.1m": 26.190476190476193, "low_level_<0.5": 2.3809523809523809, "mid_level_0.5-2": 19.047619047619047, "tall_2+": 4.7619047619047619 }, "geometry": { "type": "Point", "coordinates": [ -0.009495206358552, 51.599157837640661 ] } },
{ "type": "Feature", "properties": { "max_height": 14.501252174377441, "mean_height": 3.012519359588623, "std_height": 4.7121973037719727, "count_pixels": 41, "percent_cover": 0.37047076895274239, "percent_above_0.1m": 51.219512195121951, "low_level_<0.5": 2.4390243902439024, "mid_level_0.5-2": 14.634146341463413, "tall_2+": 31.707317073170731 }, "geometry": { "type": "Point", "coordinates": [ -0.009295276184092, 51.599154444824698 ] } },
{ "type": "Feature", "properties": { "max_height": 13.644500732421875, "mean_height": 5.0213360786437988, "std_height": 4.2143754959106445, "count_pixels": 41, "percent_cover": 0.37047076895274239, "percent_above_0.1m": 92.682926829268297, "low_level_<0.5": 9.7560975609756095, "mid_level_0.5-2": 14.634146341463413, "tall_2+": 68.292682926829272 }, "geometry": { "type": "Point", "coordinates": [ -0.009095346047443, 51.599151051668329 ] } },
{ "type": "Feature", "properties": { "max_height": 8.6644992828369141, "mean_height": 0.47731044888496399, "std_height": 1.4491106271743774, "count_pixels": 42, "percent_cover": 0.37950664136622392, "percent_above_0.1m": 38.095238095238095, "low_level_<0.5": 16.666666666666664, "mid_level_0.5-2": 11.904761904761903, "tall_2+": 4.7619047619047619 }, "geometry": { "type": "Point", "coordinates": [ -0.008895415948615, 51.599147658171553 ] } },
{ "type": "Feature", "properties": { "max_height": 9.2609996795654297, "mean_height": 1.1507031917572021, "std_height": 1.5520793199539185, "count_pixels": 42, "percent_cover": 0.37950664136622392, "percent_above_0.1m": 80.952380952380949, "low_level_<0.5": 21.428571428571427, "mid_level_0.5-2": 33.333333333333329, "tall_2+": 23.809523809523807 }, "geometry": { "type": "Point", "coordinates": [ -0.008695485887612, 51.599144264334377 ] } },
{ "type": "Feature", "properties": { "max_height": 7.4862518310546875, "mean_height": 4.1266536712646484, "std_height": 2.639289379119873, "count_pixels": 41, "percent_cover": 0.37047076895274239, "percent_above_0.1m": 95.121951219512198, "low_level_<0.5": 9.7560975609756095, "mid_level_0.5-2": 12.195121951219512, "tall_2+": 73.170731707317074 }, "geometry": { "type": "Point", "coordinates": [ -0.011389838347204, 51.599297880448646 ] } },
{ "type": "Feature", "properties": { "max_height": 9.3940019607543945, "mean_height": 3.6818547248840332, "std_height": 2.7600734233856201, "count_pixels": 41, "percent_cover": 0.37047076895274239, "percent_above_0.1m": 82.926829268292678, "low_level_<0.5": 0.0, "mid_level_0.5-2": 14.634146341463413, "tall_2+": 65.853658536585371 }, "geometry": { "type": "Point", "coordinates": [ -0.011189907362259, 51.599294490854035 ] } },
{ "type": "Feature", "properties": { "max_height": 0.44000053405761719, "mean_height": 0.017613751813769341, "std_height": 0.068666644394397736, "count_pixels": 42, "percent_cover": 0.37950664136622392, "percent_above_0.1m": 4.7619047619047619, "low_level_<0.5": 2.3809523809523809, "mid_level_0.5-2": 0.0, "tall_2+": 0.0 }, "geometry": { "type": "Point", "coordinates": [ -0.010989976415093, 51.599291100919018 ] } },
{ "type": "Feature", "properties": { "max_height": 0.060500144958496094, "mean_height": 0.0065840086899697781, "std_height": 0.014730598777532578, "count_pixels": 42, "percent_cover": 0.37950664136622392, "percent_above_0.1m": 0.0, "low_level_<0.5": 0.0, "mid_level_0.5-2": 0.0, "tall_2+": 0.0 }, "geometry": { "type": "Point", "coordinates": [ -0.010790045505715, 51.599287710643608 ] } },
{ "type": "Feature", "properties": { "max_height": 0.046500205993652344, "mean_height": 0.0016775131225585938, "std_height": 0.0077914856374263763, "count_pixels": 41, "percent_cover": 0.37047076895274239, "percent_above_0.1m": 0.0, "low_level_<0.5": 0.0, "mid_level_0.5-2": 0.0, "tall_2+": 0.0 }, "geometry": { "type": "Point", "coordinates": [ -0.010590114634122, 51.599284320027799 ] } },
{ "type": "Feature", "properties": { "max_height": 5.7267513275146484, "mean_height": 0.82404816150665283, "std_height": 1.6927202939987183, "count_pixels": 42, "percent_cover": 0.37950664136622392, "percent_above_0.1m": 23.809523809523807, "low_level_<0.5": 0.0, "mid_level_0.5-2": 7.1428571428571423, "tall_2+": 16.666666666666664 }, "geometry": { "type": "Point", "coordinates": [ -0.010390183800323, 51.599280929071575 ] } },
{ "type": "Feature", "properties": { "max_height": 0.0065011978149414062, "mean_height": 0.00010794684931170195, "std_height": 0.0025530501734465361, "count_pixels": 42, "percent_cover": 0.37950664136622392, "percent_above_0.1m": 0.0, "low_level_<0.5": 0.0, "mid_level_0.5-2": 0.0, "tall_2+": 0.0 }, "geometry": { "type": "Point", "coordinates": [ -0.01019025300432, 51.599277537774945 ] } },
{ "type": "Feature", "properties": { "max_height": 0.0260009765625, "mean_height": 0.0033205165527760983, "std_height": 0.0071515776216983795, "count_pixels": 43, "percent_cover": 0.38854251377970545, "percent_above_0.1m": 0.0, "low_level_<0.5": 0.0, "mid_level_0.5-2": 0.0, "tall_2+": 0.0 }, "geometry": { "type": "Point", "coordinates": [ -0.00999032224611, 51.599274146137923 ] } },
{ "type": "Feature", "properties": { "max_height": 0.023251533508300781, "mean_height": 0.0070305326953530312, "std_height": 0.007411228958517313, "count_pixels": 42, "percent_cover": 0.37950664136622392, "percent_above_0.1m": 0.0, "low_level_<0.5": 0.0, "mid_level_0.5-2": 0.0, "tall_2+": 0.0 }, "geometry": { "type": "Point", "coordinates": [ -0.009790391525715, 51.599270754160493 ] } },
{ "type": "Feature", "properties": { "max_height": 0.033000946044921875, "mean_height": 0.010388876311480999, "std_height": 0.010189253836870193, "count_pixels": 38, "percent_cover": 0.34336315171229781, "percent_above_0.1m": 0.0, "low_level_<0.5": 0.0, "mid_level_0.5-2": 0.0, "tall_2+": 0.0 }, "geometry": { "type": "Point", "coordinates": [ -0.009590460843117, 51.599267361842642 ] } },
{ "type": "Feature", "properties": { "max_height": 0.034250259399414062, "mean_height": 0.0067687262780964375, "std_height": 0.0079135922715067863, "count_pixels": 42, "percent_cover": 0.37950664136622392, "percent_above_0.1m": 0.0, "low_level_<0.5": 0.0, "mid_level_0.5-2": 0.0, "tall_2+": 0.0 }, "geometry": { "type": "Point", "coordinates": [ -0.009390530198335, 51.59926396918442 ] } },
{ "type": "Feature", "properties": { "max_height": 1.4862518310546875, "mean_height": 0.041250806301832199, "std_height": 0.22312206029891968, "count_pixels": 43, "percent_cover": 0.38854251377970545, "percent_above_0.1m": 2.3255813953488373, "low_level_<0.5": 0.0, "mid_level_0.5-2": 2.3255813953488373, "tall_2+": 0.0 }, "geometry": { "type": "Point", "coordinates": [ -0.009190599591362, 51.59926057618577 ] } },
{ "type": "Feature", "properties": { "max_height": 1.2880001068115234, "mean_height": 0.099643431603908539, "std_height": 0.28119716048240662, "count_pixels": 42, "percent_cover": 0.37950664136622392, "percent_above_0.1m": 11.904761904761903, "low_level_<0.5": 2.3809523809523809, "mid_level_0.5-2": 7.1428571428571423, "tall_2+": 0.0 }, "geometry": { "type": "Point", "coordinates": [ -0.008990669022215, 51.599257182846742 ] } },
{ "type": "Feature", "properties": { "max_height": 10.896249771118164, "mean_height": 1.6146434545516968, "std_height": 2.1356997489929199, "count_pixels": 42, "percent_cover": 0.37950664136622392, "percent_above_0.1m": 73.80952380952381, "low_level_<0.5": 11.904761904761903, "mid_level_0.5-2": 23.809523809523807, "tall_2+": 35.714285714285715 }, "geometry": { "type": "Point", "coordinates": [ -0.008790738490883, 51.5992537891673 ] } },
{ "type": "Feature", "properties": { "max_height": 4.0400009155273438, "mean_height": 0.46207824349403381, "std_height": 1.0035167932510376, "count_pixels": 42, "percent_cover": 0.37950664136622392, "percent_above_0.1m": 33.333333333333329, "low_level_<0.5": 14.285714285714285, "mid_level_0.5-2": 11.904761904761903, "tall_2+": 7.1428571428571423 }, "geometry": { "type": "Point", "coordinates": [ -0.011485097497086, 51.599407403156086 ] } },
{ "type": "Feature", "properties": { "max_height": 6.9230003356933594, "mean_height": 1.5155879259109497, "std_height": 1.8470150232315063, "count_pixels": 43, "percent_cover": 0.38854251377970545, "percent_above_0.1m": 65.116279069767444, "low_level_<0.5": 9.3023255813953494, "mid_level_0.5-2": 23.255813953488371, "tall_2+": 32.558139534883722 }, "geometry": { "type": "Point", "coordinates": [ -0.011285166041833, 51.599404013719223 ] } },
{ "type": "Feature", "properties": { "max_height": 1.7725009918212891, "mean_height": 0.15961983799934387, "std_height": 0.39824041724205017, "count_pixels": 42, "percent_cover": 0.37950664136622392, "percent_above_0.1m": 21.428571428571427, "low_level_<0.5": 9.5238095238095237, "mid_level_0.5-2": 9.5238095238095237, "tall_2+": 0.0 }, "geometry": { "type": "Point", "coordinates": [ -0.011085234624356, 51.599400623941946 ] } },
{ "type": "Feature", "properties": { "max_height": 0.020750045776367188, "mean_height": 0.0017639461439102888, "std_height": 0.0056043500080704689, "count_pixels": 38, "percent_cover": 0.34336315171229781, "percent_above_0.1m": 0.0, "low_level_<0.5": 0.0, "mid_level_0.5-2": 0.0, "tall_2+": 0.0 }, "geometry": { "type": "Point", "coordinates": [ -0.010885303244667, 51.599397233824277 ] } },
{ "type": "Feature", "properties": { "max_height": 0.25050067901611328, "mean_height": 0.018000693991780281, "std_height": 0.051200650632381439, "count_pixels": 42, "percent_cover": 0.37950664136622392, "percent_above_0.1m": 7.1428571428571423, "low_level_<0.5": 4.7619047619047619, "mid_level_0.5-2": 0.0, "tall_2+": 0.0 }, "geometry": { "type": "Point", "coordinates": [ -0.010685371902761, 51.599393843366201 ] } },
{ "type": "Feature", "properties": { "max_height": 2.6490011215209961, "mean_height": 0.10112576186656952, "std_height": 0.42185291647911072, "count_pixels": 42, "percent_cover": 0.37950664136622392, "percent_above_0.1m": 9.5238095238095237, "low_level_<0.5": 2.3809523809523809, "mid_level_0.5-2": 4.7619047619047619, "tall_2+": 2.3809523809523809 }, "geometry": { "type": "Point", "coordinates": [ -0.01048544059865, 51.599390452567718 ] } },
{ "type": "Feature", "properties": { "max_height": 5.8545026779174805, "mean_height": 0.46875062584877014, "std_height": 1.3397489786148071, "count_pixels": 42, "percent_cover": 0.37950664136622392, "percent_above_0.1m": 14.285714285714285, "low_level_<0.5": 2.3809523809523809, "mid_level_0.5-2": 0.0, "tall_2+": 11.904761904761903 }, "geometry": { "type": "Point", "coordinates": [ -0.010285509332325, 51.599387061428843 ] } },
{ "type": "Feature", "properties": { "max_height": 0.017750740051269531, "mean_height": 0.0026592393405735493, "std_height": 0.0046202950179576874, "count_pixels": 41, "percent_cover": 0.37047076895274239, "percent_above_0.1m": 0.0, "low_level_<0.5": 0.0, "mid_level_0.5-2": 0.0, "tall_2+": 0.0 }, "geometry": { "type": "Point", "coordinates": [ -0.010085578103805, 51.599383669949532 ] } },
{ "type": "Feature", "properties": { "max_height": 0.019250869750976562, "mean_height": 0.0015861464198678732, "std_height": 0.0046723983250558376, "count_pixels": 41, "percent_cover": 0.37047076895274239, "percent_above_0.1m": 0.0, "low_level_<0.5": 0.0, "mid_level_0.5-2": 0.0, "tall_2+": 0.0 }, "geometry": { "type": "Point", "coordinates": [ -0.009885646913081, 51.599380278129857 ] } },
{ "type": "Feature", "properties": { "max_height": 0.029500961303710938, "mean_height": 0.0042863572016358376, "std_height": 0.0085628703236579895, "count_pixels": 42, "percent_cover": 0.37950664136622392, "percent_above_0.1m": 0.0, "low_level_<0.5": 0.0, "mid_level_0.5-2": 0.0, "tall_2+": 0.0 }, "geometry": { "type": "Point", "coordinates": [ -0.009685715760169, 51.599376885969747 ] } },
{ "type": "Feature", "properties": { "max_height": 0.039000511169433594, "mean_height": 0.0089293885976076126, "std_height": 0.010535749606788158, "count_pixels": 42, "percent_cover": 0.37950664136622392, "percent_above_0.1m": 0.0, "low_level_<0.5": 0.0, "mid_level_0.5-2": 0.0, "tall_2+": 0.0 }, "geometry": { "type": "Point", "coordinates": [ -0.009485784645066, 51.599373493469237 ] } },
{ "type": "Feature", "properties": { "max_height": 0.037000656127929688, "mean_height": 0.0079824868589639664, "std_height": 0.0086734630167484283, "count_pixels": 41, "percent_cover": 0.37047076895274239, "percent_above_0.1m": 0.0, "low_level_<0.5": 0.0, "mid_level_0.5-2": 0.0, "tall_2+": 0.0 }, "geometry": { "type": "Point", "coordinates": [ -0.009285853567768, 51.599370100628342 ] } },
{ "type": "Feature", "properties": { "max_height": 0.038499832153320312, "mean_height": 0.0061776693910360336, "std_height": 0.0095207905396819115, "count_pixels": 41, "percent_cover": 0.37047076895274239, "percent_above_0.1m": 0.0, "low_level_<0.5": 0.0, "mid_level_0.5-2": 0.0, "tall_2+": 0.0 }, "geometry": { "type": "Point", "coordinates": [ -0.009085922528291, 51.599366707447004 ] } },
{ "type": "Feature", "properties": { "max_height": 4.6955013275146484, "mean_height": 1.0845785140991211, "std_height": 1.266787052154541, "count_pixels": 42, "percent_cover": 0.37950664136622392, "percent_above_0.1m": 54.761904761904766, "low_level_<0.5": 0.0, "mid_level_0.5-2": 35.714285714285715, "tall_2+": 19.047619047619047 }, "geometry": { "type": "Point", "coordinates": [ -0.008885991526638, 51.599363313925288 ] } },
{ "type": "Feature", "properties": { "max_height": 5.9102506637573242, "mean_height": 1.4287325143814087, "std_height": 1.6476351022720337, "count_pixels": 41, "percent_cover": 0.37047076895274239, "percent_above_0.1m": 63.414634146341463, "low_level_<0.5": 12.195121951219512, "mid_level_0.5-2": 14.634146341463413, "tall_2+": 36.585365853658537 }, "geometry": { "type": "Point", "coordinates": [ -0.011380425153918, 51.599513536509505 ] } },
{ "type": "Feature", "properties": { "max_height": 3.0465002059936523, "mean_height": 0.39966535568237305, "std_height": 0.80756264925003052, "count_pixels": 41, "percent_cover": 0.37047076895274239, "percent_above_0.1m": 24.390243902439025, "low_level_<0.5": 2.4390243902439024, "mid_level_0.5-2": 12.195121951219512, "tall_2+": 9.7560975609756095 }, "geometry": { "type": "Point", "coordinates": [ -0.011180493266129, 51.599510146889969 ] } },
{ "type": "Feature", "properties": { "max_height": 0.037250518798828125, "mean_height": 0.0045960289426147938, "std_height": 0.0080981738865375519, "count_pixels": 42, "percent_cover": 0.37950664136622392, "percent_above_0.1m": 0.0, "low_level_<0.5": 0.0, "mid_level_0.5-2": 0.0, "tall_2+": 0.0 }, "geometry": { "type": "Point", "coordinates": [ -0.010980561416124, 51.599506756930062 ] } },
{ "type": "Feature", "properties": { "max_height": 0.096751213073730469, "mean_height": 0.0045364242978394032, "std_height": 0.016097592189908028, "count_pixels": 42, "percent_cover": 0.37950664136622392, "percent_above_0.1m": 0.0, "low_level_<0.5": 0.0, "mid_level_0.5-2": 0.0, "tall_2+": 0.0 }, "geometry": { "type": "Point", "coordinates": [ -0.010780629603901, 51.599503366629726 ] } },
{ "type": "Feature", "properties": { "max_height": 0.020750045776367188, "mean_height": 0.00014693562116008252, "std_height": 0.0051424386911094189, "count_pixels": 41, "percent_cover": 0.37047076895274239, "percent_above_0.1m": 0.0, "low_level_<0.5": 0.0, "mid_level_0.5-2": 0.0, "tall_2+": 0.0 }, "geometry": { "type": "Point", "coordinates": [ -0.010580697829472, 51.599499975988977 ] } },
{ "type": "Feature", "properties": { "max_height": 0.086501121520996094, "mean_height": 0.0048934845253825188, "std_height": 0.013756160624325275, "count_pixels": 42, "percent_cover": 0.37950664136622392, "percent_above_0.1m": 0.0, "low_level_<0.5": 0.0, "mid_level_0.5-2": 0.0, "tall_2+": 0.0 }, "geometry": { "type": "Point", "coordinates": [ -0.010380766092836, 51.599496585007834 ] } },
{ "type": "Feature", "properties": { "max_height": 0.0095005035400390625, "mean_height": 0.0010365077760070562, "std_height": 0.0034715977963060141, "count_pixels": 42, "percent_cover": 0.37950664136622392, "percent_above_0.1m": 0.0, "low_level_<0.5": 0.0, "mid_level_0.5-2": 0.0, "tall_2+": 0.0 }, "geometry": { "type": "Point", "coordinates": [ -0.010180834393992, 51.599493193686264 ] } },
{ "type": "Feature", "properties": { "max_height": 0.021250724792480469, "mean_height": 0.0040415385738015175, "std_height": 0.0071324328891932964, "count_pixels": 43, "percent_cover": 0.38854251377970545, "percent_above_0.1m": 0.0, "low_level_<0.5": 0.0, "mid_level_0.5-2": 0.0, "tall_2+": 0.0 }, "geometry": { "type": "Point", "coordinates": [ -0.00998090273295, 51.599489802024308 ] } },
{ "type": "Feature", "properties": { "max_height": 0.037750244140625, "mean_height": 0.0032686279155313969, "std_height": 0.0079740416258573532, "count_pixels": 42, "percent_cover": 0.37950664136622392, "percent_above_0.1m": 0.0, "low_level_<0.5": 0.0, "mid_level_0.5-2": 0.0, "tall_2+": 0.0 }, "geometry": { "type": "Point", "coordinates": [ -0.009780971109712, 51.599486410021953 ] } },
{ "type": "Feature", "properties": { "max_height": 0.019250869750976562, "mean_height": 0.001711343415081501, "std_height": 0.0059779840521514416, "count_pixels": 38, "percent_cover": 0.34336315171229781, "percent_above_0.1m": 0.0, "low_level_<0.5": 0.0, "mid_level_0.5-2": 0.0, "tall_2+": 0.0 }, "geometry": { "type": "Point", "coordinates": [ -0.009581039524281, 51.599483017679169 ] } },
{ "type": "Feature", "properties": { "max_height": 0.018751144409179688, "mean_height": 0.0048102652654051781, "std_height": 0.0063631758093833923, "count_pixels": 42, "percent_cover": 0.37950664136622392, "percent_above_0.1m": 0.0, "low_level_<0.5": 0.0, "mid_level_0.5-2": 0.0, "tall_2+": 0.0 }, "geometry": { "type": "Point", "coordinates": [ -0.009381107976664, 51.599479624995993 ] } },
{ "type": "Feature", "properties": { "max_height": 0.02500152587890625, "mean_height": 0.0039076250977814198, "std_height": 0.007890612818300724, "count_pixels": 43, "percent_cover": 0.38854251377970545, "percent_above_0.1m": 0.0, "low_level_<0.5": 0.0, "mid_level_0.5-2": 0.0, "tall_2+": 0.0 }, "geometry": { "type": "Point", "coordinates": [ -0.009181176466858, 51.59947623197241 ] } },
{ "type": "Feature", "properties": { "max_height": 1.7717514038085938, "mean_height": 0.10781029611825943, "std_height": 0.35530790686607361, "count_pixels": 42, "percent_cover": 0.37950664136622392, "percent_above_0.1m": 9.5238095238095237, "low_level_<0.5": 2.3809523809523809, "mid_level_0.5-2": 7.1428571428571423, "tall_2+": 0.0 }, "geometry": { "type": "Point", "coordinates": [ -0.008981244994872, 51.599472838608406 ] } },
{ "type": "Feature", "properties": { "max_height": 3.7282505035400391, "mean_height": 1.5051196813583374, "std_height": 1.0962769985198975, "count_pixels": 42, "percent_cover": 0.37950664136622392, "percent_above_0.1m": 76.19047619047619, "low_level_<0.5": 2.3809523809523809, "mid_level_0.5-2": 35.714285714285715, "tall_2+": 35.714285714285715 }, "geometry": { "type": "Point", "coordinates": [ -0.00878131356071, 51.599469444904017 ] } },
{ "type": "Feature", "properties": { "max_height": 4.3130006790161133, "mean_height": 0.57653039693832397, "std_height": 1.0143352746963501, "count_pixels": 42, "percent_cover": 0.37950664136622392, "percent_above_0.1m": 42.857142857142854, "low_level_<0.5": 0.0, "mid_level_0.5-2": 28.571428571428569, "tall_2+": 7.1428571428571423 }, "geometry": { "type": "Point", "coordinates": [ -0.011475684698516, 51.599623059224875 ] } },
{ "type": "Feature", "properties": { "max_height": 4.5710000991821289, "mean_height": 0.60926240682601929, "std_height": 1.0677878856658936, "count_pixels": 43, "percent_cover": 0.38854251377970545, "percent_above_0.1m": 44.186046511627907, "low_level_<0.5": 13.953488372093023, "mid_level_0.5-2": 16.279069767441861, "tall_2+": 13.953488372093023 }, "geometry": { "type": "Point", "coordinates": [ -0.01127575234041, 51.599619669763101 ] } },
{ "type": "Feature", "properties": { "max_height": 0.29425048828125, "mean_height": 0.012280486524105072, "std_height": 0.04535708948969841, "count_pixels": 42, "percent_cover": 0.37950664136622392, "percent_above_0.1m": 2.3809523809523809, "low_level_<0.5": 2.3809523809523809, "mid_level_0.5-2": 0.0, "tall_2+": 0.0 }, "geometry": { "type": "Point", "coordinates": [ -0.011075820020089, 51.599616279960905 ] } },
{ "type": "Feature", "properties": { "max_height": 0.018250465393066406, "mean_height": 0.0011059358948841691, "std_height": 0.0049662315286695957, "count_pixels": 38, "percent_cover": 0.34336315171229781, "percent_above_0.1m": 0.0, "low_level_<0.5": 0.0, "mid_level_0.5-2": 0.0, "tall_2+": 0.0 }, "geometry": { "type": "Point", "coordinates": [ -0.010875887737556, 51.599612889818324 ] } },
{ "type": "Feature", "properties": { "max_height": 0.008251190185546875, "mean_height": 0.00066750391852110624, "std_height": 0.0024174784775823355, "count_pixels": 42, "percent_cover": 0.37950664136622392, "percent_above_0.1m": 0.0, "low_level_<0.5": 0.0, "mid_level_0.5-2": 0.0, "tall_2+": 0.0 }, "geometry": { "type": "Point", "coordinates": [ -0.010675955492803, 51.599609499335315 ] } },
{ "type": "Feature", "properties": { "max_height": 3.114750862121582, "mean_height": 0.15539948642253876, "std_height": 0.57705211639404297, "count_pixels": 42, "percent_cover": 0.37950664136622392, "percent_above_0.1m": 9.5238095238095237, "low_level_<0.5": 2.3809523809523809, "mid_level_0.5-2": 2.3809523809523809, "tall_2+": 4.7619047619047619 }, "geometry": { "type": "Point", "coordinates": [ -0.010476023285847, 51.599606108511914 ] } },
{ "type": "Feature", "properties": { "max_height": 0.011250495910644531, "mean_height": 0.00066739035537466407, "std_height": 0.0024872517678886652, "count_pixels": 42, "percent_cover": 0.37950664136622392, "percent_above_0.1m": 0.0, "low_level_<0.5": 0.0, "mid_level_0.5-2": 0.0, "tall_2+": 0.0 }, "geometry": { "type": "Point", "coordinates": [ -0.010276091116678, 51.599602717348091 ] } },
{ "type": "Feature", "properties": { "max_height": 0.0072507858276367188, "mean_height": -0.00035897697671316564, "std_height": 0.0026446848642081022, "count_pixels": 41, "percent_cover": 0.37047076895274239, "percent_above_0.1m": 0.0, "low_level_<0.5": 0.0, "mid_level_0.5-2": 0.0, "tall_2+": 0.0 }, "geometry": { "type": "Point", "coordinates": [ -0.010076158985316, 51.599599325843855 ] } },
{ "type": "Feature", "properties": { "max_height": 0.024250030517578125, "mean_height": 0.0026654498651623726, "std_height": 0.0064093307591974735, "count_pixels": 41, "percent_cover": 0.37047076895274239, "percent_above_0.1m": 0.0, "low_level_<0.5": 0.0, "mid_level_0.5-2": 0.0, "tall_2+": 0.0 }, "geometry": { "type": "Point", "coordinates": [ -0.009876226891753, 51.599595933999232 ] } },
{ "type": "Feature", "properties": { "max_height": 0.034000396728515625, "mean_height": 0.009369690902531147, "std_height": 0.009186851792037487, "count_pixels": 42, "percent_cover": 0.37950664136622392, "percent_above_0.1m": 0.0, "low_level_<0.5": 0.0, "mid_level_0.5-2": 0.0, "tall_2+": 0.0 }, "geometry": { "type": "Point", "coordinates": [ -0.009676294835995, 51.599592541814204 ] } },
{ "type": "Feature", "properties": { "max_height": 0.020501136779785156, "mean_height": 0.00431024469435215, "std_height": 0.0064858491532504559, "count_pixels": 42, "percent_cover": 0.37950664136622392, "percent_above_0.1m": 0.0, "low_level_<0.5": 0.0, "mid_level_0.5-2": 0.0, "tall_2+": 0.0 }, "geometry": { "type": "Point", "coordinates": [ -0.009476362818046, 51.59958914928874 ] } },
{ "type": "Feature", "properties": { "max_height": 0.017001152038574219, "mean_height": 0.0042079831473529339, "std_height": 0.005628964863717556, "count_pixels": 41, "percent_cover": 0.37047076895274239, "percent_above_0.1m": 0.0, "low_level_<0.5": 0.0, "mid_level_0.5-2": 0.0, "tall_2+": 0.0 }, "geometry": { "type": "Point", "coordinates": [ -0.009276430837913, 51.599585756422911 ] } },
{ "type": "Feature", "properties": { "max_height": 1.7052497863769531, "mean_height": 0.22423237562179565, "std_height": 0.44155168533325195, "count_pixels": 41, "percent_cover": 0.37047076895274239, "percent_above_0.1m": 31.707317073170731, "low_level_<0.5": 9.7560975609756095, "mid_level_0.5-2": 17.073170731707318, "tall_2+": 0.0 }, "geometry": { "type": "Point", "coordinates": [ -0.009076498895596, 51.599582363216641 ] } },
{ "type": "Feature", "properties": { "max_height": 5.0335006713867188, "mean_height": 1.9566320180892944, "std_height": 1.1629061698913574, "count_pixels": 42, "percent_cover": 0.37950664136622392, "percent_above_0.1m": 92.857142857142861, "low_level_<0.5": 7.1428571428571423, "mid_level_0.5-2": 28.571428571428569, "tall_2+": 57.142857142857139 }, "geometry": { "type": "Point", "coordinates": [ -0.008876566991102, 51.59957896966997 ] } },
{ "type": "Feature", "properties": { "max_height": 7.5174999237060547, "mean_height": 4.6241850852966309, "std_height": 2.6002633571624756, "count_pixels": 42, "percent_cover": 0.37950664136622392, "percent_above_0.1m": 90.476190476190482, "low_level_<0.5": 7.1428571428571423, "mid_level_0.5-2": 7.1428571428571423, "tall_2+": 76.19047619047619 }, "geometry": { "type": "Point", "coordinates": [ -0.011570944675628, 51.599732581865339 ] } },
{ "type": "Feature", "properties": { "max_height": 8.289250373840332, "mean_height": 4.1213726997375488, "std_height": 2.5806641578674316, "count_pixels": 41, "percent_cover": 0.37047076895274239, "percent_above_0.1m": 90.243902439024396, "low_level_<0.5": 0.0, "mid_level_0.5-2": 17.073170731707318, "tall_2+": 73.170731707317074 }, "geometry": { "type": "Point", "coordinates": [ -0.011371011847214, 51.599729192561306 ] } },
{ "type": "Feature", "properties": { "max_height": 1.5827522277832031, "mean_height": 0.083884961903095245, "std_height": 0.2729610800743103, "count_pixels": 41, "percent_cover": 0.37047076895274239, "percent_above_0.1m": 14.634146341463413, "low_level_<0.5": 7.3170731707317067, "mid_level_0.5-2": 4.8780487804878048, "tall_2+": 0.0 }, "geometry": { "type": "Point", "coordinates": [ -0.011171079056568, 51.599725802916865 ] } },
{ "type": "Feature", "properties": { "max_height": 0.49650096893310547, "mean_height": 0.021304266527295113, "std_height": 0.080092184245586395, "count_pixels": 42, "percent_cover": 0.37950664136622392, "percent_above_0.1m": 7.1428571428571423, "low_level_<0.5": 2.3809523809523809, "mid_level_0.5-2": 0.0, "tall_2+": 0.0 }, "geometry": { "type": "Point", "coordinates": [ -0.010971146303715, 51.59972241293201 ] } },
{ "type": "Feature", "properties": { "max_height": 0.014250755310058594, "mean_height": 0.00046498436131514609, "std_height": 0.0037489405367523432, "count_pixels": 42, "percent_cover": 0.37950664136622392, "percent_above_0.1m": 0.0, "low_level_<0.5": 0.0, "mid_level_0.5-2": 0.0, "tall_2+": 0.0 }, "geometry": { "type": "Point", "coordinates": [ -0.010771213588645, 51.599719022606763 ] } },
{ "type": "Feature", "properties": { "max_height": 0.012250900268554688, "mean_height": 0.0017629483481869102, "std_height": 0.0047321310266852379, "count_pixels": 41, "percent_cover": 0.37047076895274239, "percent_above_0.1m": 0.0, "low_level_<0.5": 0.0, "mid_level_0.5-2": 0.0, "tall_2+": 0.0 }, "geometry": { "type": "Point", "coordinates": [ -0.010571280911357, 51.599715631941081 ] } },
{ "type": "Feature", "properties": { "max_height": 1.5797500610351562, "mean_height": 0.067268714308738708, "std_height": 0.2706134021282196, "count_pixels": 42, "percent_cover": 0.37950664136622392, "percent_above_0.1m": 7.1428571428571423, "low_level_<0.5": 0.0, "mid_level_0.5-2": 7.1428571428571423, "tall_2+": 0.0 }, "geometry": { "type": "Point", "coordinates": [ -0.010371348271876, 51.599712240934991 ] } },
{ "type": "Feature", "properties": { "max_height": 0.017001152038574219, "mean_height": 0.0037865638732910156, "std_height": 0.0046750693581998348, "count_pixels": 42, "percent_cover": 0.37950664136622392, "percent_above_0.1m": 0.0, "low_level_<0.5": 0.0, "mid_level_0.5-2": 0.0, "tall_2+": 0.0 }, "geometry": { "type": "Point", "coordinates": [ -0.010171415670182, 51.599708849588524 ] } },
{ "type": "Feature", "properties": { "max_height": 0.0090007781982421875, "mean_height": 0.0011112523498013616, "std_height": 0.0028500407934188843, "count_pixels": 43, "percent_cover": 0.38854251377970545, "percent_above_0.1m": 0.0, "low_level_<0.5": 0.0, "mid_level_0.5-2": 0.0, "tall_2+": 0.0 }, "geometry": { "type": "Point", "coordinates": [ -0.009971483106292, 51.599705457901635 ] } },
{ "type": "Feature", "properties": { "max_height": 0.024499893188476562, "mean_height": 0.0031375885009765625, "std_height": 0.0055649741552770138, "count_pixels": 42, "percent_cover": 0.37950664136622392, "percent_above_0.1m": 0.0, "low_level_<0.5": 0.0, "mid_level_0.5-2": 0.0, "tall_2+": 0.0 }, "geometry": { "type": "Point", "coordinates": [ -0.009771550580205, 51.599702065874325 ] } },
{ "type": "Feature", "properties": { "max_height": 0.010500907897949219, "mean_height": 0.00058633403386920691, "std_height": 0.0050751953385770321, "count_pixels": 38, "percent_cover": 0.34336315171229781, "percent_above_0.1m": 0.0, "low_level_<0.5": 0.0, "mid_level_0.5-2": 0.0, "tall_2+": 0.0 }, "geometry": { "type": "Point", "coordinates": [ -0.009571618091929, 51.599698673506609 ] } },
{ "type": "Feature", "properties": { "max_height": 0.034000396728515625, "mean_height": 0.0033578418660908937, "std_height": 0.0070380643010139465, "count_pixels": 42, "percent_cover": 0.37950664136622392, "percent_above_0.1m": 0.0, "low_level_<0.5": 0.0, "mid_level_0.5-2": 0.0, "tall_2+": 0.0 }, "geometry": { "type": "Point", "coordinates": [ -0.009371685641463, 51.599695280798493 ] } },
{ "type": "Feature", "properties": { "max_height": 5.9767532348632812, "mean_height": 1.415785551071167, "std_height": 1.7631069421768188, "count_pixels": 43, "percent_cover": 0.38854251377970545, "percent_above_0.1m": 65.116279069767444, "low_level_<0.5": 2.3255813953488373, "mid_level_0.5-2": 37.209302325581397, "tall_2+": 20.930232558139537 }, "geometry": { "type": "Point", "coordinates": [ -0.00917175322881, 51.59969188774997 ] } },
{ "type": "Feature", "properties": { "max_height": 6.2520008087158203, "mean_height": 0.60889351367950439, "std_height": 1.2284374237060547, "count_pixels": 42, "percent_cover": 0.37950664136622392, "percent_above_0.1m": 52.380952380952387, "low_level_<0.5": 16.666666666666664, "mid_level_0.5-2": 23.809523809523807, "tall_2+": 7.1428571428571423 }, "geometry": { "type": "Point", "coordinates": [ -0.00897182085398, 51.599688494361025 ] } },
{ "type": "Feature", "properties": { "max_height": 4.532501220703125, "mean_height": 1.234316349029541, "std_height": 1.1195355653762817, "count_pixels": 42, "percent_cover": 0.37950664136622392, "percent_above_0.1m": 76.19047619047619, "low_level_<0.5": 0.0, "mid_level_0.5-2": 47.619047619047613, "tall_2+": 23.809523809523807 }, "geometry": { "type": "Point", "coordinates": [ -0.008771888516971, 51.599685100631682 ] } },
{ "type": "Feature", "properties": { "max_height": 6.2290000915527344, "mean_height": 2.5615899562835693, "std_height": 1.7123918533325195, "count_pixels": 42, "percent_cover": 0.37950664136622392, "percent_above_0.1m": 90.476190476190482, "low_level_<0.5": 7.1428571428571423, "mid_level_0.5-2": 21.428571428571427, "tall_2+": 61.904761904761905 }, "geometry": { "type": "Point", "coordinates": [ -0.011466271786529, 51.599838715284591 ] } },
{ "type": "Feature", "properties": { "max_height": 3.8565006256103516, "mean_height": 0.27884957194328308, "std_height": 0.85670965909957886, "count_pixels": 43, "percent_cover": 0.38854251377970545, "percent_above_0.1m": 13.953488372093023, "low_level_<0.5": 0.0, "mid_level_0.5-2": 4.6511627906976747, "tall_2+": 6.9767441860465116 }, "geometry": { "type": "Point", "coordinates": [ -0.011266338525568, 51.599835325797898 ] } },
{ "type": "Feature", "properties": { "max_height": 0.014251708984375, "mean_height": 0.0017923173727467656, "std_height": 0.0043732314370572567, "count_pixels": 42, "percent_cover": 0.37950664136622392, "percent_above_0.1m": 0.0, "low_level_<0.5": 0.0, "mid_level_0.5-2": 0.0, "tall_2+": 0.0 }, "geometry": { "type": "Point", "coordinates": [ -0.01106640530239, 51.599831935970805 ] } },
{ "type": "Feature", "properties": { "max_height": 0.011751174926757812, "mean_height": 0.0010138311190530658, "std_height": 0.003574869129806757, "count_pixels": 38, "percent_cover": 0.34336315171229781, "percent_above_0.1m": 0.0, "low_level_<0.5": 0.0, "mid_level_0.5-2": 0.0, "tall_2+": 0.0 }, "geometry": { "type": "Point", "coordinates": [ -0.010866472116994, 51.599828545803277 ] } },
{ "type": "Feature", "properties": { "max_height": 0.0052509307861328125, "mean_height": 0.00032820019987411797, "std_height": 0.0024769189767539501, "count_pixels": 42, "percent_cover": 0.37950664136622392, "percent_above_0.1m": 0.0, "low_level_<0.5": 0.0, "mid_level_0.5-2": 0.0, "tall_2+": 0.0 }, "geometry": { "type": "Point", "coordinates": [ -0.01066653896939, 51.599825155295356 ] } },
{ "type": "Feature", "properties": { "max_height": 4.0690011978149414, "mean_height": 0.40639358758926392, "std_height": 0.8881908655166626, "count_pixels": 42, "percent_cover": 0.37950664136622392, "percent_above_0.1m": 28.571428571428569, "low_level_<0.5": 4.7619047619047619, "mid_level_0.5-2": 14.285714285714285, "tall_2+": 7.1428571428571423 }, "geometry": { "type": "Point", "coordinates": [ -0.010466605859575, 51.599821764447015 ] } },
{ "type": "Feature", "properties": { "max_height": 0.016000747680664062, "mean_height": 0.0017150470521301031, "std_height": 0.0044219028204679489, "count_pixels": 42, "percent_cover": 0.37950664136622392, "percent_above_0.1m": 0.0, "low_level_<0.5": 0.0, "mid_level_0.5-2": 0.0, "tall_2+": 0.0 }, "geometry": { "type": "Point", "coordinates": [ -0.010266672787556, 51.599818373258273 ] } },
{ "type": "Feature", "properties": { "max_height": 0.024751663208007812, "mean_height": 0.0016531130531802773, "std_height": 0.0056671476922929287, "count_pixels": 41, "percent_cover": 0.37047076895274239, "percent_above_0.1m": 0.0, "low_level_<0.5": 0.0, "mid_level_0.5-2": 0.0, "tall_2+": 0.0 }, "geometry": { "type": "Point", "coordinates": [ -0.010066739753336, 51.599814981729104 ] } },
{ "type": "Feature", "properties": { "max_height": 0.025751113891601562, "mean_height": 0.0047629284672439098, "std_height": 0.0073159974999725819, "count_pixels": 41, "percent_cover": 0.37047076895274239, "percent_above_0.1m": 0.0, "low_level_<0.5": 0.0, "mid_level_0.5-2": 0.0, "tall_2+": 0.0 }, "geometry": { "type": "Point", "coordinates": [ -0.009866806756917, 51.599811589859542 ] } },
{ "type": "Feature", "properties": { "max_height": 0.0345001220703125, "mean_height": 0.0062149818986654282, "std_height": 0.0083034681156277657, "count_pixels": 42, "percent_cover": 0.37950664136622392, "percent_above_0.1m": 0.0, "low_level_<0.5": 0.0, "mid_level_0.5-2": 0.0, "tall_2+": 0.0 }, "geometry": { "type": "Point", "coordinates": [ -0.009666873798308, 51.599808197649573 ] } },
{ "type": "Feature", "properties": { "max_height": 0.015749931335449219, "mean_height": 0.0018579164752736688, "std_height": 0.0042820866219699383, "count_pixels": 42, "percent_cover": 0.37950664136622392, "percent_above_0.1m": 0.0, "low_level_<0.5": 0.0, "mid_level_0.5-2": 0.0, "tall_2+": 0.0 }, "geometry": { "type": "Point", "coordinates": [ -0.009466940877509, 51.59980480509919 ] } },
{ "type": "Feature", "properties": { "max_height": 8.6090011596679688, "mean_height": 1.2631226778030396, "std_height": 2.272519588470459, "count_pixels": 41, "percent_cover": 0.37047076895274239, "percent_above_0.1m": 41.463414634146339, "low_level_<0.5": 4.8780487804878048, "mid_level_0.5-2": 9.7560975609756095, "tall_2+": 24.390243902439025 }, "geometry": { "type": "Point", "coordinates": [ -0.009267007994522, 51.5998014122084 ] } },
{ "type": "Feature", "properties": { "max_height": 5.8980026245117188, "mean_height": 0.80439722537994385, "std_height": 1.342939019203186, "count_pixels": 41, "percent_cover": 0.37047076895274239, "percent_above_0.1m": 68.292682926829272, "low_level_<0.5": 34.146341463414636, "mid_level_0.5-2": 19.512195121951219, "tall_2+": 14.634146341463413 }, "geometry": { "type": "Point", "coordinates": [ -0.009067075149352, 51.599798018977182 ] } },
{ "type": "Feature", "properties": { "max_height": 6.2090015411376953, "mean_height": 1.776607871055603, "std_height": 1.792644739151001, "count_pixels": 42, "percent_cover": 0.37950664136622392, "percent_above_0.1m": 76.19047619047619, "low_level_<0.5": 11.904761904761903, "mid_level_0.5-2": 19.047619047619047, "tall_2+": 42.857142857142854 }, "geometry": { "type": "Point", "coordinates": [ -0.011561532158368, 51.599948237932978 ] } },
{ "type": "Feature", "properties": { "max_height": 4.6230020523071289, "mean_height": 0.45985448360443115, "std_height": 1.057692289352417, "count_pixels": 41, "percent_cover": 0.37047076895274239, "percent_above_0.1m": 24.390243902439025, "low_level_<0.5": 4.8780487804878048, "mid_level_0.5-2": 9.7560975609756095, "tall_2+": 9.7560975609756095 }, "geometry": { "type": "Point", "coordinates": [ -0.011361598427089, 51.599944848604032 ] } },
{ "type": "Feature", "properties": { "max_height": 0.012750625610351562, "mean_height": 0.0014397923368960619, "std_height": 0.0034841669257730246, "count_pixels": 41, "percent_cover": 0.37047076895274239, "percent_above_0.1m": 0.0, "low_level_<0.5": 0.0, "mid_level_0.5-2": 0.0, "tall_2+": 0.0 }, "geometry": { "type": "Point", "coordinates": [ -0.011161664733583, 51.599941458934673 ] } },
{ "type": "Feature", "properties": { "max_height": 0.010500907897949219, "mean_height": 0.00079243525397032499, "std_height": 0.0033326335251331329, "count_pixels": 42, "percent_cover": 0.37950664136622392, "percent_above_0.1m": 0.0, "low_level_<0.5": 0.0, "mid_level_0.5-2": 0.0, "tall_2+": 0.0 }, "geometry": { "type": "Point", "coordinates": [ -0.010961731077863, 51.599938068924907 ] } },
{ "type": "Feature", "properties": { "max_height": 0.01850128173828125, "mean_height": 0.00091734388843178749, "std_height": 0.0068469787947833538, "count_pixels": 42, "percent_cover": 0.37950664136622392, "percent_above_0.1m": 0.0, "low_level_<0.5": 0.0, "mid_level_0.5-2": 0.0, "tall_2+": 0.0 }, "geometry": { "type": "Point", "coordinates": [ -0.010761797459932, 51.599934678574719 ] } },
{ "type": "Feature", "properties": { "max_height": 6.0717506408691406, "mean_height": 1.2634276151657104, "std_height": 1.7185403108596802, "count_pixels": 41, "percent_cover": 0.37047076895274239, "percent_above_0.1m": 51.219512195121951, "low_level_<0.5": 7.3170731707317067, "mid_level_0.5-2": 17.073170731707318, "tall_2+": 26.829268292682929 }, "geometry": { "type": "Point", "coordinates": [ -0.010561863879787, 51.599931287884125 ] } },
{ "type": "Feature", "properties": { "max_height": 3.8367500305175781, "mean_height": 0.45947691798210144, "std_height": 0.97011417150497437, "count_pixels": 42, "percent_cover": 0.37950664136622392, "percent_above_0.1m": 21.428571428571427, "low_level_<0.5": 0.0, "mid_level_0.5-2": 11.904761904761903, "tall_2+": 9.5238095238095237 }, "geometry": { "type": "Point", "coordinates": [ -0.010361930337438, 51.599927896853124 ] } },
{ "type": "Feature", "properties": { "max_height": 0.010251045227050781, "mean_height": 0.00063771294662728906, "std_height": 0.0024756744969636202, "count_pixels": 42, "percent_cover": 0.37950664136622392, "percent_above_0.1m": 0.0, "low_level_<0.5": 0.0, "mid_level_0.5-2": 0.0, "tall_2+": 0.0 }, "geometry": { "type": "Point", "coordinates": [ -0.010161996832887, 51.59992450548171 ] } },
{ "type": "Feature", "properties": { "max_height": 0.0095005035400390625, "mean_height": 0.00091348693240433931, "std_height": 0.0043378048576414585, "count_pixels": 43, "percent_cover": 0.38854251377970545, "percent_above_0.1m": 0.0, "low_level_<0.5": 0.0, "mid_level_0.5-2": 0.0, "tall_2+": 0.0 }, "geometry": { "type": "Point", "coordinates": [ -0.009962063366137, 51.599921113769867 ] } },
{ "type": "Feature", "properties": { "max_height": 0.023000717163085938, "mean_height": 0.0047091301530599594, "std_height": 0.0076455711387097836, "count_pixels": 42, "percent_cover": 0.37950664136622392, "percent_above_0.1m": 0.0, "low_level_<0.5": 0.0, "mid_level_0.5-2": 0.0, "tall_2+": 0.0 }, "geometry": { "type": "Point", "coordinates": [ -0.00976212993719, 51.599917721717631 ] } },
{ "type": "Feature", "properties": { "max_height": 0.029750823974609375, "mean_height": 0.0061586280353367329, "std_height": 0.0067012500949203968, "count_pixels": 38, "percent_cover": 0.34336315171229781, "percent_above_0.1m": 0.0, "low_level_<0.5": 0.0, "mid_level_0.5-2": 0.0, "tall_2+": 0.0 }, "geometry": { "type": "Point", "coordinates": [ -0.009562196546055, 51.599914329324996 ] } },
{ "type": "Feature", "properties": { "max_height": 3.828251838684082, "mean_height": 0.14313766360282898, "std_height": 0.64256411790847778, "count_pixels": 42, "percent_cover": 0.37950664136622392, "percent_above_0.1m": 4.7619047619047619, "low_level_<0.5": 0.0, "mid_level_0.5-2": 2.3809523809523809, "tall_2+": 2.3809523809523809 }, "geometry": { "type": "Point", "coordinates": [ -0.009362263192728, 51.599910936591925 ] } },
{ "type": "Feature", "properties": { "max_height": 11.748001098632812, "mean_height": 5.3456578254699707, "std_height": 3.5347704887390137, "count_pixels": 43, "percent_cover": 0.38854251377970545, "percent_above_0.1m": 97.674418604651152, "low_level_<0.5": 0.0, "mid_level_0.5-2": 18.604651162790699, "tall_2+": 79.069767441860463 }, "geometry": { "type": "Point", "coordinates": [ -0.009162329877224, 51.599907543518455 ] } },
{ "type": "Feature", "properties": { "max_height": 3.4505023956298828, "mean_height": 0.53037571907043457, "std_height": 1.0382678508758545, "count_pixels": 42, "percent_cover": 0.37950664136622392, "percent_above_0.1m": 30.952380952380953, "low_level_<0.5": 7.1428571428571423, "mid_level_0.5-2": 9.5238095238095237, "tall_2+": 14.285714285714285 }, "geometry": { "type": "Point", "coordinates": [ -0.011656792962737, 51.600057760506445 ] } },
{ "type": "Feature", "properties": { "max_height": 5.0795021057128906, "mean_height": 0.89478045701980591, "std_height": 1.3855764865875244, "count_pixels": 42, "percent_cover": 0.37950664136622392, "percent_above_0.1m": 42.857142857142854, "low_level_<0.5": 2.3809523809523809, "mid_level_0.5-2": 14.285714285714285, "tall_2+": 19.047619047619047 }, "geometry": { "type": "Point", "coordinates": [ -0.01145685876113, 51.600054371335254 ] } },
{ "type": "Feature", "properties": { "max_height": 6.5037517547607422, "mean_height": 1.3575881719589233, "std_height": 1.909002423286438, "count_pixels": 43, "percent_cover": 0.38854251377970545, "percent_above_0.1m": 53.488372093023251, "low_level_<0.5": 4.6511627906976747, "mid_level_0.5-2": 23.255813953488371, "tall_2+": 25.581395348837212 }, "geometry": { "type": "Point", "coordinates": [ -0.011256924597301, 51.600050981823635 ] } },
{ "type": "Feature", "properties": { "max_height": 0.15175056457519531, "mean_height": 0.012161482125520706, "std_height": 0.035771951079368591, "count_pixels": 42, "percent_cover": 0.37950664136622392, "percent_above_0.1m": 7.1428571428571423, "low_level_<0.5": 2.3809523809523809, "mid_level_0.5-2": 0.0, "tall_2+": 0.0 }, "geometry": { "type": "Point", "coordinates": [ -0.011056990471252, 51.600047591971617 ] } },
{ "type": "Feature", "properties": { "max_height": 0.014000892639160156, "mean_height": 0.0022704224102199078, "std_height": 0.0054816147312521935, "count_pixels": 38, "percent_cover": 0.34336315171229781, "percent_above_0.1m": 0.0, "low_level_<0.5": 0.0, "mid_level_0.5-2": 0.0, "tall_2+": 0.0 }, "geometry": { "type": "Point", "coordinates": [ -0.010857056382991, 51.600044201779184 ] } },
{ "type": "Feature", "properties": { "max_height": 0.14300060272216797, "mean_height": 0.004715056624263525, "std_height": 0.022520506754517555, "count_pixels": 42, "percent_cover": 0.37950664136622392, "percent_above_0.1m": 2.3809523809523809, "low_level_<0.5": 0.0, "mid_level_0.5-2": 0.0, "tall_2+": 0.0 }, "geometry": { "type": "Point", "coordinates": [ -0.010657122332516, 51.600040811246338 ] } },
{ "type": "Feature", "properties": { "max_height": 5.9690017700195312, "mean_height": 1.1029115915298462, "std_height": 1.6107920408248901, "count_pixels": 42, "percent_cover": 0.37950664136622392, "percent_above_0.1m": 54.761904761904766, "low_level_<0.5": 4.7619047619047619, "mid_level_0.5-2": 26.190476190476193, "tall_2+": 21.428571428571427 }, "geometry": { "type": "Point", "coordinates": [ -0.010457188319833, 51.600037420373063 ] } },
{ "type": "Feature", "properties": { "max_height": 8.7712507247924805, "mean_height": 1.1723756790161133, "std_height": 1.6788020133972168, "count_pixels": 42, "percent_cover": 0.37950664136622392, "percent_above_0.1m": 54.761904761904766, "low_level_<0.5": 2.3809523809523809, "mid_level_0.5-2": 30.952380952380953, "tall_2+": 21.428571428571427 }, "geometry": { "type": "Point", "coordinates": [ -0.010257254344953, 51.600034029159374 ] } },
{ "type": "Feature", "properties": { "max_height": 0.018000602722167969, "mean_height": 0.0037140264175832272, "std_height": 0.0055517624132335186, "count_pixels": 41, "percent_cover": 0.37047076895274239, "percent_above_0.1m": 0.0, "low_level_<0.5": 0.0, "mid_level_0.5-2": 0.0, "tall_2+": 0.0 }, "geometry": { "type": "Point", "coordinates": [ -0.01005732040786, 51.600030637605308 ] } },
{ "type": "Feature", "properties": { "max_height": 0.0227508544921875, "mean_height": 0.0029580185655504465, "std_height": 0.0053227893076837063, "count_pixels": 41, "percent_cover": 0.37047076895274239, "percent_above_0.1m": 0.0, "low_level_<0.5": 0.0, "mid_level_0.5-2": 0.0, "tall_2+": 0.0 }, "geometry": { "type": "Point", "coordinates": [ -0.009857386508582, 51.600027245710805 ] } },
{ "type": "Feature", "properties": { "max_height": 0.54250049591064453, "mean_height": 0.023060208186507225, "std_height": 0.097831591963768005, "count_pixels": 42, "percent_cover": 0.37950664136622392, "percent_above_0.1m": 4.7619047619047619, "low_level_<0.5": 2.3809523809523809, "mid_level_0.5-2": 2.3809523809523809, "tall_2+": 0.0 }, "geometry": { "type": "Point", "coordinates": [ -0.009657452647107, 51.600023853475889 ] } },
{ "type": "Feature", "properties": { "max_height": 0.024500846862792969, "mean_height": 0.0010185468709096313, "std_height": 0.0047382321208715439, "count_pixels": 42, "percent_cover": 0.37950664136622392, "percent_above_0.1m": 0.0, "low_level_<0.5": 0.0, "mid_level_0.5-2": 0.0, "tall_2+": 0.0 }, "geometry": { "type": "Point", "coordinates": [ -0.00945751882344, 51.600020460900566 ] } },
{ "type": "Feature", "properties": { "max_height": 10.06500244140625, "mean_height": 2.90106201171875, "std_height": 2.9326517581939697, "count_pixels": 41, "percent_cover": 0.37047076895274239, "percent_above_0.1m": 63.414634146341463, "low_level_<0.5": 0.0, "mid_level_0.5-2": 14.634146341463413, "tall_2+": 48.780487804878049 }, "geometry": { "type": "Point", "coordinates": [ -0.009257585037593, 51.600017067984815 ] } },
{ "type": "Feature", "properties": { "max_height": 7.5980014801025391, "mean_height": 1.5926851034164429, "std_height": 2.3123559951782227, "count_pixels": 42, "percent_cover": 0.37950664136622392, "percent_above_0.1m": 57.142857142857139, "low_level_<0.5": 16.666666666666664, "mid_level_0.5-2": 11.904761904761903, "tall_2+": 26.190476190476193 }, "geometry": { "type": "Point", "coordinates": [ -0.011552119527703, 51.600163893991578 ] } },
{ "type": "Feature", "properties": { "max_height": 7.9017515182495117, "mean_height": 3.5203604698181152, "std_height": 2.6563422679901123, "count_pixels": 41, "percent_cover": 0.37047076895274239, "percent_above_0.1m": 80.487804878048792, "low_level_<0.5": 2.4390243902439024, "mid_level_0.5-2": 14.634146341463413, "tall_2+": 63.414634146341463 }, "geometry": { "type": "Point", "coordinates": [ -0.011352184893544, 51.600160504637707 ] } },
{ "type": "Feature", "properties": { "max_height": 8.8735008239746094, "mean_height": 0.57764732837677002, "std_height": 1.7462798357009888, "count_pixels": 41, "percent_cover": 0.37047076895274239, "percent_above_0.1m": 12.195121951219512, "low_level_<0.5": 0.0, "mid_level_0.5-2": 2.4390243902439024, "tall_2+": 9.7560975609756095 }, "geometry": { "type": "Point", "coordinates": [ -0.011152250297165, 51.600157114943428 ] } },
{ "type": "Feature", "properties": { "max_height": 0.15625095367431641, "mean_height": 0.01040558610111475, "std_height": 0.02638871967792511, "count_pixels": 42, "percent_cover": 0.37950664136622392, "percent_above_0.1m": 2.3809523809523809, "low_level_<0.5": 2.3809523809523809, "mid_level_0.5-2": 0.0, "tall_2+": 0.0 }, "geometry": { "type": "Point", "coordinates": [ -0.010952315738573, 51.600153724908736 ] } },
{ "type": "Feature", "properties": { "max_height": 0.20800113677978516, "mean_height": 0.013988903723657131, "std_height": 0.039919387549161911, "count_pixels": 42, "percent_cover": 0.37950664136622392, "percent_above_0.1m": 4.7619047619047619, "low_level_<0.5": 4.7619047619047619, "mid_level_0.5-2": 0.0, "tall_2+": 0.0 }, "geometry": { "type": "Point", "coordinates": [ -0.010752381217765, 51.600150334533623 ] } },
{ "type": "Feature", "properties": { "max_height": 0.93650054931640625, "mean_height": 0.061116449534893036, "std_height": 0.17220202088356018, "count_pixels": 41, "percent_cover": 0.37047076895274239, "percent_above_0.1m": 9.7560975609756095, "low_level_<0.5": 7.3170731707317067, "mid_level_0.5-2": 2.4390243902439024, "tall_2+": 0.0 }, "geometry": { "type": "Point", "coordinates": [ -0.010552446734748, 51.600146943818118 ] } },
{ "type": "Feature", "properties": { "max_height": 6.6405000686645508, "mean_height": 1.1967626810073853, "std_height": 1.8454742431640625, "count_pixels": 42, "percent_cover": 0.37950664136622392, "percent_above_0.1m": 54.761904761904766, "low_level_<0.5": 9.5238095238095237, "mid_level_0.5-2": 19.047619047619047, "tall_2+": 21.428571428571427 }, "geometry": { "type": "Point", "coordinates": [ -0.010352512289526, 51.600143552762177 ] } },
{ "type": "Feature", "properties": { "max_height": 7.9655017852783203, "mean_height": 0.47220903635025024, "std_height": 1.4619190692901611, "count_pixels": 42, "percent_cover": 0.37950664136622392, "percent_above_0.1m": 30.952380952380953, "low_level_<0.5": 14.285714285714285, "mid_level_0.5-2": 9.5238095238095237, "tall_2+": 4.7619047619047619 }, "geometry": { "type": "Point", "coordinates": [ -0.010152577882102, 51.600140161365836 ] } },
{ "type": "Feature", "properties": { "max_height": 1.749751091003418, "mean_height": 0.33155316114425659, "std_height": 0.48788288235664368, "count_pixels": 43, "percent_cover": 0.38854251377970545, "percent_above_0.1m": 39.534883720930232, "low_level_<0.5": 9.3023255813953494, "mid_level_0.5-2": 30.232558139534881, "tall_2+": 0.0 }, "geometry": { "type": "Point", "coordinates": [ -0.009952643512484, 51.600136769629067 ] } },
{ "type": "Feature", "properties": { "max_height": 3.8930015563964844, "mean_height": 0.65657806396484375, "std_height": 1.0082440376281738, "count_pixels": 42, "percent_cover": 0.37950664136622392, "percent_above_0.1m": 47.619047619047613, "low_level_<0.5": 16.666666666666664, "mid_level_0.5-2": 14.285714285714285, "tall_2+": 16.666666666666664 }, "geometry": { "type": "Point", "coordinates": [ -0.009752709180664, 51.600133377551877 ] } },
{ "type": "Feature", "properties": { "max_height": 12.58225154876709, "mean_height": 3.4723365306854248, "std_height": 4.0647344589233398, "count_pixels": 38, "percent_cover": 0.34336315171229781, "percent_above_0.1m": 71.05263157894737, "low_level_<0.5": 7.8947368421052628, "mid_level_0.5-2": 7.8947368421052628, "tall_2+": 50.0 }, "geometry": { "type": "Point", "coordinates": [ -0.009552774886658, 51.600129985134295 ] } },
{ "type": "Feature", "properties": { "max_height": 4.9875020980834961, "mean_height": 0.36831039190292358, "std_height": 1.0373314619064331, "count_pixels": 42, "percent_cover": 0.37950664136622392, "percent_above_0.1m": 19.047619047619047, "low_level_<0.5": 2.3809523809523809, "mid_level_0.5-2": 7.1428571428571423, "tall_2+": 7.1428571428571423 }, "geometry": { "type": "Point", "coordinates": [ -0.009352840630465, 51.600126592376292 ] } },
{ "type": "Feature", "properties": { "max_height": 7.7495012283325195, "mean_height": 1.8712626695632935, "std_height": 2.0080783367156982, "count_pixels": 43, "percent_cover": 0.38854251377970545, "percent_above_0.1m": 83.720930232558146, "low_level_<0.5": 13.953488372093023, "mid_level_0.5-2": 25.581395348837212, "tall_2+": 39.534883720930232 }, "geometry": { "type": "Point", "coordinates": [ -0.009152906412093, 51.60012319927786 ] } },
{ "type": "Feature", "properties": { "max_height": 5.1007518768310547, "mean_height": 0.79759246110916138, "std_height": 1.2995980978012085, "count_pixels": 41, "percent_cover": 0.37047076895274239, "percent_above_0.1m": 51.219512195121951, "low_level_<0.5": 17.073170731707318, "mid_level_0.5-2": 9.7560975609756095, "tall_2+": 19.512195121951219 }, "geometry": { "type": "Point", "coordinates": [ -0.009847966146739, 51.600242901552988 ] } },
{ "type": "Feature", "properties": { "max_height": 4.3542509078979492, "mean_height": 0.87757819890975952, "std_height": 1.1944538354873657, "count_pixels": 42, "percent_cover": 0.37950664136622392, "percent_above_0.1m": 52.380952380952387, "low_level_<0.5": 4.7619047619047619, "mid_level_0.5-2": 26.190476190476193, "tall_2+": 19.047619047619047 }, "geometry": { "type": "Point", "coordinates": [ -0.009648031382386, 51.600239509293132 ] } },
{ "type": "Feature", "properties": { "max_height": 9.5142526626586914, "mean_height": 0.7404710054397583, "std_height": 1.6296772956848145, "count_pixels": 42, "percent_cover": 0.37950664136622392, "percent_above_0.1m": 50.0, "low_level_<0.5": 11.904761904761903, "mid_level_0.5-2": 28.571428571428569, "tall_2+": 7.1428571428571423 }, "geometry": { "type": "Point", "coordinates": [ -0.009448096655846, 51.600236116692869 ] } },
{ "type": "Feature", "properties": { "max_height": 5.2362499237060547, "mean_height": 0.40023255348205566, "std_height": 1.1053898334503174, "count_pixels": 41, "percent_cover": 0.37047076895274239, "percent_above_0.1m": 34.146341463414636, "low_level_<0.5": 7.3170731707317067, "mid_level_0.5-2": 12.195121951219512, "tall_2+": 4.8780487804878048 }, "geometry": { "type": "Point", "coordinates": [ -0.009248161967122, 51.600232723752185 ] } }
]
}
