{
"type": "FeatureCollection",
"name": "57c3e8b5ee48_foliage",
"crs": { "type": "name", "properties": { "name": "urn:ogc:def:crs:OGC:1.3:CRS84" } },
"features": [
{ "type": "Feature", "properties": { "max_height": 6.0475025177001953, "mean_height": 0.88536053895950317, "std_height": 1.3647125959396362, "count_pixels": 41, "percent_cover": 0.50097751710654936, "percent_above_0.1m": 56.09756097560976, "low_level_<0.5": 9.7560975609756095, "mid_level_0.5-2": 21.951219512195124, "tall_2+": 17.073170731707318 }, "geometry": { "type": "Point", "coordinates": [ -0.012500897378472, 51.569180869325535 ] } },
{ "type": "Feature", "properties": { "max_height": 2.758000373840332, "mean_height": 1.3316408395767212, "std_height": 1.0008878707885742, "count_pixels": 41, "percent_cover": 0.50097751710654936, "percent_above_0.1m": 78.048780487804876, "low_level_<0.5": 9.7560975609756095, "mid_level_0.5-2": 36.585365853658537, "tall_2+": 31.707317073170731 }, "geometry": { "type": "Point", "coordinates": [ -0.012301098737349, 51.569177484013821 ] } },
{ "type": "Feature", "properties": { "max_height": 7.5122509002685547, "mean_height": 2.7605531215667725, "std_height": 2.8235597610473633, "count_pixels": 43, "percent_cover": 0.52541544477028346, "percent_above_0.1m": 65.116279069767444, "low_level_<0.5": 2.3255813953488373, "mid_level_0.5-2": 13.953488372093023, "tall_2+": 48.837209302325576 }, "geometry": { "type": "Point", "coordinates": [ -0.012596095586027, 51.569290393579401 ] } },
{ "type": "Feature", "properties": { "max_height": 2.4807510375976562, "mean_height": 0.15858201682567596, "std_height": 0.43249315023422241, "count_pixels": 43, "percent_cover": 0.52541544477028346, "percent_above_0.1m": 20.930232558139537, "low_level_<0.5": 13.953488372093023, "mid_level_0.5-2": 4.6511627906976747, "tall_2+": 2.3255813953488373 }, "geometry": { "type": "Point", "coordinates": [ -0.012396296443593, 51.569287008416147 ] } },
{ "type": "Feature", "properties": { "max_height": 2.6540002822875977, "mean_height": 0.84230875968933105, "std_height": 0.74132639169692993, "count_pixels": 43, "percent_cover": 0.52541544477028346, "percent_above_0.1m": 79.069767441860463, "low_level_<0.5": 20.930232558139537, "mid_level_0.5-2": 48.837209302325576, "tall_2+": 9.3023255813953494 }, "geometry": { "type": "Point", "coordinates": [ -0.012196497340798, 51.569283622913368 ] } },
{ "type": "Feature", "properties": { "max_height": 7.1672496795654297, "mean_height": 1.1681226491928101, "std_height": 1.9146856069564819, "count_pixels": 41, "percent_cover": 0.50097751710654936, "percent_above_0.1m": 51.219512195121951, "low_level_<0.5": 14.634146341463413, "mid_level_0.5-2": 4.8780487804878048, "tall_2+": 24.390243902439025 }, "geometry": { "type": "Point", "coordinates": [ -0.012691294255244, 51.569399917767051 ] } },
{ "type": "Feature", "properties": { "max_height": 4.7207508087158203, "mean_height": 0.36965915560722351, "std_height": 0.9392743706703186, "count_pixels": 41, "percent_cover": 0.50097751710654936, "percent_above_0.1m": 21.951219512195124, "low_level_<0.5": 2.4390243902439024, "mid_level_0.5-2": 9.7560975609756095, "tall_2+": 7.3170731707317067 }, "geometry": { "type": "Point", "coordinates": [ -0.012491494611491, 51.569396532752215 ] } },
{ "type": "Feature", "properties": { "max_height": 3.7775020599365234, "mean_height": 0.48673239350318909, "std_height": 0.9349866509437561, "count_pixels": 41, "percent_cover": 0.50097751710654936, "percent_above_0.1m": 31.707317073170731, "low_level_<0.5": 7.3170731707317067, "mid_level_0.5-2": 14.634146341463413, "tall_2+": 9.7560975609756095 }, "geometry": { "type": "Point", "coordinates": [ -0.012291695007382, 51.569393147397889 ] } },
{ "type": "Feature", "properties": { "max_height": 5.2357501983642578, "mean_height": 1.2765493392944336, "std_height": 1.4188051223754883, "count_pixels": 41, "percent_cover": 0.50097751710654936, "percent_above_0.1m": 68.292682926829272, "low_level_<0.5": 9.7560975609756095, "mid_level_0.5-2": 31.707317073170731, "tall_2+": 26.829268292682929 }, "geometry": { "type": "Point", "coordinates": [ -0.012091895442921, 51.569389761704066 ] } },
{ "type": "Feature", "properties": { "max_height": 6.287501335144043, "mean_height": 1.1379824876785278, "std_height": 1.2304238080978394, "count_pixels": 41, "percent_cover": 0.50097751710654936, "percent_above_0.1m": 82.926829268292678, "low_level_<0.5": 19.512195121951219, "mid_level_0.5-2": 46.341463414634148, "tall_2+": 14.634146341463413 }, "geometry": { "type": "Point", "coordinates": [ -0.011892095918111, 51.569386375670739 ] } },
{ "type": "Feature", "properties": { "max_height": 7.2237510681152344, "mean_height": 1.8861531019210815, "std_height": 1.7428141832351685, "count_pixels": 41, "percent_cover": 0.50097751710654936, "percent_above_0.1m": 85.365853658536579, "low_level_<0.5": 14.634146341463413, "mid_level_0.5-2": 24.390243902439025, "tall_2+": 46.341463414634148 }, "geometry": { "type": "Point", "coordinates": [ -0.012786493386118, 51.569509441888449 ] } },
{ "type": "Feature", "properties": { "max_height": 5.4507513046264648, "mean_height": 0.53595417737960815, "std_height": 1.1219667196273804, "count_pixels": 43, "percent_cover": 0.52541544477028346, "percent_above_0.1m": 44.186046511627907, "low_level_<0.5": 11.627906976744185, "mid_level_0.5-2": 16.279069767441861, "tall_2+": 9.3023255813953494 }, "geometry": { "type": "Point", "coordinates": [ -0.012586693241048, 51.569506057022032 ] } },
{ "type": "Feature", "properties": { "max_height": 0.063000679016113281, "mean_height": 0.017035661265254021, "std_height": 0.017997466027736664, "count_pixels": 43, "percent_cover": 0.52541544477028346, "percent_above_0.1m": 0.0, "low_level_<0.5": 0.0, "mid_level_0.5-2": 0.0, "tall_2+": 0.0 }, "geometry": { "type": "Point", "coordinates": [ -0.012386893135619, 51.569502671816146 ] } },
{ "type": "Feature", "properties": { "max_height": 2.6635007858276367, "mean_height": 0.20230871438980103, "std_height": 0.53624653816223145, "count_pixels": 43, "percent_cover": 0.52541544477028346, "percent_above_0.1m": 18.604651162790699, "low_level_<0.5": 2.3255813953488373, "mid_level_0.5-2": 11.627906976744185, "tall_2+": 2.3255813953488373 }, "geometry": { "type": "Point", "coordinates": [ -0.012187093069839, 51.569499286270762 ] } },
{ "type": "Feature", "properties": { "max_height": 0.38050079345703125, "mean_height": 0.046625789254903793, "std_height": 0.099321790039539337, "count_pixels": 38, "percent_cover": 0.46432062561094822, "percent_above_0.1m": 15.789473684210526, "low_level_<0.5": 10.526315789473683, "mid_level_0.5-2": 0.0, "tall_2+": 0.0 }, "geometry": { "type": "Point", "coordinates": [ -0.011987293043708, 51.569495900385888 ] } },
{ "type": "Feature", "properties": { "max_height": 2.1480007171630859, "mean_height": 0.51735526323318481, "std_height": 0.64365768432617188, "count_pixels": 43, "percent_cover": 0.52541544477028346, "percent_above_0.1m": 60.465116279069761, "low_level_<0.5": 20.930232558139537, "mid_level_0.5-2": 25.581395348837212, "tall_2+": 6.9767441860465116 }, "geometry": { "type": "Point", "coordinates": [ -0.011787493057225, 51.569492514161496 ] } },
{ "type": "Feature", "properties": { "max_height": 5.5972509384155273, "mean_height": 2.0457446575164795, "std_height": 1.7348705530166626, "count_pixels": 41, "percent_cover": 0.50097751710654936, "percent_above_0.1m": 92.682926829268297, "low_level_<0.5": 9.7560975609756095, "mid_level_0.5-2": 39.024390243902438, "tall_2+": 43.902439024390247 }, "geometry": { "type": "Point", "coordinates": [ -0.012681892332267, 51.569615581225605 ] } },
{ "type": "Feature", "properties": { "max_height": 0.62625026702880859, "mean_height": 0.063903063535690308, "std_height": 0.1380479484796524, "count_pixels": 41, "percent_cover": 0.50097751710654936, "percent_above_0.1m": 12.195121951219512, "low_level_<0.5": 4.8780487804878048, "mid_level_0.5-2": 4.8780487804878048, "tall_2+": 0.0 }, "geometry": { "type": "Point", "coordinates": [ -0.012482091725519, 51.569612196168165 ] } },
{ "type": "Feature", "properties": { "max_height": 2.442500114440918, "mean_height": 0.21596419811248779, "std_height": 0.59464383125305176, "count_pixels": 41, "percent_cover": 0.50097751710654936, "percent_above_0.1m": 17.073170731707318, "low_level_<0.5": 2.4390243902439024, "mid_level_0.5-2": 7.3170731707317067, "tall_2+": 4.8780487804878048 }, "geometry": { "type": "Point", "coordinates": [ -0.012282291158412, 51.569608810771214 ] } },
{ "type": "Feature", "properties": { "max_height": 3.925750732421875, "mean_height": 0.33732381463050842, "std_height": 0.80865538120269775, "count_pixels": 41, "percent_cover": 0.50097751710654936, "percent_above_0.1m": 19.512195121951219, "low_level_<0.5": 2.4390243902439024, "mid_level_0.5-2": 12.195121951219512, "tall_2+": 4.8780487804878048 }, "geometry": { "type": "Point", "coordinates": [ -0.012082490630956, 51.569605425034766 ] } },
{ "type": "Feature", "properties": { "max_height": 2.4695014953613281, "mean_height": 0.2921409010887146, "std_height": 0.61039459705352783, "count_pixels": 41, "percent_cover": 0.50097751710654936, "percent_above_0.1m": 24.390243902439025, "low_level_<0.5": 4.8780487804878048, "mid_level_0.5-2": 14.634146341463413, "tall_2+": 4.8780487804878048 }, "geometry": { "type": "Point", "coordinates": [ -0.011882690143151, 51.569602038958813 ] } },
{ "type": "Feature", "properties": { "max_height": 7.2537517547607422, "mean_height": 1.3301714658737183, "std_height": 1.4057555198669434, "count_pixels": 41, "percent_cover": 0.50097751710654936, "percent_above_0.1m": 70.731707317073173, "low_level_<0.5": 7.3170731707317067, "mid_level_0.5-2": 34.146341463414636, "tall_2+": 29.268292682926827 }, "geometry": { "type": "Point", "coordinates": [ -0.011682889695003, 51.569598652543377 ] } },
{ "type": "Feature", "properties": { "max_height": 4.8757514953613281, "mean_height": 1.6411286592483521, "std_height": 1.489295482635498, "count_pixels": 43, "percent_cover": 0.52541544477028346, "percent_above_0.1m": 83.720930232558146, "low_level_<0.5": 6.9767441860465116, "mid_level_0.5-2": 39.534883720930232, "tall_2+": 34.883720930232556 }, "geometry": { "type": "Point", "coordinates": [ -0.012577290777083, 51.569721720453927 ] } },
{ "type": "Feature", "properties": { "max_height": 4.537501335144043, "mean_height": 0.99081462621688843, "std_height": 1.1285064220428467, "count_pixels": 43, "percent_cover": 0.52541544477028346, "percent_above_0.1m": 65.116279069767444, "low_level_<0.5": 6.9767441860465116, "mid_level_0.5-2": 41.860465116279073, "tall_2+": 13.953488372093023 }, "geometry": { "type": "Point", "coordinates": [ -0.012377489708653, 51.569718335205415 ] } },
{ "type": "Feature", "properties": { "max_height": 4.3102512359619141, "mean_height": 0.80110549926757812, "std_height": 0.97272324562072754, "count_pixels": 43, "percent_cover": 0.52541544477028346, "percent_above_0.1m": 58.139534883720934, "low_level_<0.5": 9.3023255813953494, "mid_level_0.5-2": 37.209302325581397, "tall_2+": 11.627906976744185 }, "geometry": { "type": "Point", "coordinates": [ -0.012177688679868, 51.569714949617399 ] } },
{ "type": "Feature", "properties": { "max_height": 5.3249998092651367, "mean_height": 1.173586368560791, "std_height": 1.2593145370483398, "count_pixels": 38, "percent_cover": 0.46432062561094822, "percent_above_0.1m": 68.421052631578945, "low_level_<0.5": 5.2631578947368416, "mid_level_0.5-2": 36.84210526315789, "tall_2+": 26.315789473684209 }, "geometry": { "type": "Point", "coordinates": [ -0.011977887690731, 51.569711563689886 ] } },
{ "type": "Feature", "properties": { "max_height": 4.0942516326904297, "mean_height": 0.6693263053894043, "std_height": 1.0369952917098999, "count_pixels": 43, "percent_cover": 0.52541544477028346, "percent_above_0.1m": 46.511627906976742, "low_level_<0.5": 11.627906976744185, "mid_level_0.5-2": 20.930232558139537, "tall_2+": 11.627906976744185 }, "geometry": { "type": "Point", "coordinates": [ -0.011778086741256, 51.569708177422875 ] } },
{ "type": "Feature", "properties": { "max_height": 2.864501953125, "mean_height": 0.74715769290924072, "std_height": 0.80585342645645142, "count_pixels": 43, "percent_cover": 0.52541544477028346, "percent_above_0.1m": 60.465116279069761, "low_level_<0.5": 11.627906976744185, "mid_level_0.5-2": 41.860465116279073, "tall_2+": 6.9767441860465116 }, "geometry": { "type": "Point", "coordinates": [ -0.011578285831432, 51.569704790816367 ] } },
{ "type": "Feature", "properties": { "max_height": 10.422501564025879, "mean_height": 3.6149055957794189, "std_height": 2.9160363674163818, "count_pixels": 42, "percent_cover": 0.51319648093841641, "percent_above_0.1m": 97.61904761904762, "low_level_<0.5": 7.1428571428571423, "mid_level_0.5-2": 21.428571428571427, "tall_2+": 66.666666666666657 }, "geometry": { "type": "Point", "coordinates": [ -0.011378484961276, 51.569701403870361 ] } },
{ "type": "Feature", "properties": { "max_height": 3.7037496566772461, "mean_height": 0.78928112983703613, "std_height": 1.0959742069244385, "count_pixels": 41, "percent_cover": 0.50097751710654936, "percent_above_0.1m": 68.292682926829272, "low_level_<0.5": 21.951219512195124, "mid_level_0.5-2": 17.073170731707318, "tall_2+": 17.073170731707318 }, "geometry": { "type": "Point", "coordinates": [ -0.012472688720557, 51.569827859573373 ] } },
{ "type": "Feature", "properties": { "max_height": 6.5087518692016602, "mean_height": 2.3129093647003174, "std_height": 2.0290327072143555, "count_pixels": 41, "percent_cover": 0.50097751710654936, "percent_above_0.1m": 73.170731707317074, "low_level_<0.5": 7.3170731707317067, "mid_level_0.5-2": 12.195121951219512, "tall_2+": 53.658536585365859 }, "geometry": { "type": "Point", "coordinates": [ -0.012272887190441, 51.569824474133803 ] } },
{ "type": "Feature", "properties": { "max_height": 2.6572513580322266, "mean_height": 0.2289823442697525, "std_height": 0.57167661190032959, "count_pixels": 41, "percent_cover": 0.50097751710654936, "percent_above_0.1m": 19.512195121951219, "low_level_<0.5": 2.4390243902439024, "mid_level_0.5-2": 12.195121951219512, "tall_2+": 2.4390243902439024 }, "geometry": { "type": "Point", "coordinates": [ -0.012073085699978, 51.569821088354708 ] } },
{ "type": "Feature", "properties": { "max_height": 3.0537509918212891, "mean_height": 0.29598239064216614, "std_height": 0.7029566764831543, "count_pixels": 41, "percent_cover": 0.50097751710654936, "percent_above_0.1m": 29.268292682926827, "low_level_<0.5": 14.634146341463413, "mid_level_0.5-2": 4.8780487804878048, "tall_2+": 7.3170731707317067 }, "geometry": { "type": "Point", "coordinates": [ -0.011873284249166, 51.569817702236129 ] } },
{ "type": "Feature", "properties": { "max_height": 4.1725006103515625, "mean_height": 0.28643348813056946, "std_height": 0.6923641562461853, "count_pixels": 41, "percent_cover": 0.50097751710654936, "percent_above_0.1m": 41.463414634146339, "low_level_<0.5": 26.829268292682929, "mid_level_0.5-2": 7.3170731707317067, "tall_2+": 2.4390243902439024 }, "geometry": { "type": "Point", "coordinates": [ -0.011673482838009, 51.569814315778068 ] } },
{ "type": "Feature", "properties": { "max_height": 3.9952497482299805, "mean_height": 0.12625077366828918, "std_height": 0.61920750141143799, "count_pixels": 41, "percent_cover": 0.50097751710654936, "percent_above_0.1m": 9.7560975609756095, "low_level_<0.5": 7.3170731707317067, "mid_level_0.5-2": 0.0, "tall_2+": 2.4390243902439024 }, "geometry": { "type": "Point", "coordinates": [ -0.011473681466517, 51.569810928980495 ] } },
{ "type": "Feature", "properties": { "max_height": 5.2452497482299805, "mean_height": 1.7166019678115845, "std_height": 1.4035751819610596, "count_pixels": 42, "percent_cover": 0.51319648093841641, "percent_above_0.1m": 80.952380952380949, "low_level_<0.5": 4.7619047619047619, "mid_level_0.5-2": 35.714285714285715, "tall_2+": 38.095238095238095 }, "geometry": { "type": "Point", "coordinates": [ -0.011273880134686, 51.569807541843417 ] } },
{ "type": "Feature", "properties": { "max_height": 9.0352506637573242, "mean_height": 2.9985589981079102, "std_height": 2.7712609767913818, "count_pixels": 43, "percent_cover": 0.52541544477028346, "percent_above_0.1m": 93.023255813953483, "low_level_<0.5": 16.279069767441861, "mid_level_0.5-2": 23.255813953488371, "tall_2+": 53.488372093023251 }, "geometry": { "type": "Point", "coordinates": [ -0.012368086162686, 51.569933998583949 ] } },
{ "type": "Feature", "properties": { "max_height": 5.0074996948242188, "mean_height": 0.48152968287467957, "std_height": 1.0027744770050049, "count_pixels": 43, "percent_cover": 0.52541544477028346, "percent_above_0.1m": 32.558139534883722, "low_level_<0.5": 9.3023255813953494, "mid_level_0.5-2": 18.604651162790699, "tall_2+": 4.6511627906976747 }, "geometry": { "type": "Point", "coordinates": [ -0.012168284170884, 51.569930612953307 ] } },
{ "type": "Feature", "properties": { "max_height": 2.9802513122558594, "mean_height": 0.50375062227249146, "std_height": 0.92428684234619141, "count_pixels": 38, "percent_cover": 0.46432062561094822, "percent_above_0.1m": 36.84210526315789, "low_level_<0.5": 13.157894736842104, "mid_level_0.5-2": 5.2631578947368416, "tall_2+": 15.789473684210526 }, "geometry": { "type": "Point", "coordinates": [ -0.011968482218738, 51.569927226983147 ] } },
{ "type": "Feature", "properties": { "max_height": 0.42650127410888672, "mean_height": 0.096023783087730408, "std_height": 0.13638627529144287, "count_pixels": 43, "percent_cover": 0.52541544477028346, "percent_above_0.1m": 27.906976744186046, "low_level_<0.5": 20.930232558139537, "mid_level_0.5-2": 0.0, "tall_2+": 0.0 }, "geometry": { "type": "Point", "coordinates": [ -0.01176868030625, 51.569923840673518 ] } },
{ "type": "Feature", "properties": { "max_height": 4.3850002288818359, "mean_height": 1.0766693353652954, "std_height": 1.1594729423522949, "count_pixels": 43, "percent_cover": 0.52541544477028346, "percent_above_0.1m": 72.093023255813947, "low_level_<0.5": 16.279069767441861, "mid_level_0.5-2": 34.883720930232556, "tall_2+": 18.604651162790699 }, "geometry": { "type": "Point", "coordinates": [ -0.011568878433416, 51.56992045402437 ] } },
{ "type": "Feature", "properties": { "max_height": 0.03350067138671875, "mean_height": 0.0057804244570434093, "std_height": 0.011350899934768677, "count_pixels": 42, "percent_cover": 0.51319648093841641, "percent_above_0.1m": 0.0, "low_level_<0.5": 0.0, "mid_level_0.5-2": 0.0, "tall_2+": 0.0 }, "geometry": { "type": "Point", "coordinates": [ -0.011369076600244, 51.569917067035732 ] } },
{ "type": "Feature", "properties": { "max_height": 7.9445009231567383, "mean_height": 1.9284580945968628, "std_height": 2.2082986831665039, "count_pixels": 41, "percent_cover": 0.50097751710654936, "percent_above_0.1m": 75.609756097560975, "low_level_<0.5": 14.634146341463413, "mid_level_0.5-2": 19.512195121951219, "tall_2+": 39.024390243902438 }, "geometry": { "type": "Point", "coordinates": [ -0.011169274806745, 51.569913679707589 ] } },
{ "type": "Feature", "properties": { "max_height": 7.3267507553100586, "mean_height": 0.89876890182495117, "std_height": 1.3688747882843018, "count_pixels": 41, "percent_cover": 0.50097751710654936, "percent_above_0.1m": 80.487804878048792, "low_level_<0.5": 34.146341463414636, "mid_level_0.5-2": 26.829268292682929, "tall_2+": 12.195121951219512 }, "geometry": { "type": "Point", "coordinates": [ -0.010969473052913, 51.569910292039957 ] } },
{ "type": "Feature", "properties": { "max_height": 8.0292510986328125, "mean_height": 4.7464399337768555, "std_height": 2.5474793910980225, "count_pixels": 41, "percent_cover": 0.50097751710654936, "percent_above_0.1m": 100.0, "low_level_<0.5": 4.8780487804878048, "mid_level_0.5-2": 19.512195121951219, "tall_2+": 75.609756097560975 }, "geometry": { "type": "Point", "coordinates": [ -0.0124632855966, 51.570043522967836 ] } },
{ "type": "Feature", "properties": { "max_height": 2.8802509307861328, "mean_height": 0.68738490343093872, "std_height": 0.79833447933197021, "count_pixels": 41, "percent_cover": 0.50097751710654936, "percent_above_0.1m": 68.292682926829272, "low_level_<0.5": 17.073170731707318, "mid_level_0.5-2": 39.024390243902438, "tall_2+": 9.7560975609756095 }, "geometry": { "type": "Point", "coordinates": [ -0.012263483103464, 51.570040137485634 ] } },
{ "type": "Feature", "properties": { "max_height": 5.0665006637573242, "mean_height": 1.8730922937393188, "std_height": 1.8204575777053833, "count_pixels": 41, "percent_cover": 0.50097751710654936, "percent_above_0.1m": 73.170731707317074, "low_level_<0.5": 4.8780487804878048, "mid_level_0.5-2": 29.268292682926827, "tall_2+": 39.024390243902438 }, "geometry": { "type": "Point", "coordinates": [ -0.012063680649979, 51.570036751663928 ] } },
{ "type": "Feature", "properties": { "max_height": 7.9427509307861328, "mean_height": 1.5346715450286865, "std_height": 2.4494175910949707, "count_pixels": 41, "percent_cover": 0.50097751710654936, "percent_above_0.1m": 48.780487804878049, "low_level_<0.5": 9.7560975609756095, "mid_level_0.5-2": 9.7560975609756095, "tall_2+": 26.829268292682929 }, "geometry": { "type": "Point", "coordinates": [ -0.011863878236152, 51.570033365502731 ] } },
{ "type": "Feature", "properties": { "max_height": 1.5260009765625, "mean_height": 0.10409208387136459, "std_height": 0.3030504584312439, "count_pixels": 41, "percent_cover": 0.50097751710654936, "percent_above_0.1m": 17.073170731707318, "low_level_<0.5": 7.3170731707317067, "mid_level_0.5-2": 7.3170731707317067, "tall_2+": 0.0 }, "geometry": { "type": "Point", "coordinates": [ -0.011664075861976, 51.570029979002015 ] } },
{ "type": "Feature", "properties": { "max_height": 3.324000358581543, "mean_height": 0.26176875829696655, "std_height": 0.61954087018966675, "count_pixels": 41, "percent_cover": 0.50097751710654936, "percent_above_0.1m": 34.146341463414636, "low_level_<0.5": 17.073170731707318, "mid_level_0.5-2": 9.7560975609756095, "tall_2+": 2.4390243902439024 }, "geometry": { "type": "Point", "coordinates": [ -0.011464273527468, 51.570026592161803 ] } },
{ "type": "Feature", "properties": { "max_height": 5.0502510070800781, "mean_height": 0.67045301198959351, "std_height": 1.1044803857803345, "count_pixels": 42, "percent_cover": 0.51319648093841641, "percent_above_0.1m": 47.619047619047613, "low_level_<0.5": 14.285714285714285, "mid_level_0.5-2": 19.047619047619047, "tall_2+": 11.904761904761903 }, "geometry": { "type": "Point", "coordinates": [ -0.011264471232618, 51.5700232049821 ] } },
{ "type": "Feature", "properties": { "max_height": 0.82400035858154297, "mean_height": 0.043413449078798294, "std_height": 0.17224082350730896, "count_pixels": 43, "percent_cover": 0.52541544477028346, "percent_above_0.1m": 6.9767441860465116, "low_level_<0.5": 2.3255813953488373, "mid_level_0.5-2": 4.6511627906976747, "tall_2+": 0.0 }, "geometry": { "type": "Point", "coordinates": [ -0.011064668977443, 51.570019817462885 ] } },
{ "type": "Feature", "properties": { "max_height": 3.9635009765625, "mean_height": 1.0390588045120239, "std_height": 1.1146622896194458, "count_pixels": 43, "percent_cover": 0.52541544477028346, "percent_above_0.1m": 69.767441860465112, "low_level_<0.5": 11.627906976744185, "mid_level_0.5-2": 39.534883720930232, "tall_2+": 16.279069767441861 }, "geometry": { "type": "Point", "coordinates": [ -0.010864866761942, 51.570016429604181 ] } },
{ "type": "Feature", "properties": { "max_height": 7.9927520751953125, "mean_height": 2.8096344470977783, "std_height": 2.8101508617401123, "count_pixels": 43, "percent_cover": 0.52541544477028346, "percent_above_0.1m": 76.744186046511629, "low_level_<0.5": 4.6511627906976747, "mid_level_0.5-2": 20.930232558139537, "tall_2+": 48.837209302325576 }, "geometry": { "type": "Point", "coordinates": [ -0.012358682497719, 51.570149661951724 ] } },
{ "type": "Feature", "properties": { "max_height": 8.0602512359619141, "mean_height": 2.9145936965942383, "std_height": 2.735023021697998, "count_pixels": 43, "percent_cover": 0.52541544477028346, "percent_above_0.1m": 86.04651162790698, "low_level_<0.5": 13.953488372093023, "mid_level_0.5-2": 13.953488372093023, "tall_2+": 51.162790697674424 }, "geometry": { "type": "Point", "coordinates": [ -0.012158879542893, 51.57014627627845 ] } },
{ "type": "Feature", "properties": { "max_height": 5.2027511596679688, "mean_height": 1.9999347925186157, "std_height": 1.6578428745269775, "count_pixels": 38, "percent_cover": 0.46432062561094822, "percent_above_0.1m": 89.473684210526315, "low_level_<0.5": 18.421052631578945, "mid_level_0.5-2": 23.684210526315788, "tall_2+": 44.736842105263158 }, "geometry": { "type": "Point", "coordinates": [ -0.011959076627723, 51.570142890265679 ] } },
{ "type": "Feature", "properties": { "max_height": 4.7162504196166992, "mean_height": 0.61962288618087769, "std_height": 1.1945546865463257, "count_pixels": 43, "percent_cover": 0.52541544477028346, "percent_above_0.1m": 32.558139534883722, "low_level_<0.5": 6.9767441860465116, "mid_level_0.5-2": 13.953488372093023, "tall_2+": 11.627906976744185 }, "geometry": { "type": "Point", "coordinates": [ -0.011759273752204, 51.570139503913417 ] } },
{ "type": "Feature", "properties": { "max_height": 5.2019996643066406, "mean_height": 0.46896573901176453, "std_height": 1.0556305646896362, "count_pixels": 43, "percent_cover": 0.52541544477028346, "percent_above_0.1m": 27.906976744186046, "low_level_<0.5": 2.3255813953488373, "mid_level_0.5-2": 16.279069767441861, "tall_2+": 6.9767441860465116 }, "geometry": { "type": "Point", "coordinates": [ -0.011559470916349, 51.570136117221637 ] } },
{ "type": "Feature", "properties": { "max_height": 5.015751838684082, "mean_height": 0.73791152238845825, "std_height": 1.3002631664276123, "count_pixels": 42, "percent_cover": 0.51319648093841641, "percent_above_0.1m": 45.238095238095241, "low_level_<0.5": 14.285714285714285, "mid_level_0.5-2": 19.047619047619047, "tall_2+": 11.904761904761903 }, "geometry": { "type": "Point", "coordinates": [ -0.011359668120157, 51.570132730190345 ] } },
{ "type": "Feature", "properties": { "max_height": 0.97774982452392578, "mean_height": 0.032098282128572464, "std_height": 0.15283206105232239, "count_pixels": 41, "percent_cover": 0.50097751710654936, "percent_above_0.1m": 4.8780487804878048, "low_level_<0.5": 2.4390243902439024, "mid_level_0.5-2": 2.4390243902439024, "tall_2+": 0.0 }, "geometry": { "type": "Point", "coordinates": [ -0.011159865363633, 51.570129342819584 ] } },
{ "type": "Feature", "properties": { "max_height": 0.17500114440917969, "mean_height": 0.014397040009498596, "std_height": 0.031157132238149643, "count_pixels": 41, "percent_cover": 0.50097751710654936, "percent_above_0.1m": 2.4390243902439024, "low_level_<0.5": 2.4390243902439024, "mid_level_0.5-2": 0.0, "tall_2+": 0.0 }, "geometry": { "type": "Point", "coordinates": [ -0.01096006264678, 51.570125955109297 ] } },
{ "type": "Feature", "properties": { "max_height": 7.8322525024414062, "mean_height": 1.5138605833053589, "std_height": 1.7757077217102051, "count_pixels": 41, "percent_cover": 0.50097751710654936, "percent_above_0.1m": 75.609756097560975, "low_level_<0.5": 14.634146341463413, "mid_level_0.5-2": 24.390243902439025, "tall_2+": 31.707317073170731 }, "geometry": { "type": "Point", "coordinates": [ -0.011854472104106, 51.570249028758568 ] } },
{ "type": "Feature", "properties": { "max_height": 5.0002517700195312, "mean_height": 1.4716958999633789, "std_height": 1.7456938028335571, "count_pixels": 41, "percent_cover": 0.50097751710654936, "percent_above_0.1m": 51.219512195121951, "low_level_<0.5": 4.8780487804878048, "mid_level_0.5-2": 7.3170731707317067, "tall_2+": 39.024390243902438 }, "geometry": { "type": "Point", "coordinates": [ -0.011654668766903, 51.570245642215227 ] } },
{ "type": "Feature", "properties": { "max_height": 0.21725082397460938, "mean_height": 0.024890922009944916, "std_height": 0.050011135637760162, "count_pixels": 41, "percent_cover": 0.50097751710654936, "percent_above_0.1m": 7.3170731707317067, "low_level_<0.5": 7.3170731707317067, "mid_level_0.5-2": 0.0, "tall_2+": 0.0 }, "geometry": { "type": "Point", "coordinates": [ -0.011454865469359, 51.570242255332367 ] } },
{ "type": "Feature", "properties": { "max_height": 3.1030006408691406, "mean_height": 0.81144696474075317, "std_height": 0.97780942916870117, "count_pixels": 42, "percent_cover": 0.51319648093841641, "percent_above_0.1m": 54.761904761904766, "low_level_<0.5": 2.3809523809523809, "mid_level_0.5-2": 26.190476190476193, "tall_2+": 21.428571428571427 }, "geometry": { "type": "Point", "coordinates": [ -0.011255062211488, 51.570238868110032 ] } },
{ "type": "Feature", "properties": { "max_height": 3.5642509460449219, "mean_height": 1.3665182590484619, "std_height": 1.0510367155075073, "count_pixels": 43, "percent_cover": 0.52541544477028346, "percent_above_0.1m": 86.04651162790698, "low_level_<0.5": 13.953488372093023, "mid_level_0.5-2": 34.883720930232556, "tall_2+": 37.209302325581397 }, "geometry": { "type": "Point", "coordinates": [ -0.011055258993281, 51.570235480548178 ] } },
{ "type": "Feature", "properties": { "max_height": 4.9034996032714844, "mean_height": 1.8652858734130859, "std_height": 1.6397104263305664, "count_pixels": 43, "percent_cover": 0.52541544477028346, "percent_above_0.1m": 79.069767441860463, "low_level_<0.5": 9.3023255813953494, "mid_level_0.5-2": 20.930232558139537, "tall_2+": 46.511627906976742 }, "geometry": { "type": "Point", "coordinates": [ -0.011550063280236, 51.57035178040816 ] } },
{ "type": "Feature", "properties": { "max_height": 3.2885007858276367, "mean_height": 1.0099649429321289, "std_height": 1.0305979251861572, "count_pixels": 42, "percent_cover": 0.51319648093841641, "percent_above_0.1m": 66.666666666666657, "low_level_<0.5": 9.5238095238095237, "mid_level_0.5-2": 30.952380952380953, "tall_2+": 26.190476190476193 }, "geometry": { "type": "Point", "coordinates": [ -0.011350259521004, 51.570348393334243 ] } },
{ "type": "Feature", "properties": { "max_height": 0.501251220703125, "mean_height": 0.081183597445487976, "std_height": 0.13534516096115112, "count_pixels": 41, "percent_cover": 0.50097751710654936, "percent_above_0.1m": 24.390243902439025, "low_level_<0.5": 21.951219512195124, "mid_level_0.5-2": 2.4390243902439024, "tall_2+": 0.0 }, "geometry": { "type": "Point", "coordinates": [ -0.011150455801451, 51.570345005920814 ] } },
{ "type": "Feature", "properties": { "max_height": 2.9735012054443359, "mean_height": 0.97376281023025513, "std_height": 0.84773290157318115, "count_pixels": 41, "percent_cover": 0.50097751710654936, "percent_above_0.1m": 75.609756097560975, "low_level_<0.5": 12.195121951219512, "mid_level_0.5-2": 46.341463414634148, "tall_2+": 14.634146341463413 }, "geometry": { "type": "Point", "coordinates": [ -0.011445457292196, 51.57045791849221 ] } }
]
}
