{
"type": "FeatureCollection",
"name": "57c3e8b5ee48_visibility",
"crs": { "type": "name", "properties": { "name": "urn:ogc:def:crs:OGC:1.3:CRS84" } },
"features": [
{ "type": "Feature", "properties": { "visible_points": 4, "total_points": 55, "visibility_pct": 7.2727272727272725 }, "geometry": { "type": "Point", "coordinates": [ -0.012500897378472, 51.569180869325535 ] } },
{ "type": "Feature", "properties": { "visible_points": 0, "total_points": 58, "visibility_pct": 0.0 }, "geometry": { "type": "Point", "coordinates": [ -0.012301098737349, 51.569177484013821 ] } },
{ "type": "Feature", "properties": { "visible_points": 0, "total_points": 60, "visibility_pct": 0.0 }, "geometry": { "type": "Point", "coordinates": [ -0.012596095586027, 51.569290393579401 ] } },
{ "type": "Feature", "properties": { "visible_points": 5, "total_points": 65, "visibility_pct": 7.6923076923076925 }, "geometry": { "type": "Point", "coordinates": [ -0.012396296443593, 51.569287008416147 ] } },
{ "type": "Feature", "properties": { "visible_points": 1, "total_points": 68, "visibility_pct": 1.4705882352941175 }, "geometry": { "type": "Point", "coordinates": [ -0.012196497340798, 51.569283622913368 ] } },
{ "type": "Feature", "properties": { "visible_points": 0, "total_points": 63, "visibility_pct": 0.0 }, "geometry": { "type": "Point", "coordinates": [ -0.012691294255244, 51.569399917767051 ] } },
{ "type": "Feature", "properties": { "visible_points": 7, "total_points": 70, "visibility_pct": 10.0 }, "geometry": { "type": "Point", "coordinates": [ -0.012491494611491, 51.569396532752215 ] } },
{ "type": "Feature", "properties": { "visible_points": 7, "total_points": 75, "visibility_pct": 9.3333333333333339 }, "geometry": { "type": "Point", "coordinates": [ -0.012291695007382, 51.569393147397889 ] } },
{ "type": "Feature", "properties": { "visible_points": 2, "total_points": 79, "visibility_pct": 2.5316455696202533 }, "geometry": { "type": "Point", "coordinates": [ -0.012091895442921, 51.569389761704066 ] } },
{ "type": "Feature", "properties": { "visible_points": 0, "total_points": 77, "visibility_pct": 0.0 }, "geometry": { "type": "Point", "coordinates": [ -0.011892095918111, 51.569386375670739 ] } },
{ "type": "Feature", "properties": { "visible_points": 0, "total_points": 66, "visibility_pct": 0.0 }, "geometry": { "type": "Point", "coordinates": [ -0.012786493386118, 51.569509441888449 ] } },
{ "type": "Feature", "properties": { "visible_points": 5, "total_points": 74, "visibility_pct": 6.756756756756757 }, "geometry": { "type": "Point", "coordinates": [ -0.012586693241048, 51.569506057022032 ] } },
{ "type": "Feature", "properties": { "visible_points": 6, "total_points": 81, "visibility_pct": 7.4074074074074066 }, "geometry": { "type": "Point", "coordinates": [ -0.012386893135619, 51.569502671816146 ] } },
{ "type": "Feature", "properties": { "visible_points": 5, "total_points": 86, "visibility_pct": 5.8139534883720927 }, "geometry": { "type": "Point", "coordinates": [ -0.012187093069839, 51.569499286270762 ] } },
{ "type": "Feature", "properties": { "visible_points": 4, "total_points": 90, "visibility_pct": 4.4444444444444446 }, "geometry": { "type": "Point", "coordinates": [ -0.011987293043708, 51.569495900385888 ] } },
{ "type": "Feature", "properties": { "visible_points": 3, "total_points": 84, "visibility_pct": 3.5714285714285712 }, "geometry": { "type": "Point", "coordinates": [ -0.011787493057225, 51.569492514161496 ] } },
{ "type": "Feature", "properties": { "visible_points": 0, "total_points": 76, "visibility_pct": 0.0 }, "geometry": { "type": "Point", "coordinates": [ -0.012681892332267, 51.569615581225605 ] } },
{ "type": "Feature", "properties": { "visible_points": 7, "total_points": 85, "visibility_pct": 8.235294117647058 }, "geometry": { "type": "Point", "coordinates": [ -0.012482091725519, 51.569612196168165 ] } },
{ "type": "Feature", "properties": { "visible_points": 5, "total_points": 92, "visibility_pct": 5.4347826086956523 }, "geometry": { "type": "Point", "coordinates": [ -0.012282291158412, 51.569608810771214 ] } },
{ "type": "Feature", "properties": { "visible_points": 2, "total_points": 98, "visibility_pct": 2.0408163265306123 }, "geometry": { "type": "Point", "coordinates": [ -0.012082490630956, 51.569605425034766 ] } },
{ "type": "Feature", "properties": { "visible_points": 1, "total_points": 96, "visibility_pct": 1.0416666666666665 }, "geometry": { "type": "Point", "coordinates": [ -0.011882690143151, 51.569602038958813 ] } },
{ "type": "Feature", "properties": { "visible_points": 0, "total_points": 88, "visibility_pct": 0.0 }, "geometry": { "type": "Point", "coordinates": [ -0.011682889695003, 51.569598652543377 ] } },
{ "type": "Feature", "properties": { "visible_points": 0, "total_points": 83, "visibility_pct": 0.0 }, "geometry": { "type": "Point", "coordinates": [ -0.012577290777083, 51.569721720453927 ] } },
{ "type": "Feature", "properties": { "visible_points": 0, "total_points": 94, "visibility_pct": 0.0 }, "geometry": { "type": "Point", "coordinates": [ -0.012377489708653, 51.569718335205415 ] } },
{ "type": "Feature", "properties": { "visible_points": 1, "total_points": 102, "visibility_pct": 0.98039215686274506 }, "geometry": { "type": "Point", "coordinates": [ -0.012177688679868, 51.569714949617399 ] } },
{ "type": "Feature", "properties": { "visible_points": 0, "total_points": 104, "visibility_pct": 0.0 }, "geometry": { "type": "Point", "coordinates": [ -0.011977887690731, 51.569711563689886 ] } },
{ "type": "Feature", "properties": { "visible_points": 4, "total_points": 100, "visibility_pct": 4.0 }, "geometry": { "type": "Point", "coordinates": [ -0.011778086741256, 51.569708177422875 ] } },
{ "type": "Feature", "properties": { "visible_points": 2, "total_points": 92, "visibility_pct": 2.1739130434782608 }, "geometry": { "type": "Point", "coordinates": [ -0.011578285831432, 51.569704790816367 ] } },
{ "type": "Feature", "properties": { "visible_points": 0, "total_points": 82, "visibility_pct": 0.0 }, "geometry": { "type": "Point", "coordinates": [ -0.011378484961276, 51.569701403870361 ] } },
{ "type": "Feature", "properties": { "visible_points": 0, "total_points": 86, "visibility_pct": 0.0 }, "geometry": { "type": "Point", "coordinates": [ -0.012472688720557, 51.569827859573373 ] } },
{ "type": "Feature", "properties": { "visible_points": 0, "total_points": 97, "visibility_pct": 0.0 }, "geometry": { "type": "Point", "coordinates": [ -0.012272887190441, 51.569824474133803 ] } },
{ "type": "Feature", "properties": { "visible_points": 2, "total_points": 103, "visibility_pct": 1.9417475728155338 }, "geometry": { "type": "Point", "coordinates": [ -0.012073085699978, 51.569821088354708 ] } },
{ "type": "Feature", "properties": { "visible_points": 7, "total_points": 105, "visibility_pct": 6.666666666666667 }, "geometry": { "type": "Point", "coordinates": [ -0.011873284249166, 51.569817702236129 ] } },
{ "type": "Feature", "properties": { "visible_points": 4, "total_points": 102, "visibility_pct": 3.9215686274509802 }, "geometry": { "type": "Point", "coordinates": [ -0.011673482838009, 51.569814315778068 ] } },
{ "type": "Feature", "properties": { "visible_points": 4, "total_points": 93, "visibility_pct": 4.3010752688172049 }, "geometry": { "type": "Point", "coordinates": [ -0.011473681466517, 51.569810928980495 ] } },
{ "type": "Feature", "properties": { "visible_points": 0, "total_points": 80, "visibility_pct": 0.0 }, "geometry": { "type": "Point", "coordinates": [ -0.011273880134686, 51.569807541843417 ] } },
{ "type": "Feature", "properties": { "visible_points": 0, "total_points": 86, "visibility_pct": 0.0 }, "geometry": { "type": "Point", "coordinates": [ -0.012368086162686, 51.569933998583949 ] } },
{ "type": "Feature", "properties": { "visible_points": 1, "total_points": 96, "visibility_pct": 1.0416666666666665 }, "geometry": { "type": "Point", "coordinates": [ -0.012168284170884, 51.569930612953307 ] } },
{ "type": "Feature", "properties": { "visible_points": 1, "total_points": 102, "visibility_pct": 0.98039215686274506 }, "geometry": { "type": "Point", "coordinates": [ -0.011968482218738, 51.569927226983147 ] } },
{ "type": "Feature", "properties": { "visible_points": 4, "total_points": 105, "visibility_pct": 3.8095238095238098 }, "geometry": { "type": "Point", "coordinates": [ -0.01176868030625, 51.569923840673518 ] } },
{ "type": "Feature", "properties": { "visible_points": 0, "total_points": 99, "visibility_pct": 0.0 }, "geometry": { "type": "Point", "coordinates": [ -0.011568878433416, 51.56992045402437 ] } },
{ "type": "Feature", "properties": { "visible_points": 2, "total_points": 88, "visibility_pct": 2.2727272727272729 }, "geometry": { "type": "Point", "coordinates": [ -0.011369076600244, 51.569917067035732 ] } },
{ "type": "Feature", "properties": { "visible_points": 1, "total_points": 77, "visibility_pct": 1.2987012987012987 }, "geometry": { "type": "Point", "coordinates": [ -0.011169274806745, 51.569913679707589 ] } },
{ "type": "Feature", "properties": { "visible_points": 0, "total_points": 65, "visibility_pct": 0.0 }, "geometry": { "type": "Point", "coordinates": [ -0.010969473052913, 51.569910292039957 ] } },
{ "type": "Feature", "properties": { "visible_points": 0, "total_points": 73, "visibility_pct": 0.0 }, "geometry": { "type": "Point", "coordinates": [ -0.0124632855966, 51.570043522967836 ] } },
{ "type": "Feature", "properties": { "visible_points": 0, "total_points": 84, "visibility_pct": 0.0 }, "geometry": { "type": "Point", "coordinates": [ -0.012263483103464, 51.570040137485634 ] } },
{ "type": "Feature", "properties": { "visible_points": 0, "total_points": 93, "visibility_pct": 0.0 }, "geometry": { "type": "Point", "coordinates": [ -0.012063680649979, 51.570036751663928 ] } },
{ "type": "Feature", "properties": { "visible_points": 2, "total_points": 100, "visibility_pct": 2.0 }, "geometry": { "type": "Point", "coordinates": [ -0.011863878236152, 51.570033365502731 ] } },
{ "type": "Feature", "properties": { "visible_points": 4, "total_points": 100, "visibility_pct": 4.0 }, "geometry": { "type": "Point", "coordinates": [ -0.011664075861976, 51.570029979002015 ] } },
{ "type": "Feature", "properties": { "visible_points": 4, "total_points": 90, "visibility_pct": 4.4444444444444446 }, "geometry": { "type": "Point", "coordinates": [ -0.011464273527468, 51.570026592161803 ] } },
{ "type": "Feature", "properties": { "visible_points": 0, "total_points": 80, "visibility_pct": 0.0 }, "geometry": { "type": "Point", "coordinates": [ -0.011264471232618, 51.5700232049821 ] } },
{ "type": "Feature", "properties": { "visible_points": 3, "total_points": 70, "visibility_pct": 4.2857142857142856 }, "geometry": { "type": "Point", "coordinates": [ -0.011064668977443, 51.570019817462885 ] } },
{ "type": "Feature", "properties": { "visible_points": 0, "total_points": 59, "visibility_pct": 0.0 }, "geometry": { "type": "Point", "coordinates": [ -0.010864866761942, 51.570016429604181 ] } },
{ "type": "Feature", "properties": { "visible_points": 0, "total_points": 71, "visibility_pct": 0.0 }, "geometry": { "type": "Point", "coordinates": [ -0.012358682497719, 51.570149661951724 ] } },
{ "type": "Feature", "properties": { "visible_points": 0, "total_points": 80, "visibility_pct": 0.0 }, "geometry": { "type": "Point", "coordinates": [ -0.012158879542893, 51.57014627627845 ] } },
{ "type": "Feature", "properties": { "visible_points": 0, "total_points": 88, "visibility_pct": 0.0 }, "geometry": { "type": "Point", "coordinates": [ -0.011959076627723, 51.570142890265679 ] } },
{ "type": "Feature", "properties": { "visible_points": 0, "total_points": 92, "visibility_pct": 0.0 }, "geometry": { "type": "Point", "coordinates": [ -0.011759273752204, 51.570139503913417 ] } },
{ "type": "Feature", "properties": { "visible_points": 2, "total_points": 89, "visibility_pct": 2.2471910112359552 }, "geometry": { "type": "Point", "coordinates": [ -0.011559470916349, 51.570136117221637 ] } },
{ "type": "Feature", "properties": { "visible_points": 2, "total_points": 80, "visibility_pct": 2.5 }, "geometry": { "type": "Point", "coordinates": [ -0.011359668120157, 51.570132730190345 ] } },
{ "type": "Feature", "properties": { "visible_points": 2, "total_points": 71, "visibility_pct": 2.8169014084507045 }, "geometry": { "type": "Point", "coordinates": [ -0.011159865363633, 51.570129342819584 ] } },
{ "type": "Feature", "properties": { "visible_points": 1, "total_points": 62, "visibility_pct": 1.6129032258064515 }, "geometry": { "type": "Point", "coordinates": [ -0.01096006264678, 51.570125955109297 ] } },
{ "type": "Feature", "properties": { "visible_points": 0, "total_points": 79, "visibility_pct": 0.0 }, "geometry": { "type": "Point", "coordinates": [ -0.011854472104106, 51.570249028758568 ] } },
{ "type": "Feature", "properties": { "visible_points": 1, "total_points": 82, "visibility_pct": 1.2195121951219512 }, "geometry": { "type": "Point", "coordinates": [ -0.011654668766903, 51.570245642215227 ] } },
{ "type": "Feature", "properties": { "visible_points": 3, "total_points": 78, "visibility_pct": 3.8461538461538463 }, "geometry": { "type": "Point", "coordinates": [ -0.011454865469359, 51.570242255332367 ] } },
{ "type": "Feature", "properties": { "visible_points": 4, "total_points": 70, "visibility_pct": 5.7142857142857144 }, "geometry": { "type": "Point", "coordinates": [ -0.011255062211488, 51.570238868110032 ] } },
{ "type": "Feature", "properties": { "visible_points": 0, "total_points": 62, "visibility_pct": 0.0 }, "geometry": { "type": "Point", "coordinates": [ -0.011055258993281, 51.570235480548178 ] } },
{ "type": "Feature", "properties": { "visible_points": 0, "total_points": 70, "visibility_pct": 0.0 }, "geometry": { "type": "Point", "coordinates": [ -0.011550063280236, 51.57035178040816 ] } },
{ "type": "Feature", "properties": { "visible_points": 0, "total_points": 66, "visibility_pct": 0.0 }, "geometry": { "type": "Point", "coordinates": [ -0.011350259521004, 51.570348393334243 ] } },
{ "type": "Feature", "properties": { "visible_points": 1, "total_points": 59, "visibility_pct": 1.6949152542372881 }, "geometry": { "type": "Point", "coordinates": [ -0.011150455801451, 51.570345005920814 ] } },
{ "type": "Feature", "properties": { "visible_points": 0, "total_points": 58, "visibility_pct": 0.0 }, "geometry": { "type": "Point", "coordinates": [ -0.011445457292196, 51.57045791849221 ] } }
]
}
