{
"type": "FeatureCollection",
"name": "cc1d3ed59f9b_visibility",
"crs": { "type": "name", "properties": { "name": "urn:ogc:def:crs:OGC:1.3:CRS84" } },
"features": [
{ "type": "Feature", "properties": { "visible_points": 8, "total_points": 36, "visibility_pct": 22.222222222222221 }, "geometry": { "type": "Point", "coordinates": [ 0.000166438410414, 51.560853660037651 ] } },
{ "type": "Feature", "properties": { "visible_points": 2, "total_points": 40, "visibility_pct": 5.0 }, "geometry": { "type": "Point", "coordinates": [ 0.000366196203359, 51.560850251705617 ] } },
{ "type": "Feature", "properties": { "visible_points": 8, "total_points": 42, "visibility_pct": 19.047619047619047 }, "geometry": { "type": "Point", "coordinates": [ 0.000271048506308, 51.560959786780778 ] } },
{ "type": "Feature", "properties": { "visible_points": 0, "total_points": 46, "visibility_pct": 0.0 }, "geometry": { "type": "Point", "coordinates": [ 0.000470806752035, 51.560956378263178 ] } },
{ "type": "Feature", "properties": { "visible_points": 8, "total_points": 48, "visibility_pct": 16.666666666666664 }, "geometry": { "type": "Point", "coordinates": [ 0.000375659094328, 51.561065913420848 ] } },
{ "type": "Feature", "properties": { "visible_points": 9, "total_points": 52, "visibility_pct": 17.307692307692307 }, "geometry": { "type": "Point", "coordinates": [ 0.000575417792851, 51.561062504717647 ] } },
{ "type": "Feature", "properties": { "visible_points": 8, "total_points": 55, "visibility_pct": 14.545454545454545 }, "geometry": { "type": "Point", "coordinates": [ 0.000775176452035, 51.561059095674715 ] } },
{ "type": "Feature", "properties": { "visible_points": 7, "total_points": 53, "visibility_pct": 13.20754716981132 }, "geometry": { "type": "Point", "coordinates": [ 0.000480270174483, 51.561172039957839 ] } },
{ "type": "Feature", "properties": { "visible_points": 10, "total_points": 57, "visibility_pct": 17.543859649122805 }, "geometry": { "type": "Point", "coordinates": [ 0.000680029325795, 51.561168631069073 ] } },
{ "type": "Feature", "properties": { "visible_points": 12, "total_points": 60, "visibility_pct": 20.0 }, "geometry": { "type": "Point", "coordinates": [ 0.000879788437769, 51.561165221840561 ] } },
{ "type": "Feature", "properties": { "visible_points": 10, "total_points": 58, "visibility_pct": 17.241379310344829 }, "geometry": { "type": "Point", "coordinates": [ 0.000584881746774, 51.561278166391773 ] } },
{ "type": "Feature", "properties": { "visible_points": 12, "total_points": 61, "visibility_pct": 19.672131147540984 }, "geometry": { "type": "Point", "coordinates": [ 0.000784641350876, 51.561274757317406 ] } },
{ "type": "Feature", "properties": { "visible_points": 10, "total_points": 62, "visibility_pct": 16.129032258064516 }, "geometry": { "type": "Point", "coordinates": [ 0.000984400915646, 51.5612713479033 ] } },
{ "type": "Feature", "properties": { "visible_points": 12, "total_points": 62, "visibility_pct": 19.35483870967742 }, "geometry": { "type": "Point", "coordinates": [ 0.000889253868103, 51.561380883462689 ] } },
{ "type": "Feature", "properties": { "visible_points": 3, "total_points": 62, "visibility_pct": 4.838709677419355 }, "geometry": { "type": "Point", "coordinates": [ 0.001089013885663, 51.561377473863018 ] } },
{ "type": "Feature", "properties": { "visible_points": 12, "total_points": 62, "visibility_pct": 19.35483870967742 }, "geometry": { "type": "Point", "coordinates": [ 0.000993866877472, 51.561487009504901 ] } },
{ "type": "Feature", "properties": { "visible_points": 10, "total_points": 63, "visibility_pct": 15.873015873015872 }, "geometry": { "type": "Point", "coordinates": [ 0.00119362734783, 51.561483599719629 ] } },
{ "type": "Feature", "properties": { "visible_points": 12, "total_points": 63, "visibility_pct": 19.047619047619047 }, "geometry": { "type": "Point", "coordinates": [ 0.001098480378995, 51.561593135444028 ] } },
{ "type": "Feature", "properties": { "visible_points": 7, "total_points": 64, "visibility_pct": 10.9375 }, "geometry": { "type": "Point", "coordinates": [ 0.001298241302147, 51.561589725473176 ] } },
{ "type": "Feature", "properties": { "visible_points": 10, "total_points": 63, "visibility_pct": 15.873015873015872 }, "geometry": { "type": "Point", "coordinates": [ 0.001498002185949, 51.561586315162572 ] } },
{ "type": "Feature", "properties": { "visible_points": 14, "total_points": 63, "visibility_pct": 22.222222222222221 }, "geometry": { "type": "Point", "coordinates": [ 0.001203094372671, 51.56169926128009 ] } },
{ "type": "Feature", "properties": { "visible_points": 12, "total_points": 64, "visibility_pct": 18.75 }, "geometry": { "type": "Point", "coordinates": [ 0.00140285574862, 51.561695851123645 ] } },
{ "type": "Feature", "properties": { "visible_points": 7, "total_points": 64, "visibility_pct": 10.9375 }, "geometry": { "type": "Point", "coordinates": [ 0.001602617085218, 51.561692440627453 ] } },
{ "type": "Feature", "properties": { "visible_points": 16, "total_points": 62, "visibility_pct": 25.806451612903224 }, "geometry": { "type": "Point", "coordinates": [ 0.001307708858501, 51.561805387013088 ] } },
{ "type": "Feature", "properties": { "visible_points": 16, "total_points": 64, "visibility_pct": 25.0 }, "geometry": { "type": "Point", "coordinates": [ 0.001507470687255, 51.561801976671049 ] } },
{ "type": "Feature", "properties": { "visible_points": 4, "total_points": 64, "visibility_pct": 6.25 }, "geometry": { "type": "Point", "coordinates": [ 0.001707232476647, 51.561798565989264 ] } },
{ "type": "Feature", "properties": { "visible_points": 14, "total_points": 64, "visibility_pct": 21.875 }, "geometry": { "type": "Point", "coordinates": [ 0.001612086118048, 51.561908102115368 ] } },
{ "type": "Feature", "properties": { "visible_points": 13, "total_points": 64, "visibility_pct": 20.3125 }, "geometry": { "type": "Point", "coordinates": [ 0.001811848360242, 51.561904691247996 ] } },
{ "type": "Feature", "properties": { "visible_points": 9, "total_points": 62, "visibility_pct": 14.516129032258066 }, "geometry": { "type": "Point", "coordinates": [ 0.002011610563078, 51.561901280040871 ] } },
{ "type": "Feature", "properties": { "visible_points": 13, "total_points": 64, "visibility_pct": 20.3125 }, "geometry": { "type": "Point", "coordinates": [ 0.00171670204101, 51.562014227456622 ] } },
{ "type": "Feature", "properties": { "visible_points": 15, "total_points": 64, "visibility_pct": 23.4375 }, "geometry": { "type": "Point", "coordinates": [ 0.001916464736005, 51.562010816403635 ] } },
{ "type": "Feature", "properties": { "visible_points": 10, "total_points": 63, "visibility_pct": 15.873015873015872 }, "geometry": { "type": "Point", "coordinates": [ 0.002116227391638, 51.56200740501091 ] } },
{ "type": "Feature", "properties": { "visible_points": 12, "total_points": 64, "visibility_pct": 18.75 }, "geometry": { "type": "Point", "coordinates": [ 0.001821318456146, 51.562120352694798 ] } },
{ "type": "Feature", "properties": { "visible_points": 13, "total_points": 65, "visibility_pct": 20.0 }, "geometry": { "type": "Point", "coordinates": [ 0.002021081603942, 51.562116941456225 ] } },
{ "type": "Feature", "properties": { "visible_points": 10, "total_points": 64, "visibility_pct": 15.625 }, "geometry": { "type": "Point", "coordinates": [ 0.002220844712372, 51.562113529877884 ] } },
{ "type": "Feature", "properties": { "visible_points": 11, "total_points": 64, "visibility_pct": 17.1875 }, "geometry": { "type": "Point", "coordinates": [ 0.001925935363454, 51.562226477829874 ] } },
{ "type": "Feature", "properties": { "visible_points": 13, "total_points": 65, "visibility_pct": 20.0 }, "geometry": { "type": "Point", "coordinates": [ 0.002125698964051, 51.5622230664057 ] } },
{ "type": "Feature", "properties": { "visible_points": 4, "total_points": 64, "visibility_pct": 6.25 }, "geometry": { "type": "Point", "coordinates": [ 0.002325462525289, 51.56221965464178 ] } },
{ "type": "Feature", "properties": { "visible_points": 14, "total_points": 64, "visibility_pct": 21.875 }, "geometry": { "type": "Point", "coordinates": [ 0.002230316816349, 51.562329191252104 ] } },
{ "type": "Feature", "properties": { "visible_points": 5, "total_points": 63, "visibility_pct": 7.9365079365079358 }, "geometry": { "type": "Point", "coordinates": [ 0.002430080830384, 51.562325779302597 ] } },
{ "type": "Feature", "properties": { "visible_points": 14, "total_points": 63, "visibility_pct": 22.222222222222221 }, "geometry": { "type": "Point", "coordinates": [ 0.002334935160824, 51.56243531599543 ] } },
{ "type": "Feature", "properties": { "visible_points": 13, "total_points": 62, "visibility_pct": 20.967741935483872 }, "geometry": { "type": "Point", "coordinates": [ 0.002534699627666, 51.562431903860301 ] } },
{ "type": "Feature", "properties": { "visible_points": 15, "total_points": 62, "visibility_pct": 24.193548387096776 }, "geometry": { "type": "Point", "coordinates": [ 0.002439553997492, 51.56254144063567 ] } },
{ "type": "Feature", "properties": { "visible_points": 13, "total_points": 61, "visibility_pct": 21.311475409836063 }, "geometry": { "type": "Point", "coordinates": [ 0.002639318917139, 51.562538028314947 ] } },
{ "type": "Feature", "properties": { "visible_points": 15, "total_points": 61, "visibility_pct": 24.590163934426229 }, "geometry": { "type": "Point", "coordinates": [ 0.002544173326347, 51.562647565172824 ] } },
{ "type": "Feature", "properties": { "visible_points": 14, "total_points": 62, "visibility_pct": 22.58064516129032 }, "geometry": { "type": "Point", "coordinates": [ 0.002743938698805, 51.562644152666493 ] } },
{ "type": "Feature", "properties": { "visible_points": 8, "total_points": 61, "visibility_pct": 13.114754098360656 }, "geometry": { "type": "Point", "coordinates": [ 0.002943704031879, 51.562640739820417 ] } },
{ "type": "Feature", "properties": { "visible_points": 15, "total_points": 61, "visibility_pct": 24.590163934426229 }, "geometry": { "type": "Point", "coordinates": [ 0.002648793147401, 51.562753689606907 ] } },
{ "type": "Feature", "properties": { "visible_points": 12, "total_points": 62, "visibility_pct": 19.35483870967742 }, "geometry": { "type": "Point", "coordinates": [ 0.002848558972669, 51.562750276914961 ] } },
{ "type": "Feature", "properties": { "visible_points": 10, "total_points": 61, "visibility_pct": 16.393442622950818 }, "geometry": { "type": "Point", "coordinates": [ 0.003048324758551, 51.562746863883262 ] } },
{ "type": "Feature", "properties": { "visible_points": 13, "total_points": 61, "visibility_pct": 21.311475409836063 }, "geometry": { "type": "Point", "coordinates": [ 0.002753413460658, 51.562859813937884 ] } },
{ "type": "Feature", "properties": { "visible_points": 9, "total_points": 62, "visibility_pct": 14.516129032258066 }, "geometry": { "type": "Point", "coordinates": [ 0.002953179738733, 51.562856401060337 ] } },
{ "type": "Feature", "properties": { "visible_points": 9, "total_points": 61, "visibility_pct": 14.754098360655737 }, "geometry": { "type": "Point", "coordinates": [ 0.003152945977428, 51.56285298784303 ] } },
{ "type": "Feature", "properties": { "visible_points": 10, "total_points": 62, "visibility_pct": 16.129032258064516 }, "geometry": { "type": "Point", "coordinates": [ 0.002858034266117, 51.562965938165782 ] } },
{ "type": "Feature", "properties": { "visible_points": 6, "total_points": 63, "visibility_pct": 9.5238095238095237 }, "geometry": { "type": "Point", "coordinates": [ 0.003057800997002, 51.56296252510262 ] } },
{ "type": "Feature", "properties": { "visible_points": 8, "total_points": 61, "visibility_pct": 13.114754098360656 }, "geometry": { "type": "Point", "coordinates": [ 0.003257567688511, 51.562959111699712 ] } },
{ "type": "Feature", "properties": { "visible_points": 9, "total_points": 63, "visibility_pct": 14.285714285714285 }, "geometry": { "type": "Point", "coordinates": [ 0.003162422747487, 51.563068649041817 ] } },
{ "type": "Feature", "properties": { "visible_points": 5, "total_points": 60, "visibility_pct": 8.3333333333333321 }, "geometry": { "type": "Point", "coordinates": [ 0.0033621898918, 51.56306523545328 ] } },
{ "type": "Feature", "properties": { "visible_points": 12, "total_points": 59, "visibility_pct": 20.33898305084746 }, "geometry": { "type": "Point", "coordinates": [ 0.003267044990182, 51.563174772877908 ] } },
{ "type": "Feature", "properties": { "visible_points": 3, "total_points": 56, "visibility_pct": 5.3571428571428568 }, "geometry": { "type": "Point", "coordinates": [ 0.00346681258731, 51.563171359103777 ] } },
{ "type": "Feature", "properties": { "visible_points": 11, "total_points": 54, "visibility_pct": 20.37037037037037 }, "geometry": { "type": "Point", "coordinates": [ 0.003371667725088, 51.563280896610934 ] } },
{ "type": "Feature", "properties": { "visible_points": 4, "total_points": 51, "visibility_pct": 7.8431372549019605 }, "geometry": { "type": "Point", "coordinates": [ 0.003571435775038, 51.563277482651181 ] } },
{ "type": "Feature", "properties": { "visible_points": 11, "total_points": 51, "visibility_pct": 21.568627450980394 }, "geometry": { "type": "Point", "coordinates": [ 0.003276522410074, 51.56339043404644 ] } },
{ "type": "Feature", "properties": { "visible_points": 11, "total_points": 49, "visibility_pct": 22.448979591836736 }, "geometry": { "type": "Point", "coordinates": [ 0.003476290952223, 51.563387020240853 ] } },
{ "type": "Feature", "properties": { "visible_points": 4, "total_points": 46, "visibility_pct": 8.695652173913043 }, "geometry": { "type": "Point", "coordinates": [ 0.00367605945499, 51.563383606095485 ] } },
{ "type": "Feature", "properties": { "visible_points": 10, "total_points": 46, "visibility_pct": 21.739130434782609 }, "geometry": { "type": "Point", "coordinates": [ 0.003381145676609, 51.563496557758882 ] } },
{ "type": "Feature", "properties": { "visible_points": 8, "total_points": 44, "visibility_pct": 18.181818181818183 }, "geometry": { "type": "Point", "coordinates": [ 0.003580914671586, 51.56349314376768 ] } },
{ "type": "Feature", "properties": { "visible_points": 2, "total_points": 41, "visibility_pct": 4.8780487804878048 }, "geometry": { "type": "Point", "coordinates": [ 0.003780683627163, 51.563489729436689 ] } },
{ "type": "Feature", "properties": { "visible_points": 8, "total_points": 41, "visibility_pct": 19.512195121951219 }, "geometry": { "type": "Point", "coordinates": [ 0.003485769435374, 51.563602681368216 ] } },
{ "type": "Feature", "properties": { "visible_points": 0, "total_points": 39, "visibility_pct": 0.0 }, "geometry": { "type": "Point", "coordinates": [ 0.003685538883171, 51.563599267191407 ] } }
]
}
