{
"type": "FeatureCollection",
"name": "1a78d7f11758_foliage",
"crs": { "type": "name", "properties": { "name": "urn:ogc:def:crs:OGC:1.3:CRS84" } },
"features": [
{ "type": "Feature", "properties": { "max_height": 12.090250015258789, "mean_height": 5.1217927932739258, "std_height": 4.7252531051635742, "count_pixels": 42, "percent_cover": 0.75757575757575757, "percent_above_0.1m": 85.714285714285708, "low_level_<0.5": 9.5238095238095237, "mid_level_0.5-2": 19.047619047619047, "tall_2+": 57.142857142857139 }, "geometry": { "type": "Point", "coordinates": [ -0.085936687902168, 51.575953004222306 ] } },
{ "type": "Feature", "properties": { "max_height": 11.642501831054688, "mean_height": 2.1265606880187988, "std_height": 3.4299964904785156, "count_pixels": 42, "percent_cover": 0.75757575757575757, "percent_above_0.1m": 40.476190476190474, "low_level_<0.5": 4.7619047619047619, "mid_level_0.5-2": 4.7619047619047619, "tall_2+": 30.952380952380953 }, "geometry": { "type": "Point", "coordinates": [ -0.085736851210818, 51.575949741203978 ] } },
{ "type": "Feature", "properties": { "max_height": 4.7735004425048828, "mean_height": 2.6446020603179932, "std_height": 1.7596688270568848, "count_pixels": 42, "percent_cover": 0.75757575757575757, "percent_above_0.1m": 88.095238095238088, "low_level_<0.5": 7.1428571428571423, "mid_level_0.5-2": 11.904761904761903, "tall_2+": 61.904761904761905 }, "geometry": { "type": "Point", "coordinates": [ -0.086231915925991, 51.5760657341052 ] } },
{ "type": "Feature", "properties": { "max_height": 10.398000717163086, "mean_height": 1.187280535697937, "std_height": 2.6271872520446777, "count_pixels": 42, "percent_cover": 0.75757575757575757, "percent_above_0.1m": 35.714285714285715, "low_level_<0.5": 2.3809523809523809, "mid_level_0.5-2": 16.666666666666664, "tall_2+": 14.285714285714285 }, "geometry": { "type": "Point", "coordinates": [ -0.086032078707426, 51.576062471584663 ] } },
{ "type": "Feature", "properties": { "max_height": 17.921749114990234, "mean_height": 8.4473047256469727, "std_height": 6.4016523361206055, "count_pixels": 42, "percent_cover": 0.75757575757575757, "percent_above_0.1m": 83.333333333333343, "low_level_<0.5": 0.0, "mid_level_0.5-2": 9.5238095238095237, "tall_2+": 71.428571428571431 }, "geometry": { "type": "Point", "coordinates": [ -0.085832241526397, 51.576059208723983 ] } },
{ "type": "Feature", "properties": { "max_height": 13.150751113891602, "mean_height": 2.1321971416473389, "std_height": 3.6857597827911377, "count_pixels": 42, "percent_cover": 0.75757575757575757, "percent_above_0.1m": 42.857142857142854, "low_level_<0.5": 0.0, "mid_level_0.5-2": 16.666666666666664, "tall_2+": 26.190476190476193 }, "geometry": { "type": "Point", "coordinates": [ -0.085632404382907, 51.576055945523152 ] } },
{ "type": "Feature", "properties": { "max_height": 7.0749988555908203, "mean_height": 4.6976499557495117, "std_height": 1.5404822826385498, "count_pixels": 42, "percent_cover": 0.75757575757575757, "percent_above_0.1m": 95.238095238095227, "low_level_<0.5": 0.0, "mid_level_0.5-2": 0.0, "tall_2+": 95.238095238095227 }, "geometry": { "type": "Point", "coordinates": [ -0.086527145418838, 51.576178463257854 ] } },
{ "type": "Feature", "properties": { "max_height": 3.0044994354248047, "mean_height": 0.36496511101722717, "std_height": 0.71849822998046875, "count_pixels": 42, "percent_cover": 0.75757575757575757, "percent_above_0.1m": 38.095238095238095, "low_level_<0.5": 11.904761904761903, "mid_level_0.5-2": 14.285714285714285, "tall_2+": 7.1428571428571423 }, "geometry": { "type": "Point", "coordinates": [ -0.086327307673068, 51.576175201235088 ] } },
{ "type": "Feature", "properties": { "max_height": 0.067249298095703125, "mean_height": 0.0023547846358269453, "std_height": 0.011119983159005642, "count_pixels": 41, "percent_cover": 0.73953823953823949, "percent_above_0.1m": 0.0, "low_level_<0.5": 0.0, "mid_level_0.5-2": 0.0, "tall_2+": 0.0 }, "geometry": { "type": "Point", "coordinates": [ -0.086127469964818, 51.576171938872172 ] } },
{ "type": "Feature", "properties": { "max_height": 0.033252716064453125, "mean_height": 0.0015130724059417844, "std_height": 0.0071422294713556767, "count_pixels": 42, "percent_cover": 0.75757575757575757, "percent_above_0.1m": 0.0, "low_level_<0.5": 0.0, "mid_level_0.5-2": 0.0, "tall_2+": 0.0 }, "geometry": { "type": "Point", "coordinates": [ -0.085927632294108, 51.576168676169111 ] } },
{ "type": "Feature", "properties": { "max_height": 9.6300010681152344, "mean_height": 1.210256814956665, "std_height": 2.5400345325469971, "count_pixels": 42, "percent_cover": 0.75757575757575757, "percent_above_0.1m": 30.952380952380953, "low_level_<0.5": 4.7619047619047619, "mid_level_0.5-2": 2.3809523809523809, "tall_2+": 21.428571428571427 }, "geometry": { "type": "Point", "coordinates": [ -0.085727794660927, 51.576165413125914 ] } },
{ "type": "Feature", "properties": { "max_height": 9.4090003967285156, "mean_height": 0.31864973902702332, "std_height": 1.4491628408432007, "count_pixels": 42, "percent_cover": 0.75757575757575757, "percent_above_0.1m": 16.666666666666664, "low_level_<0.5": 7.1428571428571423, "mid_level_0.5-2": 7.1428571428571423, "tall_2+": 2.3809523809523809 }, "geometry": { "type": "Point", "coordinates": [ -0.085527957065291, 51.576162149742572 ] } },
{ "type": "Feature", "properties": { "max_height": 10.225500106811523, "mean_height": 4.0037021636962891, "std_height": 2.5060126781463623, "count_pixels": 41, "percent_cover": 0.73953823953823949, "percent_above_0.1m": 90.243902439024396, "low_level_<0.5": 2.4390243902439024, "mid_level_0.5-2": 4.8780487804878048, "tall_2+": 75.609756097560975 }, "geometry": { "type": "Point", "coordinates": [ -0.086822376380715, 51.57629119168022 ] } },
{ "type": "Feature", "properties": { "max_height": 14.321250915527344, "mean_height": 7.9190664291381836, "std_height": 3.8821747303009033, "count_pixels": 42, "percent_cover": 0.75757575757575757, "percent_above_0.1m": 100.0, "low_level_<0.5": 2.3809523809523809, "mid_level_0.5-2": 7.1428571428571423, "tall_2+": 90.476190476190482 }, "geometry": { "type": "Point", "coordinates": [ -0.086622538107741, 51.576287930155246 ] } },
{ "type": "Feature", "properties": { "max_height": 2.2347507476806641, "mean_height": 0.11800745874643326, "std_height": 0.49439030885696411, "count_pixels": 38, "percent_cover": 0.68542568542568538, "percent_above_0.1m": 5.2631578947368416, "low_level_<0.5": 0.0, "mid_level_0.5-2": 0.0, "tall_2+": 5.2631578947368416 }, "geometry": { "type": "Point", "coordinates": [ -0.086422699872279, 51.5762846682901 ] } },
{ "type": "Feature", "properties": { "max_height": 0.00250244140625, "mean_height": 0.00011416844063205644, "std_height": 0.0010554353939369321, "count_pixels": 42, "percent_cover": 0.75757575757575757, "percent_above_0.1m": 0.0, "low_level_<0.5": 0.0, "mid_level_0.5-2": 0.0, "tall_2+": 0.0 }, "geometry": { "type": "Point", "coordinates": [ -0.08622286167435, 51.576281406084817 ] } },
{ "type": "Feature", "properties": { "max_height": 0.001251220703125, "mean_height": -0.00027320499066263437, "std_height": 0.0014734562719240785, "count_pixels": 42, "percent_cover": 0.75757575757575757, "percent_above_0.1m": 0.0, "low_level_<0.5": 0.0, "mid_level_0.5-2": 0.0, "tall_2+": 0.0 }, "geometry": { "type": "Point", "coordinates": [ -0.086023023513945, 51.576278143539383 ] } },
{ "type": "Feature", "properties": { "max_height": 0.031749725341796875, "mean_height": 0.0013758795103058219, "std_height": 0.0053907632827758789, "count_pixels": 42, "percent_cover": 0.75757575757575757, "percent_above_0.1m": 0.0, "low_level_<0.5": 0.0, "mid_level_0.5-2": 0.0, "tall_2+": 0.0 }, "geometry": { "type": "Point", "coordinates": [ -0.085823185391084, 51.576274880653813 ] } },
{ "type": "Feature", "properties": { "max_height": 7.2810001373291016, "mean_height": 3.0264294147491455, "std_height": 2.9078938961029053, "count_pixels": 42, "percent_cover": 0.75757575757575757, "percent_above_0.1m": 78.571428571428569, "low_level_<0.5": 7.1428571428571423, "mid_level_0.5-2": 16.666666666666664, "tall_2+": 47.619047619047613 }, "geometry": { "type": "Point", "coordinates": [ -0.085623347305756, 51.576271617428084 ] } },
{ "type": "Feature", "properties": { "max_height": 12.195001602172852, "mean_height": 4.9516258239746094, "std_height": 2.7113542556762695, "count_pixels": 42, "percent_cover": 0.75757575757575757, "percent_above_0.1m": 95.238095238095227, "low_level_<0.5": 4.7619047619047619, "mid_level_0.5-2": 11.904761904761903, "tall_2+": 78.571428571428569 }, "geometry": { "type": "Point", "coordinates": [ -0.087117608811621, 51.576403919372332 ] } },
{ "type": "Feature", "properties": { "max_height": 13.242250442504883, "mean_height": 3.5405964851379395, "std_height": 4.3727807998657227, "count_pixels": 42, "percent_cover": 0.75757575757575757, "percent_above_0.1m": 80.952380952380949, "low_level_<0.5": 16.666666666666664, "mid_level_0.5-2": 19.047619047619047, "tall_2+": 42.857142857142854 }, "geometry": { "type": "Point", "coordinates": [ -0.086917770011445, 51.576400658345122 ] } },
{ "type": "Feature", "properties": { "max_height": 11.987001419067383, "mean_height": 0.98205441236495972, "std_height": 2.1461551189422607, "count_pixels": 42, "percent_cover": 0.75757575757575757, "percent_above_0.1m": 40.476190476190474, "low_level_<0.5": 7.1428571428571423, "mid_level_0.5-2": 14.285714285714285, "tall_2+": 16.666666666666664 }, "geometry": { "type": "Point", "coordinates": [ -0.086717931248781, 51.576397396977775 ] } },
{ "type": "Feature", "properties": { "max_height": 9.7275009155273438, "mean_height": 1.9550243616104126, "std_height": 2.4581518173217773, "count_pixels": 42, "percent_cover": 0.75757575757575757, "percent_above_0.1m": 61.904761904761905, "low_level_<0.5": 4.7619047619047619, "mid_level_0.5-2": 16.666666666666664, "tall_2+": 40.476190476190474 }, "geometry": { "type": "Point", "coordinates": [ -0.086518092523635, 51.576394135270249 ] } },
{ "type": "Feature", "properties": { "max_height": 2.9335002899169922, "mean_height": 0.12621493637561798, "std_height": 0.46820065379142761, "count_pixels": 42, "percent_cover": 0.75757575757575757, "percent_above_0.1m": 16.666666666666664, "low_level_<0.5": 11.904761904761903, "mid_level_0.5-2": 2.3809523809523809, "tall_2+": 2.3809523809523809 }, "geometry": { "type": "Point", "coordinates": [ -0.086318253836021, 51.5763908732226 ] } },
{ "type": "Feature", "properties": { "max_height": 1.2837505340576172, "mean_height": 0.069202005863189697, "std_height": 0.23726555705070496, "count_pixels": 41, "percent_cover": 0.73953823953823949, "percent_above_0.1m": 9.7560975609756095, "low_level_<0.5": 4.8780487804878048, "mid_level_0.5-2": 4.8780487804878048, "tall_2+": 0.0 }, "geometry": { "type": "Point", "coordinates": [ -0.086118415185928, 51.576387610834814 ] } },
{ "type": "Feature", "properties": { "max_height": 1.2485008239746094, "mean_height": 0.14097131788730621, "std_height": 0.30391556024551392, "count_pixels": 42, "percent_cover": 0.75757575757575757, "percent_above_0.1m": 21.428571428571427, "low_level_<0.5": 7.1428571428571423, "mid_level_0.5-2": 14.285714285714285, "tall_2+": 0.0 }, "geometry": { "type": "Point", "coordinates": [ -0.085918576573372, 51.576384348106863 ] } },
{ "type": "Feature", "properties": { "max_height": 12.371000289916992, "mean_height": 2.3607509136199951, "std_height": 3.5373287200927734, "count_pixels": 42, "percent_cover": 0.75757575757575757, "percent_above_0.1m": 88.095238095238088, "low_level_<0.5": 40.476190476190474, "mid_level_0.5-2": 11.904761904761903, "tall_2+": 30.952380952380953 }, "geometry": { "type": "Point", "coordinates": [ -0.08571873799835, 51.576381085038769 ] } },
{ "type": "Feature", "properties": { "max_height": 7.5640029907226562, "mean_height": 3.5033059120178223, "std_height": 2.923403263092041, "count_pixels": 41, "percent_cover": 0.73953823953823949, "percent_above_0.1m": 73.170731707317074, "low_level_<0.5": 4.8780487804878048, "mid_level_0.5-2": 12.195121951219512, "tall_2+": 56.09756097560976 }, "geometry": { "type": "Point", "coordinates": [ -0.087412842711565, 51.576516646334149 ] } },
{ "type": "Feature", "properties": { "max_height": 6.6540012359619141, "mean_height": 0.98306655883789062, "std_height": 1.7700339555740356, "count_pixels": 42, "percent_cover": 0.75757575757575757, "percent_above_0.1m": 45.238095238095241, "low_level_<0.5": 4.7619047619047619, "mid_level_0.5-2": 26.190476190476193, "tall_2+": 14.285714285714285 }, "geometry": { "type": "Point", "coordinates": [ -0.087213003384186, 51.576513385804709 ] } },
{ "type": "Feature", "properties": { "max_height": 13.352500915527344, "mean_height": 4.9113974571228027, "std_height": 5.8021879196166992, "count_pixels": 41, "percent_cover": 0.73953823953823949, "percent_above_0.1m": 75.609756097560975, "low_level_<0.5": 14.634146341463413, "mid_level_0.5-2": 17.073170731707318, "tall_2+": 43.902439024390247 }, "geometry": { "type": "Point", "coordinates": [ -0.086813324841973, 51.57650686372542 ] } },
{ "type": "Feature", "properties": { "max_height": 12.814250946044922, "mean_height": 2.336345911026001, "std_height": 3.4461517333984375, "count_pixels": 42, "percent_cover": 0.75757575757575757, "percent_above_0.1m": 64.285714285714292, "low_level_<0.5": 11.904761904761903, "mid_level_0.5-2": 14.285714285714285, "tall_2+": 33.333333333333329 }, "geometry": { "type": "Point", "coordinates": [ -0.086613485627141, 51.576503602175556 ] } },
{ "type": "Feature", "properties": { "max_height": 10.78900146484375, "mean_height": 1.5315669775009155, "std_height": 2.6806612014770508, "count_pixels": 38, "percent_cover": 0.68542568542568538, "percent_above_0.1m": 47.368421052631575, "low_level_<0.5": 18.421052631578945, "mid_level_0.5-2": 2.6315789473684208, "tall_2+": 26.315789473684209 }, "geometry": { "type": "Point", "coordinates": [ -0.086413646449832, 51.576500340285534 ] } },
{ "type": "Feature", "properties": { "max_height": 0.035251617431640625, "mean_height": 0.0023103442508727312, "std_height": 0.0076005677692592144, "count_pixels": 42, "percent_cover": 0.75757575757575757, "percent_above_0.1m": 0.0, "low_level_<0.5": 0.0, "mid_level_0.5-2": 0.0, "tall_2+": 0.0 }, "geometry": { "type": "Point", "coordinates": [ -0.086213807310054, 51.576497078055368 ] } },
{ "type": "Feature", "properties": { "max_height": 1.7680015563964844, "mean_height": 0.23901879787445068, "std_height": 0.47666028141975403, "count_pixels": 42, "percent_cover": 0.75757575757575757, "percent_above_0.1m": 26.190476190476193, "low_level_<0.5": 4.7619047619047619, "mid_level_0.5-2": 21.428571428571427, "tall_2+": 0.0 }, "geometry": { "type": "Point", "coordinates": [ -0.086013968207799, 51.576493815485051 ] } },
{ "type": "Feature", "properties": { "max_height": 9.0562515258789062, "mean_height": 2.7917273044586182, "std_height": 2.4338898658752441, "count_pixels": 42, "percent_cover": 0.75757575757575757, "percent_above_0.1m": 92.857142857142861, "low_level_<0.5": 4.7619047619047619, "mid_level_0.5-2": 30.952380952380953, "tall_2+": 54.761904761904766 }, "geometry": { "type": "Point", "coordinates": [ -0.085814129143086, 51.57649055257459 ] } },
{ "type": "Feature", "properties": { "max_height": 9.4955024719238281, "mean_height": 2.7293765544891357, "std_height": 3.0821359157562256, "count_pixels": 42, "percent_cover": 0.75757575757575757, "percent_above_0.1m": 64.285714285714292, "low_level_<0.5": 2.3809523809523809, "mid_level_0.5-2": 21.428571428571427, "tall_2+": 40.476190476190474 }, "geometry": { "type": "Point", "coordinates": [ -0.086509039515796, 51.576609807273591 ] } },
{ "type": "Feature", "properties": { "max_height": 2.5300006866455078, "mean_height": 0.13707832992076874, "std_height": 0.44609692692756653, "count_pixels": 42, "percent_cover": 0.75757575757575757, "percent_above_0.1m": 16.666666666666664, "low_level_<0.5": 7.1428571428571423, "mid_level_0.5-2": 4.7619047619047619, "tall_2+": 2.3809523809523809 }, "geometry": { "type": "Point", "coordinates": [ -0.086309199886319, 51.576606545201066 ] } },
{ "type": "Feature", "properties": { "max_height": 3.453251838684082, "mean_height": 0.68223243951797485, "std_height": 1.121953010559082, "count_pixels": 41, "percent_cover": 0.73953823953823949, "percent_above_0.1m": 41.463414634146339, "low_level_<0.5": 4.8780487804878048, "mid_level_0.5-2": 19.512195121951219, "tall_2+": 14.634146341463413 }, "geometry": { "type": "Point", "coordinates": [ -0.086109360294374, 51.576603282788383 ] } },
{ "type": "Feature", "properties": { "max_height": 0.65050029754638672, "mean_height": 0.103928342461586, "std_height": 0.16928559541702271, "count_pixels": 38, "percent_cover": 0.68542568542568538, "percent_above_0.1m": 28.947368421052634, "low_level_<0.5": 23.684210526315788, "mid_level_0.5-2": 2.6315789473684208, "tall_2+": 0.0 }, "geometry": { "type": "Point", "coordinates": [ -0.086404592914739, 51.576716012271902 ] } },
{ "type": "Feature", "properties": { "max_height": 4.1755008697509766, "mean_height": 2.1869771480560303, "std_height": 1.626611590385437, "count_pixels": 42, "percent_cover": 0.75757575757575757, "percent_above_0.1m": 78.571428571428569, "low_level_<0.5": 7.1428571428571423, "mid_level_0.5-2": 16.666666666666664, "tall_2+": 54.761904761904766 }, "geometry": { "type": "Point", "coordinates": [ -0.086204752833094, 51.576712750016846 ] } }
]
}
