{
"type": "FeatureCollection",
"name": "e9a095d9a3c7_foliage",
"crs": { "type": "name", "properties": { "name": "urn:ogc:def:crs:OGC:1.3:CRS84" } },
"features": [
{ "type": "Feature", "properties": { "max_height": 4.4827499389648438, "mean_height": 0.22728815674781799, "std_height": 0.7320823073387146, "count_pixels": 40, "percent_cover": 0.59737156511350065, "percent_above_0.1m": 20.0, "low_level_<0.5": 5.0, "mid_level_0.5-2": 12.5, "tall_2+": 2.5 }, "geometry": { "type": "Point", "coordinates": [ -0.086913488640487, 51.600313062240325 ] } },
{ "type": "Feature", "properties": { "max_height": 8.9112520217895508, "mean_height": 2.2421326637268066, "std_height": 2.7772469520568848, "count_pixels": 36, "percent_cover": 0.53763440860215062, "percent_above_0.1m": 75.0, "low_level_<0.5": 13.888888888888889, "mid_level_0.5-2": 22.222222222222221, "tall_2+": 36.111111111111107 }, "geometry": { "type": "Point", "coordinates": [ -0.086713544603113, 51.600309799495435 ] } },
{ "type": "Feature", "properties": { "max_height": 8.449000358581543, "mean_height": 3.3272819519042969, "std_height": 3.1857075691223145, "count_pixels": 40, "percent_cover": 0.59737156511350065, "percent_above_0.1m": 85.0, "low_level_<0.5": 15.0, "mid_level_0.5-2": 22.5, "tall_2+": 47.5 }, "geometry": { "type": "Point", "coordinates": [ -0.086513600603715, 51.600306536410308 ] } },
{ "type": "Feature", "properties": { "max_height": 8.2852506637573242, "mean_height": 4.6291322708129883, "std_height": 2.7279233932495117, "count_pixels": 42, "percent_cover": 0.62724014336917566, "percent_above_0.1m": 97.61904761904762, "low_level_<0.5": 7.1428571428571423, "mid_level_0.5-2": 16.666666666666664, "tall_2+": 73.80952380952381 }, "geometry": { "type": "Point", "coordinates": [ -0.086313656642298, 51.600303272984888 ] } },
{ "type": "Feature", "properties": { "max_height": 8.355250358581543, "mean_height": 3.985149621963501, "std_height": 2.9094226360321045, "count_pixels": 42, "percent_cover": 0.62724014336917566, "percent_above_0.1m": 92.857142857142861, "low_level_<0.5": 9.5238095238095237, "mid_level_0.5-2": 16.666666666666664, "tall_2+": 66.666666666666657 }, "geometry": { "type": "Point", "coordinates": [ -0.086113712718866, 51.600300009219218 ] } },
{ "type": "Feature", "properties": { "max_height": 1.4495010375976562, "mean_height": 0.26022094488143921, "std_height": 0.41563621163368225, "count_pixels": 42, "percent_cover": 0.62724014336917566, "percent_above_0.1m": 35.714285714285715, "low_level_<0.5": 11.904761904761903, "mid_level_0.5-2": 23.809523809523807, "tall_2+": 0.0 }, "geometry": { "type": "Point", "coordinates": [ -0.086409097374312, 51.600412740025703 ] } },
{ "type": "Feature", "properties": { "max_height": 4.5342502593994141, "mean_height": 0.620780348777771, "std_height": 0.92013120651245117, "count_pixels": 42, "percent_cover": 0.62724014336917566, "percent_above_0.1m": 54.761904761904766, "low_level_<0.5": 14.285714285714285, "mid_level_0.5-2": 33.333333333333329, "tall_2+": 4.7619047619047619 }, "geometry": { "type": "Point", "coordinates": [ -0.08620915295363, 51.600409476414868 ] } },
{ "type": "Feature", "properties": { "max_height": 7.625, "mean_height": 2.1250782012939453, "std_height": 2.4127943515777588, "count_pixels": 42, "percent_cover": 0.62724014336917566, "percent_above_0.1m": 83.333333333333343, "low_level_<0.5": 16.666666666666664, "mid_level_0.5-2": 19.047619047619047, "tall_2+": 40.476190476190474 }, "geometry": { "type": "Point", "coordinates": [ -0.086009208570927, 51.600406212463774 ] } },
{ "type": "Feature", "properties": { "max_height": 8.2505025863647461, "mean_height": 4.7774462699890137, "std_height": 2.7885477542877197, "count_pixels": 41, "percent_cover": 0.6123058542413381, "percent_above_0.1m": 95.121951219512198, "low_level_<0.5": 4.8780487804878048, "mid_level_0.5-2": 9.7560975609756095, "tall_2+": 75.609756097560975 }, "geometry": { "type": "Point", "coordinates": [ -0.085809264226224, 51.600402948172409 ] } },
{ "type": "Feature", "properties": { "max_height": 0.95450019836425781, "mean_height": 0.08096497505903244, "std_height": 0.19421608746051788, "count_pixels": 42, "percent_cover": 0.62724014336917566, "percent_above_0.1m": 21.428571428571427, "low_level_<0.5": 11.904761904761903, "mid_level_0.5-2": 4.7619047619047619, "tall_2+": 0.0 }, "geometry": { "type": "Point", "coordinates": [ -0.0859047036023, 51.600512415522978 ] } },
{ "type": "Feature", "properties": { "max_height": 5.7117509841918945, "mean_height": 0.63639026880264282, "std_height": 1.2524896860122681, "count_pixels": 43, "percent_cover": 0.64217443249701311, "percent_above_0.1m": 51.162790697674424, "low_level_<0.5": 16.279069767441861, "mid_level_0.5-2": 18.604651162790699, "tall_2+": 9.3023255813953494 }, "geometry": { "type": "Point", "coordinates": [ -0.085704758817042, 51.600509151049749 ] } },
{ "type": "Feature", "properties": { "max_height": 8.5672512054443359, "mean_height": 3.8423986434936523, "std_height": 3.1580595970153809, "count_pixels": 44, "percent_cover": 0.65710872162485068, "percent_above_0.1m": 88.63636363636364, "low_level_<0.5": 13.636363636363635, "mid_level_0.5-2": 13.636363636363635, "tall_2+": 59.090909090909093 }, "geometry": { "type": "Point", "coordinates": [ -0.085504814070123, 51.600505886236299 ] } },
{ "type": "Feature", "properties": { "max_height": 8.7295007705688477, "mean_height": 4.8922505378723145, "std_height": 2.9947299957275391, "count_pixels": 44, "percent_cover": 0.65710872162485068, "percent_above_0.1m": 95.454545454545453, "low_level_<0.5": 9.0909090909090917, "mid_level_0.5-2": 9.0909090909090917, "tall_2+": 72.727272727272734 }, "geometry": { "type": "Point", "coordinates": [ -0.085304869361545, 51.60050262108264 ] } },
{ "type": "Feature", "properties": { "max_height": 3.5260009765625, "mean_height": 0.60090345144271851, "std_height": 0.99244439601898193, "count_pixels": 36, "percent_cover": 0.53763440860215062, "percent_above_0.1m": 55.555555555555557, "low_level_<0.5": 27.777777777777779, "mid_level_0.5-2": 13.888888888888889, "tall_2+": 11.111111111111111 }, "geometry": { "type": "Point", "coordinates": [ -0.08540030684548, 51.600612088703173 ] } },
{ "type": "Feature", "properties": { "max_height": 8.0750007629394531, "mean_height": 2.0233757495880127, "std_height": 2.4834640026092529, "count_pixels": 40, "percent_cover": 0.59737156511350065, "percent_above_0.1m": 77.5, "low_level_<0.5": 10.0, "mid_level_0.5-2": 30.0, "tall_2+": 32.5 }, "geometry": { "type": "Point", "coordinates": [ -0.085200361690319, 51.600608823367068 ] } },
{ "type": "Feature", "properties": { "max_height": 8.2150001525878906, "mean_height": 4.5181655883789062, "std_height": 2.8069291114807129, "count_pixels": 41, "percent_cover": 0.6123058542413381, "percent_above_0.1m": 87.804878048780495, "low_level_<0.5": 2.4390243902439024, "mid_level_0.5-2": 12.195121951219512, "tall_2+": 73.170731707317074 }, "geometry": { "type": "Point", "coordinates": [ -0.085000416499096, 51.600605557681881 ] } },
{ "type": "Feature", "properties": { "max_height": 2.3532524108886719, "mean_height": 0.31344848871231079, "std_height": 0.46606752276420593, "count_pixels": 43, "percent_cover": 0.64217443249701311, "percent_above_0.1m": 53.488372093023251, "low_level_<0.5": 23.255813953488371, "mid_level_0.5-2": 23.255813953488371, "tall_2+": 2.3255813953488373 }, "geometry": { "type": "Point", "coordinates": [ -0.085095853245852, 51.600715025475246 ] } },
{ "type": "Feature", "properties": { "max_height": 7.9037494659423828, "mean_height": 3.9045963287353516, "std_height": 3.1748189926147461, "count_pixels": 42, "percent_cover": 0.62724014336917566, "percent_above_0.1m": 85.714285714285708, "low_level_<0.5": 16.666666666666664, "mid_level_0.5-2": 7.1428571428571423, "tall_2+": 59.523809523809526 }, "geometry": { "type": "Point", "coordinates": [ -0.084895907226231, 51.600711759531606 ] } },
{ "type": "Feature", "properties": { "max_height": 5.9195013046264648, "mean_height": 0.94031614065170288, "std_height": 1.4771950244903564, "count_pixels": 42, "percent_cover": 0.62724014336917566, "percent_above_0.1m": 64.285714285714292, "low_level_<0.5": 7.1428571428571423, "mid_level_0.5-2": 35.714285714285715, "tall_2+": 14.285714285714285 }, "geometry": { "type": "Point", "coordinates": [ -0.084791397288612, 51.600817961193798 ] } },
{ "type": "Feature", "properties": { "max_height": 8.1607513427734375, "mean_height": 4.5021376609802246, "std_height": 3.077561616897583, "count_pixels": 42, "percent_cover": 0.62724014336917566, "percent_above_0.1m": 97.61904761904762, "low_level_<0.5": 16.666666666666664, "mid_level_0.5-2": 14.285714285714285, "tall_2+": 66.666666666666657 }, "geometry": { "type": "Point", "coordinates": [ -0.084591449839072, 51.600814694448573 ] } },
{ "type": "Feature", "properties": { "max_height": 8.1400012969970703, "mean_height": 1.4271972179412842, "std_height": 2.4293601512908936, "count_pixels": 42, "percent_cover": 0.62724014336917566, "percent_above_0.1m": 50.0, "low_level_<0.5": 11.904761904761903, "mid_level_0.5-2": 14.285714285714285, "tall_2+": 21.428571428571427 }, "geometry": { "type": "Point", "coordinates": [ -0.084486938716743, 51.600920895807 ] } },
{ "type": "Feature", "properties": { "max_height": 7.0545005798339844, "mean_height": 0.86920195817947388, "std_height": 1.3668442964553833, "count_pixels": 41, "percent_cover": 0.6123058542413381, "percent_above_0.1m": 56.09756097560976, "low_level_<0.5": 9.7560975609756095, "mid_level_0.5-2": 29.268292682926827, "tall_2+": 14.634146341463413 }, "geometry": { "type": "Point", "coordinates": [ -0.084286990847703, 51.600917628542391 ] } },
{ "type": "Feature", "properties": { "max_height": 0.56700038909912109, "mean_height": 0.022530533373355865, "std_height": 0.10693402588367462, "count_pixels": 42, "percent_cover": 0.62724014336917566, "percent_above_0.1m": 4.7619047619047619, "low_level_<0.5": 2.3809523809523809, "mid_level_0.5-2": 2.3809523809523809, "tall_2+": 0.0 }, "geometry": { "type": "Point", "coordinates": [ -0.084382427099077, 51.601027097069846 ] } }
]
}
