{
"type": "FeatureCollection",
"name": "CAMDE_212_toilets",
"crs": { "type": "name", "properties": { "name": "urn:ogc:def:crs:OGC:1.3:CRS84" } },
"features": [
{ "type": "Feature", "properties": { "name": "Gloucester Gate", "payment_info": "No Charge", "accessible": "True", "radar": "Unknown", "women": "False", "men": "False", "baby_change": "False", "Mon": "09:00-18:00", "Tue": "09:00-18:00", "Wed": "09:00-18:00", "Thu": "09:00-18:00", "Fri": "09:00-18:00", "Sat": "09:00-18:00", "Sun": "09:00-18:00", "index_right": 56, "park_offical_id": "CAMDE_212" }, "geometry": { "type": "Point", "coordinates": [ -0.149055719, 51.535324809 ] } },
{ "type": "Feature", "properties": { "name": "Waterside Halls East", "payment_info": "Free", "accessible": "True", "radar": "False", "women": "True", "men": "True", "baby_change": "False", "Mon": "Unknown", "Tue": "Unknown", "Wed": "Unknown", "Thu": "Unknown", "Fri": "Unknown", "Sat": "Unknown", "Sun": "Unknown", "index_right": 56, "park_offical_id": "CAMDE_212" }, "geometry": { "type": "Point", "coordinates": [ -0.14831543, 51.539612148 ] } },
{ "type": "Feature", "properties": { "name": "Camden Town womens public toilet", "payment_info": "Free", "accessible": "False", "radar": "False", "women": "True", "men": "False", "baby_change": "True", "Mon": "Unknown", "Tue": "Unknown", "Wed": "Unknown", "Thu": "Unknown", "Fri": "Unknown", "Sat": "Unknown", "Sun": "Unknown", "index_right": 56, "park_offical_id": "CAMDE_212" }, "geometry": { "type": "Point", "coordinates": [ -0.14279373, 51.538935381 ] } },
{ "type": "Feature", "properties": { "name": "Crowndale Centre", "payment_info": "Free", "accessible": "True", "radar": "False", "women": "True", "men": "True", "baby_change": "Unknown", "Mon": "07:30-19:30", "Tue": "07:30-19:30", "Wed": "07:30-19:30", "Thu": "07:30-19:30", "Fri": "07:30-19:30", "Sat": "Closed", "Sun": "Closed", "index_right": 56, "park_offical_id": "CAMDE_212" }, "geometry": { "type": "Point", "coordinates": [ -0.137841977, 51.53421372 ] } },
{ "type": "Feature", "properties": { "name": "Chester Road", "payment_info": "020", "accessible": "False", "radar": "Unknown", "women": "True", "men": "True", "baby_change": "True", "Mon": "09:00-18:00", "Tue": "09:00-18:00", "Wed": "09:00-18:00", "Thu": "09:00-18:00", "Fri": "09:00-18:00", "Sat": "09:00-18:00", "Sun": "09:00-18:00", "index_right": 56, "park_offical_id": "CAMDE_212" }, "geometry": { "type": "Point", "coordinates": [ -0.1491132, 51.5288068 ] } },
{ "type": "Feature", "properties": { "name": "Primrose Hill Park toilets", "payment_info": "Free", "accessible": "Unknown", "radar": "Unknown", "women": "True", "men": "True", "baby_change": "Unknown", "Mon": "Unknown", "Tue": "Unknown", "Wed": "Unknown", "Thu": "Unknown", "Fri": "Unknown", "Sat": "Unknown", "Sun": "Unknown", "index_right": 56, "park_offical_id": "CAMDE_212" }, "geometry": { "type": "Point", "coordinates": [ -0.1574468, 51.5372226 ] } },
{ "type": "Feature", "properties": { "name": "Hawley Warf toilets", "payment_info": "Free", "accessible": "True", "radar": "Unknown", "women": "True", "men": "True", "baby_change": "Unknown", "Mon": "Unknown", "Tue": "Unknown", "Wed": "Unknown", "Thu": "Unknown", "Fri": "Unknown", "Sat": "Unknown", "Sun": "Unknown", "index_right": 56, "park_offical_id": "CAMDE_212" }, "geometry": { "type": "Point", "coordinates": [ -0.144865538, 51.541669479 ] } },
{ "type": "Feature", "properties": { "name": "Princess of Wales Pub", "payment_info": "Free", "accessible": "Unknown", "radar": "Unknown", "women": "True", "men": "True", "baby_change": "Unknown", "Mon": "10:00-00:00", "Tue": "10:00-00:00", "Wed": "10:00-00:00", "Thu": "10:00-00:00", "Fri": "10:00-00:00", "Sat": "10:00-00:00", "Sun": "10:00-00:00", "index_right": 56, "park_offical_id": "CAMDE_212" }, "geometry": { "type": "Point", "coordinates": [ -0.154009744, 51.540381484 ] } },
{ "type": "Feature", "properties": { "name": "The Hub", "payment_info": "Free", "accessible": "False", "radar": "Unknown", "women": "Unknown", "men": "Unknown", "baby_change": "Unknown", "Mon": "Unknown", "Tue": "Unknown", "Wed": "Unknown", "Thu": "Unknown", "Fri": "Unknown", "Sat": "Unknown", "Sun": "Unknown", "index_right": 56, "park_offical_id": "CAMDE_212" }, "geometry": { "type": "Point", "coordinates": [ -0.1580494, 51.5325517 ] } },
{ "type": "Feature", "properties": { "name": "Unknown", "payment_info": "Free", "accessible": "False", "radar": "Unknown", "women": "Unknown", "men": "Unknown", "baby_change": "Unknown", "Mon": "Unknown", "Tue": "Unknown", "Wed": "Unknown", "Thu": "Unknown", "Fri": "Unknown", "Sat": "Unknown", "Sun": "Unknown", "index_right": 56, "park_offical_id": "CAMDE_212" }, "geometry": { "type": "Point", "coordinates": [ -0.144599, 51.5419635 ] } },
{ "type": "Feature", "properties": { "name": "Camden Lock Market", "payment_info": "40p", "accessible": "True", "radar": "True", "women": "True", "men": "True", "baby_change": "True", "Mon": "Unknown", "Tue": "Unknown", "Wed": "Unknown", "Thu": "Unknown", "Fri": "Unknown", "Sat": "Unknown", "Sun": "Unknown", "index_right": 56, "park_offical_id": "CAMDE_212" }, "geometry": { "type": "Point", "coordinates": [ -0.146247, 51.541434 ] } },
{ "type": "Feature", "properties": { "name": "Under Stables toilet", "payment_info": "1", "accessible": "Unknown", "radar": "Unknown", "women": "True", "men": "True", "baby_change": "Unknown", "Mon": "Unknown", "Tue": "Unknown", "Wed": "Unknown", "Thu": "Unknown", "Fri": "Unknown", "Sat": "Unknown", "Sun": "Unknown", "index_right": 56, "park_offical_id": "CAMDE_212" }, "geometry": { "type": "Point", "coordinates": [ -0.147711933, 51.542164716 ] } }
]
}
