{
"type": "FeatureCollection",
"name": "ed42c7fe601e_foliage",
"crs": { "type": "name", "properties": { "name": "urn:ogc:def:crs:OGC:1.3:CRS84" } },
"features": [
{ "type": "Feature", "properties": { "max_height": 8.3550033569335938, "mean_height": 0.86243313550949097, "std_height": 1.8848364353179932, "count_pixels": 37, "percent_cover": 1.0226644555002764, "percent_above_0.1m": 32.432432432432435, "low_level_<0.5": 2.7027027027027026, "mid_level_0.5-2": 16.216216216216218, "tall_2+": 13.513513513513514 }, "geometry": { "type": "Point", "coordinates": [ -0.13158198796212, 51.355263979267448 ] } },
{ "type": "Feature", "properties": { "max_height": 8.6500015258789062, "mean_height": 1.4379889965057373, "std_height": 2.1576113700866699, "count_pixels": 41, "percent_cover": 1.1332227750138197, "percent_above_0.1m": 58.536585365853654, "low_level_<0.5": 7.3170731707317067, "mid_level_0.5-2": 21.951219512195124, "tall_2+": 26.829268292682929 }, "geometry": { "type": "Point", "coordinates": [ -0.131383103287192, 51.355260810029137 ] } },
{ "type": "Feature", "properties": { "max_height": 5.9050064086914062, "mean_height": 1.080731987953186, "std_height": 1.4507290124893188, "count_pixels": 41, "percent_cover": 1.1332227750138197, "percent_above_0.1m": 58.536585365853654, "low_level_<0.5": 12.195121951219512, "mid_level_0.5-2": 24.390243902439025, "tall_2+": 21.951219512195124 }, "geometry": { "type": "Point", "coordinates": [ -0.131184218647411, 51.355257640454901 ] } },
{ "type": "Feature", "properties": { "max_height": 9.3925018310546875, "mean_height": 5.4534153938293457, "std_height": 3.3346712589263916, "count_pixels": 41, "percent_cover": 1.1332227750138197, "percent_above_0.1m": 87.804878048780495, "low_level_<0.5": 4.8780487804878048, "mid_level_0.5-2": 7.3170731707317067, "tall_2+": 75.609756097560975 }, "geometry": { "type": "Point", "coordinates": [ -0.130985334042774, 51.355254470544835 ] } },
{ "type": "Feature", "properties": { "max_height": 6.57000732421875, "mean_height": 1.1458722352981567, "std_height": 1.6463830471038818, "count_pixels": 43, "percent_cover": 1.1885019347705914, "percent_above_0.1m": 62.790697674418603, "low_level_<0.5": 23.255813953488371, "mid_level_0.5-2": 18.604651162790699, "tall_2+": 20.930232558139537 }, "geometry": { "type": "Point", "coordinates": [ -0.131478158393592, 51.355370240213119 ] } },
{ "type": "Feature", "properties": { "max_height": 8.6675033569335938, "mean_height": 1.3366281986236572, "std_height": 2.1602518558502197, "count_pixels": 43, "percent_cover": 1.1885019347705914, "percent_above_0.1m": 48.837209302325576, "low_level_<0.5": 4.6511627906976747, "mid_level_0.5-2": 18.604651162790699, "tall_2+": 23.255813953488371 }, "geometry": { "type": "Point", "coordinates": [ -0.131279273289386, 51.355367070767166 ] } },
{ "type": "Feature", "properties": { "max_height": 7.5525054931640625, "mean_height": 2.85500168800354, "std_height": 2.9300682544708252, "count_pixels": 43, "percent_cover": 1.1885019347705914, "percent_above_0.1m": 79.069767441860463, "low_level_<0.5": 16.279069767441861, "mid_level_0.5-2": 13.953488372093023, "tall_2+": 44.186046511627907 }, "geometry": { "type": "Point", "coordinates": [ -0.13108038822033, 51.355363900985324 ] } },
{ "type": "Feature", "properties": { "max_height": 7.4899978637695312, "mean_height": 1.9469509124755859, "std_height": 2.7072670459747314, "count_pixels": 41, "percent_cover": 1.1332227750138197, "percent_above_0.1m": 60.975609756097562, "low_level_<0.5": 9.7560975609756095, "mid_level_0.5-2": 12.195121951219512, "tall_2+": 31.707317073170731 }, "geometry": { "type": "Point", "coordinates": [ -0.131374328360631, 51.35547650103166 ] } },
{ "type": "Feature", "properties": { "max_height": 9.1624984741210938, "mean_height": 1.8914018869400024, "std_height": 2.8129465579986572, "count_pixels": 41, "percent_cover": 1.1332227750138197, "percent_above_0.1m": 63.414634146341463, "low_level_<0.5": 14.634146341463413, "mid_level_0.5-2": 17.073170731707318, "tall_2+": 29.268292682926827 }, "geometry": { "type": "Point", "coordinates": [ -0.131175442827146, 51.355473331378057 ] } },
{ "type": "Feature", "properties": { "max_height": 7.3975067138671875, "mean_height": 1.6258141994476318, "std_height": 1.9734756946563721, "count_pixels": 43, "percent_cover": 1.1885019347705914, "percent_above_0.1m": 76.744186046511629, "low_level_<0.5": 13.953488372093023, "mid_level_0.5-2": 30.232558139534881, "tall_2+": 27.906976744186046 }, "geometry": { "type": "Point", "coordinates": [ -0.13146938386114, 51.355585931248385 ] } },
{ "type": "Feature", "properties": { "max_height": 9.4000015258789062, "mean_height": 4.1511640548706055, "std_height": 3.068911075592041, "count_pixels": 43, "percent_cover": 1.1885019347705914, "percent_above_0.1m": 79.069767441860463, "low_level_<0.5": 0.0, "mid_level_0.5-2": 4.6511627906976747, "tall_2+": 72.093023255813947 }, "geometry": { "type": "Point", "coordinates": [ -0.13127049786323, 51.355582761723049 ] } },
{ "type": "Feature", "properties": { "max_height": 7.8375015258789062, "mean_height": 3.2764530181884766, "std_height": 2.4834220409393311, "count_pixels": 43, "percent_cover": 1.1885019347705914, "percent_above_0.1m": 90.697674418604649, "low_level_<0.5": 2.3255813953488373, "mid_level_0.5-2": 32.558139534883722, "tall_2+": 55.813953488372093 }, "geometry": { "type": "Point", "coordinates": [ -0.131071611900469, 51.355579591861833 ] } },
{ "type": "Feature", "properties": { "max_height": 8.7949981689453125, "mean_height": 1.4334757328033447, "std_height": 2.411201000213623, "count_pixels": 41, "percent_cover": 1.1332227750138197, "percent_above_0.1m": 48.780487804878049, "low_level_<0.5": 12.195121951219512, "mid_level_0.5-2": 14.634146341463413, "tall_2+": 21.951219512195124 }, "geometry": { "type": "Point", "coordinates": [ -0.131365553328583, 51.355692192020278 ] } },
{ "type": "Feature", "properties": { "max_height": 4.035003662109375, "mean_height": 0.26908615231513977, "std_height": 0.72534191608428955, "count_pixels": 41, "percent_cover": 1.1332227750138197, "percent_above_0.1m": 24.390243902439025, "low_level_<0.5": 4.8780487804878048, "mid_level_0.5-2": 12.195121951219512, "tall_2+": 4.8780487804878048 }, "geometry": { "type": "Point", "coordinates": [ -0.13116666690139, 51.355689022287308 ] } },
{ "type": "Feature", "properties": { "max_height": 10.127494812011719, "mean_height": 3.5946431159973145, "std_height": 3.1564109325408936, "count_pixels": 42, "percent_cover": 1.1608623548922055, "percent_above_0.1m": 88.095238095238088, "low_level_<0.5": 7.1428571428571423, "mid_level_0.5-2": 26.190476190476193, "tall_2+": 54.761904761904766 }, "geometry": { "type": "Point", "coordinates": [ -0.131659496149976, 51.355804791538588 ] } },
{ "type": "Feature", "properties": { "max_height": 8.6099929809570312, "mean_height": 2.1884880065917969, "std_height": 2.5470397472381592, "count_pixels": 43, "percent_cover": 1.1885019347705914, "percent_above_0.1m": 67.441860465116278, "low_level_<0.5": 6.9767441860465116, "mid_level_0.5-2": 18.604651162790699, "tall_2+": 39.534883720930232 }, "geometry": { "type": "Point", "coordinates": [ -0.13146060922321, 51.355801622269752 ] } },
{ "type": "Feature", "properties": { "max_height": 8.9550018310546875, "mean_height": 0.9126746654510498, "std_height": 2.2185966968536377, "count_pixels": 43, "percent_cover": 1.1885019347705914, "percent_above_0.1m": 27.906976744186046, "low_level_<0.5": 6.9767441860465116, "mid_level_0.5-2": 6.9767441860465116, "tall_2+": 13.953488372093023 }, "geometry": { "type": "Point", "coordinates": [ -0.13126172233158, 51.355798452665042 ] } },
{ "type": "Feature", "properties": { "max_height": 5.9449996948242188, "mean_height": 0.72249990701675415, "std_height": 1.4781347513198853, "count_pixels": 43, "percent_cover": 1.1885019347705914, "percent_above_0.1m": 46.511627906976742, "low_level_<0.5": 16.279069767441861, "mid_level_0.5-2": 16.279069767441861, "tall_2+": 11.627906976744185 }, "geometry": { "type": "Point", "coordinates": [ -0.131062835475104, 51.355795282724429 ] } },
{ "type": "Feature", "properties": { "max_height": 9.6374969482421875, "mean_height": 7.1013422012329102, "std_height": 2.6701619625091553, "count_pixels": 41, "percent_cover": 1.1332227750138197, "percent_above_0.1m": 100.0, "low_level_<0.5": 2.4390243902439024, "mid_level_0.5-2": 7.3170731707317067, "tall_2+": 90.243902439024396 }, "geometry": { "type": "Point", "coordinates": [ -0.130863948653779, 51.355792112447944 ] } },
{ "type": "Feature", "properties": { "max_height": 2.7900009155273438, "mean_height": 0.28762203454971313, "std_height": 0.70147931575775146, "count_pixels": 41, "percent_cover": 1.1332227750138197, "percent_above_0.1m": 21.951219512195124, "low_level_<0.5": 7.3170731707317067, "mid_level_0.5-2": 9.7560975609756095, "tall_2+": 4.8780487804878048 }, "geometry": { "type": "Point", "coordinates": [ -0.13066506186761, 51.355788941835549 ] } },
{ "type": "Feature", "properties": { "max_height": 8.7750015258789062, "mean_height": 2.3030486106872559, "std_height": 2.8249571323394775, "count_pixels": 41, "percent_cover": 1.1332227750138197, "percent_above_0.1m": 60.975609756097562, "low_level_<0.5": 9.7560975609756095, "mid_level_0.5-2": 9.7560975609756095, "tall_2+": 39.024390243902438 }, "geometry": { "type": "Point", "coordinates": [ -0.131356778191045, 51.355907882995005 ] } },
{ "type": "Feature", "properties": { "max_height": 5.5449981689453125, "mean_height": 0.9609752893447876, "std_height": 1.4097638130187988, "count_pixels": 41, "percent_cover": 1.1332227750138197, "percent_above_0.1m": 60.975609756097562, "low_level_<0.5": 14.634146341463413, "mid_level_0.5-2": 26.829268292682929, "tall_2+": 17.073170731707318 }, "geometry": { "type": "Point", "coordinates": [ -0.131157890870134, 51.355904713182653 ] } },
{ "type": "Feature", "properties": { "max_height": 5.3700027465820312, "mean_height": 1.1626838445663452, "std_height": 1.4423048496246338, "count_pixels": 41, "percent_cover": 1.1332227750138197, "percent_above_0.1m": 68.292682926829272, "low_level_<0.5": 14.634146341463413, "mid_level_0.5-2": 26.829268292682929, "tall_2+": 21.951219512195124 }, "geometry": { "type": "Point", "coordinates": [ -0.130959003584369, 51.355901543034413 ] } },
{ "type": "Feature", "properties": { "max_height": 7.12249755859375, "mean_height": 0.6710471510887146, "std_height": 1.3403838872909546, "count_pixels": 43, "percent_cover": 1.1885019347705914, "percent_above_0.1m": 48.837209302325576, "low_level_<0.5": 9.3023255813953494, "mid_level_0.5-2": 34.883720930232556, "tall_2+": 4.6511627906976747 }, "geometry": { "type": "Point", "coordinates": [ -0.130760116333759, 51.355898372550278 ] } },
{ "type": "Feature", "properties": { "max_height": 9.6324996948242188, "mean_height": 1.8365852832794189, "std_height": 2.8750433921813965, "count_pixels": 41, "percent_cover": 1.1332227750138197, "percent_above_0.1m": 58.536585365853654, "low_level_<0.5": 7.3170731707317067, "mid_level_0.5-2": 21.951219512195124, "tall_2+": 24.390243902439025 }, "geometry": { "type": "Point", "coordinates": [ -0.130656283549284, 51.356004632525476 ] } }
]
}
