{
"type": "FeatureCollection",
"name": "ffee16e0e1f0_visibility",
"crs": { "type": "name", "properties": { "name": "urn:ogc:def:crs:OGC:1.3:CRS84" } },
"features": [
{ "type": "Feature", "properties": { "visible_points": 0, "total_points": 55, "visibility_pct": 0.0 }, "geometry": { "type": "Point", "coordinates": [ -0.164758449562545, 51.376490229300948 ] } },
{ "type": "Feature", "properties": { "visible_points": 6, "total_points": 59, "visibility_pct": 10.16949152542373 }, "geometry": { "type": "Point", "coordinates": [ -0.16455947137634, 51.376487114417962 ] } },
{ "type": "Feature", "properties": { "visible_points": 1, "total_points": 61, "visibility_pct": 1.639344262295082 }, "geometry": { "type": "Point", "coordinates": [ -0.164853624794927, 51.376599630761163 ] } },
{ "type": "Feature", "properties": { "visible_points": 2, "total_points": 66, "visibility_pct": 3.0303030303030303 }, "geometry": { "type": "Point", "coordinates": [ -0.164654646126961, 51.376596516026439 ] } },
{ "type": "Feature", "properties": { "visible_points": 15, "total_points": 70, "visibility_pct": 21.428571428571427 }, "geometry": { "type": "Point", "coordinates": [ -0.164455667494518, 51.376593400954405 ] } },
{ "type": "Feature", "properties": { "visible_points": 0, "total_points": 65, "visibility_pct": 0.0 }, "geometry": { "type": "Point", "coordinates": [ -0.164948800473544, 51.376709032154864 ] } },
{ "type": "Feature", "properties": { "visible_points": 1, "total_points": 72, "visibility_pct": 1.3888888888888888 }, "geometry": { "type": "Point", "coordinates": [ -0.164749821323812, 51.376705917568366 ] } },
{ "type": "Feature", "properties": { "visible_points": 15, "total_points": 78, "visibility_pct": 19.230769230769234 }, "geometry": { "type": "Point", "coordinates": [ -0.164550842209608, 51.37670280264458 ] } },
{ "type": "Feature", "properties": { "visible_points": 16, "total_points": 82, "visibility_pct": 19.512195121951219 }, "geometry": { "type": "Point", "coordinates": [ -0.164351863130925, 51.376699687383521 ] } },
{ "type": "Feature", "properties": { "visible_points": 13, "total_points": 83, "visibility_pct": 15.66265060240964 }, "geometry": { "type": "Point", "coordinates": [ -0.164152884087773, 51.376696571785168 ] } },
{ "type": "Feature", "properties": { "visible_points": 4, "total_points": 77, "visibility_pct": 5.1948051948051948 }, "geometry": { "type": "Point", "coordinates": [ -0.164844996966902, 51.376815319043772 ] } },
{ "type": "Feature", "properties": { "visible_points": 20, "total_points": 84, "visibility_pct": 23.809523809523807 }, "geometry": { "type": "Point", "coordinates": [ -0.164646017370926, 51.376812204268212 ] } },
{ "type": "Feature", "properties": { "visible_points": 21, "total_points": 90, "visibility_pct": 23.333333333333332 }, "geometry": { "type": "Point", "coordinates": [ -0.164447037810472, 51.376809089155387 ] } },
{ "type": "Feature", "properties": { "visible_points": 14, "total_points": 94, "visibility_pct": 14.893617021276595 }, "geometry": { "type": "Point", "coordinates": [ -0.164248058285551, 51.376805973705274 ] } },
{ "type": "Feature", "properties": { "visible_points": 20, "total_points": 89, "visibility_pct": 22.471910112359549 }, "geometry": { "type": "Point", "coordinates": [ -0.164049078796166, 51.376802857917859 ] } },
{ "type": "Feature", "properties": { "visible_points": 14, "total_points": 82, "visibility_pct": 17.073170731707318 }, "geometry": { "type": "Point", "coordinates": [ -0.16385009934231, 51.376799741793185 ] } },
{ "type": "Feature", "properties": { "visible_points": 0, "total_points": 80, "visibility_pct": 0.0 }, "geometry": { "type": "Point", "coordinates": [ -0.164940173056228, 51.376924720452628 ] } },
{ "type": "Feature", "properties": { "visible_points": 18, "total_points": 89, "visibility_pct": 20.224719101123593 }, "geometry": { "type": "Point", "coordinates": [ -0.164741192978482, 51.376921605825331 ] } },
{ "type": "Feature", "properties": { "visible_points": 29, "total_points": 97, "visibility_pct": 29.896907216494846 }, "geometry": { "type": "Point", "coordinates": [ -0.16454221293626, 51.376918490860717 ] } },
{ "type": "Feature", "properties": { "visible_points": 20, "total_points": 102, "visibility_pct": 19.607843137254903 }, "geometry": { "type": "Point", "coordinates": [ -0.16434323292956, 51.376915375558845 ] } },
{ "type": "Feature", "properties": { "visible_points": 2, "total_points": 101, "visibility_pct": 1.9801980198019802 }, "geometry": { "type": "Point", "coordinates": [ -0.164144252958396, 51.376912259919692 ] } },
{ "type": "Feature", "properties": { "visible_points": 23, "total_points": 94, "visibility_pct": 24.468085106382979 }, "geometry": { "type": "Point", "coordinates": [ -0.163945273022767, 51.37690914394323 ] } },
{ "type": "Feature", "properties": { "visible_points": 23, "total_points": 88, "visibility_pct": 26.136363636363637 }, "geometry": { "type": "Point", "coordinates": [ -0.163746293122679, 51.376906027629502 ] } },
{ "type": "Feature", "properties": { "visible_points": 4, "total_points": 81, "visibility_pct": 4.9382716049382713 }, "geometry": { "type": "Point", "coordinates": [ -0.163547313258131, 51.37690291097848 ] } },
{ "type": "Feature", "properties": { "visible_points": 0, "total_points": 89, "visibility_pct": 0.0 }, "geometry": { "type": "Point", "coordinates": [ -0.164836369032279, 51.377031007315885 ] } },
{ "type": "Feature", "properties": { "visible_points": 26, "total_points": 99, "visibility_pct": 26.262626262626267 }, "geometry": { "type": "Point", "coordinates": [ -0.164637388508281, 51.377027892499534 ] } },
{ "type": "Feature", "properties": { "visible_points": 31, "total_points": 106, "visibility_pct": 29.245283018867923 }, "geometry": { "type": "Point", "coordinates": [ -0.164438408019807, 51.377024777345895 ] } },
{ "type": "Feature", "properties": { "visible_points": 22, "total_points": 109, "visibility_pct": 20.183486238532112 }, "geometry": { "type": "Point", "coordinates": [ -0.164239427566865, 51.377021661854975 ] } },
{ "type": "Feature", "properties": { "visible_points": 26, "total_points": 105, "visibility_pct": 24.761904761904763 }, "geometry": { "type": "Point", "coordinates": [ -0.164040447149456, 51.37701854602674 ] } },
{ "type": "Feature", "properties": { "visible_points": 28, "total_points": 99, "visibility_pct": 28.28282828282828 }, "geometry": { "type": "Point", "coordinates": [ -0.163841466767587, 51.377015429861245 ] } },
{ "type": "Feature", "properties": { "visible_points": 26, "total_points": 94, "visibility_pct": 27.659574468085108 }, "geometry": { "type": "Point", "coordinates": [ -0.163642486421254, 51.377012313358442 ] } },
{ "type": "Feature", "properties": { "visible_points": 19, "total_points": 87, "visibility_pct": 21.839080459770116 }, "geometry": { "type": "Point", "coordinates": [ -0.163443506110471, 51.377009196518379 ] } },
{ "type": "Feature", "properties": { "visible_points": 9, "total_points": 85, "visibility_pct": 10.588235294117647 }, "geometry": { "type": "Point", "coordinates": [ -0.164931545532323, 51.377140408739933 ] } },
{ "type": "Feature", "properties": { "visible_points": 16, "total_points": 97, "visibility_pct": 16.494845360824741 }, "geometry": { "type": "Point", "coordinates": [ -0.164732564526545, 51.377137294071815 ] } },
{ "type": "Feature", "properties": { "visible_points": 27, "total_points": 107, "visibility_pct": 25.233644859813083 }, "geometry": { "type": "Point", "coordinates": [ -0.164533583556297, 51.377134179066417 ] } },
{ "type": "Feature", "properties": { "visible_points": 33, "total_points": 113, "visibility_pct": 29.20353982300885 }, "geometry": { "type": "Point", "coordinates": [ -0.164334602621572, 51.377131063723702 ] } },
{ "type": "Feature", "properties": { "visible_points": 28, "total_points": 115, "visibility_pct": 24.347826086956523 }, "geometry": { "type": "Point", "coordinates": [ -0.164135621722379, 51.377127948043736 ] } },
{ "type": "Feature", "properties": { "visible_points": 30, "total_points": 110, "visibility_pct": 27.27272727272727 }, "geometry": { "type": "Point", "coordinates": [ -0.163936640858726, 51.377124832026453 ] } },
{ "type": "Feature", "properties": { "visible_points": 27, "total_points": 105, "visibility_pct": 25.714285714285712 }, "geometry": { "type": "Point", "coordinates": [ -0.163737660030609, 51.37712171567189 ] } },
{ "type": "Feature", "properties": { "visible_points": 20, "total_points": 99, "visibility_pct": 20.202020202020201 }, "geometry": { "type": "Point", "coordinates": [ -0.16353867923804, 51.377118598980061 ] } },
{ "type": "Feature", "properties": { "visible_points": 0, "total_points": 89, "visibility_pct": 0.0 }, "geometry": { "type": "Point", "coordinates": [ -0.163339698481015, 51.377115481950923 ] } },
{ "type": "Feature", "properties": { "visible_points": 0, "total_points": 77, "visibility_pct": 0.0 }, "geometry": { "type": "Point", "coordinates": [ -0.163140717759544, 51.377112364584498 ] } },
{ "type": "Feature", "properties": { "visible_points": 0, "total_points": 93, "visibility_pct": 0.0 }, "geometry": { "type": "Point", "coordinates": [ -0.164827740991063, 51.377246695577554 ] } },
{ "type": "Feature", "properties": { "visible_points": 0, "total_points": 103, "visibility_pct": 0.0 }, "geometry": { "type": "Point", "coordinates": [ -0.164628759539026, 51.377243580720389 ] } },
{ "type": "Feature", "properties": { "visible_points": 32, "total_points": 112, "visibility_pct": 28.571428571428569 }, "geometry": { "type": "Point", "coordinates": [ -0.16442977812252, 51.377240465525936 ] } },
{ "type": "Feature", "properties": { "visible_points": 32, "total_points": 118, "visibility_pct": 27.118644067796609 }, "geometry": { "type": "Point", "coordinates": [ -0.164230796741548, 51.377237349994182 ] } },
{ "type": "Feature", "properties": { "visible_points": 27, "total_points": 118, "visibility_pct": 22.881355932203391 }, "geometry": { "type": "Point", "coordinates": [ -0.164031815396102, 51.37723423412514 ] } },
{ "type": "Feature", "properties": { "visible_points": 29, "total_points": 114, "visibility_pct": 25.438596491228072 }, "geometry": { "type": "Point", "coordinates": [ -0.163832834086201, 51.377231117918818 ] } },
{ "type": "Feature", "properties": { "visible_points": 22, "total_points": 110, "visibility_pct": 20.0 }, "geometry": { "type": "Point", "coordinates": [ -0.163633852811841, 51.377228001375215 ] } },
{ "type": "Feature", "properties": { "visible_points": 0, "total_points": 100, "visibility_pct": 0.0 }, "geometry": { "type": "Point", "coordinates": [ -0.163434871573029, 51.377224884494311 ] } },
{ "type": "Feature", "properties": { "visible_points": 0, "total_points": 88, "visibility_pct": 0.0 }, "geometry": { "type": "Point", "coordinates": [ -0.163235890369763, 51.377221767276119 ] } },
{ "type": "Feature", "properties": { "visible_points": 0, "total_points": 76, "visibility_pct": 0.0 }, "geometry": { "type": "Point", "coordinates": [ -0.163036909202049, 51.377218649720639 ] } },
{ "type": "Feature", "properties": { "visible_points": 0, "total_points": 64, "visibility_pct": 0.0 }, "geometry": { "type": "Point", "coordinates": [ -0.1628379280699, 51.377215531827886 ] } },
{ "type": "Feature", "properties": { "visible_points": 0, "total_points": 52, "visibility_pct": 0.0 }, "geometry": { "type": "Point", "coordinates": [ -0.162638946973302, 51.377212413597839 ] } },
{ "type": "Feature", "properties": { "visible_points": 0, "total_points": 88, "visibility_pct": 0.0 }, "geometry": { "type": "Point", "coordinates": [ -0.164922917901823, 51.377356097016772 ] } },
{ "type": "Feature", "properties": { "visible_points": 0, "total_points": 100, "visibility_pct": 0.0 }, "geometry": { "type": "Point", "coordinates": [ -0.164723935968008, 51.377352982307841 ] } },
{ "type": "Feature", "properties": { "visible_points": 14, "total_points": 109, "visibility_pct": 12.844036697247708 }, "geometry": { "type": "Point", "coordinates": [ -0.164524954069715, 51.377349867261621 ] } },
{ "type": "Feature", "properties": { "visible_points": 29, "total_points": 116, "visibility_pct": 25.0 }, "geometry": { "type": "Point", "coordinates": [ -0.164325972206953, 51.377346751878115 ] } },
{ "type": "Feature", "properties": { "visible_points": 30, "total_points": 120, "visibility_pct": 25.0 }, "geometry": { "type": "Point", "coordinates": [ -0.164126990379728, 51.377343636157306 ] } },
{ "type": "Feature", "properties": { "visible_points": 25, "total_points": 120, "visibility_pct": 20.833333333333336 }, "geometry": { "type": "Point", "coordinates": [ -0.16392800858803, 51.377340520099217 ] } },
{ "type": "Feature", "properties": { "visible_points": 25, "total_points": 117, "visibility_pct": 21.367521367521366 }, "geometry": { "type": "Point", "coordinates": [ -0.163729026831881, 51.377337403703848 ] } },
{ "type": "Feature", "properties": { "visible_points": 0, "total_points": 111, "visibility_pct": 0.0 }, "geometry": { "type": "Point", "coordinates": [ -0.163530045111271, 51.377334286971191 ] } },
{ "type": "Feature", "properties": { "visible_points": 0, "total_points": 99, "visibility_pct": 0.0 }, "geometry": { "type": "Point", "coordinates": [ -0.163331063426213, 51.377331169901218 ] } },
{ "type": "Feature", "properties": { "visible_points": 0, "total_points": 86, "visibility_pct": 0.0 }, "geometry": { "type": "Point", "coordinates": [ -0.163132081776706, 51.377328052493965 ] } },
{ "type": "Feature", "properties": { "visible_points": 0, "total_points": 73, "visibility_pct": 0.0 }, "geometry": { "type": "Point", "coordinates": [ -0.162933100162755, 51.377324934749424 ] } },
{ "type": "Feature", "properties": { "visible_points": 0, "total_points": 61, "visibility_pct": 0.0 }, "geometry": { "type": "Point", "coordinates": [ -0.162734118584362, 51.377321816667603 ] } },
{ "type": "Feature", "properties": { "visible_points": 0, "total_points": 96, "visibility_pct": 0.0 }, "geometry": { "type": "Point", "coordinates": [ -0.164819112843235, 51.377462383828764 ] } },
{ "type": "Feature", "properties": { "visible_points": 15, "total_points": 106, "visibility_pct": 14.150943396226415 }, "geometry": { "type": "Point", "coordinates": [ -0.164620130463159, 51.377459268930785 ] } },
{ "type": "Feature", "properties": { "visible_points": 29, "total_points": 114, "visibility_pct": 25.438596491228072 }, "geometry": { "type": "Point", "coordinates": [ -0.164421148118614, 51.377456153695505 ] } },
{ "type": "Feature", "properties": { "visible_points": 29, "total_points": 119, "visibility_pct": 24.369747899159663 }, "geometry": { "type": "Point", "coordinates": [ -0.164222165809591, 51.377453038122944 ] } },
{ "type": "Feature", "properties": { "visible_points": 28, "total_points": 120, "visibility_pct": 23.333333333333332 }, "geometry": { "type": "Point", "coordinates": [ -0.164023183536105, 51.377449922213088 ] } },
{ "type": "Feature", "properties": { "visible_points": 22, "total_points": 120, "visibility_pct": 18.333333333333332 }, "geometry": { "type": "Point", "coordinates": [ -0.16382420129816, 51.377446805965945 ] } },
{ "type": "Feature", "properties": { "visible_points": 0, "total_points": 116, "visibility_pct": 0.0 }, "geometry": { "type": "Point", "coordinates": [ -0.163625219095761, 51.377443689381508 ] } },
{ "type": "Feature", "properties": { "visible_points": 0, "total_points": 108, "visibility_pct": 0.0 }, "geometry": { "type": "Point", "coordinates": [ -0.1634262369289, 51.37744057245979 ] } },
{ "type": "Feature", "properties": { "visible_points": 0, "total_points": 95, "visibility_pct": 0.0 }, "geometry": { "type": "Point", "coordinates": [ -0.163227254797596, 51.377437455200763 ] } },
{ "type": "Feature", "properties": { "visible_points": 0, "total_points": 82, "visibility_pct": 0.0 }, "geometry": { "type": "Point", "coordinates": [ -0.163028272701843, 51.377434337604463 ] } },
{ "type": "Feature", "properties": { "visible_points": 0, "total_points": 69, "visibility_pct": 0.0 }, "geometry": { "type": "Point", "coordinates": [ -0.162829290641648, 51.377431219670846 ] } },
{ "type": "Feature", "properties": { "visible_points": 0, "total_points": 87, "visibility_pct": 0.0 }, "geometry": { "type": "Point", "coordinates": [ -0.164914290164728, 51.377571785283124 ] } },
{ "type": "Feature", "properties": { "visible_points": 0, "total_points": 100, "visibility_pct": 0.0 }, "geometry": { "type": "Point", "coordinates": [ -0.164715307302859, 51.3775686705334 ] } },
{ "type": "Feature", "properties": { "visible_points": 8, "total_points": 110, "visibility_pct": 7.2727272727272725 }, "geometry": { "type": "Point", "coordinates": [ -0.164516324476519, 51.377565555446374 ] } },
{ "type": "Feature", "properties": { "visible_points": 22, "total_points": 116, "visibility_pct": 18.96551724137931 }, "geometry": { "type": "Point", "coordinates": [ -0.164317341685705, 51.377562440022047 ] } },
{ "type": "Feature", "properties": { "visible_points": 24, "total_points": 118, "visibility_pct": 20.33898305084746 }, "geometry": { "type": "Point", "coordinates": [ -0.164118358930429, 51.377559324260432 ] } },
{ "type": "Feature", "properties": { "visible_points": 23, "total_points": 118, "visibility_pct": 19.491525423728813 }, "geometry": { "type": "Point", "coordinates": [ -0.163919376210686, 51.377556208161529 ] } },
{ "type": "Feature", "properties": { "visible_points": 0, "total_points": 116, "visibility_pct": 0.0 }, "geometry": { "type": "Point", "coordinates": [ -0.163720393526486, 51.377553091725325 ] } },
{ "type": "Feature", "properties": { "visible_points": 0, "total_points": 111, "visibility_pct": 0.0 }, "geometry": { "type": "Point", "coordinates": [ -0.163521410877833, 51.377549974951826 ] } },
{ "type": "Feature", "properties": { "visible_points": 0, "total_points": 102, "visibility_pct": 0.0 }, "geometry": { "type": "Point", "coordinates": [ -0.163322428264724, 51.377546857841033 ] } },
{ "type": "Feature", "properties": { "visible_points": 0, "total_points": 89, "visibility_pct": 0.0 }, "geometry": { "type": "Point", "coordinates": [ -0.16312344568717, 51.377543740392952 ] } },
{ "type": "Feature", "properties": { "visible_points": 0, "total_points": 76, "visibility_pct": 0.0 }, "geometry": { "type": "Point", "coordinates": [ -0.162924463145171, 51.377540622607597 ] } },
{ "type": "Feature", "properties": { "visible_points": 0, "total_points": 77, "visibility_pct": 0.0 }, "geometry": { "type": "Point", "coordinates": [ -0.165009467932474, 51.377681186670983 ] } },
{ "type": "Feature", "properties": { "visible_points": 0, "total_points": 88, "visibility_pct": 0.0 }, "geometry": { "type": "Point", "coordinates": [ -0.164810484588818, 51.377678072069486 ] } },
{ "type": "Feature", "properties": { "visible_points": 0, "total_points": 98, "visibility_pct": 0.0 }, "geometry": { "type": "Point", "coordinates": [ -0.164611501280682, 51.377674957130701 ] } },
{ "type": "Feature", "properties": { "visible_points": 0, "total_points": 108, "visibility_pct": 0.0 }, "geometry": { "type": "Point", "coordinates": [ -0.164412518008074, 51.377671841854614 ] } },
{ "type": "Feature", "properties": { "visible_points": 18, "total_points": 112, "visibility_pct": 16.071428571428573 }, "geometry": { "type": "Point", "coordinates": [ -0.164213534771001, 51.377668726241232 ] } },
{ "type": "Feature", "properties": { "visible_points": 20, "total_points": 113, "visibility_pct": 17.699115044247787 }, "geometry": { "type": "Point", "coordinates": [ -0.164014551569459, 51.37766561029057 ] } },
{ "type": "Feature", "properties": { "visible_points": 0, "total_points": 112, "visibility_pct": 0.0 }, "geometry": { "type": "Point", "coordinates": [ -0.163815568403463, 51.3776624940026 ] } },
{ "type": "Feature", "properties": { "visible_points": 0, "total_points": 105, "visibility_pct": 0.0 }, "geometry": { "type": "Point", "coordinates": [ -0.163616585273003, 51.377659377377348 ] } },
{ "type": "Feature", "properties": { "visible_points": 0, "total_points": 98, "visibility_pct": 0.0 }, "geometry": { "type": "Point", "coordinates": [ -0.163417602178094, 51.377656260414795 ] } },
{ "type": "Feature", "properties": { "visible_points": 0, "total_points": 90, "visibility_pct": 0.0 }, "geometry": { "type": "Point", "coordinates": [ -0.163218619118735, 51.377653143114934 ] } },
{ "type": "Feature", "properties": { "visible_points": 0, "total_points": 80, "visibility_pct": 0.0 }, "geometry": { "type": "Point", "coordinates": [ -0.163019636094931, 51.377650025477784 ] } },
{ "type": "Feature", "properties": { "visible_points": 0, "total_points": 66, "visibility_pct": 0.0 }, "geometry": { "type": "Point", "coordinates": [ -0.165104646146486, 51.377790587992322 ] } },
{ "type": "Feature", "properties": { "visible_points": 0, "total_points": 76, "visibility_pct": 0.0 }, "geometry": { "type": "Point", "coordinates": [ -0.164905662321034, 51.377787473539051 ] } },
{ "type": "Feature", "properties": { "visible_points": 0, "total_points": 86, "visibility_pct": 0.0 }, "geometry": { "type": "Point", "coordinates": [ -0.164706678531105, 51.377784358748492 ] } },
{ "type": "Feature", "properties": { "visible_points": 0, "total_points": 96, "visibility_pct": 0.0 }, "geometry": { "type": "Point", "coordinates": [ -0.164507694776701, 51.377781243620653 ] } },
{ "type": "Feature", "properties": { "visible_points": 13, "total_points": 103, "visibility_pct": 12.621359223300971 }, "geometry": { "type": "Point", "coordinates": [ -0.164308711057827, 51.377778128155526 ] } },
{ "type": "Feature", "properties": { "visible_points": 2, "total_points": 104, "visibility_pct": 1.9230769230769231 }, "geometry": { "type": "Point", "coordinates": [ -0.164109727374488, 51.377775012353084 ] } },
{ "type": "Feature", "properties": { "visible_points": 0, "total_points": 105, "visibility_pct": 0.0 }, "geometry": { "type": "Point", "coordinates": [ -0.163910743726688, 51.37777189621336 ] } },
{ "type": "Feature", "properties": { "visible_points": 0, "total_points": 99, "visibility_pct": 0.0 }, "geometry": { "type": "Point", "coordinates": [ -0.163711760114422, 51.377768779736314 ] } },
{ "type": "Feature", "properties": { "visible_points": 0, "total_points": 92, "visibility_pct": 0.0 }, "geometry": { "type": "Point", "coordinates": [ -0.163512776537715, 51.377765662922016 ] } },
{ "type": "Feature", "properties": { "visible_points": 0, "total_points": 85, "visibility_pct": 0.0 }, "geometry": { "type": "Point", "coordinates": [ -0.163313792996544, 51.377762545770395 ] } },
{ "type": "Feature", "properties": { "visible_points": 0, "total_points": 77, "visibility_pct": 0.0 }, "geometry": { "type": "Point", "coordinates": [ -0.163114809490931, 51.377759428281486 ] } },
{ "type": "Feature", "properties": { "visible_points": 0, "total_points": 56, "visibility_pct": 0.0 }, "geometry": { "type": "Point", "coordinates": [ -0.165199824806767, 51.377899989247076 ] } },
{ "type": "Feature", "properties": { "visible_points": 0, "total_points": 65, "visibility_pct": 0.0 }, "geometry": { "type": "Point", "coordinates": [ -0.16500084049952, 51.377896874942067 ] } },
{ "type": "Feature", "properties": { "visible_points": 0, "total_points": 74, "visibility_pct": 0.0 }, "geometry": { "type": "Point", "coordinates": [ -0.164801856227789, 51.37789376029977 ] } },
{ "type": "Feature", "properties": { "visible_points": 0, "total_points": 83, "visibility_pct": 0.0 }, "geometry": { "type": "Point", "coordinates": [ -0.164602871991587, 51.377890645320171 ] } },
{ "type": "Feature", "properties": { "visible_points": 0, "total_points": 92, "visibility_pct": 0.0 }, "geometry": { "type": "Point", "coordinates": [ -0.164403887790913, 51.377887530003264 ] } },
{ "type": "Feature", "properties": { "visible_points": 0, "total_points": 95, "visibility_pct": 0.0 }, "geometry": { "type": "Point", "coordinates": [ -0.164005919496165, 51.377881298357579 ] } },
{ "type": "Feature", "properties": { "visible_points": 0, "total_points": 92, "visibility_pct": 0.0 }, "geometry": { "type": "Point", "coordinates": [ -0.1638069354021, 51.377878182028788 ] } },
{ "type": "Feature", "properties": { "visible_points": 0, "total_points": 86, "visibility_pct": 0.0 }, "geometry": { "type": "Point", "coordinates": [ -0.163607951343577, 51.377875065362701 ] } },
{ "type": "Feature", "properties": { "visible_points": 0, "total_points": 79, "visibility_pct": 0.0 }, "geometry": { "type": "Point", "coordinates": [ -0.1634089673206, 51.377871948359328 ] } },
{ "type": "Feature", "properties": { "visible_points": 1, "total_points": 72, "visibility_pct": 1.3888888888888888 }, "geometry": { "type": "Point", "coordinates": [ -0.163209983333184, 51.377868831018652 ] } },
{ "type": "Feature", "properties": { "visible_points": 0, "total_points": 62, "visibility_pct": 0.0 }, "geometry": { "type": "Point", "coordinates": [ -0.164897034370745, 51.378003161784498 ] } },
{ "type": "Feature", "properties": { "visible_points": 0, "total_points": 71, "visibility_pct": 0.0 }, "geometry": { "type": "Point", "coordinates": [ -0.164698049652737, 51.37800004695314 ] } },
{ "type": "Feature", "properties": { "visible_points": 0, "total_points": 79, "visibility_pct": 0.0 }, "geometry": { "type": "Point", "coordinates": [ -0.164499064970261, 51.37799693178448 ] } },
{ "type": "Feature", "properties": { "visible_points": 0, "total_points": 79, "visibility_pct": 0.0 }, "geometry": { "type": "Point", "coordinates": [ -0.163703126595699, 51.37798446773688 ] } },
{ "type": "Feature", "properties": { "visible_points": 0, "total_points": 73, "visibility_pct": 0.0 }, "geometry": { "type": "Point", "coordinates": [ -0.163504142090912, 51.37798135088174 ] } },
{ "type": "Feature", "properties": { "visible_points": 0, "total_points": 66, "visibility_pct": 0.0 }, "geometry": { "type": "Point", "coordinates": [ -0.163305157621673, 51.377978233689298 ] } },
{ "type": "Feature", "properties": { "visible_points": 0, "total_points": 60, "visibility_pct": 0.0 }, "geometry": { "type": "Point", "coordinates": [ -0.163400332356426, 51.378087636293401 ] } }
]
}
