{
"type": "FeatureCollection",
"name": "BARNE_83_walking",
"crs": { "type": "name", "properties": { "name": "urn:ogc:def:crs:OGC:1.3:CRS84" } },
"features": [
{"type":"Feature","properties":{"highway":"footway","name":null,"category":"Footpath (pedestrian only)"},"geometry":{"type":"MultiLineString","coordinates":[[[-0.267922,51.6285449],[-0.2679711,51.6285298],[-0.2681397,51.6285445],[-0.2685475,51.628603],[-0.2687274,51.6286256],[-0.2687129,51.6286699],[-0.2683798,51.6286477],[-0.2681556,51.6286628],[-0.2679328,51.6286934]]]}},
{"type":"Feature","properties":{"highway":"footway","name":null,"category":"Footpath (pedestrian only)"},"geometry":{"type":"MultiLineString","coordinates":[[[-0.2541778,51.6191542],[-0.2538259,51.6187088],[-0.2535992,51.6185049],[-0.2532356,51.6181129]]]}},
{"type":"Feature","properties":{"highway":"footway","name":"Barnet Way","category":"Footpath (pedestrian only)"},"geometry":{"type":"MultiLineString","coordinates":[[[-0.2545515,51.626988],[-0.253975,51.6269842]]]}},
{"type":"Feature","properties":{"highway":"footway","name":null,"category":"Footpath (pedestrian only)"},"geometry":{"type":"MultiLineString","coordinates":[[[-0.2601019,51.6257649],[-0.2605151,51.6257671],[-0.2609716,51.6257677],[-0.2611558,51.6257481],[-0.2613119,51.6257132],[-0.2616395,51.6255926]]]}},
{"type":"Feature","properties":{"highway":"footway","name":null,"category":"Footpath (pedestrian only)"},"geometry":{"type":"MultiLineString","coordinates":[[[-0.2532849,51.6256726],[-0.2534151,51.6257079],[-0.2539576,51.6258049],[-0.2540331,51.625816]]]}},
{"type":"Feature","properties":{"highway":"footway","name":null,"category":"Footpath (pedestrian only)"},"geometry":{"type":"MultiLineString","coordinates":[[[-0.2601019,51.6257649],[-0.2598223,51.625816]]]}},
{"type":"Feature","properties":{"highway":"footway","name":null,"category":"Footpath (pedestrian only)"},"geometry":{"type":"MultiLineString","coordinates":[[[-0.2637954,51.6248545],[-0.2639247,51.6249248],[-0.2644184,51.6249424],[-0.264822,51.6249307],[-0.2650629,51.624969],[-0.2651664,51.624979],[-0.265416,51.625003],[-0.2660317,51.62502],[-0.2662444,51.6250597]]]}},
{"type":"Feature","properties":{"highway":"footway","name":null,"category":"Footpath (pedestrian only)"},"geometry":{"type":"MultiLineString","coordinates":[[[-0.2637617,51.6248912],[-0.2636934,51.6248756],[-0.2630648,51.6247324],[-0.2632053,51.6245039],[-0.2634661,51.62418],[-0.26373,51.6238679],[-0.2638636,51.6234569],[-0.2636138,51.6232382]]]}},
{"type":"Feature","properties":{"highway":"footway","name":null,"category":"Footpath (pedestrian only)"},"geometry":{"type":"MultiLineString","coordinates":[[[-0.2631962,51.622849],[-0.2633646,51.6231988],[-0.2633475,51.6233054],[-0.2631243,51.6237103],[-0.2627209,51.6241206],[-0.2624199,51.6243263],[-0.2622815,51.6244256],[-0.2621365,51.6246931],[-0.2620058,51.6249375],[-0.2619587,51.6250338],[-0.2619416,51.6250917],[-0.261876,51.6253139],[-0.2616395,51.6255926]]]}},
{"type":"Feature","properties":{"highway":"footway","name":null,"category":"Footpath (pedestrian only)"},"geometry":{"type":"MultiLineString","coordinates":[[[-0.2543169,51.6223193],[-0.2543287,51.622276],[-0.2543435,51.6222342]]]}},
{"type":"Feature","properties":{"highway":"footway","name":"Barnet Way","category":"Footpath (pedestrian only)"},"geometry":{"type":"MultiLineString","coordinates":[[[-0.2545515,51.626988],[-0.2545099,51.6273118]]]}},
{"type":"Feature","properties":{"highway":"footway","name":null,"category":"Footpath (pedestrian only)"},"geometry":{"type":"MultiLineString","coordinates":[[[-0.2630728,51.6227725],[-0.2629599,51.6228523],[-0.2624092,51.6230378]]]}},
{"type":"Feature","properties":{"highway":"footway","name":null,"category":"Footpath (pedestrian only)"},"geometry":{"type":"MultiLineString","coordinates":[[[-0.2624199,51.6243263],[-0.2623583,51.6242653],[-0.2621728,51.6240814],[-0.2620133,51.6238939]]]}},
{"type":"Feature","properties":{"highway":"footway","name":null,"category":"Footpath (pedestrian only)"},"geometry":{"type":"MultiLineString","coordinates":[[[-0.2646602,51.6230068],[-0.264582,51.6229923],[-0.2643218,51.6229238],[-0.2641614,51.6229094],[-0.2640628,51.6229294],[-0.2639987,51.6230284],[-0.2638636,51.6234569]]]}},
{"type":"Feature","properties":{"highway":"footway","name":null,"category":"Footpath (pedestrian only)"},"geometry":{"type":"MultiLineString","coordinates":[[[-0.2630648,51.6247324],[-0.2627275,51.6251287],[-0.26255,51.6251364],[-0.2622129,51.6250779]]]}},
{"type":"Feature","properties":{"highway":"footway","name":null,"category":"Footpath (pedestrian only)"},"geometry":{"type":"MultiLineString","coordinates":[[[-0.2535992,51.6185049],[-0.2528477,51.6188067]]]}},
{"type":"Feature","properties":{"highway":"footway","name":"Fairway Court","category":"Footpath (pedestrian only)"},"geometry":{"type":"MultiLineString","coordinates":[[[-0.2595574,51.6262022],[-0.2599362,51.626441],[-0.2599121,51.6264772],[-0.2598799,51.6265042],[-0.2598417,51.6265221],[-0.2597907,51.6265355],[-0.2593846,51.6263183]]]}},
{"type":"Feature","properties":{"highway":"track","name":null,"category":"Track"},"geometry":{"type":"MultiLineString","coordinates":[[[-0.2673654,51.6328645],[-0.2649836,51.6297678]]]}},
{"type":"Feature","properties":{"highway":"footway","name":"Barnet Way","category":"Footpath (pedestrian only)"},"geometry":{"type":"MultiLineString","coordinates":[[[-0.253975,51.6269842],[-0.2539698,51.627031],[-0.2539694,51.6270506]]]}},
{"type":"Feature","properties":{"highway":"footway","name":null,"category":"Footpath (pedestrian only)"},"geometry":{"type":"MultiLineString","coordinates":[[[-0.2545515,51.626988],[-0.2545684,51.6266501]]]}},
{"type":"Feature","properties":{"highway":"footway","name":null,"category":"Footpath (pedestrian only)"},"geometry":{"type":"MultiLineString","coordinates":[[[-0.2603695,51.6194717],[-0.2602813,51.6194066],[-0.2597143,51.6190254]]]}},
{"type":"Feature","properties":{"highway":"footway","name":null,"category":"Footpath (pedestrian only)"},"geometry":{"type":"MultiLineString","coordinates":[[[-0.2587154,51.618529],[-0.2597384,51.619]]]}},
{"type":"Feature","properties":{"highway":"footway","name":null,"category":"Footpath (pedestrian only)"},"geometry":{"type":"MultiLineString","coordinates":[[[-0.2711485,51.6282337],[-0.2709964,51.628064],[-0.2708883,51.6279161]]]}},
{"type":"Feature","properties":{"highway":"footway","name":null,"category":"Footpath (pedestrian only)"},"geometry":{"type":"MultiLineString","coordinates":[[[-0.2702259,51.6278612],[-0.2705056,51.6278759],[-0.2707389,51.6278875],[-0.2707865,51.6278683]]]}},
{"type":"Feature","properties":{"highway":"footway","name":null,"category":"Footpath (pedestrian only)"},"geometry":{"type":"MultiLineString","coordinates":[[[-0.2714896,51.627371],[-0.2713532,51.6274829],[-0.2712298,51.6275229],[-0.2709911,51.6275312],[-0.270857,51.6275745],[-0.2708516,51.6276394],[-0.270882,51.6278064]]]}},
{"type":"Feature","properties":{"highway":"footway","name":null,"category":"Footpath (pedestrian only)"},"geometry":{"type":"MultiLineString","coordinates":[[[-0.270409,51.6275062],[-0.2705914,51.6275445],[-0.2707389,51.6275778],[-0.270857,51.6275745]]]}},
{"type":"Feature","properties":{"highway":"footway","name":null,"category":"Footpath (pedestrian only)"},"geometry":{"type":"MultiLineString","coordinates":[[[-0.2636448,51.622995],[-0.2637007,51.6230089],[-0.2639987,51.6230284]]]}},
{"type":"Feature","properties":{"highway":"footway","name":null,"category":"Footpath (pedestrian only)"},"geometry":{"type":"MultiLineString","coordinates":[[[-0.2773952,51.6214714],[-0.2774389,51.621468]]]}},
{"type":"Feature","properties":{"highway":"footway","name":null,"category":"Footpath (pedestrian only)"},"geometry":{"type":"MultiLineString","coordinates":[[[-0.2762637,51.6211595],[-0.2765194,51.621168]]]}},
{"type":"Feature","properties":{"highway":"footway","name":null,"category":"Footpath (pedestrian only)"},"geometry":{"type":"MultiLineString","coordinates":[[[-0.2772181,51.6212297],[-0.2771468,51.621458]]]}},
{"type":"Feature","properties":{"highway":"footway","name":null,"category":"Footpath (pedestrian only)"},"geometry":{"type":"MultiLineString","coordinates":[[[-0.2762364,51.6211695],[-0.2762637,51.6211595]]]}},
{"type":"Feature","properties":{"highway":"footway","name":null,"category":"Footpath (pedestrian only)"},"geometry":{"type":"MultiLineString","coordinates":[[[-0.2760214,51.6214844],[-0.2761037,51.6214361]]]}},
{"type":"Feature","properties":{"highway":"footway","name":null,"category":"Footpath (pedestrian only)"},"geometry":{"type":"MultiLineString","coordinates":[[[-0.2764893,51.6214386],[-0.2762646,51.6214264]]]}},
{"type":"Feature","properties":{"highway":"footway","name":null,"category":"Footpath (pedestrian only)"},"geometry":{"type":"MultiLineString","coordinates":[[[-0.2771468,51.621458],[-0.2767269,51.6214233],[-0.276721,51.62145],[-0.2764893,51.6214386]]]}},
{"type":"Feature","properties":{"highway":"footway","name":null,"category":"Footpath (pedestrian only)"},"geometry":{"type":"MultiLineString","coordinates":[[[-0.2762646,51.6214264],[-0.276151,51.6214352]]]}},
{"type":"Feature","properties":{"highway":"footway","name":null,"category":"Footpath (pedestrian only)"},"geometry":{"type":"MultiLineString","coordinates":[[[-0.2765194,51.621168],[-0.2766832,51.6211767],[-0.2769199,51.6211996],[-0.2772181,51.6212297]]]}},
{"type":"Feature","properties":{"highway":"footway","name":null,"category":"Footpath (pedestrian only)"},"geometry":{"type":"MultiLineString","coordinates":[[[-0.2621572,51.6299597],[-0.2620956,51.6300821],[-0.2621203,51.6301491],[-0.2621018,51.6302294],[-0.2620648,51.6303327],[-0.2620432,51.6303881]]]}},
{"type":"Feature","properties":{"highway":"footway","name":null,"category":"Footpath (pedestrian only)"},"geometry":{"type":"MultiLineString","coordinates":[[[-0.2539784,51.6268239],[-0.2539728,51.6268106],[-0.2539536,51.6267936]]]}},
{"type":"Feature","properties":{"highway":"footway","name":null,"category":"Footpath (pedestrian only)"},"geometry":{"type":"MultiLineString","coordinates":[[[-0.2543032,51.6223762],[-0.2543169,51.6223193]]]}},
{"type":"Feature","properties":{"highway":"footway","name":null,"category":"Footpath (pedestrian only)"},"geometry":{"type":"MultiLineString","coordinates":[[[-0.2543435,51.6222342],[-0.2543952,51.6220945]]]}},
{"type":"Feature","properties":{"highway":"footway","name":null,"category":"Footpath (pedestrian only)"},"geometry":{"type":"MultiLineString","coordinates":[[[-0.2545099,51.6273118],[-0.2545074,51.6273449],[-0.2544522,51.6279133]]]}},
{"type":"Feature","properties":{"highway":"footway","name":null,"category":"Footpath (pedestrian only)"},"geometry":{"type":"MultiLineString","coordinates":[[[-0.2631782,51.6220964],[-0.2631887,51.6220637]]]}},
{"type":"Feature","properties":{"highway":"footway","name":null,"category":"Footpath (pedestrian only)"},"geometry":{"type":"MultiLineString","coordinates":[[[-0.2632762,51.6217573],[-0.2632651,51.6217911]]]}},
{"type":"Feature","properties":{"highway":"footway","name":null,"category":"Footpath (pedestrian only)"},"geometry":{"type":"MultiLineString","coordinates":[[[-0.2544522,51.6279133],[-0.2544406,51.6280327],[-0.2544354,51.6280852]]]}},
{"type":"Feature","properties":{"highway":"footway","name":null,"category":"Footpath (pedestrian only)"},"geometry":{"type":"MultiLineString","coordinates":[[[-0.2531048,51.6217521],[-0.2535184,51.6212024]]]}},
{"type":"Feature","properties":{"highway":"path","name":null,"category":"Shared path"},"geometry":{"type":"MultiLineString","coordinates":[[[-0.2714425,51.6373442],[-0.2713911,51.6372674],[-0.2710692,51.6367946],[-0.2707044,51.6363651],[-0.2701465,51.635636],[-0.269417,51.6346371],[-0.2691836,51.6343841],[-0.2690441,51.6342293],[-0.2688832,51.6340145],[-0.2686338,51.6336566],[-0.2683951,51.6333036],[-0.268092,51.6329207],[-0.2676789,51.6323647],[-0.2674241,51.6319751],[-0.2673878,51.6319271],[-0.2670539,51.6314856],[-0.2671066,51.6312913]]]}},
{"type":"Feature","properties":{"highway":"footway","name":null,"category":"Footpath (pedestrian only)"},"geometry":{"type":"MultiLineString","coordinates":[[[-0.2627275,51.6251287],[-0.2626273,51.6252745],[-0.2623537,51.6256058],[-0.2623564,51.6256924]]]}},
{"type":"Feature","properties":{"highway":"footway","name":null,"category":"Footpath (pedestrian only)"},"geometry":{"type":"MultiLineString","coordinates":[[[-0.2643325,51.6272712],[-0.2645209,51.6274308],[-0.2646577,51.6276289],[-0.2648964,51.6277821],[-0.2650117,51.6278436],[-0.2652907,51.6278886],[-0.2656099,51.6280102],[-0.265862,51.6281101],[-0.2660605,51.6282499],[-0.2664038,51.6284697],[-0.2663788,51.629047],[-0.2663823,51.6295467]]]}},
{"type":"Feature","properties":{"highway":"footway","name":null,"category":"Footpath (pedestrian only)"},"geometry":{"type":"MultiLineString","coordinates":[[[-0.2672902,51.629095],[-0.2671742,51.6290594],[-0.2663788,51.629047]]]}},
{"type":"Feature","properties":{"highway":"footway","name":null,"category":"Footpath (pedestrian only)"},"geometry":{"type":"MultiLineString","coordinates":[[[-0.2670539,51.6314856],[-0.2652344,51.6293755]]]}},
{"type":"Feature","properties":{"highway":"footway","name":null,"category":"Footpath (pedestrian only)"},"geometry":{"type":"MultiLineString","coordinates":[[[-0.2586354,51.6213769],[-0.2585918,51.6213316],[-0.2584061,51.6212347],[-0.2583122,51.6211923],[-0.2582773,51.6211952],[-0.2581137,51.621064],[-0.2579937,51.6209887],[-0.2578636,51.6209304],[-0.2577657,51.6208858],[-0.2576517,51.6208292],[-0.2573956,51.6206981],[-0.2572842,51.6206256],[-0.2568698,51.6204766],[-0.2567961,51.6203634],[-0.2567411,51.620241],[-0.2567,51.6201834]]]}},
{"type":"Feature","properties":{"highway":"footway","name":null,"category":"Footpath (pedestrian only)"},"geometry":{"type":"MultiLineString","coordinates":[[[-0.2672355,51.6295403],[-0.2673214,51.6296268],[-0.2673208,51.6297011],[-0.2673192,51.6298907],[-0.2673187,51.6299498],[-0.2679718,51.6299512],[-0.2680966,51.6299515],[-0.268118,51.6297783],[-0.2683246,51.6297883],[-0.2687591,51.6295036],[-0.2688308,51.6294476]]]}},
{"type":"Feature","properties":{"highway":"footway","name":null,"category":"Footpath (pedestrian only)"},"geometry":{"type":"MultiLineString","coordinates":[[[-0.2544789,51.6218343],[-0.2544968,51.6217826],[-0.2545084,51.621749],[-0.2545066,51.6217187],[-0.2544729,51.6216209],[-0.2544131,51.6215279],[-0.2543145,51.6214649],[-0.2543098,51.6214621],[-0.2542415,51.6214217],[-0.2541078,51.6213716],[-0.2535184,51.6212024],[-0.2531921,51.6211061],[-0.2529704,51.6210317],[-0.2526698,51.6209139],[-0.2523834,51.6207887],[-0.2519898,51.620609],[-0.2516892,51.6204589],[-0.2514809,51.6203369],[-0.251283,51.6202201],[-0.2510575,51.6200704],[-0.2508227,51.6199012],[-0.2507837,51.6198731],[-0.2504102,51.6195872],[-0.250251,51.6194745],[-0.2500836,51.6193668],[-0.2498544,51.6192315],[-0.2496603,51.6191345],[-0.2492436,51.6189312],[-0.2487994,51.6187187],[-0.2484564,51.6185575],[-0.2478128,51.6182475],[-0.2473463,51.6180299],[-0.2468382,51.6177837],[-0.2461672,51.6174681]]]}},
{"type":"Feature","properties":{"highway":"footway","name":null,"category":"Footpath (pedestrian only)"},"geometry":{"type":"MultiLineString","coordinates":[[[-0.2543019,51.6214845],[-0.2543098,51.6214621]]]}},
{"type":"Feature","properties":{"highway":"footway","name":null,"category":"Footpath (pedestrian only)"},"geometry":{"type":"MultiLineString","coordinates":[[[-0.2548242,51.6211752],[-0.2548101,51.6211522],[-0.2547853,51.6211162]]]}},
{"type":"Feature","properties":{"highway":"footway","name":null,"category":"Footpath (pedestrian only)"},"geometry":{"type":"MultiLineString","coordinates":[[[-0.2547837,51.6211922],[-0.2548242,51.6211752]]]}},
{"type":"Feature","properties":{"highway":"footway","name":null,"category":"Footpath (pedestrian only)"},"geometry":{"type":"MultiLineString","coordinates":[[[-0.2557069,51.6206853],[-0.2556192,51.6206556],[-0.2555162,51.6206208]]]}},
{"type":"Feature","properties":{"highway":"footway","name":null,"category":"Footpath (pedestrian only)"},"geometry":{"type":"MultiLineString","coordinates":[[[-0.2555162,51.6206208],[-0.2553985,51.6208142]]]}},
{"type":"Feature","properties":{"highway":"footway","name":null,"category":"Footpath (pedestrian only)"},"geometry":{"type":"MultiLineString","coordinates":[[[-0.2552766,51.6208129],[-0.2551967,51.6209383],[-0.2550284,51.6210428],[-0.2547853,51.6211162],[-0.2547573,51.6211185],[-0.2546079,51.621096],[-0.254185,51.6210063],[-0.2538215,51.6209251]]]}},
{"type":"Feature","properties":{"highway":"footway","name":null,"category":"Footpath (pedestrian only)"},"geometry":{"type":"MultiLineString","coordinates":[[[-0.2553985,51.6208142],[-0.2553832,51.6208399],[-0.2553516,51.6208928],[-0.2553252,51.620937]]]}},
{"type":"Feature","properties":{"highway":"footway","name":null,"category":"Footpath (pedestrian only)"},"geometry":{"type":"MultiLineString","coordinates":[[[-0.2553252,51.620937],[-0.2552699,51.6210095],[-0.2551717,51.6210787],[-0.2550438,51.6211238],[-0.2548615,51.621169],[-0.2548242,51.6211752],[-0.2547798,51.6211734],[-0.2547191,51.6211784],[-0.254631,51.6211718],[-0.2544784,51.6211386],[-0.2542066,51.6210789]]]}},
{"type":"Feature","properties":{"highway":"footway","name":null,"category":"Footpath (pedestrian only)"},"geometry":{"type":"MultiLineString","coordinates":[[[-0.2542066,51.6210789],[-0.2541053,51.621073],[-0.2540247,51.6210586],[-0.253781,51.6209979],[-0.2535297,51.6209332],[-0.2532836,51.6208578],[-0.2530187,51.6207632]]]}},
{"type":"Feature","properties":{"highway":"footway","name":null,"category":"Footpath (pedestrian only)"},"geometry":{"type":"MultiLineString","coordinates":[[[-0.2538215,51.6209251],[-0.2537721,51.6209119],[-0.253718,51.6208973]]]}},
{"type":"Feature","properties":{"highway":"footway","name":null,"category":"Footpath (pedestrian only)"},"geometry":{"type":"MultiLineString","coordinates":[[[-0.253718,51.6208973],[-0.2534197,51.6208119],[-0.2530741,51.6206959]]]}},
{"type":"Feature","properties":{"highway":"footway","name":null,"category":"Footpath (pedestrian only)"},"geometry":{"type":"MultiLineString","coordinates":[[[-0.2527693,51.6216615],[-0.2531921,51.6211061]]]}},
{"type":"Feature","properties":{"highway":"footway","name":null,"category":"Footpath (pedestrian only)"},"geometry":{"type":"MultiLineString","coordinates":[[[-0.2544667,51.6218749],[-0.2544121,51.6218642],[-0.2541224,51.6217267]]]}},
{"type":"Feature","properties":{"highway":"footway","name":null,"category":"Footpath (pedestrian only)"},"geometry":{"type":"MultiLineString","coordinates":[[[-0.2713475,51.628853],[-0.2713371,51.62869],[-0.2713478,51.6285102],[-0.2712922,51.6283608],[-0.2711485,51.6282337]]]}},
{"type":"Feature","properties":{"highway":"footway","name":null,"category":"Footpath (pedestrian only)"},"geometry":{"type":"MultiLineString","coordinates":[[[-0.2623564,51.6256924],[-0.2626811,51.6260073]]]}},
{"type":"Feature","properties":{"highway":"footway","name":null,"category":"Footpath (pedestrian only)"},"geometry":{"type":"MultiLineString","coordinates":[[[-0.2635191,51.6231562],[-0.2634349,51.6229427],[-0.2631962,51.622849],[-0.2630728,51.6227725],[-0.262781,51.6225007],[-0.262376,51.6220938],[-0.2623484,51.6219317]]]}},
{"type":"Feature","properties":{"highway":"footway","name":null,"category":"Footpath (pedestrian only)"},"geometry":{"type":"MultiLineString","coordinates":[[[-0.2636138,51.6232382],[-0.2635191,51.6231562]]]}},
{"type":"Feature","properties":{"highway":"footway","name":null,"category":"Footpath (pedestrian only)"},"geometry":{"type":"MultiLineString","coordinates":[[[-0.2635264,51.6229655],[-0.2636448,51.622995]]]}},
{"type":"Feature","properties":{"highway":"footway","name":null,"category":"Footpath (pedestrian only)"},"geometry":{"type":"MultiLineString","coordinates":[[[-0.2634349,51.6229427],[-0.2635264,51.6229655]]]}},
{"type":"Feature","properties":{"highway":"footway","name":null,"category":"Footpath (pedestrian only)"},"geometry":{"type":"MultiLineString","coordinates":[[[-0.2620787,51.6250546],[-0.2619587,51.6250338]]]}},
{"type":"Feature","properties":{"highway":"footway","name":null,"category":"Footpath (pedestrian only)"},"geometry":{"type":"MultiLineString","coordinates":[[[-0.2622129,51.6250779],[-0.2620787,51.6250546]]]}},
{"type":"Feature","properties":{"highway":"footway","name":null,"category":"Footpath (pedestrian only)"},"geometry":{"type":"MultiLineString","coordinates":[[[-0.2738873,51.6214055],[-0.2738935,51.6214189],[-0.2739092,51.6214529],[-0.2739336,51.6215055],[-0.2739416,51.6215228],[-0.2739485,51.6215377]]]}},
{"type":"Feature","properties":{"highway":"footway","name":null,"category":"Footpath (pedestrian only)"},"geometry":{"type":"MultiLineString","coordinates":[[[-0.273881,51.6215538],[-0.2738842,51.6215618],[-0.2738966,51.6215925],[-0.2739139,51.6216355],[-0.2739181,51.6216459]]]}},
{"type":"Feature","properties":{"highway":"footway","name":null,"category":"Footpath (pedestrian only)"},"geometry":{"type":"MultiLineString","coordinates":[[[-0.2739485,51.6215377],[-0.273881,51.6215538]]]}},
{"type":"Feature","properties":{"highway":"footway","name":null,"category":"Footpath (pedestrian only)"},"geometry":{"type":"MultiLineString","coordinates":[[[-0.274256,51.6213378],[-0.2742644,51.6213585],[-0.2742793,51.6213955],[-0.2742894,51.6214202],[-0.2742945,51.6214327]]]}},
{"type":"Feature","properties":{"highway":"footway","name":null,"category":"Footpath (pedestrian only)"},"geometry":{"type":"MultiLineString","coordinates":[[[-0.2742945,51.6214327],[-0.2742386,51.6214439]]]}},
{"type":"Feature","properties":{"highway":"footway","name":null,"category":"Footpath (pedestrian only)"},"geometry":{"type":"MultiLineString","coordinates":[[[-0.2742386,51.6214439],[-0.2742442,51.6214546],[-0.2742503,51.6214661],[-0.2742821,51.621527],[-0.2742998,51.6215637]]]}},
{"type":"Feature","properties":{"highway":"footway","name":null,"category":"Footpath (pedestrian only)"},"geometry":{"type":"MultiLineString","coordinates":[[[-0.2742998,51.6215637],[-0.2743089,51.6215789],[-0.274271,51.6215889],[-0.274275,51.6216006]]]}},
{"type":"Feature","properties":{"highway":"footway","name":null,"category":"Footpath (pedestrian only)"},"geometry":{"type":"MultiLineString","coordinates":[[[-0.274275,51.6216006],[-0.2742813,51.6216126],[-0.2743022,51.6216525],[-0.2743087,51.6216649]]]}},
{"type":"Feature","properties":{"highway":"footway","name":null,"category":"Footpath (pedestrian only)"},"geometry":{"type":"MultiLineString","coordinates":[[[-0.2742288,51.6216879],[-0.2743087,51.6216649],[-0.274828,51.6215746],[-0.2752429,51.6215252],[-0.2757549,51.621487],[-0.2760214,51.6214844]]]}},
{"type":"Feature","properties":{"highway":"footway","name":null,"category":"Footpath (pedestrian only)"},"geometry":{"type":"MultiLineString","coordinates":[[[-0.2742288,51.6216879],[-0.2741671,51.6216854],[-0.2741586,51.621685],[-0.2741437,51.6216853],[-0.2740835,51.6216851],[-0.274063,51.6216851]]]}},
{"type":"Feature","properties":{"highway":"footway","name":null,"category":"Footpath (pedestrian only)"},"geometry":{"type":"MultiLineString","coordinates":[[[-0.2603412,51.6209796],[-0.260297,51.6210096],[-0.2601884,51.6209588],[-0.2598786,51.6207818]]]}},
{"type":"Feature","properties":{"highway":"footway","name":null,"category":"Footpath (pedestrian only)"},"geometry":{"type":"MultiLineString","coordinates":[[[-0.2617085,51.6209375],[-0.261565,51.6208534],[-0.2614745,51.6208355],[-0.2614088,51.6208114]]]}},
{"type":"Feature","properties":{"highway":"footway","name":null,"category":"Footpath (pedestrian only)"},"geometry":{"type":"MultiLineString","coordinates":[[[-0.2564561,51.6213606],[-0.2562899,51.6213527],[-0.2562015,51.6213482],[-0.2559471,51.6213355],[-0.2557459,51.6213164],[-0.2556521,51.6212927],[-0.2555683,51.6212465],[-0.2555086,51.6212011],[-0.2554797,51.6211486],[-0.2554895,51.6210785],[-0.2555045,51.621005],[-0.2556387,51.6207585],[-0.2556684,51.6207266],[-0.2557069,51.6206853]]]}},
{"type":"Feature","properties":{"highway":"footway","name":null,"category":"Footpath (pedestrian only)"},"geometry":{"type":"MultiLineString","coordinates":[[[-0.2578686,51.6213978],[-0.2572393,51.6213763],[-0.2564561,51.6213606]]]}},
{"type":"Feature","properties":{"highway":"footway","name":null,"category":"Footpath (pedestrian only)"},"geometry":{"type":"MultiLineString","coordinates":[[[-0.2600793,51.6214257],[-0.2598363,51.6214163],[-0.2593287,51.6213997],[-0.2587423,51.62138],[-0.2586354,51.6213769],[-0.2581994,51.6213659],[-0.2580573,51.6213938],[-0.2578686,51.6213978]]]}},
{"type":"Feature","properties":{"highway":"footway","name":null,"category":"Footpath (pedestrian only)"},"geometry":{"type":"MultiLineString","coordinates":[[[-0.2710439,51.6243672],[-0.2713374,51.6244964]]]}},
{"type":"Feature","properties":{"highway":"footway","name":null,"category":"Footpath (pedestrian only)"},"geometry":{"type":"MultiLineString","coordinates":[[[-0.2709621,51.6278506],[-0.2709631,51.6278684],[-0.270955,51.6278854],[-0.2709386,51.6279],[-0.2709156,51.6279106],[-0.2708883,51.6279161],[-0.27086,51.6279159],[-0.2708332,51.6279103],[-0.2708106,51.6278997],[-0.2707945,51.6278852],[-0.2707865,51.6278683],[-0.2707871,51.627852],[-0.2707953,51.6278366],[-0.2708105,51.6278233],[-0.2708312,51.6278133],[-0.2708558,51.6278075],[-0.270882,51.6278064],[-0.2709098,51.6278106],[-0.270934,51.6278202],[-0.270952,51.627834],[-0.2709621,51.6278506]]]}},
{"type":"Feature","properties":{"highway":"footway","name":null,"category":"Footpath (pedestrian only)"},"geometry":{"type":"MultiLineString","coordinates":[[[-0.2662444,51.6250597],[-0.2663204,51.6250846],[-0.2664663,51.6251076],[-0.2665737,51.6251121]]]}},
{"type":"Feature","properties":{"highway":"footway","name":null,"category":"Footpath (pedestrian only)"},"geometry":{"type":"MultiLineString","coordinates":[[[-0.2722501,51.6307672],[-0.2714364,51.6309275],[-0.2706079,51.6310907]]]}},
{"type":"Feature","properties":{"highway":"footway","name":null,"category":"Footpath (pedestrian only)"},"geometry":{"type":"MultiLineString","coordinates":[[[-0.2714364,51.6309275],[-0.2712904,51.6306249],[-0.2713329,51.6305577],[-0.271361,51.6304464],[-0.2713655,51.6304031],[-0.2713151,51.6302605],[-0.2712573,51.6302201],[-0.2711595,51.6301704],[-0.2711358,51.630163],[-0.2710606,51.6301556],[-0.2710261,51.630175],[-0.2709876,51.6302661],[-0.2709861,51.6303636],[-0.2710365,51.6304464],[-0.2711135,51.6305264],[-0.2712291,51.6305935],[-0.2712904,51.6306249]]]}},
{"type":"Feature","properties":{"highway":"footway","name":null,"category":"Footpath (pedestrian only)"},"geometry":{"type":"MultiLineString","coordinates":[[[-0.273993,51.6210281],[-0.2741814,51.6209989],[-0.2743328,51.6209757],[-0.2745352,51.6209448],[-0.2745484,51.6209567],[-0.2747582,51.6209326],[-0.2749663,51.6209087],[-0.2749874,51.6209591]]]}},
{"type":"Feature","properties":{"highway":"path","name":null,"category":"Shared path"},"geometry":{"type":"MultiLineString","coordinates":[[[-0.2747624,51.6209458],[-0.2747729,51.620979]]]}},
{"type":"Feature","properties":{"highway":"footway","name":null,"category":"Footpath (pedestrian only)"},"geometry":{"type":"MultiLineString","coordinates":[[[-0.2747188,51.6208825],[-0.2747084,51.6208213]]]}},
{"type":"Feature","properties":{"highway":"footway","name":null,"category":"Footpath (pedestrian only)"},"geometry":{"type":"MultiLineString","coordinates":[[[-0.2743328,51.6209757],[-0.2743397,51.6209947]]]}},
{"type":"Feature","properties":{"highway":"footway","name":null,"category":"Footpath (pedestrian only)"},"geometry":{"type":"MultiLineString","coordinates":[[[-0.2745484,51.6209567],[-0.2745526,51.6209691]]]}},
{"type":"Feature","properties":{"highway":"footway","name":null,"category":"Footpath (pedestrian only)"},"geometry":{"type":"MultiLineString","coordinates":[[[-0.2747582,51.6209326],[-0.2747624,51.6209458]]]}},
{"type":"Feature","properties":{"highway":"footway","name":null,"category":"Footpath (pedestrian only)"},"geometry":{"type":"MultiLineString","coordinates":[[[-0.2747582,51.6209326],[-0.2747484,51.6209201]]]}},
{"type":"Feature","properties":{"highway":"path","name":null,"category":"Shared path"},"geometry":{"type":"MultiLineString","coordinates":[[[-0.2706651,51.622346],[-0.2706661,51.6223826],[-0.2706701,51.6224544],[-0.2706861,51.622533],[-0.2707417,51.6225492]]]}},
{"type":"Feature","properties":{"highway":"path","name":null,"category":"Shared path"},"geometry":{"type":"MultiLineString","coordinates":[[[-0.2706215,51.6226285],[-0.2709803,51.6226241],[-0.2712204,51.6226134],[-0.2712296,51.6226118],[-0.2713495,51.6225907]]]}},
{"type":"Feature","properties":{"highway":"footway","name":null,"category":"Footpath (pedestrian only)"},"geometry":{"type":"MultiLineString","coordinates":[[[-0.2713625,51.622653],[-0.2712682,51.6226555],[-0.2712296,51.6226118],[-0.2711835,51.6225874],[-0.2709704,51.6225177],[-0.2708597,51.6224738],[-0.2707708,51.6224277],[-0.270701,51.6223677],[-0.2706776,51.6223433],[-0.2706512,51.622304],[-0.2706103,51.622226],[-0.2705985,51.6221977]]]}},
{"type":"Feature","properties":{"highway":"footway","name":null,"category":"Footpath (pedestrian only)"},"geometry":{"type":"MultiLineString","coordinates":[[[-0.2713625,51.622653],[-0.2715802,51.6226338],[-0.2727991,51.6224575]]]}},
{"type":"Feature","properties":{"highway":"path","name":null,"category":"Shared path"},"geometry":{"type":"MultiLineString","coordinates":[[[-0.2705068,51.6229335],[-0.2705296,51.6228943],[-0.2705208,51.6227407],[-0.2705431,51.6227283],[-0.270571,51.6226654]]]}},
{"type":"Feature","properties":{"highway":"path","name":null,"category":"Shared path"},"geometry":{"type":"MultiLineString","coordinates":[[[-0.2703484,51.6227749],[-0.270484,51.6227145],[-0.2705431,51.6227283]]]}},
{"type":"Feature","properties":{"highway":"path","name":null,"category":"Shared path"},"geometry":{"type":"MultiLineString","coordinates":[[[-0.2715619,51.6297758],[-0.2715128,51.6297258],[-0.2706839,51.6294262],[-0.270319,51.6298374]]]}},
{"type":"Feature","properties":{"highway":"path","name":null,"category":"Shared path"},"geometry":{"type":"MultiLineString","coordinates":[[[-0.2706839,51.6294262],[-0.2707936,51.6292893],[-0.2708619,51.6291887],[-0.2709336,51.6290509],[-0.2709592,51.6289757],[-0.2709779,51.6289397],[-0.2709986,51.6288467]]]}},
{"type":"Feature","properties":{"highway":"path","name":null,"category":"Shared path"},"geometry":{"type":"MultiLineString","coordinates":[[[-0.2712922,51.6283608],[-0.2714444,51.6282667]]]}},
{"type":"Feature","properties":{"highway":"path","name":null,"category":"Shared path"},"geometry":{"type":"MultiLineString","coordinates":[[[-0.2672902,51.629095],[-0.2673914,51.6290831],[-0.2677181,51.6293195],[-0.2677078,51.6294816]]]}},
{"type":"Feature","properties":{"highway":"path","name":null,"category":"Shared path"},"geometry":{"type":"MultiLineString","coordinates":[[[-0.2673187,51.6299498],[-0.267267,51.6300321],[-0.2671754,51.6301229],[-0.2670459,51.6302969],[-0.266971,51.6304356],[-0.2668739,51.6304363],[-0.2668661,51.6305513],[-0.2669655,51.6305513],[-0.266971,51.6304356]]]}},
{"type":"Feature","properties":{"highway":"path","name":null,"category":"Shared path"},"geometry":{"type":"MultiLineString","coordinates":[[[-0.2668739,51.6304363],[-0.2665589,51.6304252],[-0.2664392,51.6304648]]]}},
{"type":"Feature","properties":{"highway":"path","name":null,"category":"Shared path"},"geometry":{"type":"MultiLineString","coordinates":[[[-0.2670459,51.6302969],[-0.2670034,51.630281]]]}},
{"type":"Feature","properties":{"highway":"path","name":null,"category":"Shared path"},"geometry":{"type":"MultiLineString","coordinates":[[[-0.2673192,51.6298907],[-0.2669376,51.6298861],[-0.2669163,51.6298858],[-0.2668772,51.6298581],[-0.2666918,51.6298609],[-0.2666805,51.62997]]]}},
{"type":"Feature","properties":{"highway":"path","name":null,"category":"Shared path"},"geometry":{"type":"MultiLineString","coordinates":[[[-0.2669386,51.6299066],[-0.2669376,51.6298861]]]}},
{"type":"Feature","properties":{"highway":"path","name":null,"category":"Shared path"},"geometry":{"type":"MultiLineString","coordinates":[[[-0.2671754,51.6301229],[-0.2675642,51.6301319],[-0.2676189,51.6301624],[-0.2679729,51.630169],[-0.2679897,51.6301693]]]}},
{"type":"Feature","properties":{"highway":"path","name":null,"category":"Shared path"},"geometry":{"type":"MultiLineString","coordinates":[[[-0.267974,51.6299717],[-0.2679718,51.6299512]]]}},
{"type":"Feature","properties":{"highway":"path","name":null,"category":"Shared path"},"geometry":{"type":"MultiLineString","coordinates":[[[-0.268118,51.6297783],[-0.2681077,51.629713],[-0.2673208,51.6297011]]]}},
{"type":"Feature","properties":{"highway":"path","name":null,"category":"Shared path"},"geometry":{"type":"MultiLineString","coordinates":[[[-0.270382,51.631879],[-0.2703594,51.631848],[-0.2703049,51.6317732],[-0.2700491,51.6314548],[-0.2700441,51.6314486],[-0.2697551,51.6311358],[-0.2694899,51.6308516],[-0.2690824,51.6306391],[-0.2690134,51.6306107]]]}},
{"type":"Feature","properties":{"highway":"path","name":null,"category":"Shared path"},"geometry":{"type":"MultiLineString","coordinates":[[[-0.2697002,51.6311536],[-0.2697551,51.6311358]]]}},
{"type":"Feature","properties":{"highway":"path","name":null,"category":"Shared path"},"geometry":{"type":"MultiLineString","coordinates":[[[-0.2691622,51.630382],[-0.2689318,51.6302535],[-0.2686666,51.6302341],[-0.2679664,51.6302161]]]}},
{"type":"Feature","properties":{"highway":"footway","name":null,"category":"Footpath (pedestrian only)"},"geometry":{"type":"MultiLineString","coordinates":[[[-0.2746375,51.6230827],[-0.2742274,51.6231213]]]}},
{"type":"Feature","properties":{"highway":"footway","name":null,"category":"Footpath (pedestrian only)"},"geometry":{"type":"MultiLineString","coordinates":[[[-0.2699027,51.6226143],[-0.2699032,51.6226257],[-0.2699073,51.6227348]]]}},
{"type":"Feature","properties":{"highway":"footway","name":null,"category":"Footpath (pedestrian only)"},"geometry":{"type":"MultiLineString","coordinates":[[[-0.270571,51.6226654],[-0.2704123,51.6226469],[-0.2703144,51.6226294],[-0.2699027,51.6226143],[-0.2697699,51.6226095]]]}},
{"type":"Feature","properties":{"highway":"footway","name":null,"category":"Footpath (pedestrian only)"},"geometry":{"type":"MultiLineString","coordinates":[[[-0.2697699,51.6226095],[-0.2697364,51.6226095],[-0.2697323,51.6228151],[-0.269739,51.6228784],[-0.2696385,51.6230166],[-0.2695757,51.6229954],[-0.2694882,51.6229908],[-0.2694172,51.6230041],[-0.2693588,51.6230241],[-0.269334,51.6231273]]]}},
{"type":"Feature","properties":{"highway":"footway","name":null,"category":"Footpath (pedestrian only)"},"geometry":{"type":"MultiLineString","coordinates":[[[-0.2542982,51.6224189],[-0.2543032,51.6223762]]]}},
{"type":"Feature","properties":{"highway":"footway","name":null,"category":"Footpath (pedestrian only)"},"geometry":{"type":"MultiLineString","coordinates":[[[-0.2545684,51.6266501],[-0.2545408,51.626613]]]}},
{"type":"Feature","properties":{"highway":"footway","name":null,"category":"Footpath (pedestrian only)"},"geometry":{"type":"MultiLineString","coordinates":[[[-0.2734832,51.6262502],[-0.2734467,51.6263513],[-0.2730807,51.6263004]]]}},
{"type":"Feature","properties":{"highway":"footway","name":null,"category":"Footpath (pedestrian only)"},"geometry":{"type":"MultiLineString","coordinates":[[[-0.2734832,51.6262502],[-0.2735217,51.626143],[-0.2731555,51.6260951]]]}},
{"type":"Feature","properties":{"highway":"pedestrian","name":"Campion Way","category":"Pedestrian area/street"},"geometry":{"type":"MultiLineString","coordinates":[[[-0.2632835,51.6204659],[-0.263278,51.6204955],[-0.2632727,51.6205312]]]}}
]
}
