{
"type": "FeatureCollection",
"name": "REDBR_14_walking",
"crs": { "type": "name", "properties": { "name": "urn:ogc:def:crs:OGC:1.3:CRS84" } },
"features": [
{"type":"Feature","properties":{"highway":"footway","name":null,"category":"Footpath (pedestrian only)"},"geometry":{"type":"MultiLineString","coordinates":[[[0.0874016,51.560821],[0.0874949,51.5608398],[0.0877262,51.5608867],[0.0878772,51.5609053],[0.088031,51.5608929],[0.0882139,51.5608843],[0.088236,51.5609103],[0.0882684,51.5609361],[0.0883501,51.560993],[0.0883956,51.5610116],[0.0884497,51.5610253],[0.0885585,51.5610362],[0.0886048,51.5610304],[0.0886522,51.5610177],[0.0886899,51.5609975],[0.0887141,51.5609762],[0.0887442,51.5609458],[0.0887632,51.5609113],[0.0887449,51.5608728],[0.0886736,51.5608259],[0.0886262,51.560807],[0.0885781,51.5607933],[0.0884575,51.5607759],[0.0883692,51.5607853],[0.0882635,51.5608178],[0.0882259,51.560852],[0.0882139,51.5608843]]]}},
{"type":"Feature","properties":{"highway":"footway","name":null,"category":"Footpath (pedestrian only)"},"geometry":{"type":"MultiLineString","coordinates":[[[0.0887632,51.5609113],[0.0888227,51.5609291],[0.0888783,51.5609537],[0.0889307,51.5609837],[0.0889977,51.5610175],[0.0890538,51.5610374],[0.0891837,51.5610762],[0.0893199,51.5610993],[0.089485,51.5611026],[0.0895985,51.561105],[0.0897283,51.5610976],[0.089835,51.5610852],[0.0900326,51.5610362],[0.090302,51.5609639],[0.0905095,51.560887],[0.0905896,51.5608461],[0.090625,51.5608206],[0.0906498,51.5607812],[0.0906546,51.5607329],[0.0906517,51.5606847],[0.090623,51.5606392],[0.0905795,51.5605998],[0.0905127,51.5605658],[0.0904018,51.5605335],[0.0903019,51.5605135],[0.0902057,51.5605005],[0.090079,51.5604958],[0.0900143,51.560501],[0.0899519,51.5605114],[0.0898631,51.5605519],[0.0898206,51.5605944],[0.0898004,51.5606477],[0.0897904,51.5606906],[0.0897813,51.5608942],[0.0897299,51.5610696],[0.0897283,51.5610976]]]}},
{"type":"Feature","properties":{"highway":"footway","name":null,"category":"Footpath (pedestrian only)"},"geometry":{"type":"MultiLineString","coordinates":[[[0.089835,51.5610852],[0.089846,51.5611054],[0.0899182,51.5611674],[0.0899703,51.5612309],[0.0899918,51.5612944],[0.0899889,51.5613928]]]}},
{"type":"Feature","properties":{"highway":"footway","name":null,"category":"Footpath (pedestrian only)"},"geometry":{"type":"MultiLineString","coordinates":[[[0.0883501,51.560993],[0.08831,51.5610229],[0.0882655,51.5610479],[0.0881991,51.5610829],[0.0881119,51.5611054],[0.0880201,51.5611235],[0.0879505,51.5611552],[0.0879034,51.5611816],[0.0878578,51.5612222],[0.0878111,51.5612883],[0.0876862,51.5614836],[0.0876546,51.5614777],[0.0876054,51.5615593],[0.0874607,51.5618015],[0.0874237,51.5618659]]]}},
{"type":"Feature","properties":{"highway":"footway","name":null,"category":"Footpath (pedestrian only)"},"geometry":{"type":"MultiLineString","coordinates":[[[0.0924151,51.5582581],[0.0924618,51.5582825],[0.0925703,51.5583392],[0.0926784,51.5583958],[0.0927048,51.5584096],[0.0928058,51.5584903],[0.0928251,51.5585215]]]}},
{"type":"Feature","properties":{"highway":"footway","name":null,"category":"Footpath (pedestrian only)"},"geometry":{"type":"MultiLineString","coordinates":[[[0.0925703,51.5583392],[0.0924742,51.5584029]]]}},
{"type":"Feature","properties":{"highway":"footway","name":null,"category":"Footpath (pedestrian only)"},"geometry":{"type":"MultiLineString","coordinates":[[[0.0925703,51.5583392],[0.0926668,51.558274],[0.092709,51.5582476]]]}},
{"type":"Feature","properties":{"highway":"footway","name":null,"category":"Footpath (pedestrian only)"},"geometry":{"type":"MultiLineString","coordinates":[[[0.0926668,51.558274],[0.0926286,51.5582583],[0.0925843,51.5582511],[0.0925387,51.5582529],[0.0924963,51.5582638],[0.0924618,51.5582825],[0.0924399,51.5583052],[0.0924298,51.558331],[0.0924325,51.5583574],[0.0924478,51.5583821],[0.0924742,51.5584029],[0.0925098,51.558418],[0.0925511,51.5584258],[0.0925865,51.5584261],[0.0926209,51.5584209],[0.0926522,51.5584106],[0.0926784,51.5583958],[0.0926981,51.5583771],[0.0927096,51.5583558],[0.0927121,51.5583335],[0.0927054,51.5583114],[0.09269,51.5582912],[0.0926668,51.558274]]]}},
{"type":"Feature","properties":{"highway":"footway","name":null,"category":"Footpath (pedestrian only)"},"geometry":{"type":"MultiLineString","coordinates":[[[0.0900253,51.5552436],[0.0900698,51.5552111],[0.0901146,51.5551718],[0.0901672,51.5551272],[0.0902077,51.5551038],[0.0901876,51.5550782],[0.0901566,51.5550386],[0.0901177,51.5550083],[0.0900893,51.5549946],[0.0900504,51.5549902],[0.0899832,51.5549959],[0.0899383,51.5550051],[0.0898982,51.5550199],[0.0898572,51.5550376],[0.0898125,51.5550794],[0.0897885,51.5551145],[0.0897981,51.5551566],[0.0898319,51.5551899],[0.0898928,51.5552122],[0.089969,51.5552257],[0.0900253,51.5552436]]]}},
{"type":"Feature","properties":{"highway":"footway","name":null,"category":"Footpath (pedestrian only)"},"geometry":{"type":"MultiLineString","coordinates":[[[0.0936504,51.555077],[0.0936303,51.5550953],[0.0933667,51.5551789],[0.0931557,51.5552704],[0.0931171,51.5552911],[0.0930534,51.5553516],[0.0929756,51.555464],[0.0929458,51.5555032],[0.0929259,51.555541],[0.0929093,51.5556072],[0.0929031,51.5556732],[0.0929071,51.5557447],[0.0929071,51.5558255],[0.0928993,51.5558845],[0.092875,51.5559772],[0.0928202,51.5560797],[0.0927689,51.5561453],[0.0926609,51.5562407],[0.092526,51.5563582],[0.0924029,51.5564733],[0.0922669,51.5565962],[0.0920369,51.5568301],[0.0917972,51.5569186],[0.091616,51.5569557],[0.0914409,51.5569768],[0.0912865,51.5569976],[0.0911432,51.5570087],[0.0910147,51.5570174],[0.0908627,51.5570196],[0.0906703,51.557015],[0.0904642,51.5570491],[0.0902636,51.557121]]]}},
{"type":"Feature","properties":{"highway":"footway","name":null,"category":"Footpath (pedestrian only)"},"geometry":{"type":"MultiLineString","coordinates":[[[0.0931557,51.5552704],[0.0931437,51.5552603],[0.0931428,51.5552053],[0.0931061,51.5551398],[0.0930357,51.5551008],[0.0929747,51.555081],[0.0929603,51.5550634],[0.0927479,51.5551001],[0.0925358,51.5551349],[0.0923372,51.5551519],[0.0919511,51.5551584],[0.0918014,51.5551492],[0.09165,51.5551379],[0.0914997,51.5551134],[0.0913192,51.5550694],[0.0911779,51.5550413],[0.0910555,51.5550249],[0.0908901,51.5550044],[0.0906892,51.5550017],[0.0905996,51.5550066],[0.090522,51.555016],[0.0904512,51.5550293],[0.0903539,51.5550584],[0.0902805,51.5550813],[0.0902077,51.5551038]]]}},
{"type":"Feature","properties":{"highway":"footway","name":null,"category":"Footpath (pedestrian only)"},"geometry":{"type":"MultiLineString","coordinates":[[[0.089754,51.5571512],[0.0898225,51.5571159],[0.0899607,51.5571311],[0.0900908,51.5571425],[0.0901558,51.5571437],[0.0902636,51.557121],[0.0903565,51.5571251],[0.0904567,51.557135],[0.0905636,51.557157],[0.0906493,51.5571822],[0.0907427,51.5572141],[0.090857,51.5572555],[0.0909657,51.5572773],[0.0910661,51.5572911],[0.0911887,51.5573107],[0.0913153,51.5573282],[0.0914082,51.5573368],[0.0914934,51.557339],[0.0915821,51.5573332],[0.0916966,51.5573245],[0.0917328,51.5573245],[0.0917841,51.5572911],[0.0920503,51.5569093],[0.0920585,51.5568483],[0.0920369,51.5568301]]]}},
{"type":"Feature","properties":{"highway":"footway","name":null,"category":"Footpath (pedestrian only)"},"geometry":{"type":"MultiLineString","coordinates":[[[0.0939659,51.5552206],[0.0939882,51.5552432],[0.0940343,51.555306],[0.0941114,51.5554592],[0.0941381,51.5555472],[0.0941688,51.5557186],[0.0941576,51.5558639],[0.094089,51.5560543],[0.0940352,51.556156],[0.0939742,51.5562541],[0.0938133,51.5564585],[0.0936232,51.5567348],[0.0935017,51.5569889],[0.0934571,51.5571691],[0.093422,51.5573115],[0.0934163,51.5575009],[0.0934198,51.5576671],[0.0934166,51.5578284],[0.0933947,51.5580366],[0.093376,51.5581358],[0.0933369,51.5582231],[0.093268,51.5583131],[0.0931735,51.5584104],[0.0931081,51.5584452],[0.0930462,51.5584655],[0.0929501,51.5584937]]]}},
{"type":"Feature","properties":{"highway":"footway","name":null,"category":"Footpath (pedestrian only)"},"geometry":{"type":"MultiLineString","coordinates":[[[0.089549,51.5562999],[0.0896759,51.556522],[0.0896339,51.5566488],[0.0896069,51.5568111],[0.0896359,51.5568853],[0.0896724,51.5569933]]]}},
{"type":"Feature","properties":{"highway":"footway","name":null,"category":"Footpath (pedestrian only)"},"geometry":{"type":"MultiLineString","coordinates":[[[0.0972101,51.5636829],[0.0972235,51.5636288]]]}},
{"type":"Feature","properties":{"highway":"footway","name":null,"category":"Footpath (pedestrian only)"},"geometry":{"type":"MultiLineString","coordinates":[[[0.0845574,51.5613557],[0.0842856,51.5618442],[0.0842342,51.5619772]]]}},
{"type":"Feature","properties":{"highway":"footway","name":null,"category":"Footpath (pedestrian only)"},"geometry":{"type":"MultiLineString","coordinates":[[[0.0837911,51.5633513],[0.0841986,51.5620953]]]}},
{"type":"Feature","properties":{"highway":"footway","name":"Farley Drive","category":"Footpath (pedestrian only)"},"geometry":{"type":"MultiLineString","coordinates":[[[0.0967851,51.5648536],[0.0967595,51.5648261],[0.0968173,51.5644789]]]}},
{"type":"Feature","properties":{"highway":"footway","name":"Farley Drive","category":"Footpath (pedestrian only)"},"geometry":{"type":"MultiLineString","coordinates":[[[0.0968197,51.5644302],[0.0968218,51.5642691]]]}},
{"type":"Feature","properties":{"highway":"footway","name":null,"category":"Footpath (pedestrian only)"},"geometry":{"type":"MultiLineString","coordinates":[[[0.0837911,51.5633513],[0.0836531,51.5639168],[0.0834827,51.564205]]]}},
{"type":"Feature","properties":{"highway":"footway","name":null,"category":"Footpath (pedestrian only)"},"geometry":{"type":"MultiLineString","coordinates":[[[0.0812521,51.5633193],[0.0812917,51.5633256],[0.0813303,51.5632765],[0.0814768,51.5630901],[0.0815411,51.5629941],[0.0815803,51.5629361],[0.0816034,51.5628973],[0.0813396,51.5627983],[0.0813576,51.5627627],[0.0813622,51.5627563],[0.0813782,51.562736],[0.0813949,51.5627126]]]}},
{"type":"Feature","properties":{"highway":"footway","name":null,"category":"Footpath (pedestrian only)"},"geometry":{"type":"MultiLineString","coordinates":[[[0.0970785,51.5640819],[0.0971057,51.56396],[0.0971402,51.563822]]]}},
{"type":"Feature","properties":{"highway":"footway","name":null,"category":"Footpath (pedestrian only)"},"geometry":{"type":"MultiLineString","coordinates":[[[0.0887066,51.5464234],[0.0888681,51.5465104],[0.0890183,51.5466105],[0.0891601,51.5468065],[0.0892222,51.5469074],[0.0893134,51.5470042],[0.0894645,51.5470714],[0.0897122,51.5471556],[0.0898594,51.5472057],[0.089996,51.5472416]]]}},
{"type":"Feature","properties":{"highway":"footway","name":null,"category":"Footpath (pedestrian only)"},"geometry":{"type":"MultiLineString","coordinates":[[[0.0976204,51.5635234],[0.097677,51.5635477],[0.0976908,51.5635536],[0.0977801,51.5635792],[0.0978626,51.5635957],[0.0979504,51.5636063],[0.0980128,51.5636106],[0.0981203,51.5636123],[0.0981618,51.5636093],[0.0981999,51.5636019],[0.0982474,51.5635855],[0.0982932,51.5635656],[0.098308,51.5635607],[0.098371,51.5635398]]]}},
{"type":"Feature","properties":{"highway":"footway","name":"Centreway Apartments","category":"Footpath (pedestrian only)"},"geometry":{"type":"MultiLineString","coordinates":[[[0.0777612,51.5601655],[0.0775802,51.5605627]]]}},
{"type":"Feature","properties":{"highway":"footway","name":null,"category":"Footpath (pedestrian only)"},"geometry":{"type":"MultiLineString","coordinates":[[[0.0870443,51.5614494],[0.0871293,51.5614677],[0.0876054,51.5615593]]]}},
{"type":"Feature","properties":{"highway":"footway","name":null,"category":"Footpath (pedestrian only)"},"geometry":{"type":"MultiLineString","coordinates":[[[0.0896759,51.556522],[0.0898218,51.5563382],[0.0899173,51.5562274],[0.0899707,51.556116],[0.0900067,51.5560205],[0.0900167,51.5559275],[0.089982,51.5557849],[0.0899508,51.5556499],[0.0899385,51.5555209],[0.0899697,51.5553807],[0.0900053,51.5552768],[0.0900253,51.5552436]]]}},
{"type":"Feature","properties":{"highway":"footway","name":null,"category":"Footpath (pedestrian only)"},"geometry":{"type":"MultiLineString","coordinates":[[[0.078191,51.5586076],[0.0781642,51.5586697],[0.0781265,51.5587618],[0.0782322,51.5587859],[0.0782258,51.5587963]]]}},
{"type":"Feature","properties":{"highway":"footway","name":null,"category":"Footpath (pedestrian only)"},"geometry":{"type":"MultiLineString","coordinates":[[[0.077976,51.5589207],[0.07793,51.5590069],[0.0779777,51.5590313]]]}},
{"type":"Feature","properties":{"highway":"footway","name":null,"category":"Footpath (pedestrian only)"},"geometry":{"type":"MultiLineString","coordinates":[[[0.0782258,51.5587963],[0.0782084,51.5588281],[0.0781909,51.5588601]]]}},
{"type":"Feature","properties":{"highway":"footway","name":"Philpot Path","category":"Footpath (pedestrian only)"},"geometry":{"type":"MultiLineString","coordinates":[[[0.0781642,51.5586697],[0.0781001,51.5586573],[0.0779776,51.5586746],[0.077479,51.5585605],[0.0774011,51.55851],[0.0772698,51.5584629],[0.0772491,51.5584965],[0.0769783,51.5584132],[0.0769894,51.5583571],[0.0767143,51.5582995],[0.0765674,51.5582277],[0.0764179,51.5581452],[0.0763055,51.5581159],[0.0761644,51.5580222],[0.0760562,51.5579548],[0.0758847,51.5578411],[0.075831,51.5577692],[0.0756739,51.5576744],[0.0755893,51.5576556],[0.0753577,51.5575425]]]}},
{"type":"Feature","properties":{"highway":"footway","name":null,"category":"Footpath (pedestrian only)"},"geometry":{"type":"MultiLineString","coordinates":[[[0.0975142,51.564199],[0.0975149,51.5642222]]]}},
{"type":"Feature","properties":{"highway":"footway","name":null,"category":"Footpath (pedestrian only)"},"geometry":{"type":"MultiLineString","coordinates":[[[0.0916444,51.5629303],[0.0916735,51.5628855]]]}},
{"type":"Feature","properties":{"highway":"footway","name":null,"category":"Footpath (pedestrian only)"},"geometry":{"type":"MultiLineString","coordinates":[[[0.0975149,51.5642222],[0.0975146,51.5642352],[0.0976216,51.564237],[0.0976214,51.564253]]]}},
{"type":"Feature","properties":{"highway":"footway","name":null,"category":"Footpath (pedestrian only)"},"geometry":{"type":"MultiLineString","coordinates":[[[0.0915972,51.5629843],[0.0916239,51.5629588]]]}},
{"type":"Feature","properties":{"highway":"footway","name":null,"category":"Footpath (pedestrian only)"},"geometry":{"type":"MultiLineString","coordinates":[[[0.0976214,51.564253],[0.0976215,51.5642779]]]}},
{"type":"Feature","properties":{"highway":"footway","name":null,"category":"Footpath (pedestrian only)"},"geometry":{"type":"MultiLineString","coordinates":[[[0.0947329,51.5548532],[0.094562,51.5549377],[0.0942922,51.5550711],[0.0939659,51.5552206],[0.0939389,51.5552001],[0.0938366,51.5551451]]]}},
{"type":"Feature","properties":{"highway":"footway","name":null,"category":"Footpath (pedestrian only)"},"geometry":{"type":"MultiLineString","coordinates":[[[0.0795366,51.560302],[0.0794019,51.560565]]]}},
{"type":"Feature","properties":{"highway":"footway","name":null,"category":"Footpath (pedestrian only)"},"geometry":{"type":"MultiLineString","coordinates":[[[0.0933951,51.5588455],[0.0934283,51.5588913],[0.0934375,51.5589122]]]}},
{"type":"Feature","properties":{"highway":"footway","name":null,"category":"Footpath (pedestrian only)"},"geometry":{"type":"MultiLineString","coordinates":[[[0.0780099,51.5588574],[0.0779945,51.5588863],[0.077976,51.5589207]]]}},
{"type":"Feature","properties":{"highway":"footway","name":null,"category":"Footpath (pedestrian only)"},"geometry":{"type":"MultiLineString","coordinates":[[[0.0781909,51.5588601],[0.0781815,51.5588753],[0.0780176,51.5588429],[0.0780099,51.5588574]]]}},
{"type":"Feature","properties":{"highway":"footway","name":null,"category":"Footpath (pedestrian only)"},"geometry":{"type":"MultiLineString","coordinates":[[[0.0916239,51.5629588],[0.0916444,51.5629303]]]}},
{"type":"Feature","properties":{"highway":"footway","name":null,"category":"Footpath (pedestrian only)"},"geometry":{"type":"MultiLineString","coordinates":[[[0.0973622,51.5633738],[0.097211,51.5633387]]]}},
{"type":"Feature","properties":{"highway":"footway","name":null,"category":"Footpath (pedestrian only)"},"geometry":{"type":"MultiLineString","coordinates":[[[0.0973323,51.5634326],[0.0973622,51.5633738]]]}},
{"type":"Feature","properties":{"highway":"footway","name":null,"category":"Footpath (pedestrian only)"},"geometry":{"type":"MultiLineString","coordinates":[[[0.0782394,51.5618562],[0.0810966,51.5624765],[0.0811458,51.562466],[0.0811864,51.5624552],[0.0812144,51.5624423],[0.0812441,51.5624136],[0.0812882,51.5624065],[0.0813539,51.5624],[0.0814567,51.5623898],[0.0814922,51.5623935],[0.0815588,51.5624458]]]}},
{"type":"Feature","properties":{"highway":"footway","name":null,"category":"Footpath (pedestrian only)"},"geometry":{"type":"MultiLineString","coordinates":[[[0.0795235,51.5620813],[0.0801317,51.5622122],[0.0810704,51.5624173],[0.0811864,51.5624552]]]}},
{"type":"Feature","properties":{"highway":"footway","name":null,"category":"Footpath (pedestrian only)"},"geometry":{"type":"MultiLineString","coordinates":[[[0.0968218,51.5642691],[0.0968214,51.5642325]]]}},
{"type":"Feature","properties":{"highway":"footway","name":null,"category":"Footpath (pedestrian only)"},"geometry":{"type":"MultiLineString","coordinates":[[[0.0806677,51.5604369],[0.0806893,51.5604585],[0.0806827,51.5604767]]]}},
{"type":"Feature","properties":{"highway":"footway","name":null,"category":"Footpath (pedestrian only)"},"geometry":{"type":"MultiLineString","coordinates":[[[0.0814889,51.5605238],[0.0815241,51.5605759],[0.0815465,51.5606105]]]}},
{"type":"Feature","properties":{"highway":"footway","name":null,"category":"Footpath (pedestrian only)"},"geometry":{"type":"MultiLineString","coordinates":[[[0.0815714,51.5606547],[0.0815584,51.5606288]]]}},
{"type":"Feature","properties":{"highway":"footway","name":null,"category":"Footpath (pedestrian only)"},"geometry":{"type":"MultiLineString","coordinates":[[[0.0815974,51.5606254],[0.0816513,51.5606081],[0.0817295,51.5605857]]]}},
{"type":"Feature","properties":{"highway":"footway","name":null,"category":"Footpath (pedestrian only)"},"geometry":{"type":"MultiLineString","coordinates":[[[0.084702,51.5612507],[0.0846731,51.5613048],[0.0846395,51.5613597]]]}},
{"type":"Feature","properties":{"highway":"footway","name":null,"category":"Footpath (pedestrian only)"},"geometry":{"type":"MultiLineString","coordinates":[[[0.0846395,51.5613597],[0.0845861,51.561349],[0.0845574,51.5613557],[0.0844901,51.5613415]]]}},
{"type":"Feature","properties":{"highway":"footway","name":null,"category":"Footpath (pedestrian only)"},"geometry":{"type":"MultiLineString","coordinates":[[[0.0843702,51.5613151],[0.084328,51.5613067],[0.0843232,51.5612932],[0.0843277,51.5612849]]]}},
{"type":"Feature","properties":{"highway":"footway","name":null,"category":"Footpath (pedestrian only)"},"geometry":{"type":"MultiLineString","coordinates":[[[0.0844901,51.5613415],[0.0844369,51.5613289],[0.0843702,51.5613151]]]}},
{"type":"Feature","properties":{"highway":"footway","name":null,"category":"Footpath (pedestrian only)"},"geometry":{"type":"MultiLineString","coordinates":[[[0.0843277,51.5612849],[0.0843516,51.5612362],[0.0843883,51.5611664]]]}},
{"type":"Feature","properties":{"highway":"footway","name":null,"category":"Footpath (pedestrian only)"},"geometry":{"type":"MultiLineString","coordinates":[[[0.0971188,51.547297],[0.0975119,51.547483],[0.097872,51.5476662],[0.0981315,51.5477992],[0.0984339,51.5479573],[0.0988216,51.5481473]]]}},
{"type":"Feature","properties":{"highway":"footway","name":null,"category":"Footpath (pedestrian only)"},"geometry":{"type":"MultiLineString","coordinates":[[[0.0988216,51.5481473],[0.0988904,51.5481788],[0.0989469,51.5482031]]]}},
{"type":"Feature","properties":{"highway":"footway","name":null,"category":"Footpath (pedestrian only)"},"geometry":{"type":"MultiLineString","coordinates":[[[0.0989469,51.5482031],[0.0994726,51.5484404],[0.0998355,51.5485882]]]}},
{"type":"Feature","properties":{"highway":"footway","name":null,"category":"Footpath (pedestrian only)"},"geometry":{"type":"MultiLineString","coordinates":[[[0.0998355,51.5485882],[0.0998884,51.5486093],[0.0999795,51.5486405]]]}},
{"type":"Feature","properties":{"highway":"footway","name":null,"category":"Footpath (pedestrian only)"},"geometry":{"type":"MultiLineString","coordinates":[[[0.0999795,51.5486405],[0.1003611,51.5487743],[0.1009186,51.5489616]]]}},
{"type":"Feature","properties":{"highway":"footway","name":null,"category":"Footpath (pedestrian only)"},"geometry":{"type":"MultiLineString","coordinates":[[[0.1003611,51.5487743],[0.100453,51.54867],[0.1005485,51.5485589]]]}},
{"type":"Feature","properties":{"highway":"footway","name":null,"category":"Footpath (pedestrian only)"},"geometry":{"type":"MultiLineString","coordinates":[[[0.0782888,51.5587049],[0.0783142,51.5586562]]]}},
{"type":"Feature","properties":{"highway":"footway","name":"Philpot Path","category":"Footpath (pedestrian only)"},"geometry":{"type":"MultiLineString","coordinates":[[[0.082176,51.5590066],[0.0821587,51.5590073],[0.0811397,51.5590536],[0.0808432,51.5591198],[0.0802485,51.5591576],[0.0801238,51.5591708],[0.0800536,51.5591893]]]}},
{"type":"Feature","properties":{"highway":"footway","name":null,"category":"Footpath (pedestrian only)"},"geometry":{"type":"MultiLineString","coordinates":[[[0.0780226,51.5592713],[0.0780164,51.5592238],[0.0780446,51.5591604]]]}},
{"type":"Feature","properties":{"highway":"footway","name":null,"category":"Footpath (pedestrian only)"},"geometry":{"type":"MultiLineString","coordinates":[[[0.0780572,51.5591369],[0.0781077,51.5590391]]]}},
{"type":"Feature","properties":{"highway":"footway","name":null,"category":"Footpath (pedestrian only)"},"geometry":{"type":"MultiLineString","coordinates":[[[0.0781154,51.5590234],[0.0781261,51.5590017]]]}},
{"type":"Feature","properties":{"highway":"footway","name":null,"category":"Footpath (pedestrian only)"},"geometry":{"type":"MultiLineString","coordinates":[[[0.0782641,51.5587497],[0.0782714,51.5587367]]]}},
{"type":"Feature","properties":{"highway":"footway","name":null,"category":"Footpath (pedestrian only)"},"geometry":{"type":"MultiLineString","coordinates":[[[0.0806058,51.5603765],[0.0806384,51.5604077],[0.0806677,51.5604369]]]}},
{"type":"Feature","properties":{"highway":"footway","name":null,"category":"Footpath (pedestrian only)"},"geometry":{"type":"MultiLineString","coordinates":[[[0.0806827,51.5604767],[0.0806761,51.5604949],[0.0806557,51.5605376]]]}},
{"type":"Feature","properties":{"highway":"footway","name":null,"category":"Footpath (pedestrian only)"},"geometry":{"type":"MultiLineString","coordinates":[[[0.0806058,51.5603765],[0.0805799,51.5603654],[0.0804818,51.5603629],[0.0798488,51.5602434]]]}},
{"type":"Feature","properties":{"highway":"footway","name":null,"category":"Footpath (pedestrian only)"},"geometry":{"type":"MultiLineString","coordinates":[[[0.0798488,51.5602434],[0.0797707,51.5602264],[0.079724,51.5602172]]]}},
{"type":"Feature","properties":{"highway":"footway","name":null,"category":"Footpath (pedestrian only)"},"geometry":{"type":"MultiLineString","coordinates":[[[0.079724,51.5602172],[0.0796948,51.5602182],[0.0794512,51.560175],[0.079014,51.5600908]]]}},
{"type":"Feature","properties":{"highway":"footway","name":null,"category":"Footpath (pedestrian only)"},"geometry":{"type":"MultiLineString","coordinates":[[[0.079014,51.5600908],[0.0788179,51.560051]]]}},
{"type":"Feature","properties":{"highway":"footway","name":null,"category":"Footpath (pedestrian only)"},"geometry":{"type":"MultiLineString","coordinates":[[[0.0787895,51.5600484],[0.0787519,51.5600823],[0.0787367,51.5601463]]]}},
{"type":"Feature","properties":{"highway":"footway","name":null,"category":"Footpath (pedestrian only)"},"geometry":{"type":"MultiLineString","coordinates":[[[0.0779053,51.5599863],[0.0779711,51.5600141],[0.0783971,51.5600885],[0.0787367,51.5601463],[0.0794052,51.5602742],[0.0795366,51.560302],[0.0800433,51.5603961],[0.0800952,51.5604057],[0.0801082,51.5604142],[0.0801138,51.5604248]]]}},
{"type":"Feature","properties":{"highway":"footway","name":null,"category":"Footpath (pedestrian only)"},"geometry":{"type":"MultiLineString","coordinates":[[[0.0794052,51.5602742],[0.079431,51.5602185]]]}},
{"type":"Feature","properties":{"highway":"footway","name":null,"category":"Footpath (pedestrian only)"},"geometry":{"type":"MultiLineString","coordinates":[[[0.0801138,51.5604248],[0.0801818,51.5604388],[0.0802441,51.5604534]]]}},
{"type":"Feature","properties":{"highway":"footway","name":null,"category":"Footpath (pedestrian only)"},"geometry":{"type":"MultiLineString","coordinates":[[[0.0802441,51.5604534],[0.0806557,51.5605376],[0.0815417,51.5607188],[0.0834351,51.5611126],[0.0839548,51.5612189]]]}},
{"type":"Feature","properties":{"highway":"footway","name":null,"category":"Footpath (pedestrian only)"},"geometry":{"type":"MultiLineString","coordinates":[[[0.0839548,51.5612189],[0.0840242,51.5612335],[0.0840851,51.5612453]]]}},
{"type":"Feature","properties":{"highway":"footway","name":null,"category":"Footpath (pedestrian only)"},"geometry":{"type":"MultiLineString","coordinates":[[[0.0840851,51.5612453],[0.0843232,51.5612932]]]}},
{"type":"Feature","properties":{"highway":"footway","name":null,"category":"Footpath (pedestrian only)"},"geometry":{"type":"MultiLineString","coordinates":[[[0.0815417,51.5607188],[0.081563,51.5606734],[0.0815714,51.5606547]]]}},
{"type":"Feature","properties":{"highway":"footway","name":null,"category":"Footpath (pedestrian only)"},"geometry":{"type":"MultiLineString","coordinates":[[[0.0815465,51.5606105],[0.0815584,51.5606288]]]}},
{"type":"Feature","properties":{"highway":"footway","name":null,"category":"Footpath (pedestrian only)"},"geometry":{"type":"MultiLineString","coordinates":[[[0.0815584,51.5606288],[0.0815974,51.5606254]]]}},
{"type":"Feature","properties":{"highway":"footway","name":null,"category":"Footpath (pedestrian only)"},"geometry":{"type":"MultiLineString","coordinates":[[[0.0816839,51.5600851],[0.0817051,51.5601078],[0.0817246,51.5601446],[0.0817254,51.560181],[0.0817178,51.5602105],[0.0816966,51.5602564],[0.0816618,51.5603365],[0.0816059,51.5604482],[0.0815771,51.560483],[0.0815398,51.5605062],[0.0814889,51.5605238],[0.0814405,51.5605333],[0.0813713,51.560538],[0.0813163,51.560535],[0.0810413,51.5604808],[0.0809673,51.5604637],[0.0809256,51.5604454],[0.0808905,51.5604171],[0.0808735,51.5604069],[0.0808628,51.560391],[0.0808559,51.5603752],[0.0808611,51.5603477],[0.0808864,51.5602866],[0.0810302,51.5600186]]]}},
{"type":"Feature","properties":{"highway":"footway","name":null,"category":"Footpath (pedestrian only)"},"geometry":{"type":"MultiLineString","coordinates":[[[0.0819684,51.5599906],[0.0819247,51.5599825],[0.0818848,51.5599744]]]}},
{"type":"Feature","properties":{"highway":"footway","name":null,"category":"Footpath (pedestrian only)"},"geometry":{"type":"MultiLineString","coordinates":[[[0.0817951,51.5599119],[0.0818267,51.5599434],[0.0818551,51.5599681]]]}},
{"type":"Feature","properties":{"highway":"footway","name":null,"category":"Footpath (pedestrian only)"},"geometry":{"type":"MultiLineString","coordinates":[[[0.0818551,51.5599681],[0.0818848,51.5599744]]]}},
{"type":"Feature","properties":{"highway":"footway","name":null,"category":"Footpath (pedestrian only)"},"geometry":{"type":"MultiLineString","coordinates":[[[0.0806893,51.5604585],[0.0807254,51.560446]]]}},
{"type":"Feature","properties":{"highway":"footway","name":null,"category":"Footpath (pedestrian only)"},"geometry":{"type":"MultiLineString","coordinates":[[[0.0807254,51.560446],[0.0807863,51.5604294],[0.0808651,51.5604101],[0.0808735,51.5604069]]]}},
{"type":"Feature","properties":{"highway":"footway","name":null,"category":"Footpath (pedestrian only)"},"geometry":{"type":"MultiLineString","coordinates":[[[0.0788179,51.560051],[0.0787895,51.5600484],[0.0785742,51.5599679],[0.0784218,51.5599363],[0.077682,51.5597942]]]}},
{"type":"Feature","properties":{"highway":"footway","name":null,"category":"Footpath (pedestrian only)"},"geometry":{"type":"MultiLineString","coordinates":[[[0.077682,51.5597942],[0.0776029,51.5597789],[0.0775117,51.559757]]]}},
{"type":"Feature","properties":{"highway":"footway","name":null,"category":"Footpath (pedestrian only)"},"geometry":{"type":"MultiLineString","coordinates":[[[0.07793,51.5590069],[0.0776814,51.5594651],[0.0775421,51.5597331],[0.0775117,51.559757],[0.0774742,51.559759],[0.0767707,51.5596066],[0.0767088,51.5595932]]]}},
{"type":"Feature","properties":{"highway":"footway","name":null,"category":"Footpath (pedestrian only)"},"geometry":{"type":"MultiLineString","coordinates":[[[0.0764674,51.55974],[0.0764897,51.5597285],[0.0765172,51.5597227],[0.0766865,51.559756],[0.0778355,51.5599736]]]}},
{"type":"Feature","properties":{"highway":"footway","name":null,"category":"Footpath (pedestrian only)"},"geometry":{"type":"MultiLineString","coordinates":[[[0.0778355,51.5599736],[0.0779053,51.5599863]]]}},
{"type":"Feature","properties":{"highway":"footway","name":null,"category":"Footpath (pedestrian only)"},"geometry":{"type":"MultiLineString","coordinates":[[[0.0806113,51.5596604],[0.0811584,51.5597795]]]}},
{"type":"Feature","properties":{"highway":"footway","name":null,"category":"Footpath (pedestrian only)"},"geometry":{"type":"MultiLineString","coordinates":[[[0.0811584,51.5597795],[0.0812431,51.5597981],[0.0813429,51.5598202]]]}},
{"type":"Feature","properties":{"highway":"footway","name":null,"category":"Footpath (pedestrian only)"},"geometry":{"type":"MultiLineString","coordinates":[[[0.0813429,51.5598202],[0.0814524,51.5598542],[0.0816737,51.5598942],[0.0817416,51.5599097],[0.0817749,51.5599134],[0.0817951,51.5599119],[0.0818297,51.5599001],[0.0818487,51.5598808],[0.0818761,51.5598483],[0.0820237,51.5595079],[0.0820672,51.5593867],[0.0821058,51.5592793],[0.0821634,51.5591099],[0.082176,51.5590066]]]}},
{"type":"Feature","properties":{"highway":"footway","name":null,"category":"Footpath (pedestrian only)"},"geometry":{"type":"MultiLineString","coordinates":[[[0.0821634,51.5591099],[0.08225,51.5591148],[0.0823567,51.5591156]]]}},
{"type":"Feature","properties":{"highway":"footway","name":null,"category":"Footpath (pedestrian only)"},"geometry":{"type":"MultiLineString","coordinates":[[[0.0821933,51.5589301],[0.082176,51.5590066]]]}},
{"type":"Feature","properties":{"highway":"footway","name":null,"category":"Footpath (pedestrian only)"},"geometry":{"type":"MultiLineString","coordinates":[[[0.0822658,51.5589336],[0.0821933,51.5589301]]]}},
{"type":"Feature","properties":{"highway":"footway","name":null,"category":"Footpath (pedestrian only)"},"geometry":{"type":"MultiLineString","coordinates":[[[0.0820672,51.5593867],[0.082136,51.5593976],[0.0822045,51.5594109]]]}},
{"type":"Feature","properties":{"highway":"footway","name":null,"category":"Footpath (pedestrian only)"},"geometry":{"type":"MultiLineString","coordinates":[[[0.0823567,51.5591156],[0.0823866,51.5591214],[0.0824175,51.5591227],[0.0824446,51.559122],[0.0826372,51.5590951]]]}},
{"type":"Feature","properties":{"highway":"footway","name":null,"category":"Footpath (pedestrian only)"},"geometry":{"type":"MultiLineString","coordinates":[[[0.0826372,51.5590951],[0.0826557,51.559149],[0.082671,51.5592067]]]}},
{"type":"Feature","properties":{"highway":"footway","name":null,"category":"Footpath (pedestrian only)"},"geometry":{"type":"MultiLineString","coordinates":[[[0.082671,51.5592067],[0.0825387,51.5592263],[0.082451,51.5592411],[0.0823914,51.5592545],[0.0822958,51.559309],[0.0822347,51.5593698],[0.0822045,51.5594109],[0.0821802,51.5594608],[0.0821093,51.5596413],[0.0821099,51.5596695]]]}},
{"type":"Feature","properties":{"highway":"footway","name":null,"category":"Footpath (pedestrian only)"},"geometry":{"type":"MultiLineString","coordinates":[[[0.0846584,51.5612186],[0.0845644,51.5611998],[0.0844871,51.561186]]]}},
{"type":"Feature","properties":{"highway":"footway","name":null,"category":"Footpath (pedestrian only)"},"geometry":{"type":"MultiLineString","coordinates":[[[0.0844871,51.561186],[0.0843883,51.5611664],[0.0838911,51.561068],[0.0837063,51.5610314],[0.0826309,51.5608107],[0.0823387,51.5607503],[0.0818147,51.5606355],[0.0817846,51.5606249],[0.0817596,51.5606112],[0.0817295,51.5605857]]]}},
{"type":"Feature","properties":{"highway":"footway","name":null,"category":"Footpath (pedestrian only)"},"geometry":{"type":"MultiLineString","coordinates":[[[0.0846584,51.5612186],[0.0846646,51.5612319],[0.0846824,51.5612429],[0.084702,51.5612507]]]}},
{"type":"Feature","properties":{"highway":"footway","name":null,"category":"Footpath (pedestrian only)"},"geometry":{"type":"MultiLineString","coordinates":[[[0.0820739,51.5597528],[0.0819684,51.5599906],[0.0819539,51.5600272]]]}},
{"type":"Feature","properties":{"highway":"footway","name":null,"category":"Footpath (pedestrian only)"},"geometry":{"type":"MultiLineString","coordinates":[[[0.0819539,51.5600272],[0.0819434,51.5600518],[0.0819335,51.5600759]]]}},
{"type":"Feature","properties":{"highway":"footway","name":null,"category":"Footpath (pedestrian only)"},"geometry":{"type":"MultiLineString","coordinates":[[[0.0819335,51.5600759],[0.0818762,51.5602189],[0.0817628,51.5604626],[0.0817214,51.5605475],[0.0817173,51.5605639],[0.0817295,51.5605857]]]}},
{"type":"Feature","properties":{"highway":"footway","name":null,"category":"Footpath (pedestrian only)"},"geometry":{"type":"MultiLineString","coordinates":[[[0.0821099,51.5596695],[0.0820922,51.5597103],[0.0820739,51.5597528]]]}},
{"type":"Feature","properties":{"highway":"footway","name":null,"category":"Footpath (pedestrian only)"},"geometry":{"type":"MultiLineString","coordinates":[[[0.082671,51.5592067],[0.0827183,51.5592038],[0.0827753,51.559208]]]}},
{"type":"Feature","properties":{"highway":"footway","name":null,"category":"Footpath (pedestrian only)"},"geometry":{"type":"MultiLineString","coordinates":[[[0.0827753,51.559208],[0.0828152,51.5591948]]]}},
{"type":"Feature","properties":{"highway":"footway","name":null,"category":"Footpath (pedestrian only)"},"geometry":{"type":"MultiLineString","coordinates":[[[0.0828152,51.5591948],[0.0828844,51.5591769]]]}},
{"type":"Feature","properties":{"highway":"footway","name":null,"category":"Footpath (pedestrian only)"},"geometry":{"type":"MultiLineString","coordinates":[[[0.0827869,51.5639225],[0.0832866,51.5641383],[0.083357,51.5641804]]]}},
{"type":"Feature","properties":{"highway":"footway","name":null,"category":"Footpath (pedestrian only)"},"geometry":{"type":"MultiLineString","coordinates":[[[0.0919291,51.5639281],[0.0919353,51.5638947],[0.0919088,51.5638808],[0.091881,51.5638678]]]}},
{"type":"Feature","properties":{"highway":"footway","name":null,"category":"Footpath (pedestrian only)"},"geometry":{"type":"MultiLineString","coordinates":[[[0.0934268,51.5589913],[0.0934156,51.5590081]]]}},
{"type":"Feature","properties":{"highway":"footway","name":null,"category":"Footpath (pedestrian only)"},"geometry":{"type":"MultiLineString","coordinates":[[[0.0934489,51.558938],[0.0934532,51.5589473],[0.0934268,51.5589913]]]}},
{"type":"Feature","properties":{"highway":"footway","name":null,"category":"Footpath (pedestrian only)"},"geometry":{"type":"MultiLineString","coordinates":[[[0.0934375,51.5589122],[0.0934456,51.5589305],[0.0934489,51.558938]]]}},
{"type":"Feature","properties":{"highway":"footway","name":null,"category":"Footpath (pedestrian only)"},"geometry":{"type":"MultiLineString","coordinates":[[[0.0973759,51.5638262],[0.0974028,51.5638153]]]}},
{"type":"Feature","properties":{"highway":"footway","name":null,"category":"Footpath (pedestrian only)"},"geometry":{"type":"MultiLineString","coordinates":[[[0.0979771,51.5642387],[0.0979627,51.5642703]]]}},
{"type":"Feature","properties":{"highway":"footway","name":null,"category":"Footpath (pedestrian only)"},"geometry":{"type":"MultiLineString","coordinates":[[[0.0980093,51.5643298],[0.0980212,51.5643016]]]}},
{"type":"Feature","properties":{"highway":"footway","name":null,"category":"Footpath (pedestrian only)"},"geometry":{"type":"MultiLineString","coordinates":[[[0.0980212,51.5643016],[0.0980254,51.564291],[0.0979586,51.5642806],[0.0979627,51.5642703]]]}},
{"type":"Feature","properties":{"highway":"footway","name":null,"category":"Footpath (pedestrian only)"},"geometry":{"type":"MultiLineString","coordinates":[[[0.0918951,51.5628553],[0.0918314,51.5628373]]]}},
{"type":"Feature","properties":{"highway":"footway","name":null,"category":"Footpath (pedestrian only)"},"geometry":{"type":"MultiLineString","coordinates":[[[0.104513,51.5546609],[0.1045277,51.5546344],[0.1045426,51.5546082]]]}},
{"type":"Feature","properties":{"highway":"footway","name":null,"category":"Footpath (pedestrian only)"},"geometry":{"type":"MultiLineString","coordinates":[[[0.1054229,51.5548599],[0.1053824,51.5548519],[0.1053364,51.5548428]]]}},
{"type":"Feature","properties":{"highway":"footway","name":null,"category":"Footpath (pedestrian only)"},"geometry":{"type":"MultiLineString","coordinates":[[[0.1051224,51.5571974],[0.1051362,51.5571718],[0.1051422,51.5571605],[0.1051488,51.5571483],[0.1053514,51.556756],[0.1053831,51.5567231],[0.1054279,51.5567107],[0.1057679,51.5567779],[0.1058484,51.5566193],[0.1059122,51.5566131],[0.1059922,51.5566298],[0.1061404,51.5563468]]]}},
{"type":"Feature","properties":{"highway":"footway","name":null,"category":"Footpath (pedestrian only)"},"geometry":{"type":"MultiLineString","coordinates":[[[0.0916118,51.5582606],[0.0916312,51.5582434],[0.091609,51.5582209],[0.0915041,51.5580731],[0.0914397,51.5579712],[0.0914079,51.5579398],[0.0912974,51.5578306]]]}},
{"type":"Feature","properties":{"highway":"footway","name":null,"category":"Footpath (pedestrian only)"},"geometry":{"type":"MultiLineString","coordinates":[[[0.0925511,51.5584258],[0.0925261,51.5585113]]]}},
{"type":"Feature","properties":{"highway":"footway","name":null,"category":"Footpath (pedestrian only)"},"geometry":{"type":"MultiLineString","coordinates":[[[0.0929603,51.5550634],[0.0930181,51.5550541],[0.0931594,51.5550349],[0.0933571,51.5550383],[0.0935514,51.5550558],[0.0936504,51.555077]]]}},
{"type":"Feature","properties":{"highway":"footway","name":null,"category":"Footpath (pedestrian only)"},"geometry":{"type":"MultiLineString","coordinates":[[[0.0937946,51.5551269],[0.093737,51.5551032],[0.0936504,51.555077]]]}},
{"type":"Feature","properties":{"highway":"footway","name":null,"category":"Footpath (pedestrian only)"},"geometry":{"type":"MultiLineString","coordinates":[[[0.0938366,51.5551451],[0.0937946,51.5551269]]]}},
{"type":"Feature","properties":{"highway":"footway","name":null,"category":"Footpath (pedestrian only)"},"geometry":{"type":"MultiLineString","coordinates":[[[0.0865404,51.5504513],[0.0866024,51.5504734],[0.0876216,51.5507022],[0.0884233,51.5508849],[0.0887701,51.5509608]]]}},
{"type":"Feature","properties":{"highway":"footway","name":null,"category":"Footpath (pedestrian only)"},"geometry":{"type":"MultiLineString","coordinates":[[[0.0866897,51.549858],[0.0867262,51.5498758],[0.0867634,51.5499287],[0.0867616,51.5499837],[0.0866731,51.5501652],[0.0866218,51.5503138],[0.0865404,51.5504513],[0.0864881,51.5504399],[0.0864328,51.5504399],[0.0863971,51.5504335]]]}},
{"type":"Feature","properties":{"highway":"footway","name":null,"category":"Footpath (pedestrian only)"},"geometry":{"type":"MultiLineString","coordinates":[[[0.0821577,51.5497141],[0.0822341,51.549719],[0.0823235,51.5497234],[0.0823908,51.5497252],[0.0826632,51.5496965],[0.0827942,51.5496926],[0.0829039,51.5496959],[0.0840145,51.5478319],[0.0840654,51.5478236],[0.0840712,51.5478153]]]}},
{"type":"Feature","properties":{"highway":"footway","name":"Loxford Lane","category":"Footpath (pedestrian only)"},"geometry":{"type":"MultiLineString","coordinates":[[[0.0848693,51.5489337],[0.0848416,51.5488754],[0.0848068,51.5487815],[0.084741,51.5484559],[0.0847095,51.5483546],[0.084672,51.5482645],[0.0846203,51.5481698],[0.0845627,51.5480914],[0.0845218,51.5480485],[0.0844266,51.547968],[0.0843354,51.5479046],[0.0842763,51.5478746],[0.0841727,51.547839],[0.0840712,51.5478153],[0.0820916,51.5473196],[0.0809562,51.5470856],[0.0809229,51.5470786],[0.080856,51.5470644],[0.0800159,51.5468861],[0.0791444,51.5467008],[0.0791253,51.5466967],[0.0791046,51.5466923]]]}},
{"type":"Feature","properties":{"highway":"footway","name":null,"category":"Footpath (pedestrian only)"},"geometry":{"type":"MultiLineString","coordinates":[[[0.0982984,51.5583256],[0.0982788,51.558289]]]}},
{"type":"Feature","properties":{"highway":"footway","name":null,"category":"Footpath (pedestrian only)"},"geometry":{"type":"MultiLineString","coordinates":[[[0.0982788,51.558289],[0.0982685,51.5582723],[0.0981906,51.5582262]]]}},
{"type":"Feature","properties":{"highway":"footway","name":null,"category":"Footpath (pedestrian only)"},"geometry":{"type":"MultiLineString","coordinates":[[[0.0917328,51.5573245],[0.0917012,51.5573535],[0.0916347,51.5573949],[0.0915775,51.5574341],[0.0915296,51.557482],[0.0914946,51.5575408],[0.0914794,51.5575851],[0.0914656,51.5576401],[0.0913716,51.5576928],[0.0913201,51.5577175]]]}},
{"type":"Feature","properties":{"highway":"footway","name":null,"category":"Footpath (pedestrian only)"},"geometry":{"type":"MultiLineString","coordinates":[[[0.0983923,51.5629518],[0.09837,51.5629786]]]}},
{"type":"Feature","properties":{"highway":"footway","name":null,"category":"Footpath (pedestrian only)"},"geometry":{"type":"MultiLineString","coordinates":[[[0.0978783,51.5633855],[0.0979386,51.563401]]]}},
{"type":"Feature","properties":{"highway":"footway","name":null,"category":"Footpath (pedestrian only)"},"geometry":{"type":"MultiLineString","coordinates":[[[0.0978652,51.5633819],[0.0978783,51.5633855]]]}},
{"type":"Feature","properties":{"highway":"footway","name":null,"category":"Footpath (pedestrian only)"},"geometry":{"type":"MultiLineString","coordinates":[[[0.0987896,51.5643239],[0.0979464,51.5641749],[0.097903,51.5641628],[0.0978685,51.5641457],[0.09781,51.5640924],[0.0977532,51.5640403],[0.097458,51.5637426],[0.097677,51.5635477],[0.0978652,51.5633819],[0.0979497,51.5633074],[0.0983633,51.5629425],[0.0983923,51.5629518],[0.0984129,51.5629584],[0.0983486,51.5631989],[0.0982735,51.5635195],[0.0982976,51.5635536],[0.098308,51.5635607]]]}},
{"type":"Feature","properties":{"highway":"footway","name":null,"category":"Footpath (pedestrian only)"},"geometry":{"type":"MultiLineString","coordinates":[[[0.09837,51.5629786],[0.0983587,51.5629918],[0.0983112,51.5630789],[0.0982267,51.5632262]]]}},
{"type":"Feature","properties":{"highway":"footway","name":null,"category":"Footpath (pedestrian only)"},"geometry":{"type":"MultiLineString","coordinates":[[[0.0934375,51.5458929],[0.0934224,51.5459269],[0.093378,51.5459685],[0.093321,51.5460356],[0.0933008,51.546063],[0.0932702,51.5461046],[0.093249,51.5461476],[0.0932047,51.5462472],[0.093125,51.5464392],[0.0930642,51.5466125],[0.0930217,51.5467172],[0.0929826,51.5468224],[0.0928984,51.5470516],[0.092862,51.5471586]]]}},
{"type":"Feature","properties":{"highway":"footway","name":null,"category":"Footpath (pedestrian only)"},"geometry":{"type":"MultiLineString","coordinates":[[[0.0914656,51.5576401],[0.091484,51.5576842],[0.0914902,51.5577244],[0.0914856,51.5577685],[0.0914548,51.5578384],[0.0914363,51.5579007],[0.0914079,51.5579398]]]}},
{"type":"Feature","properties":{"highway":"footway","name":null,"category":"Footpath (pedestrian only)"},"geometry":{"type":"MultiLineString","coordinates":[[[0.0910817,51.5578116],[0.0910624,51.5577806],[0.0910629,51.5577474],[0.0910831,51.5577166],[0.0911202,51.5576927],[0.0911688,51.5576789],[0.0912222,51.5576773],[0.0912728,51.557688],[0.0913134,51.5577096],[0.0913201,51.5577175],[0.0913383,51.557739],[0.091344,51.5577721],[0.0913297,51.5578041],[0.0912974,51.5578306],[0.0912438,51.5578494],[0.0911824,51.5578524],[0.0911248,51.557839],[0.0910817,51.5578116]]]}},
{"type":"Feature","properties":{"highway":"footway","name":null,"category":"Footpath (pedestrian only)"},"geometry":{"type":"MultiLineString","coordinates":[[[0.0901558,51.5571437],[0.0901274,51.5571778],[0.0900908,51.5572094],[0.0900013,51.5572562],[0.0899128,51.5572795]]]}},
{"type":"Feature","properties":{"highway":"footway","name":null,"category":"Footpath (pedestrian only)"},"geometry":{"type":"MultiLineString","coordinates":[[[0.097415,51.5638104],[0.0974457,51.5637979]]]}},
{"type":"Feature","properties":{"highway":"footway","name":null,"category":"Footpath (pedestrian only)"},"geometry":{"type":"MultiLineString","coordinates":[[[0.0974028,51.5638153],[0.097415,51.5638104]]]}},
{"type":"Feature","properties":{"highway":"footway","name":null,"category":"Footpath (pedestrian only)"},"geometry":{"type":"MultiLineString","coordinates":[[[0.0897122,51.5471556],[0.0899963,51.5473714]]]}},
{"type":"Feature","properties":{"highway":"pedestrian","name":null,"category":"Pedestrian area/street"},"geometry":{"type":"MultiLineString","coordinates":[[[0.0783637,51.5600252],[0.0784686,51.5600375],[0.0787519,51.5600823],[0.0787779,51.5600861]]]}},
{"type":"Feature","properties":{"highway":"pedestrian","name":null,"category":"Pedestrian area/street"},"geometry":{"type":"MultiLineString","coordinates":[[[0.0787779,51.5600861],[0.0792851,51.5601916],[0.079431,51.5602185]]]}},
{"type":"Feature","properties":{"highway":"pedestrian","name":"High Road","category":"Pedestrian area/street"},"geometry":{"type":"MultiLineString","coordinates":[[[0.079431,51.5602185],[0.0794958,51.5602314],[0.0795664,51.5602443],[0.0796158,51.5602558]]]}}
]
}
