{
"type": "FeatureCollection",
"name": "HAVER_55_walking",
"crs": { "type": "name", "properties": { "name": "urn:ogc:def:crs:OGC:1.3:CRS84" } },
"features": [
{"type":"Feature","properties":{"highway":"footway","name":null,"category":"Footpath (pedestrian only)"},"geometry":{"type":"MultiLineString","coordinates":[[[0.2519901,51.5436156],[0.2512737,51.543474],[0.2506654,51.5431922]]]}},
{"type":"Feature","properties":{"highway":"footway","name":null,"category":"Footpath (pedestrian only)"},"geometry":{"type":"MultiLineString","coordinates":[[[0.2538357,51.5433612],[0.2537959,51.5431703],[0.2537757,51.5430733]]]}},
{"type":"Feature","properties":{"highway":"footway","name":null,"category":"Footpath (pedestrian only)"},"geometry":{"type":"MultiLineString","coordinates":[[[0.2432026,51.5485992],[0.2431234,51.5498615],[0.2431403,51.5499473]]]}},
{"type":"Feature","properties":{"highway":"track","name":null,"category":"Track"},"geometry":{"type":"MultiLineString","coordinates":[[[0.254858,51.5443068],[0.254971,51.5442548],[0.2550458,51.5441467],[0.2551048,51.5438631],[0.2550565,51.5435862],[0.2550997,51.5434274],[0.2551319,51.543374],[0.2552604,51.543306],[0.2554213,51.5432226],[0.2555232,51.5430224],[0.2555584,51.5428698]]]}},
{"type":"Feature","properties":{"highway":"footway","name":null,"category":"Footpath (pedestrian only)"},"geometry":{"type":"MultiLineString","coordinates":[[[0.2565428,51.5429602],[0.2560917,51.5442462],[0.2559366,51.5446885],[0.2555235,51.5454625],[0.2554376,51.5456345],[0.2553036,51.5459028],[0.2551897,51.5460909]]]}},
{"type":"Feature","properties":{"highway":"footway","name":null,"category":"Footpath (pedestrian only)"},"geometry":{"type":"MultiLineString","coordinates":[[[0.2554696,51.5439265],[0.2556683,51.5439412],[0.2559258,51.5440746],[0.2560917,51.5442462]]]}},
{"type":"Feature","properties":{"highway":"track","name":null,"category":"Track"},"geometry":{"type":"MultiLineString","coordinates":[[[0.2472952,51.5401436],[0.2473316,51.5399727],[0.2473799,51.539926],[0.2475148,51.5398758],[0.2477509,51.5398291],[0.2479807,51.539539],[0.2481041,51.5394122],[0.2482489,51.5393888],[0.248754,51.5395088],[0.2487701,51.5396156],[0.2486727,51.5398293]]]}},
{"type":"Feature","properties":{"highway":"footway","name":null,"category":"Footpath (pedestrian only)"},"geometry":{"type":"MultiLineString","coordinates":[[[0.2416046,51.5405868],[0.2421558,51.5404597],[0.2423294,51.5403383],[0.2424562,51.5402128],[0.2425064,51.539968],[0.2425045,51.539719],[0.2424508,51.5395121],[0.2422577,51.5393486],[0.2415711,51.5389749],[0.2413887,51.5388415],[0.2413457,51.5384711],[0.2412653,51.5381842],[0.241099,51.5380641],[0.240922,51.5380674],[0.2407771,51.5382042],[0.2405196,51.5385645],[0.2404338,51.5386913],[0.2403855,51.5387347]]]}},
{"type":"Feature","properties":{"highway":"footway","name":null,"category":"Footpath (pedestrian only)"},"geometry":{"type":"MultiLineString","coordinates":[[[0.2351606,51.5364224],[0.2364749,51.5360754]]]}},
{"type":"Feature","properties":{"highway":"footway","name":null,"category":"Footpath (pedestrian only)"},"geometry":{"type":"MultiLineString","coordinates":[[[0.2372186,51.5358824],[0.2364749,51.5360754],[0.2366065,51.5363159],[0.2369845,51.5366126],[0.2377339,51.5370507],[0.2380002,51.5371821],[0.2382773,51.5372899],[0.2386369,51.5374704],[0.2389639,51.5375869],[0.2392214,51.5378238],[0.2397686,51.5381875],[0.2399938,51.5384598],[0.2402407,51.5386613],[0.2403855,51.5387347],[0.2404231,51.539015],[0.2405357,51.5393553],[0.2407932,51.5397424],[0.2411151,51.5399993],[0.2414101,51.5402829],[0.2416046,51.5405868],[0.2416193,51.5406098],[0.2416462,51.5408234],[0.2416654,51.5411351]]]}},
{"type":"Feature","properties":{"highway":"footway","name":null,"category":"Footpath (pedestrian only)"},"geometry":{"type":"MultiLineString","coordinates":[[[0.2587901,51.5478535],[0.2586967,51.5481236],[0.2585846,51.5483821],[0.2589769,51.5492155],[0.2591544,51.5493317],[0.2592571,51.5498921],[0.2592841,51.5501706],[0.2592991,51.5503248],[0.2592151,51.5514225],[0.259159,51.5528367],[0.2583712,51.5528513]]]}},
{"type":"Feature","properties":{"highway":"footway","name":null,"category":"Footpath (pedestrian only)"},"geometry":{"type":"MultiLineString","coordinates":[[[0.2631164,51.5520786],[0.2631846,51.5513644],[0.2635348,51.5513354],[0.2635488,51.5510857],[0.2634414,51.5500751],[0.2629137,51.5475805],[0.2624607,51.5475718],[0.2624321,51.5475297],[0.2623346,51.5473772],[0.2608823,51.5474586],[0.2601351,51.5473831],[0.260107,51.5475137],[0.259145,51.5477664],[0.2587901,51.5478535]]]}},
{"type":"Feature","properties":{"highway":"footway","name":null,"category":"Footpath (pedestrian only)"},"geometry":{"type":"MultiLineString","coordinates":[[[0.2586819,51.5469647],[0.2587703,51.5469824],[0.2587866,51.5470305],[0.258876,51.5471796],[0.2588699,51.5472618],[0.2588252,51.5472997],[0.258813,51.5473225],[0.2587724,51.5474312],[0.2587175,51.547665],[0.2587154,51.5477346],[0.2587541,51.5477851],[0.2587764,51.5478155],[0.2587901,51.5478535]]]}},
{"type":"Feature","properties":{"highway":"footway","name":null,"category":"Footpath (pedestrian only)"},"geometry":{"type":"MultiLineString","coordinates":[[[0.2586819,51.5469647],[0.2588577,51.5468409],[0.2590244,51.5467258],[0.2595224,51.5464515],[0.2597725,51.546291],[0.2599026,51.5461949],[0.2599839,51.5461216],[0.2600591,51.5460874],[0.2601709,51.5460925],[0.2602644,51.546119],[0.2604087,51.5461557],[0.2605124,51.5461557],[0.2612767,51.5461279],[0.262167,51.546052],[0.262665,51.5460432],[0.2634151,51.5460179],[0.2642689,51.5459623],[0.2647567,51.5459193],[0.2650047,51.5459003],[0.2650738,51.5459092],[0.265145,51.5459282],[0.2652243,51.5459648],[0.2652893,51.5459825]]]}},
{"type":"Feature","properties":{"highway":"footway","name":null,"category":"Footpath (pedestrian only)"},"geometry":{"type":"MultiLineString","coordinates":[[[0.2417694,51.5412475],[0.2421003,51.5413296],[0.2422941,51.5414518],[0.2423564,51.5415726],[0.2434936,51.5422599],[0.245221,51.5428187],[0.2473372,51.5433042],[0.2477503,51.5433894],[0.2477172,51.5434737]]]}},
{"type":"Feature","properties":{"highway":"footway","name":null,"category":"Footpath (pedestrian only)"},"geometry":{"type":"MultiLineString","coordinates":[[[0.2476279,51.5437009],[0.2481181,51.5438109],[0.2486941,51.5439116],[0.2491454,51.5440454],[0.2494139,51.5441711]]]}},
{"type":"Feature","properties":{"highway":"footway","name":null,"category":"Footpath (pedestrian only)"},"geometry":{"type":"MultiLineString","coordinates":[[[0.2476279,51.5437009],[0.2471014,51.5436756],[0.2465254,51.543626],[0.245591,51.5434874],[0.2442239,51.5432513],[0.2436615,51.5430247],[0.2434859,51.5428204],[0.243042,51.5425299],[0.2426136,51.5422861],[0.2422038,51.5420114],[0.2421488,51.5418917],[0.2421753,51.5418068],[0.2422911,51.541663]]]}},
{"type":"Feature","properties":{"highway":"footway","name":null,"category":"Footpath (pedestrian only)"},"geometry":{"type":"MultiLineString","coordinates":[[[0.2421753,51.5418068],[0.241986,51.5416686],[0.2416495,51.5414034],[0.2416266,51.541313],[0.2417694,51.5412475]]]}},
{"type":"Feature","properties":{"highway":"footway","name":null,"category":"Footpath (pedestrian only)"},"geometry":{"type":"MultiLineString","coordinates":[[[0.247652,51.5436484],[0.2477172,51.5434737]]]}},
{"type":"Feature","properties":{"highway":"footway","name":null,"category":"Footpath (pedestrian only)"},"geometry":{"type":"MultiLineString","coordinates":[[[0.242331,51.5416078],[0.2422911,51.541663]]]}},
{"type":"Feature","properties":{"highway":"footway","name":null,"category":"Footpath (pedestrian only)"},"geometry":{"type":"MultiLineString","coordinates":[[[0.2351606,51.5364224],[0.2351871,51.5367392],[0.2352662,51.5370344],[0.2353165,51.5374637],[0.235259,51.537571],[0.2351296,51.5375799],[0.234957,51.5375576],[0.2347413,51.5376739],[0.2346119,51.5377007],[0.2344897,51.537656],[0.2343315,51.5375442],[0.2342165,51.5375039],[0.2339289,51.5375039],[0.2335695,51.5375173],[0.2328577,51.5374279],[0.2324335,51.5373385],[0.2323283,51.5372865],[0.2321531,51.5371998],[0.2320165,51.5370702],[0.2320022,51.5367482],[0.2320242,51.5364827],[0.2320453,51.5362294],[0.2320094,51.5360461],[0.2321028,51.5356615],[0.2322322,51.5353842],[0.2324407,51.534369],[0.2324839,51.5342707],[0.2330015,51.5335909],[0.2332172,51.5333539],[0.2333394,51.5332823],[0.2334327,51.5331187],[0.2335822,51.5328567]]]}},
{"type":"Feature","properties":{"highway":"footway","name":null,"category":"Footpath (pedestrian only)"},"geometry":{"type":"MultiLineString","coordinates":[[[0.247652,51.5436484],[0.2476279,51.5437009]]]}},
{"type":"Feature","properties":{"highway":"footway","name":null,"category":"Footpath (pedestrian only)"},"geometry":{"type":"MultiLineString","coordinates":[[[0.242331,51.5416078],[0.2423564,51.5415726]]]}},
{"type":"Feature","properties":{"highway":"footway","name":null,"category":"Footpath (pedestrian only)"},"geometry":{"type":"MultiLineString","coordinates":[[[0.2570952,51.5448882],[0.2570749,51.5450344],[0.2570736,51.5450433],[0.257001,51.5451885],[0.2570026,51.5452898],[0.2570028,51.5453124],[0.256947,51.5454551],[0.256874,51.5455711],[0.256833,51.54567],[0.2567715,51.5457218],[0.2566509,51.5457368],[0.2565833,51.5457371],[0.25648,51.5456802],[0.2564604,51.5456573],[0.2564002,51.5455868],[0.2564631,51.5454186],[0.2565051,51.545269],[0.2565094,51.5452537],[0.2565127,51.5452438],[0.2565799,51.5450438],[0.2566334,51.5449547],[0.2567554,51.5448765],[0.2568904,51.5448032],[0.257023,51.5447327]]]}},
{"type":"Feature","properties":{"highway":"footway","name":null,"category":"Footpath (pedestrian only)"},"geometry":{"type":"MultiLineString","coordinates":[[[0.2565833,51.5457371],[0.2565145,51.5458924],[0.2563898,51.5459174],[0.2562868,51.5459705],[0.2562691,51.5460345],[0.2563157,51.5460832],[0.2564264,51.5460682],[0.2564794,51.5460687],[0.2565253,51.5461008],[0.2565615,51.5461283],[0.2566218,51.5461379],[0.2566785,51.5461106],[0.2567069,51.5460629],[0.2567019,51.5460045],[0.2566545,51.5459509],[0.2565985,51.5459157],[0.2565145,51.5458924]]]}},
{"type":"Feature","properties":{"highway":"footway","name":null,"category":"Footpath (pedestrian only)"},"geometry":{"type":"MultiLineString","coordinates":[[[0.258487,51.5462571],[0.2584834,51.5462662],[0.258451,51.5463474],[0.2583922,51.5464135],[0.2583299,51.5464456],[0.2583057,51.5464493],[0.2582298,51.5464608],[0.258083,51.5464433],[0.2577109,51.5463988],[0.257646,51.546391],[0.2575101,51.5463903],[0.2573827,51.5464255],[0.2572665,51.5464494],[0.2571847,51.5464485],[0.257117,51.5464184],[0.2570567,51.5463668],[0.2570558,51.5463623],[0.257045,51.5463109],[0.2571383,51.5460718],[0.2571737,51.5459722],[0.2573482,51.5454637],[0.2574448,51.5453811],[0.2575937,51.5453724],[0.2587624,51.5455291]]]}},
{"type":"Feature","properties":{"highway":"footway","name":null,"category":"Footpath (pedestrian only)"},"geometry":{"type":"MultiLineString","coordinates":[[[0.2577563,51.5449586],[0.2575595,51.5449232],[0.2574033,51.5449882],[0.2574512,51.5450756],[0.2577815,51.5451211],[0.2580667,51.5451603],[0.2584085,51.5450141],[0.2585174,51.5449199],[0.2585,51.5448456],[0.2586514,51.5446241],[0.2585943,51.544558]]]}},
{"type":"Feature","properties":{"highway":"footway","name":null,"category":"Footpath (pedestrian only)"},"geometry":{"type":"MultiLineString","coordinates":[[[0.2567019,51.5460045],[0.2568206,51.5460155],[0.256965,51.5460298],[0.2571383,51.5460718],[0.2576412,51.5461409],[0.2577872,51.546161],[0.2579269,51.5461802],[0.2582389,51.546223],[0.258487,51.5462571],[0.2585425,51.5461623]]]}},
{"type":"Feature","properties":{"highway":"footway","name":null,"category":"Footpath (pedestrian only)"},"geometry":{"type":"MultiLineString","coordinates":[[[0.2574033,51.5449882],[0.2571877,51.5449544],[0.2570952,51.5448882],[0.2570643,51.5448232],[0.2570223,51.544735],[0.257023,51.5447327],[0.2570846,51.5445362]]]}},
{"type":"Feature","properties":{"highway":"footway","name":null,"category":"Footpath (pedestrian only)"},"geometry":{"type":"MultiLineString","coordinates":[[[0.2583082,51.5443677],[0.258143,51.5444814],[0.2580471,51.5444876],[0.2580209,51.5444832],[0.2579678,51.5444745],[0.2579005,51.5444396],[0.2578869,51.5444198],[0.2578619,51.5443833],[0.2578401,51.5443039],[0.2578423,51.5442877]]]}},
{"type":"Feature","properties":{"highway":"footway","name":null,"category":"Footpath (pedestrian only)"},"geometry":{"type":"MultiLineString","coordinates":[[[0.2580209,51.5444832],[0.2579472,51.5446743],[0.2579606,51.5447057],[0.2579255,51.5447241],[0.2578441,51.5449418]]]}},
{"type":"Feature","properties":{"highway":"footway","name":null,"category":"Footpath (pedestrian only)"},"geometry":{"type":"MultiLineString","coordinates":[[[0.2568904,51.5448032],[0.2570643,51.5448232]]]}},
{"type":"Feature","properties":{"highway":"footway","name":null,"category":"Footpath (pedestrian only)"},"geometry":{"type":"MultiLineString","coordinates":[[[0.2578255,51.5450036],[0.2578119,51.5450405],[0.2578213,51.5450626],[0.2577937,51.5450753],[0.2577815,51.5451211]]]}},
{"type":"Feature","properties":{"highway":"footway","name":null,"category":"Footpath (pedestrian only)"},"geometry":{"type":"MultiLineString","coordinates":[[[0.258143,51.5444814],[0.2582753,51.5446034],[0.2583132,51.5446225],[0.2583809,51.5446567],[0.258447,51.544665],[0.2585256,51.5446507],[0.2585956,51.5445903],[0.2585943,51.544558],[0.258594,51.5445506],[0.2585649,51.544497],[0.2585912,51.5443765],[0.2586566,51.544125]]]}},
{"type":"Feature","properties":{"highway":"footway","name":null,"category":"Footpath (pedestrian only)"},"geometry":{"type":"MultiLineString","coordinates":[[[0.2580209,51.5444832],[0.2580729,51.5443356]]]}},
{"type":"Feature","properties":{"highway":"footway","name":null,"category":"Footpath (pedestrian only)"},"geometry":{"type":"MultiLineString","coordinates":[[[0.256965,51.5460298],[0.2569049,51.5461789],[0.2568227,51.546248],[0.2566998,51.5462795],[0.2565509,51.5462731],[0.2564364,51.5462608],[0.2563256,51.546275],[0.2562726,51.5463265],[0.2562682,51.5463943],[0.2564171,51.546456],[0.2565593,51.5464931],[0.2566475,51.546541],[0.2567599,51.546648],[0.2568723,51.5466953],[0.2569616,51.5467015],[0.2570135,51.5467337],[0.2571779,51.5467899],[0.2575049,51.5468848],[0.2577177,51.5469084],[0.2579011,51.5469069],[0.2580073,51.546906],[0.2581638,51.5468166],[0.2582133,51.5467313],[0.2582017,51.5466612],[0.2581492,51.5466298],[0.2580802,51.5466153],[0.2579898,51.5466262],[0.2579111,51.5466262],[0.2578566,51.5465545],[0.2578051,51.5464977],[0.2577212,51.5464631],[0.2576898,51.5464569],[0.2576496,51.5464524],[0.2575505,51.5464614],[0.2574757,51.5464874],[0.2574504,51.5465575],[0.2574621,51.5466155],[0.257319,51.5466898],[0.2571779,51.5467899]]]}},
{"type":"Feature","properties":{"highway":"footway","name":null,"category":"Footpath (pedestrian only)"},"geometry":{"type":"MultiLineString","coordinates":[[[0.2583132,51.5446225],[0.2581816,51.544962],[0.2580888,51.5449998],[0.2578941,51.5449716]]]}},
{"type":"Feature","properties":{"highway":"footway","name":null,"category":"Footpath (pedestrian only)"},"geometry":{"type":"MultiLineString","coordinates":[[[0.2566692,51.5455052],[0.2566329,51.5455281],[0.2566377,51.5455535],[0.256677,51.5455653]]]}},
{"type":"Feature","properties":{"highway":"footway","name":null,"category":"Footpath (pedestrian only)"},"geometry":{"type":"MultiLineString","coordinates":[[[0.2569616,51.5467015],[0.2569904,51.5466046],[0.2569618,51.5464913]]]}},
{"type":"Feature","properties":{"highway":"footway","name":null,"category":"Footpath (pedestrian only)"},"geometry":{"type":"MultiLineString","coordinates":[[[0.2565509,51.5462731],[0.2566862,51.5463717],[0.2568069,51.546426],[0.2568174,51.5464307],[0.2569618,51.5464913],[0.2570852,51.5465177],[0.2571657,51.546574],[0.257319,51.5466898],[0.2574446,51.5467022],[0.2576532,51.5467132],[0.2579111,51.5466262]]]}},
{"type":"Feature","properties":{"highway":"footway","name":null,"category":"Footpath (pedestrian only)"},"geometry":{"type":"MultiLineString","coordinates":[[[0.2566684,51.5452795],[0.2565051,51.545269]]]}},
{"type":"Feature","properties":{"highway":"footway","name":null,"category":"Footpath (pedestrian only)"},"geometry":{"type":"MultiLineString","coordinates":[[[0.2566724,51.5452551],[0.2565127,51.5452438]]]}},
{"type":"Feature","properties":{"highway":"footway","name":null,"category":"Footpath (pedestrian only)"},"geometry":{"type":"MultiLineString","coordinates":[[[0.2567678,51.5452073],[0.2568169,51.545065]]]}},
{"type":"Feature","properties":{"highway":"footway","name":null,"category":"Footpath (pedestrian only)"},"geometry":{"type":"MultiLineString","coordinates":[[[0.2579472,51.5446743],[0.2579075,51.5446979],[0.2579255,51.5447241]]]}},
{"type":"Feature","properties":{"highway":"footway","name":null,"category":"Footpath (pedestrian only)"},"geometry":{"type":"MultiLineString","coordinates":[[[0.2578119,51.5450405],[0.2577819,51.5450542],[0.2577937,51.5450753]]]}},
{"type":"Feature","properties":{"highway":"footway","name":null,"category":"Footpath (pedestrian only)"},"geometry":{"type":"MultiLineString","coordinates":[[[0.2571877,51.5449544],[0.2570749,51.5450344]]]}},
{"type":"Feature","properties":{"highway":"footway","name":null,"category":"Footpath (pedestrian only)"},"geometry":{"type":"MultiLineString","coordinates":[[[0.2570026,51.5452898],[0.2568062,51.5452739]]]}},
{"type":"Feature","properties":{"highway":"footway","name":null,"category":"Footpath (pedestrian only)"},"geometry":{"type":"MultiLineString","coordinates":[[[0.257816,51.5460724],[0.2576672,51.5460532],[0.2576412,51.5461409],[0.2576062,51.5462383],[0.2577545,51.5462611]]]}},
{"type":"Feature","properties":{"highway":"footway","name":null,"category":"Footpath (pedestrian only)"},"geometry":{"type":"MultiLineString","coordinates":[[[0.2563157,51.5460832],[0.2563156,51.5461804],[0.2564364,51.5462608]]]}},
{"type":"Feature","properties":{"highway":"footway","name":null,"category":"Footpath (pedestrian only)"},"geometry":{"type":"MultiLineString","coordinates":[[[0.2576745,51.5444632],[0.2576652,51.5445223],[0.2575927,51.544714],[0.2575337,51.5448583],[0.2575595,51.5449232]]]}},
{"type":"Feature","properties":{"highway":"footway","name":null,"category":"Footpath (pedestrian only)"},"geometry":{"type":"MultiLineString","coordinates":[[[0.2576898,51.5464569],[0.2577109,51.5463988],[0.2577513,51.5462975],[0.2577545,51.5462611],[0.2577872,51.546161],[0.257816,51.5460724],[0.2579612,51.54609],[0.2579269,51.5461802],[0.2578886,51.5462751],[0.2577545,51.5462611]]]}},
{"type":"Feature","properties":{"highway":"footway","name":null,"category":"Footpath (pedestrian only)"},"geometry":{"type":"MultiLineString","coordinates":[[[0.2570028,51.5453124],[0.2568009,51.5452972]]]}},
{"type":"Feature","properties":{"highway":"footway","name":null,"category":"Footpath (pedestrian only)"},"geometry":{"type":"MultiLineString","coordinates":[[[0.2567253,51.5453458],[0.2566692,51.5455052],[0.2566979,51.5455288],[0.256687,51.5455606],[0.256677,51.5455653],[0.2566314,51.5455862],[0.2564604,51.5456573]]]}},
{"type":"Feature","properties":{"highway":"footway","name":null,"category":"Footpath (pedestrian only)"},"geometry":{"type":"MultiLineString","coordinates":[[[0.2562682,51.5463943],[0.2562047,51.5464634],[0.2562411,51.5464915],[0.25624,51.5465361],[0.2564032,51.546593],[0.2565002,51.5466108],[0.2565707,51.5465964],[0.2566475,51.546541],[0.2568069,51.546426],[0.2570558,51.5463623]]]}},
{"type":"Feature","properties":{"highway":"footway","name":null,"category":"Footpath (pedestrian only)"},"geometry":{"type":"MultiLineString","coordinates":[[[0.258077,51.5465354],[0.2582535,51.5465703],[0.2584493,51.5466094],[0.2584542,51.5466168],[0.2585223,51.5467192],[0.2585339,51.5467968],[0.2583458,51.5468993],[0.2581699,51.5469222],[0.2580206,51.5469293],[0.2579011,51.5469069]]]}},
{"type":"Feature","properties":{"highway":"footway","name":null,"category":"Footpath (pedestrian only)"},"geometry":{"type":"MultiLineString","coordinates":[[[0.258083,51.5464433],[0.258077,51.5465354],[0.2581492,51.5466298]]]}},
{"type":"Feature","properties":{"highway":"footway","name":null,"category":"Footpath (pedestrian only)"},"geometry":{"type":"MultiLineString","coordinates":[[[0.2591219,51.5441656],[0.2588095,51.5441199],[0.2588046,51.5441422],[0.2586566,51.544125],[0.258599,51.5440975]]]}},
{"type":"Feature","properties":{"highway":"footway","name":null,"category":"Footpath (pedestrian only)"},"geometry":{"type":"MultiLineString","coordinates":[[[0.2583057,51.5464493],[0.2583538,51.5464839],[0.2585248,51.546466],[0.2586098,51.546466]]]}},
{"type":"Feature","properties":{"highway":"footway","name":null,"category":"Footpath (pedestrian only)"},"geometry":{"type":"MultiLineString","coordinates":[[[0.2582535,51.5465703],[0.2583856,51.5465443],[0.2585578,51.5465129],[0.2586098,51.546466],[0.2586509,51.5464289],[0.2586711,51.5463463],[0.2586215,51.5462887],[0.2584834,51.5462662]]]}},
{"type":"Feature","properties":{"highway":"footway","name":null,"category":"Footpath (pedestrian only)"},"geometry":{"type":"MultiLineString","coordinates":[[[0.258083,51.5464433],[0.2580968,51.5463827],[0.2581861,51.5463351],[0.2582253,51.5462763],[0.2582389,51.546223]]]}},
{"type":"Feature","properties":{"highway":"footway","name":null,"category":"Footpath (pedestrian only)"},"geometry":{"type":"MultiLineString","coordinates":[[[0.2585578,51.5465129],[0.2584542,51.5466168]]]}},
{"type":"Feature","properties":{"highway":"path","name":null,"category":"Shared path"},"geometry":{"type":"MultiLineString","coordinates":[[[0.2531465,51.544532],[0.2536354,51.5448009],[0.2541343,51.5450812],[0.2546877,51.5453005],[0.2544892,51.5457742],[0.2546019,51.5462163],[0.2554897,51.5464314],[0.2563989,51.5466449]]]}},
{"type":"Feature","properties":{"highway":"path","name":"Footpath number 225","category":"Shared path"},"geometry":{"type":"MultiLineString","coordinates":[[[0.2563989,51.5466449],[0.2571853,51.546833],[0.2578451,51.5469706],[0.2583775,51.5469815],[0.2586819,51.5469647]]]}},
{"type":"Feature","properties":{"highway":"track","name":null,"category":"Track"},"geometry":{"type":"MultiLineString","coordinates":[[[0.2319677,51.5432501],[0.2316084,51.5432865],[0.2312656,51.5433185],[0.2309363,51.5433455],[0.2307357,51.5433788],[0.2305649,51.5434171],[0.2304755,51.54349],[0.2304186,51.5435831],[0.2304091,51.5437812],[0.2304518,51.5439569],[0.2305324,51.5441419],[0.230731,51.5444875],[0.2309593,51.5448414],[0.231145,51.5448431],[0.2319093,51.5447689],[0.2324425,51.5447128]]]}},
{"type":"Feature","properties":{"highway":"track","name":null,"category":"Track"},"geometry":{"type":"MultiLineString","coordinates":[[[0.2333282,51.5431243],[0.2335054,51.5430795],[0.233798,51.5430214],[0.2340689,51.5429749],[0.2343398,51.5429091],[0.2344612,51.5428994],[0.2346137,51.5431066],[0.2351461,51.5437765],[0.2353578,51.5440399],[0.2354263,51.5441018],[0.2354553,51.5441506],[0.2354975,51.5442109],[0.2355919,51.5443188],[0.2356674,51.5443936],[0.2357287,51.5444435],[0.2358503,51.5444907]]]}},
{"type":"Feature","properties":{"highway":"footway","name":null,"category":"Footpath (pedestrian only)"},"geometry":{"type":"MultiLineString","coordinates":[[[0.2416654,51.5411351],[0.2417694,51.5412475]]]}},
{"type":"Feature","properties":{"highway":"footway","name":null,"category":"Footpath (pedestrian only)"},"geometry":{"type":"MultiLineString","coordinates":[[[0.2537528,51.5501593],[0.2525885,51.5501422],[0.2521653,51.5501359]]]}},
{"type":"Feature","properties":{"highway":"path","name":null,"category":"Shared path"},"geometry":{"type":"MultiLineString","coordinates":[[[0.2525885,51.5501422],[0.2525968,51.5500784]]]}},
{"type":"Feature","properties":{"highway":"path","name":null,"category":"Shared path"},"geometry":{"type":"MultiLineString","coordinates":[[[0.2536944,51.5431735],[0.253716,51.5432731],[0.2536516,51.54347],[0.2537872,51.5435142]]]}}
]
}
