{
"type": "FeatureCollection",
"name": "HAVER_104_walking",
"crs": { "type": "name", "properties": { "name": "urn:ogc:def:crs:OGC:1.3:CRS84" } },
"features": [
{"type":"Feature","properties":{"highway":"footway","name":null,"category":"Footpath (pedestrian only)"},"geometry":{"type":"MultiLineString","coordinates":[[[0.2397538,51.5582387],[0.239732,51.55828]]]}},
{"type":"Feature","properties":{"highway":"footway","name":"Bridge Avenue","category":"Footpath (pedestrian only)"},"geometry":{"type":"MultiLineString","coordinates":[[[0.2405745,51.5578265],[0.2405127,51.5578394],[0.2399942,51.5579477]]]}},
{"type":"Feature","properties":{"highway":"footway","name":null,"category":"Footpath (pedestrian only)"},"geometry":{"type":"MultiLineString","coordinates":[[[0.2478021,51.5536447],[0.2475442,51.5537015],[0.2469036,51.5537295],[0.2462264,51.5537332],[0.2459085,51.5537031],[0.2454915,51.5536928],[0.2444068,51.5536817],[0.2443541,51.5536584],[0.244363,51.5531448]]]}},
{"type":"Feature","properties":{"highway":"footway","name":null,"category":"Footpath (pedestrian only)"},"geometry":{"type":"MultiLineString","coordinates":[[[0.2425765,51.5531077],[0.2425359,51.5528962],[0.2423783,51.5521565]]]}},
{"type":"Feature","properties":{"highway":"footway","name":"Upminster Road","category":"Footpath (pedestrian only)"},"geometry":{"type":"MultiLineString","coordinates":[[[0.239732,51.55828],[0.2395491,51.5583139]]]}},
{"type":"Feature","properties":{"highway":"footway","name":null,"category":"Footpath (pedestrian only)"},"geometry":{"type":"MultiLineString","coordinates":[[[0.2527279,51.5591665],[0.2527228,51.5590835],[0.2527158,51.5590709]]]}},
{"type":"Feature","properties":{"highway":"footway","name":null,"category":"Footpath (pedestrian only)"},"geometry":{"type":"MultiLineString","coordinates":[[[0.2447495,51.5596012],[0.2448142,51.5595378],[0.2448287,51.5595249],[0.2493075,51.5594835],[0.25035,51.5593179],[0.2503947,51.5593092],[0.2505007,51.5592887]]]}},
{"type":"Feature","properties":{"highway":"track","name":null,"category":"Track"},"geometry":{"type":"MultiLineString","coordinates":[[[0.2362714,51.5535509],[0.2363778,51.5537916],[0.2364261,51.5538767],[0.2365092,51.5540051],[0.2368982,51.5547906],[0.2372675,51.5554903]]]}},
{"type":"Feature","properties":{"highway":"track","name":null,"category":"Track"},"geometry":{"type":"MultiLineString","coordinates":[[[0.2368982,51.5547906],[0.2368982,51.5548123],[0.236874,51.5548356],[0.2368311,51.5548506],[0.2359665,51.5550164]]]}},
{"type":"Feature","properties":{"highway":"footway","name":null,"category":"Footpath (pedestrian only)"},"geometry":{"type":"MultiLineString","coordinates":[[[0.2358119,51.5589021],[0.2357357,51.5587516],[0.2356117,51.5585068],[0.2355645,51.5584949]]]}},
{"type":"Feature","properties":{"highway":"footway","name":null,"category":"Footpath (pedestrian only)"},"geometry":{"type":"MultiLineString","coordinates":[[[0.2436581,51.5608771],[0.2435942,51.560938],[0.2435559,51.5609644],[0.2434153,51.5609883],[0.2433003,51.5609618],[0.2432237,51.5608347],[0.2432663,51.5607897],[0.2433983,51.5607685],[0.2434825,51.5607704],[0.2435175,51.5607712],[0.2435772,51.5608003]]]}},
{"type":"Feature","properties":{"highway":"footway","name":null,"category":"Footpath (pedestrian only)"},"geometry":{"type":"MultiLineString","coordinates":[[[0.2434825,51.5607704],[0.2429636,51.5606368]]]}},
{"type":"Feature","properties":{"highway":"footway","name":null,"category":"Footpath (pedestrian only)"},"geometry":{"type":"MultiLineString","coordinates":[[[0.2459085,51.5537031],[0.246096,51.5538335],[0.2463653,51.5544362],[0.2464332,51.5547963]]]}},
{"type":"Feature","properties":{"highway":"footway","name":null,"category":"Footpath (pedestrian only)"},"geometry":{"type":"MultiLineString","coordinates":[[[0.2465381,51.5552029],[0.2468484,51.5551192],[0.247043,51.5550774],[0.2471412,51.5550564],[0.2473481,51.555012],[0.2477454,51.5549267],[0.2479473,51.5548834],[0.2484596,51.5547735]]]}},
{"type":"Feature","properties":{"highway":"footway","name":null,"category":"Footpath (pedestrian only)"},"geometry":{"type":"MultiLineString","coordinates":[[[0.2471412,51.5550564],[0.2471826,51.5551074],[0.2472562,51.5551512],[0.2473596,51.555169],[0.2478268,51.5550678],[0.2479719,51.5549885],[0.2479473,51.5548834]]]}},
{"type":"Feature","properties":{"highway":"footway","name":null,"category":"Footpath (pedestrian only)"},"geometry":{"type":"MultiLineString","coordinates":[[[0.247043,51.5550774],[0.2471251,51.5552073]]]}},
{"type":"Feature","properties":{"highway":"footway","name":null,"category":"Footpath (pedestrian only)"},"geometry":{"type":"MultiLineString","coordinates":[[[0.2462264,51.5537332],[0.246096,51.5538335]]]}},
{"type":"Feature","properties":{"highway":"footway","name":null,"category":"Footpath (pedestrian only)"},"geometry":{"type":"MultiLineString","coordinates":[[[0.2358119,51.5589021],[0.2358396,51.558962]]]}},
{"type":"Feature","properties":{"highway":"footway","name":null,"category":"Footpath (pedestrian only)"},"geometry":{"type":"MultiLineString","coordinates":[[[0.2552118,51.5565463],[0.2553206,51.5565046],[0.2553939,51.5564364],[0.2554872,51.556122],[0.2554797,51.5559498],[0.2553792,51.555873],[0.2550211,51.5557264],[0.2546474,51.5557195],[0.2544695,51.5559478],[0.2544474,51.5560602],[0.2543607,51.5562038],[0.2544284,51.5562817],[0.2546152,51.5563712],[0.2548252,51.5564176],[0.2550063,51.5564545],[0.2551442,51.5565271],[0.2552118,51.5565463]]]}},
{"type":"Feature","properties":{"highway":"footway","name":null,"category":"Footpath (pedestrian only)"},"geometry":{"type":"MultiLineString","coordinates":[[[0.249473,51.556157],[0.2494696,51.556182],[0.24947,51.556208]]]}},
{"type":"Feature","properties":{"highway":"footway","name":null,"category":"Footpath (pedestrian only)"},"geometry":{"type":"MultiLineString","coordinates":[[[0.2492133,51.5560612],[0.2491689,51.55607],[0.2491238,51.5560789]]]}},
{"type":"Feature","properties":{"highway":"footway","name":null,"category":"Footpath (pedestrian only)"},"geometry":{"type":"MultiLineString","coordinates":[[[0.2489651,51.5561032],[0.2489593,51.5561347]]]}},
{"type":"Feature","properties":{"highway":"footway","name":null,"category":"Footpath (pedestrian only)"},"geometry":{"type":"MultiLineString","coordinates":[[[0.2492205,51.5563134],[0.2492385,51.5563063],[0.2492677,51.5563455],[0.2492794,51.5563429]]]}},
{"type":"Feature","properties":{"highway":"footway","name":null,"category":"Footpath (pedestrian only)"},"geometry":{"type":"MultiLineString","coordinates":[[[0.2418958,51.5577397],[0.2419847,51.5578679],[0.2420556,51.5580383],[0.2416889,51.5581456],[0.2416387,51.5581645]]]}},
{"type":"Feature","properties":{"highway":"footway","name":null,"category":"Footpath (pedestrian only)"},"geometry":{"type":"MultiLineString","coordinates":[[[0.2420894,51.5573157],[0.2422189,51.5574235],[0.2422589,51.5574867],[0.2422897,51.5575403],[0.2423338,51.5576172]]]}},
{"type":"Feature","properties":{"highway":"footway","name":null,"category":"Footpath (pedestrian only)"},"geometry":{"type":"MultiLineString","coordinates":[[[0.2488792,51.5561949],[0.2488848,51.5562412],[0.2488763,51.5562708]]]}},
{"type":"Feature","properties":{"highway":"footway","name":null,"category":"Footpath (pedestrian only)"},"geometry":{"type":"MultiLineString","coordinates":[[[0.2491238,51.5560789],[0.2491112,51.556082],[0.2490962,51.5560569],[0.2490695,51.5560629]]]}},
{"type":"Feature","properties":{"highway":"footway","name":null,"category":"Footpath (pedestrian only)"},"geometry":{"type":"MultiLineString","coordinates":[[[0.2489593,51.5561347],[0.2489593,51.5561503],[0.2489604,51.5561721]]]}},
{"type":"Feature","properties":{"highway":"footway","name":null,"category":"Footpath (pedestrian only)"},"geometry":{"type":"MultiLineString","coordinates":[[[0.2493709,51.556323],[0.2493866,51.5563186],[0.2493972,51.5563051]]]}},
{"type":"Feature","properties":{"highway":"footway","name":null,"category":"Footpath (pedestrian only)"},"geometry":{"type":"MultiLineString","coordinates":[[[0.2494224,51.5563124],[0.2494548,51.5563273]]]}},
{"type":"Feature","properties":{"highway":"footway","name":null,"category":"Footpath (pedestrian only)"},"geometry":{"type":"MultiLineString","coordinates":[[[0.2493995,51.5562298],[0.2493996,51.5562526],[0.2493992,51.5562772]]]}},
{"type":"Feature","properties":{"highway":"footway","name":null,"category":"Footpath (pedestrian only)"},"geometry":{"type":"MultiLineString","coordinates":[[[0.2489469,51.5560987],[0.2488911,51.5560946]]]}},
{"type":"Feature","properties":{"highway":"footway","name":null,"category":"Footpath (pedestrian only)"},"geometry":{"type":"MultiLineString","coordinates":[[[0.2493992,51.5562772],[0.2493972,51.5563051],[0.2494224,51.5563124]]]}},
{"type":"Feature","properties":{"highway":"footway","name":null,"category":"Footpath (pedestrian only)"},"geometry":{"type":"MultiLineString","coordinates":[[[0.2490695,51.5560629],[0.2490289,51.5560705],[0.2489806,51.5560776]]]}},
{"type":"Feature","properties":{"highway":"footway","name":null,"category":"Footpath (pedestrian only)"},"geometry":{"type":"MultiLineString","coordinates":[[[0.24947,51.556208],[0.24947,51.5562173],[0.2493996,51.5562168],[0.2493995,51.5562298]]]}},
{"type":"Feature","properties":{"highway":"footway","name":null,"category":"Footpath (pedestrian only)"},"geometry":{"type":"MultiLineString","coordinates":[[[0.2489604,51.5561721],[0.2489596,51.5561851],[0.2488799,51.5561834],[0.2488792,51.5561949]]]}},
{"type":"Feature","properties":{"highway":"footway","name":null,"category":"Footpath (pedestrian only)"},"geometry":{"type":"MultiLineString","coordinates":[[[0.2489806,51.5560776],[0.2489651,51.5561032],[0.2489469,51.5560987]]]}},
{"type":"Feature","properties":{"highway":"footway","name":"Upminster Road","category":"Footpath (pedestrian only)"},"geometry":{"type":"MultiLineString","coordinates":[[[0.2358891,51.5590734],[0.2365757,51.5589503]]]}},
{"type":"Feature","properties":{"highway":"footway","name":null,"category":"Footpath (pedestrian only)"},"geometry":{"type":"MultiLineString","coordinates":[[[0.2358506,51.5590608],[0.2358349,51.5590291],[0.23582,51.5589992]]]}},
{"type":"Feature","properties":{"highway":"footway","name":"Minster Way","category":"Footpath (pedestrian only)"},"geometry":{"type":"MultiLineString","coordinates":[[[0.2327214,51.5620162],[0.2327873,51.5620046],[0.2329069,51.5619944],[0.2330397,51.561978],[0.2331374,51.5619569],[0.233291,51.5619037],[0.2338826,51.5616969],[0.2341822,51.5615925],[0.2345235,51.5614595],[0.2347441,51.5613497],[0.2349658,51.5612268],[0.2352018,51.5610952],[0.2354158,51.5609798],[0.2356298,51.5608632],[0.2358317,51.5607526],[0.2359777,51.5606667],[0.2360545,51.5606019],[0.2360863,51.5605677],[0.2361018,51.5605461],[0.2361138,51.5604906],[0.2361182,51.5604299],[0.2360962,51.5603787],[0.2359371,51.5600703],[0.2358372,51.5598813],[0.235711,51.5596603],[0.2356513,51.5595357],[0.2356342,51.5594999],[0.2355464,51.5593212],[0.2354783,51.5592181],[0.2354575,51.5591751],[0.2354641,51.5591513]]]}},
{"type":"Feature","properties":{"highway":"footway","name":null,"category":"Footpath (pedestrian only)"},"geometry":{"type":"MultiLineString","coordinates":[[[0.2465451,51.5550333],[0.2466755,51.5551071],[0.2468484,51.5551192]]]}},
{"type":"Feature","properties":{"highway":"footway","name":null,"category":"Footpath (pedestrian only)"},"geometry":{"type":"MultiLineString","coordinates":[[[0.2546474,51.5557195],[0.25358,51.5556262]]]}},
{"type":"Feature","properties":{"highway":"footway","name":null,"category":"Footpath (pedestrian only)"},"geometry":{"type":"MultiLineString","coordinates":[[[0.2552118,51.5565463],[0.2551457,51.5566629]]]}},
{"type":"Feature","properties":{"highway":"footway","name":null,"category":"Footpath (pedestrian only)"},"geometry":{"type":"MultiLineString","coordinates":[[[0.2548965,51.5569423],[0.2548753,51.5569779],[0.2548561,51.5570093]]]}},
{"type":"Feature","properties":{"highway":"footway","name":null,"category":"Footpath (pedestrian only)"},"geometry":{"type":"MultiLineString","coordinates":[[[0.2507384,51.5592387],[0.2507374,51.5592206]]]}},
{"type":"Feature","properties":{"highway":"footway","name":null,"category":"Footpath (pedestrian only)"},"geometry":{"type":"MultiLineString","coordinates":[[[0.2507088,51.5588592],[0.2507073,51.5588385]]]}},
{"type":"Feature","properties":{"highway":"footway","name":null,"category":"Footpath (pedestrian only)"},"geometry":{"type":"MultiLineString","coordinates":[[[0.2507148,51.55894],[0.2507088,51.5588592]]]}},
{"type":"Feature","properties":{"highway":"footway","name":null,"category":"Footpath (pedestrian only)"},"geometry":{"type":"MultiLineString","coordinates":[[[0.2507197,51.559],[0.2507177,51.5589794],[0.2507148,51.55894]]]}},
{"type":"Feature","properties":{"highway":"footway","name":null,"category":"Footpath (pedestrian only)"},"geometry":{"type":"MultiLineString","coordinates":[[[0.2507276,51.5590807],[0.2507214,51.5590177],[0.2507197,51.559]]]}},
{"type":"Feature","properties":{"highway":"footway","name":null,"category":"Footpath (pedestrian only)"},"geometry":{"type":"MultiLineString","coordinates":[[[0.2507327,51.5591398],[0.2507313,51.5591239],[0.2507276,51.5590807]]]}},
{"type":"Feature","properties":{"highway":"footway","name":null,"category":"Footpath (pedestrian only)"},"geometry":{"type":"MultiLineString","coordinates":[[[0.2507374,51.5592206],[0.2507327,51.5591398]]]}},
{"type":"Feature","properties":{"highway":"footway","name":null,"category":"Footpath (pedestrian only)"},"geometry":{"type":"MultiLineString","coordinates":[[[0.2507214,51.5590177],[0.2504911,51.5590219],[0.2504776,51.5590223],[0.2503975,51.5590236]]]}},
{"type":"Feature","properties":{"highway":"footway","name":null,"category":"Footpath (pedestrian only)"},"geometry":{"type":"MultiLineString","coordinates":[[[0.2515432,51.5586375],[0.2515533,51.5587324]]]}},
{"type":"Feature","properties":{"highway":"footway","name":"Upminster Road","category":"Footpath (pedestrian only)"},"geometry":{"type":"MultiLineString","coordinates":[[[0.2366705,51.5589338],[0.2378586,51.5587324],[0.2382947,51.5586597],[0.2385012,51.5586303]]]}},
{"type":"Feature","properties":{"highway":"footway","name":"Upminster Road","category":"Footpath (pedestrian only)"},"geometry":{"type":"MultiLineString","coordinates":[[[0.2399319,51.5583005],[0.2402629,51.5582242]]]}},
{"type":"Feature","properties":{"highway":"footway","name":"Upminster Road","category":"Footpath (pedestrian only)"},"geometry":{"type":"MultiLineString","coordinates":[[[0.2394778,51.5584059],[0.2399319,51.5583005]]]}},
{"type":"Feature","properties":{"highway":"footway","name":"Upminster Road","category":"Footpath (pedestrian only)"},"geometry":{"type":"MultiLineString","coordinates":[[[0.2358396,51.558962],[0.2360508,51.5589225],[0.2364183,51.5588542],[0.236547,51.5588608],[0.2376413,51.5586707],[0.2376456,51.5586504]]]}},
{"type":"Feature","properties":{"highway":"footway","name":null,"category":"Footpath (pedestrian only)"},"geometry":{"type":"MultiLineString","coordinates":[[[0.2376787,51.5586453],[0.2377364,51.5586363],[0.2377792,51.5586297]]]}},
{"type":"Feature","properties":{"highway":"footway","name":"Upminster Road","category":"Footpath (pedestrian only)"},"geometry":{"type":"MultiLineString","coordinates":[[[0.2378157,51.558624],[0.2378586,51.5586457],[0.2379364,51.558639],[0.2384498,51.5585447],[0.2386037,51.5585267],[0.2386399,51.5585178],[0.238906,51.5584528],[0.2390132,51.5584388],[0.2390763,51.5584306],[0.2393955,51.5583622],[0.2395029,51.5583373]]]}},
{"type":"Feature","properties":{"highway":"footway","name":"Upminster Road","category":"Footpath (pedestrian only)"},"geometry":{"type":"MultiLineString","coordinates":[[[0.2395491,51.5583139],[0.2395029,51.5583373]]]}},
{"type":"Feature","properties":{"highway":"footway","name":null,"category":"Footpath (pedestrian only)"},"geometry":{"type":"MultiLineString","coordinates":[[[0.2384957,51.5586201],[0.238476,51.5585871],[0.2384584,51.5585577]]]}},
{"type":"Feature","properties":{"highway":"footway","name":null,"category":"Footpath (pedestrian only)"},"geometry":{"type":"MultiLineString","coordinates":[[[0.2397538,51.5582387],[0.2398362,51.558219],[0.239913,51.5582006]]]}},
{"type":"Feature","properties":{"highway":"footway","name":"Bridge Avenue","category":"Footpath (pedestrian only)"},"geometry":{"type":"MultiLineString","coordinates":[[[0.2406197,51.5580413],[0.2406101,51.5580156],[0.2406063,51.5580055],[0.2405127,51.5578394],[0.2404682,51.5577604],[0.240377,51.5575978],[0.2402684,51.557446],[0.2401718,51.5573151],[0.2401155,51.5572284],[0.240082,51.5571834],[0.2400685,51.5571383],[0.2400229,51.5570108],[0.23998,51.5568782],[0.2399519,51.5567665],[0.2398499,51.5564354],[0.2397655,51.5561603],[0.2396131,51.5556573],[0.2395914,51.5555858]]]}},
{"type":"Feature","properties":{"highway":"footway","name":"Upminster Road","category":"Footpath (pedestrian only)"},"geometry":{"type":"MultiLineString","coordinates":[[[0.2385012,51.5586303],[0.2385184,51.5586224],[0.2386421,51.5586005],[0.2387169,51.5585873],[0.2388912,51.5585507],[0.2393714,51.5584306],[0.2394704,51.5584076],[0.2394778,51.5584059]]]}},
{"type":"Feature","properties":{"highway":"footway","name":null,"category":"Footpath (pedestrian only)"},"geometry":{"type":"MultiLineString","coordinates":[[[0.2395914,51.5555858],[0.2395398,51.5555786],[0.2393654,51.555592],[0.2389765,51.555617],[0.238943,51.5556145],[0.2388183,51.5555903],[0.2386506,51.5555136],[0.2386511,51.5554798]]]}},
{"type":"Feature","properties":{"highway":"footway","name":"Bridge Avenue","category":"Footpath (pedestrian only)"},"geometry":{"type":"MultiLineString","coordinates":[[[0.2395914,51.5555858],[0.2395897,51.5555802]]]}},
{"type":"Feature","properties":{"highway":"footway","name":null,"category":"Footpath (pedestrian only)"},"geometry":{"type":"MultiLineString","coordinates":[[[0.2386449,51.5554749],[0.2386652,51.5554114],[0.2385825,51.5552285],[0.2384833,51.5551909]]]}},
{"type":"Feature","properties":{"highway":"footway","name":null,"category":"Footpath (pedestrian only)"},"geometry":{"type":"MultiLineString","coordinates":[[[0.2473257,51.5549714],[0.2473481,51.555012]]]}},
{"type":"Feature","properties":{"highway":"footway","name":null,"category":"Footpath (pedestrian only)"},"geometry":{"type":"MultiLineString","coordinates":[[[0.2477219,51.5548847],[0.2477454,51.5549267]]]}},
{"type":"Feature","properties":{"highway":"footway","name":null,"category":"Footpath (pedestrian only)"},"geometry":{"type":"MultiLineString","coordinates":[[[0.2431146,51.5573865],[0.2432758,51.5574841],[0.2434944,51.5577824]]]}},
{"type":"Feature","properties":{"highway":"footway","name":null,"category":"Footpath (pedestrian only)"},"geometry":{"type":"MultiLineString","coordinates":[[[0.2438393,51.5571664],[0.2438799,51.5572151],[0.2440057,51.5572216],[0.2445531,51.5570218],[0.2446504,51.5569857]]]}},
{"type":"Feature","properties":{"highway":"footway","name":null,"category":"Footpath (pedestrian only)"},"geometry":{"type":"MultiLineString","coordinates":[[[0.2487608,51.5562731],[0.2488293,51.5562729],[0.2488742,51.55628],[0.2489301,51.5562887],[0.2489992,51.5563004],[0.2491065,51.5563477]]]}},
{"type":"Feature","properties":{"highway":"footway","name":null,"category":"Footpath (pedestrian only)"},"geometry":{"type":"MultiLineString","coordinates":[[[0.2492373,51.5560566],[0.2492755,51.5560984],[0.2493167,51.5561234],[0.2493921,51.5561364],[0.2494747,51.5561451]]]}},
{"type":"Feature","properties":{"highway":"footway","name":null,"category":"Footpath (pedestrian only)"},"geometry":{"type":"MultiLineString","coordinates":[[[0.2492373,51.5560566],[0.2492133,51.5560612]]]}},
{"type":"Feature","properties":{"highway":"footway","name":null,"category":"Footpath (pedestrian only)"},"geometry":{"type":"MultiLineString","coordinates":[[[0.2494747,51.5561451],[0.249473,51.556157]]]}},
{"type":"Feature","properties":{"highway":"footway","name":null,"category":"Footpath (pedestrian only)"},"geometry":{"type":"MultiLineString","coordinates":[[[0.2488763,51.5562708],[0.2488742,51.55628]]]}},
{"type":"Feature","properties":{"highway":"footway","name":null,"category":"Footpath (pedestrian only)"},"geometry":{"type":"MultiLineString","coordinates":[[[0.2492794,51.5563429],[0.249326,51.5563328],[0.2493709,51.556323]]]}},
{"type":"Feature","properties":{"highway":"footway","name":null,"category":"Footpath (pedestrian only)"},"geometry":{"type":"MultiLineString","coordinates":[[[0.249121,51.556343],[0.2491684,51.5563279],[0.2492205,51.5563134]]]}},
{"type":"Feature","properties":{"highway":"footway","name":null,"category":"Footpath (pedestrian only)"},"geometry":{"type":"MultiLineString","coordinates":[[[0.2491065,51.5563477],[0.249121,51.556343]]]}},
{"type":"Feature","properties":{"highway":"footway","name":null,"category":"Footpath (pedestrian only)"},"geometry":{"type":"MultiLineString","coordinates":[[[0.2487632,51.5566016],[0.2488367,51.5565735],[0.248836,51.556426],[0.2488293,51.5562729]]]}},
{"type":"Feature","properties":{"highway":"footway","name":"Upminster Road","category":"Footpath (pedestrian only)"},"geometry":{"type":"MultiLineString","coordinates":[[[0.2354641,51.5591513],[0.2358891,51.5590734]]]}},
{"type":"Feature","properties":{"highway":"footway","name":null,"category":"Footpath (pedestrian only)"},"geometry":{"type":"MultiLineString","coordinates":[[[0.2515533,51.5587324],[0.2515624,51.5588064]]]}},
{"type":"Feature","properties":{"highway":"footway","name":null,"category":"Footpath (pedestrian only)"},"geometry":{"type":"MultiLineString","coordinates":[[[0.2515624,51.5588064],[0.2515641,51.5588216]]]}},
{"type":"Feature","properties":{"highway":"footway","name":null,"category":"Footpath (pedestrian only)"},"geometry":{"type":"MultiLineString","coordinates":[[[0.2464977,51.5565099],[0.2465642,51.5565006],[0.2466389,51.5564879]]]}},
{"type":"Feature","properties":{"highway":"footway","name":null,"category":"Footpath (pedestrian only)"},"geometry":{"type":"MultiLineString","coordinates":[[[0.2501853,51.5581649],[0.2501714,51.5581368]]]}},
{"type":"Feature","properties":{"highway":"footway","name":null,"category":"Footpath (pedestrian only)"},"geometry":{"type":"MultiLineString","coordinates":[[[0.2503838,51.5587168],[0.2503884,51.5587633]]]}},
{"type":"Feature","properties":{"highway":"footway","name":"Station Road","category":"Footpath (pedestrian only)"},"geometry":{"type":"MultiLineString","coordinates":[[[0.2503884,51.5587633],[0.2504045,51.5588822]]]}},
{"type":"Feature","properties":{"highway":"footway","name":null,"category":"Footpath (pedestrian only)"},"geometry":{"type":"MultiLineString","coordinates":[[[0.2504159,51.5589459],[0.2504796,51.5589426],[0.2504762,51.5589956],[0.2504776,51.5590223]]]}},
{"type":"Feature","properties":{"highway":"footway","name":null,"category":"Footpath (pedestrian only)"},"geometry":{"type":"MultiLineString","coordinates":[[[0.2504045,51.5588822],[0.2504159,51.5589459]]]}},
{"type":"Feature","properties":{"highway":"footway","name":null,"category":"Footpath (pedestrian only)"},"geometry":{"type":"MultiLineString","coordinates":[[[0.2358396,51.558962],[0.23582,51.5589992]]]}},
{"type":"Feature","properties":{"highway":"footway","name":null,"category":"Footpath (pedestrian only)"},"geometry":{"type":"MultiLineString","coordinates":[[[0.229983,51.5600124],[0.2303769,51.5599523],[0.2307681,51.5598906],[0.2312869,51.5597861]]]}},
{"type":"Feature","properties":{"highway":"footway","name":null,"category":"Footpath (pedestrian only)"},"geometry":{"type":"MultiLineString","coordinates":[[[0.230028,51.5601319],[0.230452,51.5600534],[0.2312529,51.559905]]]}},
{"type":"Feature","properties":{"highway":"footway","name":null,"category":"Footpath (pedestrian only)"},"geometry":{"type":"MultiLineString","coordinates":[[[0.2365757,51.5589503],[0.2366218,51.5589421],[0.2366705,51.5589338]]]}},
{"type":"Feature","properties":{"highway":"footway","name":null,"category":"Footpath (pedestrian only)"},"geometry":{"type":"MultiLineString","coordinates":[[[0.2354348,51.5591572],[0.2353872,51.5591668]]]}},
{"type":"Feature","properties":{"highway":"footway","name":null,"category":"Footpath (pedestrian only)"},"geometry":{"type":"MultiLineString","coordinates":[[[0.2508888,51.5592325],[0.2508865,51.5592181]]]}},
{"type":"Feature","properties":{"highway":"footway","name":null,"category":"Footpath (pedestrian only)"},"geometry":{"type":"MultiLineString","coordinates":[[[0.2508375,51.5588343],[0.2508385,51.5588863]]]}},
{"type":"Feature","properties":{"highway":"path","name":null,"category":"Shared path"},"geometry":{"type":"MultiLineString","coordinates":[[[0.2482255,51.5562324],[0.2481229,51.5558222]]]}},
{"type":"Feature","properties":{"highway":"footway","name":null,"category":"Footpath (pedestrian only)"},"geometry":{"type":"MultiLineString","coordinates":[[[0.2406625,51.5580009],[0.2406281,51.5580109]]]}},
{"type":"Feature","properties":{"highway":"footway","name":"Upminster Road","category":"Footpath (pedestrian only)"},"geometry":{"type":"MultiLineString","coordinates":[[[0.2354641,51.5591513],[0.2354348,51.5591572]]]}},
{"type":"Feature","properties":{"highway":"footway","name":null,"category":"Footpath (pedestrian only)"},"geometry":{"type":"MultiLineString","coordinates":[[[0.2358891,51.5590734],[0.2358506,51.5590608]]]}},
{"type":"Feature","properties":{"highway":"footway","name":null,"category":"Footpath (pedestrian only)"},"geometry":{"type":"MultiLineString","coordinates":[[[0.2377792,51.5586297],[0.2378157,51.558624]]]}},
{"type":"Feature","properties":{"highway":"footway","name":null,"category":"Footpath (pedestrian only)"},"geometry":{"type":"MultiLineString","coordinates":[[[0.2376456,51.5586504],[0.2376787,51.5586453]]]}},
{"type":"Feature","properties":{"highway":"footway","name":null,"category":"Footpath (pedestrian only)"},"geometry":{"type":"MultiLineString","coordinates":[[[0.2384584,51.5585577],[0.2384498,51.5585447]]]}},
{"type":"Feature","properties":{"highway":"footway","name":null,"category":"Footpath (pedestrian only)"},"geometry":{"type":"MultiLineString","coordinates":[[[0.2385012,51.5586303],[0.2384957,51.5586201]]]}},
{"type":"Feature","properties":{"highway":"footway","name":null,"category":"Footpath (pedestrian only)"},"geometry":{"type":"MultiLineString","coordinates":[[[0.2395897,51.5555802],[0.2395827,51.555557]]]}},
{"type":"Feature","properties":{"highway":"footway","name":null,"category":"Footpath (pedestrian only)"},"geometry":{"type":"MultiLineString","coordinates":[[[0.2406281,51.5580109],[0.2406101,51.5580156]]]}},
{"type":"Feature","properties":{"highway":"footway","name":null,"category":"Footpath (pedestrian only)"},"geometry":{"type":"MultiLineString","coordinates":[[[0.2402629,51.5582242],[0.240318,51.5582115]]]}},
{"type":"Feature","properties":{"highway":"footway","name":"Upminster Road","category":"Footpath (pedestrian only)"},"geometry":{"type":"MultiLineString","coordinates":[[[0.239913,51.5582006],[0.2399438,51.5582098],[0.2402308,51.5581439],[0.2405808,51.558058],[0.2406197,51.5580413]]]}},
{"type":"Feature","properties":{"highway":"footway","name":"Bridge Avenue","category":"Footpath (pedestrian only)"},"geometry":{"type":"MultiLineString","coordinates":[[[0.2396797,51.5556492],[0.2396131,51.5556573],[0.2389505,51.5557408]]]}}
]
}
