{
"type": "FeatureCollection",
"name": "HAVER_24_walking",
"crs": { "type": "name", "properties": { "name": "urn:ogc:def:crs:OGC:1.3:CRS84" } },
"features": [
{"type":"Feature","properties":{"highway":"path","name":null,"category":"Shared path"},"geometry":{"type":"MultiLineString","coordinates":[[[0.203483,51.57923],[0.2035017,51.5793323],[0.2060791,51.5802139]]]}},
{"type":"Feature","properties":{"highway":"footway","name":null,"category":"Footpath (pedestrian only)"},"geometry":{"type":"MultiLineString","coordinates":[[[0.2033288,51.5765997],[0.2033517,51.5761486],[0.2034282,51.5761401]]]}},
{"type":"Feature","properties":{"highway":"footway","name":null,"category":"Footpath (pedestrian only)"},"geometry":{"type":"MultiLineString","coordinates":[[[0.2061103,51.5814742],[0.2061485,51.5815677],[0.2078794,51.5823813],[0.2086605,51.5827173],[0.2090098,51.5828569]]]}},
{"type":"Feature","properties":{"highway":"footway","name":null,"category":"Footpath (pedestrian only)"},"geometry":{"type":"MultiLineString","coordinates":[[[0.2128279,51.577565],[0.2131399,51.5775713],[0.2135913,51.5775107]]]}},
{"type":"Feature","properties":{"highway":"footway","name":null,"category":"Footpath (pedestrian only)"},"geometry":{"type":"MultiLineString","coordinates":[[[0.2150678,51.5754995],[0.2154476,51.5756072],[0.2156284,51.575664],[0.2159497,51.5757991],[0.2167646,51.5758358]]]}},
{"type":"Feature","properties":{"highway":"footway","name":null,"category":"Footpath (pedestrian only)"},"geometry":{"type":"MultiLineString","coordinates":[[[0.2135913,51.5775107],[0.2137906,51.5774483]]]}},
{"type":"Feature","properties":{"highway":"footway","name":null,"category":"Footpath (pedestrian only)"},"geometry":{"type":"MultiLineString","coordinates":[[[0.2137906,51.5774483],[0.2142374,51.5772982],[0.2145635,51.5771115],[0.2148639,51.5770475],[0.2151897,51.5770365],[0.215336,51.5770315],[0.215439,51.5769941],[0.2155506,51.5768554],[0.2155077,51.5766314],[0.215336,51.576322],[0.2152073,51.5760713],[0.2150678,51.5754995],[0.21505,51.5754722],[0.2150059,51.57541],[0.2149027,51.5753412],[0.2137207,51.5748296],[0.2136194,51.5747446]]]}},
{"type":"Feature","properties":{"highway":"footway","name":null,"category":"Footpath (pedestrian only)"},"geometry":{"type":"MultiLineString","coordinates":[[[0.2196976,51.5689314],[0.2197515,51.5689082],[0.2197393,51.5688948]]]}},
{"type":"Feature","properties":{"highway":"footway","name":null,"category":"Footpath (pedestrian only)"},"geometry":{"type":"MultiLineString","coordinates":[[[0.2046033,51.5778368],[0.2046023,51.5783271]]]}},
{"type":"Feature","properties":{"highway":"footway","name":null,"category":"Footpath (pedestrian only)"},"geometry":{"type":"MultiLineString","coordinates":[[[0.2213804,51.5820185],[0.2213955,51.5820134],[0.2218927,51.581845],[0.2220758,51.5820071]]]}},
{"type":"Feature","properties":{"highway":"track","name":null,"category":"Track"},"geometry":{"type":"MultiLineString","coordinates":[[[0.2070928,51.5725352],[0.2070793,51.5724698],[0.207311,51.5719992],[0.2073405,51.5719463],[0.2073894,51.5719084],[0.2086549,51.5715632],[0.2090268,51.5714611],[0.2094157,51.5713805]]]}},
{"type":"Feature","properties":{"highway":"footway","name":null,"category":"Footpath (pedestrian only)"},"geometry":{"type":"MultiLineString","coordinates":[[[0.2197393,51.5688948],[0.2197299,51.568611]]]}},
{"type":"Feature","properties":{"highway":"track","name":null,"category":"Track"},"geometry":{"type":"MultiLineString","coordinates":[[[0.2085602,51.5714327],[0.2085595,51.5714209],[0.20858,51.5714091],[0.2081664,51.5707771]]]}},
{"type":"Feature","properties":{"highway":"footway","name":null,"category":"Footpath (pedestrian only)"},"geometry":{"type":"MultiLineString","coordinates":[[[0.2197515,51.5689082],[0.2197739,51.568899],[0.2202421,51.5687072],[0.2202552,51.5686975],[0.2202607,51.5686864],[0.2202587,51.5686762]]]}},
{"type":"Feature","properties":{"highway":"footway","name":null,"category":"Footpath (pedestrian only)"},"geometry":{"type":"MultiLineString","coordinates":[[[0.2197299,51.568611],[0.2197712,51.5685138],[0.219764,51.5684941],[0.2197474,51.5684758],[0.219718,51.5684625]]]}},
{"type":"Feature","properties":{"highway":"footway","name":null,"category":"Footpath (pedestrian only)"},"geometry":{"type":"MultiLineString","coordinates":[[[0.2213804,51.5820185],[0.2211966,51.581991],[0.2212615,51.5817417],[0.2212304,51.5817356],[0.2211957,51.581702],[0.2209599,51.5816085],[0.2204379,51.581683]]]}},
{"type":"Feature","properties":{"highway":"footway","name":null,"category":"Footpath (pedestrian only)"},"geometry":{"type":"MultiLineString","coordinates":[[[0.2209599,51.5816085],[0.2212333,51.5816161],[0.2212466,51.5816022]]]}},
{"type":"Feature","properties":{"highway":"footway","name":null,"category":"Footpath (pedestrian only)"},"geometry":{"type":"MultiLineString","coordinates":[[[0.2212333,51.5816161],[0.2211957,51.581702]]]}},
{"type":"Feature","properties":{"highway":"footway","name":null,"category":"Footpath (pedestrian only)"},"geometry":{"type":"MultiLineString","coordinates":[[[0.2209599,51.5816085],[0.2210047,51.5815782],[0.2210514,51.5813786]]]}},
{"type":"Feature","properties":{"highway":"footway","name":null,"category":"Footpath (pedestrian only)"},"geometry":{"type":"MultiLineString","coordinates":[[[0.2212999,51.5811001],[0.2212262,51.5813697],[0.2210514,51.5813786],[0.2203767,51.5814137]]]}},
{"type":"Feature","properties":{"highway":"footway","name":null,"category":"Footpath (pedestrian only)"},"geometry":{"type":"MultiLineString","coordinates":[[[0.221678,51.5811285],[0.2218909,51.5808329],[0.2219011,51.5806965],[0.221897,51.5805247],[0.2218157,51.580406],[0.2216133,51.5801586]]]}},
{"type":"Feature","properties":{"highway":"footway","name":null,"category":"Footpath (pedestrian only)"},"geometry":{"type":"MultiLineString","coordinates":[[[0.2208905,51.5824283],[0.2209412,51.5823062],[0.2212845,51.5823228],[0.2213955,51.5820134],[0.2220758,51.5820071],[0.2222635,51.5820062],[0.2222702,51.5822044],[0.2228348,51.5821878],[0.2229892,51.5816845],[0.2230199,51.5815845],[0.2230754,51.5813608],[0.2231862,51.5809145],[0.2231487,51.5808545],[0.2231728,51.5807728],[0.2226417,51.5807095],[0.2224943,51.5806975]]]}},
{"type":"Feature","properties":{"highway":"footway","name":null,"category":"Footpath (pedestrian only)"},"geometry":{"type":"MultiLineString","coordinates":[[[0.2230754,51.5813608],[0.2223558,51.5812859]]]}},
{"type":"Feature","properties":{"highway":"footway","name":null,"category":"Footpath (pedestrian only)"},"geometry":{"type":"MultiLineString","coordinates":[[[0.2229892,51.5816845],[0.2226054,51.5816423],[0.2222368,51.5816017],[0.2219677,51.5815721],[0.2218927,51.581845]]]}},
{"type":"Feature","properties":{"highway":"footway","name":null,"category":"Footpath (pedestrian only)"},"geometry":{"type":"MultiLineString","coordinates":[[[0.2222635,51.5820062],[0.2225024,51.5819857],[0.2226054,51.5816423]]]}},
{"type":"Feature","properties":{"highway":"footway","name":null,"category":"Footpath (pedestrian only)"},"geometry":{"type":"MultiLineString","coordinates":[[[0.21674,51.5762619],[0.2176788,51.5762002],[0.2186965,51.5760931]]]}},
{"type":"Feature","properties":{"highway":"path","name":null,"category":"Shared path"},"geometry":{"type":"MultiLineString","coordinates":[[[0.212211,51.5753948],[0.2119989,51.5753473],[0.2119104,51.5752589],[0.2118701,51.5751456],[0.2118395,51.5750159]]]}},
{"type":"Feature","properties":{"highway":"footway","name":null,"category":"Footpath (pedestrian only)"},"geometry":{"type":"MultiLineString","coordinates":[[[0.2085795,51.5715113],[0.2085711,51.5715],[0.208563,51.5714892]]]}},
{"type":"Feature","properties":{"highway":"footway","name":null,"category":"Footpath (pedestrian only)"},"geometry":{"type":"MultiLineString","coordinates":[[[0.2094157,51.5713805],[0.2097974,51.5712961],[0.2101006,51.5716183]]]}},
{"type":"Feature","properties":{"highway":"footway","name":null,"category":"Footpath (pedestrian only)"},"geometry":{"type":"MultiLineString","coordinates":[[[0.206607,51.5726926],[0.206843,51.5729541],[0.2068156,51.5730136],[0.206756,51.5730769],[0.206439,51.5732941],[0.2062329,51.5734358],[0.2061954,51.5734957]]]}},
{"type":"Feature","properties":{"highway":"footway","name":"Brierley Close","category":"Footpath (pedestrian only)"},"geometry":{"type":"MultiLineString","coordinates":[[[0.2066606,51.5743773],[0.2063002,51.5746188],[0.2062825,51.5746436],[0.2063508,51.5746939],[0.2063405,51.574715]]]}},
{"type":"Feature","properties":{"highway":"footway","name":null,"category":"Footpath (pedestrian only)"},"geometry":{"type":"MultiLineString","coordinates":[[[0.2063405,51.574715],[0.2052912,51.5751424]]]}},
{"type":"Feature","properties":{"highway":"footway","name":null,"category":"Footpath (pedestrian only)"},"geometry":{"type":"MultiLineString","coordinates":[[[0.208563,51.5714892],[0.2085602,51.5714327]]]}},
{"type":"Feature","properties":{"highway":"footway","name":null,"category":"Footpath (pedestrian only)"},"geometry":{"type":"MultiLineString","coordinates":[[[0.2086549,51.5715632],[0.2086369,51.5715407],[0.2086308,51.5715323],[0.208601,51.5715407],[0.2085795,51.5715113]]]}},
{"type":"Feature","properties":{"highway":"footway","name":null,"category":"Footpath (pedestrian only)"},"geometry":{"type":"MultiLineString","coordinates":[[[0.2086308,51.5715323],[0.2086588,51.5715227]]]}},
{"type":"Feature","properties":{"highway":"footway","name":null,"category":"Footpath (pedestrian only)"},"geometry":{"type":"MultiLineString","coordinates":[[[0.2195861,51.5684603],[0.2195522,51.56847],[0.219514,51.5684821]]]}},
{"type":"Feature","properties":{"highway":"footway","name":null,"category":"Footpath (pedestrian only)"},"geometry":{"type":"MultiLineString","coordinates":[[[0.219718,51.5684625],[0.2196802,51.5684597],[0.2196411,51.5684588]]]}},
{"type":"Feature","properties":{"highway":"footway","name":null,"category":"Footpath (pedestrian only)"},"geometry":{"type":"MultiLineString","coordinates":[[[0.2196411,51.5684588],[0.2195861,51.5684603]]]}},
{"type":"Feature","properties":{"highway":"footway","name":null,"category":"Footpath (pedestrian only)"},"geometry":{"type":"MultiLineString","coordinates":[[[0.2103122,51.5760964],[0.2103751,51.5761212],[0.2104362,51.5761453]]]}},
{"type":"Feature","properties":{"highway":"footway","name":null,"category":"Footpath (pedestrian only)"},"geometry":{"type":"MultiLineString","coordinates":[[[0.2081144,51.5778466],[0.2081772,51.577871],[0.2082396,51.5778952]]]}},
{"type":"Feature","properties":{"highway":"footway","name":null,"category":"Footpath (pedestrian only)"},"geometry":{"type":"MultiLineString","coordinates":[[[0.2082798,51.5783551],[0.2083094,51.5782739],[0.2083259,51.5782287]]]}},
{"type":"Feature","properties":{"highway":"footway","name":null,"category":"Footpath (pedestrian only)"},"geometry":{"type":"MultiLineString","coordinates":[[[0.2079459,51.5785097],[0.2080152,51.5784974],[0.2080812,51.5784856]]]}},
{"type":"Feature","properties":{"highway":"footway","name":null,"category":"Footpath (pedestrian only)"},"geometry":{"type":"MultiLineString","coordinates":[[[0.207596,51.5783948],[0.2076687,51.5784242],[0.2077304,51.5784491]]]}},
{"type":"Feature","properties":{"highway":"footway","name":null,"category":"Footpath (pedestrian only)"},"geometry":{"type":"MultiLineString","coordinates":[[[0.2075386,51.5780966],[0.2075219,51.5781387],[0.2075051,51.5781809]]]}},
{"type":"Feature","properties":{"highway":"footway","name":null,"category":"Footpath (pedestrian only)"},"geometry":{"type":"MultiLineString","coordinates":[[[0.2078729,51.5779275],[0.2078009,51.5779465],[0.2077351,51.5779638]]]}},
{"type":"Feature","properties":{"highway":"footway","name":null,"category":"Footpath (pedestrian only)"},"geometry":{"type":"MultiLineString","coordinates":[[[0.2076951,51.5784863],[0.2077304,51.5784491],[0.2077481,51.5784401],[0.2077725,51.5784342],[0.2078134,51.5784325],[0.2078587,51.5784369],[0.2078902,51.5784454],[0.2079083,51.5784573],[0.2079204,51.5784719],[0.2079459,51.5785097],[0.207971,51.5785571]]]}},
{"type":"Feature","properties":{"highway":"footway","name":null,"category":"Footpath (pedestrian only)"},"geometry":{"type":"MultiLineString","coordinates":[[[0.2074096,51.5781662],[0.2075051,51.5781809],[0.2075492,51.5781898],[0.2075836,51.5781996],[0.207604,51.5782092],[0.2076212,51.5782207],[0.2076361,51.5782368],[0.2076448,51.5782552],[0.2076501,51.5782767],[0.207649,51.5782978],[0.2076421,51.578321],[0.2076309,51.5783433],[0.2076139,51.5783703],[0.207596,51.5783948],[0.2075554,51.5784507]]]}},
{"type":"Feature","properties":{"highway":"footway","name":null,"category":"Footpath (pedestrian only)"},"geometry":{"type":"MultiLineString","coordinates":[[[0.2080972,51.5785278],[0.2080812,51.5784856],[0.2080614,51.578433],[0.2082798,51.5783551],[0.2083547,51.5783283],[0.2086358,51.5783632]]]}},
{"type":"Feature","properties":{"highway":"footway","name":null,"category":"Footpath (pedestrian only)"},"geometry":{"type":"MultiLineString","coordinates":[[[0.2084853,51.5782563],[0.2083671,51.5782394],[0.2083259,51.5782287],[0.2083047,51.5782147],[0.2082905,51.5781972],[0.2081985,51.5780525],[0.2081888,51.5780291],[0.2081853,51.5780093],[0.2081848,51.5779909],[0.2081875,51.5779673],[0.2081932,51.577948],[0.2082025,51.5779337],[0.208216,51.577918],[0.2082396,51.5778952],[0.2082861,51.577851]]]}},
{"type":"Feature","properties":{"highway":"footway","name":null,"category":"Footpath (pedestrian only)"},"geometry":{"type":"MultiLineString","coordinates":[[[0.2081645,51.5777972],[0.2081144,51.5778466],[0.2080301,51.5779284],[0.2080109,51.5779394],[0.2079862,51.5779463],[0.207962,51.5779499],[0.2079396,51.5779504],[0.207918,51.577948],[0.2079015,51.577943],[0.2078853,51.5779358],[0.2078729,51.5779275],[0.207858,51.5779133],[0.2078441,51.5778934]]]}},
{"type":"Feature","properties":{"highway":"footway","name":null,"category":"Footpath (pedestrian only)"},"geometry":{"type":"MultiLineString","coordinates":[[[0.2076876,51.5778827],[0.2077351,51.5779638],[0.2077455,51.5779855],[0.2077517,51.578002],[0.2077535,51.5780141],[0.2077521,51.5780292],[0.2077484,51.5780446],[0.2077397,51.5780594],[0.2077263,51.578073],[0.2077085,51.5780844],[0.2076864,51.578093],[0.2076609,51.5780992],[0.2076341,51.5781026],[0.2076027,51.5781038],[0.207572,51.5781019],[0.2075386,51.5780966],[0.2074436,51.5780813]]]}},
{"type":"Feature","properties":{"highway":"footway","name":null,"category":"Footpath (pedestrian only)"},"geometry":{"type":"MultiLineString","coordinates":[[[0.2151897,51.5770365],[0.2152118,51.5772458],[0.2152336,51.5775047],[0.2152602,51.5775288],[0.2153305,51.5775394]]]}},
{"type":"Feature","properties":{"highway":"footway","name":null,"category":"Footpath (pedestrian only)"},"geometry":{"type":"MultiLineString","coordinates":[[[0.2083582,51.5697186],[0.20886,51.5695872],[0.2091333,51.5695157],[0.2091634,51.5694199],[0.2095164,51.5693927],[0.2098275,51.5693688]]]}},
{"type":"Feature","properties":{"highway":"footway","name":null,"category":"Footpath (pedestrian only)"},"geometry":{"type":"MultiLineString","coordinates":[[[0.2095164,51.5693927],[0.2095977,51.5694408],[0.2096459,51.5695059],[0.2097024,51.5695196],[0.2098565,51.5695132]]]}},
{"type":"Feature","properties":{"highway":"track","name":null,"category":"Track"},"geometry":{"type":"MultiLineString","coordinates":[[[0.227283,51.5739138],[0.2274519,51.5743662],[0.2276415,51.5747039],[0.2278639,51.5751295],[0.2279722,51.5751872]]]}},
{"type":"Feature","properties":{"highway":"track","name":null,"category":"Track"},"geometry":{"type":"MultiLineString","coordinates":[[[0.2114995,51.5771767],[0.211661,51.5773492],[0.2118643,51.5774453]]]}},
{"type":"Feature","properties":{"highway":"path","name":null,"category":"Shared path"},"geometry":{"type":"MultiLineString","coordinates":[[[0.2113669,51.5749164],[0.2112958,51.5749522],[0.2112452,51.5751725],[0.2112772,51.5752061]]]}},
{"type":"Feature","properties":{"highway":"path","name":null,"category":"Shared path"},"geometry":{"type":"MultiLineString","coordinates":[[[0.2197667,51.5678552],[0.2197926,51.5678948],[0.219846,51.5679047]]]}},
{"type":"Feature","properties":{"highway":"footway","name":null,"category":"Footpath (pedestrian only)"},"geometry":{"type":"MultiLineString","coordinates":[[[0.2113295,51.5834245],[0.2117568,51.5836206]]]}},
{"type":"Feature","properties":{"highway":"footway","name":null,"category":"Footpath (pedestrian only)"},"geometry":{"type":"MultiLineString","coordinates":[[[0.2119614,51.5837056],[0.2128003,51.5840577]]]}}
]
}
