{
"type": "FeatureCollection",
"name": "LEWIS_52_toilets",
"crs": { "type": "name", "properties": { "name": "urn:ogc:def:crs:OGC:1.3:CRS84" } },
"features": [
{ "type": "Feature", "properties": { "name": "Telegraph hill lower park toilet", "payment_info": "Free", "accessible": "False", "radar": "False", "women": "True", "men": "True", "baby_change": "Unknown", "Mon": "09:00-18:00", "Tue": "09:00-18:00", "Wed": "09:00-18:00", "Thu": "09:00-18:00", "Fri": "09:00-18:00", "Sat": "09:00-18:00", "Sun": "09:00-18:00", "index_right": 68, "park_offical_id": "LEWIS_52" }, "geometry": { "type": "Point", "coordinates": [ -0.045130849, 51.469033655 ] } },
{ "type": "Feature", "properties": { "name": "The Hill Station Caf", "payment_info": "Cost unknown", "accessible": "True", "radar": "False", "women": "Unknown", "men": "Unknown", "baby_change": "True", "Mon": "09:00-17:00", "Tue": "09:00-17:00", "Wed": "09:00-17:00", "Thu": "09:00-17:00", "Fri": "09:00-17:00", "Sat": "09:00-17:00", "Sun": "09:00-17:00", "index_right": 68, "park_offical_id": "LEWIS_52" }, "geometry": { "type": "Point", "coordinates": [ -0.044878721, 51.467837311 ] } },
{ "type": "Feature", "properties": { "name": "Camberwell New Cemetery", "payment_info": "Free", "accessible": "True", "radar": "Unknown", "women": "True", "men": "True", "baby_change": "True", "Mon": "Unknown", "Tue": "Unknown", "Wed": "Unknown", "Thu": "Unknown", "Fri": "Unknown", "Sat": "Unknown", "Sun": "Unknown", "index_right": 68, "park_offical_id": "LEWIS_52" }, "geometry": { "type": "Point", "coordinates": [ -0.046549737, 51.453502145 ] } },
{ "type": "Feature", "properties": { "name": "Honor Oak Crematorium", "payment_info": "Free", "accessible": "True", "radar": "Unknown", "women": "True", "men": "True", "baby_change": "True", "Mon": "Unknown", "Tue": "Unknown", "Wed": "Unknown", "Thu": "Unknown", "Fri": "Unknown", "Sat": "Unknown", "Sun": "Unknown", "index_right": 68, "park_offical_id": "LEWIS_52" }, "geometry": { "type": "Point", "coordinates": [ -0.043982863, 51.454180735 ] } }
]
}
