{
"type": "FeatureCollection",
"name": "LEWIS_16_toilets",
"crs": { "type": "name", "properties": { "name": "urn:ogc:def:crs:OGC:1.3:CRS84" } },
"features": [
{ "type": "Feature", "properties": { "name": "Lewisham Station", "payment_info": "Free", "accessible": "False", "radar": "True", "women": "Unknown", "men": "Unknown", "baby_change": "False", "Mon": "Unknown", "Tue": "Unknown", "Wed": "Unknown", "Thu": "Unknown", "Fri": "Unknown", "Sat": "Unknown", "Sun": "Unknown", "index_right": 22, "park_offical_id": "LEWIS_16" }, "geometry": { "type": "Point", "coordinates": [ -0.014017114, 51.465694707 ] } },
{ "type": "Feature", "properties": { "name": "Tesco Lewisham", "payment_info": "Free", "accessible": "False", "radar": "Unknown", "women": "True", "men": "True", "baby_change": "True", "Mon": "00:00-00:00", "Tue": "00:00-00:00", "Wed": "00:00-00:00", "Thu": "00:00-00:00", "Fri": "00:00-00:00", "Sat": "00:00-00:00", "Sun": "00:00-00:00", "index_right": 22, "park_offical_id": "LEWIS_16" }, "geometry": { "type": "Point", "coordinates": [ -0.012536645, 51.466447108 ] } },
{ "type": "Feature", "properties": { "name": "Greenwich", "payment_info": "Free", "accessible": "False", "radar": "True", "women": "Unknown", "men": "Unknown", "baby_change": "True", "Mon": "Unknown", "Tue": "Unknown", "Wed": "Unknown", "Thu": "Unknown", "Fri": "Unknown", "Sat": "Unknown", "Sun": "Unknown", "index_right": 22, "park_offical_id": "LEWIS_16" }, "geometry": { "type": "Point", "coordinates": [ -0.014209644, 51.477838475 ] } }
]
}
