{
"type": "FeatureCollection",
"name": "WALFO_123_cycling",
"crs": { "type": "name", "properties": { "name": "urn:ogc:def:crs:OGC:1.3:CRS84" } },
"features": [
{"type":"Feature","properties":{"highway":"cycleway","name":null,"category":"Dedicated cycleway"},"geometry":{"type":"MultiLineString","coordinates":[[[-0.0040304,51.6002725],[-0.0039347,51.600513]]]}},
{"type":"Feature","properties":{"highway":"cycleway","name":null,"category":"Dedicated cycleway"},"geometry":{"type":"MultiLineString","coordinates":[[[-0.0165138,51.6010789],[-0.0165272,51.6008466]]]}},
{"type":"Feature","properties":{"highway":"cycleway","name":null,"category":"Dedicated cycleway"},"geometry":{"type":"MultiLineString","coordinates":[[[-0.0165366,51.6007347],[-0.0165676,51.6007049],[-0.0166152,51.6006347]]]}},
{"type":"Feature","properties":{"highway":"cycleway","name":null,"category":"Dedicated cycleway"},"geometry":{"type":"MultiLineString","coordinates":[[[-0.0166152,51.6006347],[-0.0167851,51.6004166]]]}},
{"type":"Feature","properties":{"highway":"cycleway","name":null,"category":"Dedicated cycleway"},"geometry":{"type":"MultiLineString","coordinates":[[[-0.0165138,51.6010789],[-0.0165016,51.6011488]]]}},
{"type":"Feature","properties":{"highway":"cycleway","name":null,"category":"Dedicated cycleway"},"geometry":{"type":"MultiLineString","coordinates":[[[-0.016752,51.6012442],[-0.0170835,51.6013878]]]}},
{"type":"Feature","properties":{"highway":"cycleway","name":null,"category":"Dedicated cycleway"},"geometry":{"type":"MultiLineString","coordinates":[[[-0.0168223,51.6015506],[-0.0167306,51.6017288]]]}},
{"type":"Feature","properties":{"highway":"cycleway","name":null,"category":"Dedicated cycleway"},"geometry":{"type":"MultiLineString","coordinates":[[[-0.0170835,51.6013878],[-0.017111,51.6014074],[-0.0171317,51.601427],[-0.0171575,51.6014506],[-0.0171705,51.6014763],[-0.0171753,51.6014996],[-0.0171691,51.601525],[-0.0171504,51.6015456],[-0.0171265,51.6015625],[-0.0170922,51.6015755],[-0.0170561,51.6015826],[-0.0170136,51.601583],[-0.0169729,51.6015803],[-0.0169405,51.601576],[-0.0168223,51.6015506]]]}},
{"type":"Feature","properties":{"highway":"cycleway","name":"Billet Road","category":"Dedicated cycleway"},"geometry":{"type":"MultiLineString","coordinates":[[[-0.0165726,51.6007892],[-0.0166154,51.6008093],[-0.0169865,51.6009308]]]}},
{"type":"Feature","properties":{"highway":"cycleway","name":"Billet Road","category":"Dedicated cycleway"},"geometry":{"type":"MultiLineString","coordinates":[[[-0.0169865,51.6009308],[-0.0173724,51.6010464]]]}},
{"type":"Feature","properties":{"highway":"cycleway","name":"Billet Road","category":"Dedicated cycleway"},"geometry":{"type":"MultiLineString","coordinates":[[[-0.0173724,51.6010464],[-0.0174632,51.601078]]]}},
{"type":"Feature","properties":{"highway":"cycleway","name":"Billet Road","category":"Dedicated cycleway"},"geometry":{"type":"MultiLineString","coordinates":[[[-0.0174757,51.600631],[-0.0181637,51.6005525],[-0.0188545,51.6004456],[-0.0189828,51.600435],[-0.0194157,51.6004134],[-0.0198257,51.6003948],[-0.0202731,51.6003509],[-0.0210257,51.6002708],[-0.021628,51.6001894],[-0.0216637,51.6001855],[-0.021674,51.6001833],[-0.0219635,51.6001228],[-0.0231789,51.5998083],[-0.0232002,51.5997995]]]}},
{"type":"Feature","properties":{"highway":"cycleway","name":null,"category":"Dedicated cycleway"},"geometry":{"type":"MultiLineString","coordinates":[[[-0.0167851,51.6004166],[-0.0168164,51.6003851],[-0.0168644,51.6003595],[-0.0168895,51.6003492],[-0.0169212,51.6003407],[-0.0169538,51.6003389],[-0.0169917,51.6003417],[-0.0170312,51.6003513],[-0.0170687,51.6003654],[-0.0170984,51.6003813],[-0.0171242,51.6004015],[-0.0171348,51.6004185],[-0.0171367,51.6004318],[-0.0171356,51.6004491],[-0.0171285,51.6004619],[-0.0171127,51.6004817],[-0.017095,51.6004983],[-0.01707,51.6005078],[-0.0170353,51.6005182],[-0.0169914,51.6005238],[-0.0169467,51.6005269]]]}},
{"type":"Feature","properties":{"highway":"cycleway","name":null,"category":"Dedicated cycleway"},"geometry":{"type":"MultiLineString","coordinates":[[[-0.0160884,51.6005748],[-0.0158775,51.600454]]]}},
{"type":"Feature","properties":{"highway":"cycleway","name":null,"category":"Dedicated cycleway"},"geometry":{"type":"MultiLineString","coordinates":[[[-0.0165366,51.6007347],[-0.0164996,51.6007298],[-0.016464,51.6007224],[-0.0164117,51.6007061],[-0.0162831,51.6006587],[-0.0160884,51.6005748]]]}},
{"type":"Feature","properties":{"highway":"cycleway","name":null,"category":"Dedicated cycleway"},"geometry":{"type":"MultiLineString","coordinates":[[[-0.0158775,51.600454],[-0.0157302,51.6003693]]]}},
{"type":"Feature","properties":{"highway":"cycleway","name":null,"category":"Dedicated cycleway"},"geometry":{"type":"MultiLineString","coordinates":[[[-0.0160808,51.6014169],[-0.0159838,51.601485]]]}},
{"type":"Feature","properties":{"highway":"cycleway","name":null,"category":"Dedicated cycleway"},"geometry":{"type":"MultiLineString","coordinates":[[[-0.0163565,51.6014341],[-0.0164745,51.6012325]]]}},
{"type":"Feature","properties":{"highway":"cycleway","name":null,"category":"Dedicated cycleway"},"geometry":{"type":"MultiLineString","coordinates":[[[-0.0163565,51.6014341],[-0.016173,51.6013956],[-0.0159155,51.6013552],[-0.0158965,51.6013534],[-0.0158788,51.601357],[-0.0158681,51.6013625],[-0.0158597,51.6013709],[-0.0158582,51.6013793],[-0.015858,51.6013923],[-0.0158669,51.6014051],[-0.0158819,51.6014128],[-0.0159023,51.6014176],[-0.0159276,51.6014201],[-0.015954,51.6014181],[-0.015987,51.6014125],[-0.0160152,51.6014082],[-0.0160437,51.6014096],[-0.0160808,51.6014169]]]}},
{"type":"Feature","properties":{"highway":"cycleway","name":null,"category":"Dedicated cycleway"},"geometry":{"type":"MultiLineString","coordinates":[[[-0.0142773,51.6025675],[-0.0142229,51.6026363],[-0.0142688,51.602881],[-0.0140598,51.6029207]]]}},
{"type":"Feature","properties":{"highway":"cycleway","name":null,"category":"Dedicated cycleway"},"geometry":{"type":"MultiLineString","coordinates":[[[-0.0111412,51.6032091],[-0.0111237,51.6032546],[-0.0111046,51.6032892],[-0.0111142,51.6033278],[-0.011189,51.6034553],[-0.0112479,51.6035236],[-0.0112415,51.6035859],[-0.0112081,51.6036363],[-0.0111715,51.6037016],[-0.0111635,51.6037708],[-0.0111826,51.603846],[-0.0112145,51.6038959]]]}},
{"type":"Feature","properties":{"highway":"cycleway","name":null,"category":"Dedicated cycleway"},"geometry":{"type":"MultiLineString","coordinates":[[[-0.0089849,51.6048044],[-0.0089914,51.6048626]]]}},
{"type":"Feature","properties":{"highway":"cycleway","name":null,"category":"Dedicated cycleway"},"geometry":{"type":"MultiLineString","coordinates":[[[-0.0089914,51.6048626],[-0.0089724,51.6049084],[-0.008978,51.6051097],[-0.009009,51.6053062]]]}},
{"type":"Feature","properties":{"highway":"cycleway","name":null,"category":"Dedicated cycleway"},"geometry":{"type":"MultiLineString","coordinates":[[[-0.0117204,51.5970373],[-0.0116081,51.5969441]]]}},
{"type":"Feature","properties":{"highway":"cycleway","name":null,"category":"Dedicated cycleway"},"geometry":{"type":"MultiLineString","coordinates":[[[-0.0117146,51.5968931],[-0.0118201,51.5969796]]]}},
{"type":"Feature","properties":{"highway":"cycleway","name":null,"category":"Dedicated cycleway"},"geometry":{"type":"MultiLineString","coordinates":[[[-0.0165016,51.6011488],[-0.016752,51.6012442]]]}},
{"type":"Feature","properties":{"highway":"cycleway","name":null,"category":"Dedicated cycleway"},"geometry":{"type":"MultiLineString","coordinates":[[[-0.0157302,51.6003693],[-0.0157222,51.6003042],[-0.0157336,51.600277],[-0.015753,51.60025],[-0.0157796,51.6002389],[-0.0158443,51.6002349],[-0.0159445,51.6002324],[-0.0159919,51.6002201],[-0.0160245,51.60021],[-0.0160587,51.6001845]]]}},
{"type":"Feature","properties":{"highway":"cycleway","name":null,"category":"Dedicated cycleway"},"geometry":{"type":"MultiLineString","coordinates":[[[-0.0084573,51.6002787],[-0.0086273,51.600293],[-0.008992,51.6002864],[-0.0090592,51.6003009],[-0.0092588,51.6003227],[-0.0096252,51.6003126],[-0.0108952,51.6002517],[-0.0116473,51.6002111],[-0.01244,51.6001951],[-0.01255,51.600185],[-0.0126572,51.6001478]]]}},
{"type":"Feature","properties":{"highway":"cycleway","name":"Roberts Road","category":"Dedicated cycleway"},"geometry":{"type":"MultiLineString","coordinates":[[[-0.0138466,51.600228],[-0.0140858,51.6002486],[-0.0143068,51.6002331],[-0.0143922,51.6002306],[-0.0144477,51.6002467]]]}},
{"type":"Feature","properties":{"highway":"cycleway","name":null,"category":"Dedicated cycleway"},"geometry":{"type":"MultiLineString","coordinates":[[[-0.0165697,51.6018784],[-0.0165016,51.601846],[-0.0164826,51.6018346],[-0.0164522,51.6017759],[-0.0164278,51.6015982],[-0.0164027,51.6015437],[-0.0163556,51.601466]]]}},
{"type":"Feature","properties":{"highway":"cycleway","name":null,"category":"Dedicated cycleway"},"geometry":{"type":"MultiLineString","coordinates":[[[-0.0166461,51.6004057],[-0.0167968,51.6004742],[-0.016898,51.6005126]]]}},
{"type":"Feature","properties":{"highway":"cycleway","name":null,"category":"Dedicated cycleway"},"geometry":{"type":"MultiLineString","coordinates":[[[-0.0163556,51.601466],[-0.0160808,51.6014169]]]}},
{"type":"Feature","properties":{"highway":"cycleway","name":null,"category":"Dedicated cycleway"},"geometry":{"type":"MultiLineString","coordinates":[[[-0.0140598,51.6029207],[-0.0126923,51.6030202],[-0.0126493,51.6030376],[-0.0122065,51.6033017],[-0.0113888,51.6037632],[-0.0112145,51.6038959],[-0.0111153,51.6039715],[-0.0109199,51.6041111],[-0.0104129,51.6043995],[-0.0101157,51.6044824],[-0.0093962,51.6046122],[-0.0089849,51.6048044]]]}},
{"type":"Feature","properties":{"highway":"cycleway","name":null,"category":"Dedicated cycleway"},"geometry":{"type":"MultiLineString","coordinates":[[[-0.0054772,51.6002572],[-0.0054853,51.6002907],[-0.0054975,51.600345]]]}},
{"type":"Feature","properties":{"highway":"cycleway","name":null,"category":"Dedicated cycleway"},"geometry":{"type":"MultiLineString","coordinates":[[[-0.003781,51.6009483],[-0.0037362,51.6008747],[-0.0037397,51.6008633],[-0.0037441,51.6008492],[-0.0037601,51.6008073]]]}},
{"type":"Feature","properties":{"highway":"cycleway","name":null,"category":"Dedicated cycleway"},"geometry":{"type":"MultiLineString","coordinates":[[[-0.004316,51.6006395],[-0.004316,51.6006089],[-0.0043152,51.6006087],[-0.004247,51.6005936],[-0.0041184,51.6005791],[-0.003906,51.6005602]]]}},
{"type":"Feature","properties":{"highway":"path","name":null,"category":"Shared path"},"geometry":{"type":"MultiLineString","coordinates":[[[0.0017863,51.5994327],[0.0019747,51.5993865],[0.0021051,51.5992992],[0.002221,51.599263],[0.002343,51.599223],[0.0026188,51.5990953],[0.0027386,51.5990609],[0.0030946,51.5989188],[0.0033088,51.5989038],[0.003983,51.598984]]]}},
{"type":"Feature","properties":{"highway":"cycleway","name":null,"category":"Dedicated cycleway"},"geometry":{"type":"MultiLineString","coordinates":[[[-0.0162571,51.594163],[-0.0162566,51.5941819],[-0.016169,51.594311]]]}},
{"type":"Feature","properties":{"highway":"cycleway","name":null,"category":"Dedicated cycleway"},"geometry":{"type":"MultiLineString","coordinates":[[[-0.0160764,51.5998701],[-0.0162256,51.5999875]]]}},
{"type":"Feature","properties":{"highway":"cycleway","name":null,"category":"Dedicated cycleway"},"geometry":{"type":"MultiLineString","coordinates":[[[-0.0174632,51.601078],[-0.0176521,51.6011414],[-0.0178992,51.6012352],[-0.0181512,51.6013291]]]}},
{"type":"Feature","properties":{"highway":"cycleway","name":null,"category":"Dedicated cycleway"},"geometry":{"type":"MultiLineString","coordinates":[[[-0.0163366,51.6000991],[-0.01641,51.6001762],[-0.0164737,51.6002456],[-0.0165349,51.6003107],[-0.0166461,51.6004057]]]}},
{"type":"Feature","properties":{"highway":"cycleway","name":null,"category":"Dedicated cycleway"},"geometry":{"type":"MultiLineString","coordinates":[[[-0.0163233,51.5940866],[-0.0163332,51.5940734],[-0.0163762,51.5940146],[-0.0164036,51.5939543],[-0.0164181,51.5939238],[-0.0164485,51.5939073]]]}},
{"type":"Feature","properties":{"highway":"cycleway","name":null,"category":"Dedicated cycleway"},"geometry":{"type":"MultiLineString","coordinates":[[[-0.018917,51.60241],[-0.0188743,51.6024143]]]}},
{"type":"Feature","properties":{"highway":"cycleway","name":null,"category":"Dedicated cycleway"},"geometry":{"type":"MultiLineString","coordinates":[[[-0.0176386,51.6016703],[-0.017251,51.601607],[-0.0171491,51.6015912]]]}},
{"type":"Feature","properties":{"highway":"cycleway","name":null,"category":"Dedicated cycleway"},"geometry":{"type":"MultiLineString","coordinates":[[[-0.0171491,51.6015912],[-0.0168071,51.6017111],[-0.0167364,51.6017275],[-0.0167306,51.6017288]]]}},
{"type":"Feature","properties":{"highway":"cycleway","name":null,"category":"Dedicated cycleway"},"geometry":{"type":"MultiLineString","coordinates":[[[-0.018917,51.60241],[-0.0189682,51.6024069]]]}},
{"type":"Feature","properties":{"highway":"cycleway","name":null,"category":"Dedicated cycleway"},"geometry":{"type":"MultiLineString","coordinates":[[[-0.0195109,51.6021398],[-0.0202094,51.6025652],[-0.0205175,51.6027607],[-0.0205996,51.6028128],[-0.0217155,51.6034781],[-0.0223351,51.6038238],[-0.022956,51.604177],[-0.0237121,51.6045924],[-0.0243736,51.6049641],[-0.0248054,51.6052131],[-0.0254867,51.6055713],[-0.0261957,51.6059263],[-0.0262909,51.6059448]]]}},
{"type":"Feature","properties":{"highway":"cycleway","name":null,"category":"Dedicated cycleway"},"geometry":{"type":"MultiLineString","coordinates":[[[-0.016898,51.6005126],[-0.0169467,51.6005269]]]}},
{"type":"Feature","properties":{"highway":"track","name":null,"category":"Track"},"geometry":{"type":"MultiLineString","coordinates":[[[0.0008455,51.5960603],[0.0004526,51.5959953],[0.0002327,51.5959636],[-0.0006082,51.5958595],[-0.000914,51.5958228],[-0.0009596,51.5958186],[-0.001089,51.5958065]]]}},
{"type":"Feature","properties":{"highway":"track","name":null,"category":"Track"},"geometry":{"type":"MultiLineString","coordinates":[[[-0.0011241,51.5967781],[-0.001015,51.5967795],[-0.0009217,51.5967805],[-0.0007011,51.5968167],[-0.000001,51.5969234],[0.000341,51.5969667],[0.0006038,51.5970025]]]}},
{"type":"Feature","properties":{"highway":"cycleway","name":"Macdonald Road","category":"Dedicated cycleway"},"geometry":{"type":"MultiLineString","coordinates":[[[-0.002985,51.5954107],[-0.0029641,51.5954148],[-0.0028856,51.5954303],[-0.0028624,51.5954349]]]}},
{"type":"Feature","properties":{"highway":"cycleway","name":null,"category":"Dedicated cycleway"},"geometry":{"type":"MultiLineString","coordinates":[[[-0.0040894,51.6006366],[-0.004316,51.6006395]]]}},
{"type":"Feature","properties":{"highway":"cycleway","name":null,"category":"Dedicated cycleway"},"geometry":{"type":"MultiLineString","coordinates":[[[-0.0019138,51.6005894],[-0.0020428,51.6006091],[-0.0021191,51.6006208],[-0.0023952,51.6006541],[-0.0027284,51.6006689],[-0.0030341,51.6006728],[-0.0033166,51.6006624],[-0.0035764,51.6006483],[-0.0039005,51.6006409]]]}},
{"type":"Feature","properties":{"highway":"cycleway","name":null,"category":"Dedicated cycleway"},"geometry":{"type":"MultiLineString","coordinates":[[[-0.005079,51.6003394],[-0.0052196,51.6003051],[-0.0053499,51.60027],[-0.0054772,51.6002572]]]}},
{"type":"Feature","properties":{"highway":"cycleway","name":null,"category":"Dedicated cycleway"},"geometry":{"type":"MultiLineString","coordinates":[[[-0.0040304,51.6002725],[-0.0040411,51.600252]]]}},
{"type":"Feature","properties":{"highway":"cycleway","name":null,"category":"Dedicated cycleway"},"geometry":{"type":"MultiLineString","coordinates":[[[-0.005079,51.6003394],[-0.0047733,51.6003214],[-0.004265,51.6002806],[-0.0040411,51.600252]]]}},
{"type":"Feature","properties":{"highway":"path","name":null,"category":"Shared path"},"geometry":{"type":"MultiLineString","coordinates":[[[0.0017863,51.5994327],[0.0016114,51.599476],[0.0014828,51.5995208]]]}},
{"type":"Feature","properties":{"highway":"path","name":null,"category":"Shared path"},"geometry":{"type":"MultiLineString","coordinates":[[[0.003557,51.600199],[0.003193,51.600078],[0.0024451,51.5997867],[0.002135,51.599666],[0.001816,51.599481],[0.0017863,51.5994327]]]}},
{"type":"Feature","properties":{"highway":"cycleway","name":"Beech Hall Road","category":"Dedicated cycleway"},"geometry":{"type":"MultiLineString","coordinates":[[[-0.0009987,51.6009259],[-0.0010915,51.6009531],[-0.0011249,51.6009543],[-0.0011813,51.6009437],[-0.0012159,51.6009326],[-0.0012554,51.6009271],[-0.0012846,51.6009162],[-0.0013414,51.6009147]]]}},
{"type":"Feature","properties":{"highway":"cycleway","name":null,"category":"Dedicated cycleway"},"geometry":{"type":"MultiLineString","coordinates":[[[-0.0013599,51.6007436],[-0.0012794,51.6007119],[-0.0012043,51.6006823]]]}},
{"type":"Feature","properties":{"highway":"cycleway","name":null,"category":"Dedicated cycleway"},"geometry":{"type":"MultiLineString","coordinates":[[[-0.004318,51.6007156],[-0.0043186,51.6007396],[-0.0043187,51.6007439],[-0.0043196,51.6007777]]]}},
{"type":"Feature","properties":{"highway":"cycleway","name":null,"category":"Dedicated cycleway"},"geometry":{"type":"MultiLineString","coordinates":[[[-0.0043163,51.60065],[-0.0043171,51.6006824],[-0.004318,51.6007156]]]}},
{"type":"Feature","properties":{"highway":"cycleway","name":null,"category":"Dedicated cycleway"},"geometry":{"type":"MultiLineString","coordinates":[[[-0.004316,51.6006395],[-0.004359,51.6006386],[-0.0046461,51.6006325],[-0.004693,51.600626],[-0.0047284,51.6006101],[-0.0047627,51.6005853]]]}},
{"type":"Feature","properties":{"highway":"cycleway","name":null,"category":"Dedicated cycleway"},"geometry":{"type":"MultiLineString","coordinates":[[[-0.0017325,51.6006524],[-0.0017512,51.600623],[-0.0017715,51.6005913]]]}},
{"type":"Feature","properties":{"highway":"cycleway","name":null,"category":"Dedicated cycleway"},"geometry":{"type":"MultiLineString","coordinates":[[[-0.0017862,51.6005681],[-0.0018729,51.6005813]]]}},
{"type":"Feature","properties":{"highway":"cycleway","name":null,"category":"Dedicated cycleway"},"geometry":{"type":"MultiLineString","coordinates":[[[-0.0013842,51.6008309],[-0.0013954,51.6008103],[-0.0014027,51.6007799],[-0.0013965,51.6007679],[-0.0014497,51.6007438],[-0.0014915,51.600723],[-0.0015178,51.600715],[-0.0015491,51.6007103],[-0.0016126,51.6007005],[-0.0016593,51.6006955],[-0.0017066,51.6006904],[-0.0017139,51.6006816],[-0.001714,51.6006814],[-0.0017325,51.6006524]]]}},
{"type":"Feature","properties":{"highway":"cycleway","name":null,"category":"Dedicated cycleway"},"geometry":{"type":"MultiLineString","coordinates":[[[-0.0038721,51.6006172],[-0.0038882,51.6005901],[-0.003906,51.6005602]]]}},
{"type":"Feature","properties":{"highway":"cycleway","name":null,"category":"Dedicated cycleway"},"geometry":{"type":"MultiLineString","coordinates":[[[-0.001075,51.6007002],[-0.0011402,51.6007199],[-0.0012262,51.6007622]]]}},
{"type":"Feature","properties":{"highway":"cycleway","name":null,"category":"Dedicated cycleway"},"geometry":{"type":"MultiLineString","coordinates":[[[-0.0012043,51.6006823],[-0.0012014,51.6006491],[-0.0010642,51.6005987],[-0.0010123,51.6005922]]]}},
{"type":"Feature","properties":{"highway":"cycleway","name":null,"category":"Dedicated cycleway"},"geometry":{"type":"MultiLineString","coordinates":[[[-0.0037653,51.6007985],[-0.0038721,51.6006172]]]}},
{"type":"Feature","properties":{"highway":"cycleway","name":null,"category":"Dedicated cycleway"},"geometry":{"type":"MultiLineString","coordinates":[[[-0.0046139,51.6008782],[-0.0046113,51.6008278]]]}},
{"type":"Feature","properties":{"highway":"cycleway","name":null,"category":"Dedicated cycleway"},"geometry":{"type":"MultiLineString","coordinates":[[[-0.0050549,51.6003526],[-0.0047627,51.6005853]]]}},
{"type":"Feature","properties":{"highway":"cycleway","name":null,"category":"Dedicated cycleway"},"geometry":{"type":"MultiLineString","coordinates":[[[-0.0046249,51.6007969],[-0.0043201,51.6007982]]]}},
{"type":"Feature","properties":{"highway":"cycleway","name":null,"category":"Dedicated cycleway"},"geometry":{"type":"MultiLineString","coordinates":[[[-0.0043201,51.6007982],[-0.004015,51.6008031]]]}},
{"type":"Feature","properties":{"highway":"cycleway","name":null,"category":"Dedicated cycleway"},"geometry":{"type":"MultiLineString","coordinates":[[[-0.0164745,51.6012325],[-0.0165016,51.6011488]]]}},
{"type":"Feature","properties":{"highway":"cycleway","name":null,"category":"Dedicated cycleway"},"geometry":{"type":"MultiLineString","coordinates":[[[-0.0157302,51.6003693],[-0.0153006,51.6002611],[-0.0150407,51.6001936],[-0.0149196,51.6001622]]]}},
{"type":"Feature","properties":{"highway":"cycleway","name":null,"category":"Dedicated cycleway"},"geometry":{"type":"MultiLineString","coordinates":[[[-0.0168223,51.6015506],[-0.0169099,51.6014316],[-0.0169487,51.6014002],[-0.0169727,51.6013845],[-0.0170014,51.6013688],[-0.0170442,51.6013562],[-0.0170695,51.6013531],[-0.017096,51.6013518],[-0.0171243,51.6013519],[-0.0171526,51.6013545],[-0.0171804,51.6013587],[-0.0172069,51.6013637],[-0.0172627,51.6013793]]]}},
{"type":"Feature","properties":{"highway":"cycleway","name":null,"category":"Dedicated cycleway"},"geometry":{"type":"MultiLineString","coordinates":[[[-0.0043196,51.6007777],[-0.0043201,51.6007982]]]}},
{"type":"Feature","properties":{"highway":"cycleway","name":null,"category":"Dedicated cycleway"},"geometry":{"type":"MultiLineString","coordinates":[[[-0.0013965,51.6007679],[-0.0013599,51.6007436]]]}},
{"type":"Feature","properties":{"highway":"cycleway","name":"River Walk","category":"Dedicated cycleway"},"geometry":{"type":"MultiLineString","coordinates":[[[-0.0024007,51.6044444],[-0.0017876,51.6043161]]]}},
{"type":"Feature","properties":{"highway":"cycleway","name":"Haldan Road","category":"Dedicated cycleway"},"geometry":{"type":"MultiLineString","coordinates":[[[-0.00247,51.6045914],[-0.0025231,51.6046185],[-0.0025384,51.6046534]]]}},
{"type":"Feature","properties":{"highway":"cycleway","name":"Winchester Road","category":"Dedicated cycleway"},"geometry":{"type":"MultiLineString","coordinates":[[[-0.0023664,51.6045667],[-0.0023512,51.6045648],[-0.0023711,51.6045165],[-0.0024007,51.6044444]]]}},
{"type":"Feature","properties":{"highway":"cycleway","name":null,"category":"Dedicated cycleway"},"geometry":{"type":"MultiLineString","coordinates":[[[-0.0024651,51.6045793],[-0.0024089,51.6045721],[-0.0023664,51.6045667]]]}},
{"type":"Feature","properties":{"highway":"cycleway","name":null,"category":"Dedicated cycleway"},"geometry":{"type":"MultiLineString","coordinates":[[[-0.0024007,51.6044444],[-0.0024074,51.6044227],[-0.0024572,51.6044267]]]}},
{"type":"Feature","properties":{"highway":"cycleway","name":"Winchester Road","category":"Dedicated cycleway"},"geometry":{"type":"MultiLineString","coordinates":[[[-0.00247,51.6045914],[-0.0024743,51.6045804],[-0.0024651,51.6045793]]]}},
{"type":"Feature","properties":{"highway":"cycleway","name":null,"category":"Dedicated cycleway"},"geometry":{"type":"MultiLineString","coordinates":[[[-0.0161716,51.5943262],[-0.016251,51.5943504]]]}},
{"type":"Feature","properties":{"highway":"cycleway","name":null,"category":"Dedicated cycleway"},"geometry":{"type":"MultiLineString","coordinates":[[[-0.0160587,51.6001845],[-0.0160349,51.6001804],[-0.0159925,51.6001788],[-0.0157355,51.6001802],[-0.0156888,51.6001703]]]}},
{"type":"Feature","properties":{"highway":"cycleway","name":null,"category":"Dedicated cycleway"},"geometry":{"type":"MultiLineString","coordinates":[[[-0.0165272,51.6008466],[-0.0165339,51.6008105],[-0.0165567,51.6007953],[-0.0165726,51.6007892]]]}},
{"type":"Feature","properties":{"highway":"cycleway","name":"Billet Road","category":"Dedicated cycleway"},"geometry":{"type":"MultiLineString","coordinates":[[[-0.0169467,51.6005269],[-0.0171441,51.600589],[-0.0172574,51.600615],[-0.017344,51.60063],[-0.017394,51.600632],[-0.0174757,51.600631]]]}},
{"type":"Feature","properties":{"highway":"cycleway","name":null,"category":"Dedicated cycleway"},"geometry":{"type":"MultiLineString","coordinates":[[[-0.0163933,51.6038304],[-0.016354,51.6037488],[-0.0163236,51.6037048]]]}},
{"type":"Feature","properties":{"highway":"cycleway","name":null,"category":"Dedicated cycleway"},"geometry":{"type":"MultiLineString","coordinates":[[[-0.0163236,51.6037048],[-0.0163052,51.6035193],[-0.0163149,51.6034791],[-0.0163485,51.6033427],[-0.0163759,51.6030198],[-0.0163887,51.6028736]]]}},
{"type":"Feature","properties":{"highway":"cycleway","name":"Billet Road","category":"Dedicated cycleway"},"geometry":{"type":"MultiLineString","coordinates":[[[-0.0175391,51.6007545],[-0.0175107,51.6007847],[-0.0174978,51.6008431],[-0.0175209,51.6009005],[-0.0175873,51.600977],[-0.0175923,51.6010006],[-0.017581,51.6010194],[-0.0175643,51.6010321],[-0.0175465,51.6010439],[-0.0174632,51.601078]]]}},
{"type":"Feature","properties":{"highway":"cycleway","name":null,"category":"Dedicated cycleway"},"geometry":{"type":"MultiLineString","coordinates":[[[-0.0194293,51.6005241],[-0.0194251,51.600491],[-0.0194211,51.6004499]]]}},
{"type":"Feature","properties":{"highway":"cycleway","name":null,"category":"Dedicated cycleway"},"geometry":{"type":"MultiLineString","coordinates":[[[-0.0194211,51.6004499],[-0.0194157,51.6004134]]]}},
{"type":"Feature","properties":{"highway":"cycleway","name":null,"category":"Dedicated cycleway"},"geometry":{"type":"MultiLineString","coordinates":[[[-0.003906,51.6005602],[-0.0039347,51.600513]]]}},
{"type":"Feature","properties":{"highway":"cycleway","name":"River Walk","category":"Dedicated cycleway"},"geometry":{"type":"MultiLineString","coordinates":[[[-0.0016474,51.6042912],[-0.0013632,51.6042379],[-0.0010761,51.6041954],[-0.0010319,51.6041897]]]}},
{"type":"Feature","properties":{"highway":"cycleway","name":"River Walk","category":"Dedicated cycleway"},"geometry":{"type":"MultiLineString","coordinates":[[[-0.0017876,51.6043161],[-0.0016474,51.6042912]]]}},
{"type":"Feature","properties":{"highway":"cycleway","name":null,"category":"Dedicated cycleway"},"geometry":{"type":"MultiLineString","coordinates":[[[-0.0154915,51.5940328],[-0.015485,51.5939948],[-0.015472,51.5939768]]]}},
{"type":"Feature","properties":{"highway":"cycleway","name":null,"category":"Dedicated cycleway"},"geometry":{"type":"MultiLineString","coordinates":[[[-0.0149849,51.5937479],[-0.0154012,51.59397],[-0.015472,51.5939768]]]}},
{"type":"Feature","properties":{"highway":"cycleway","name":"Billet Road","category":"Dedicated cycleway"},"geometry":{"type":"MultiLineString","coordinates":[[[-0.0225606,51.6001374],[-0.022053,51.6002633],[-0.0217427,51.6003317],[-0.021475,51.6003797],[-0.0211551,51.6004181],[-0.0205664,51.6004767],[-0.0198077,51.6005194],[-0.0197532,51.6005432],[-0.019684,51.6005474],[-0.0196145,51.6005489],[-0.0195783,51.6005352],[-0.0194313,51.6005397],[-0.0188517,51.6005729],[-0.0184088,51.6006158],[-0.017753,51.6007176],[-0.0175904,51.6007434],[-0.0175666,51.6007522],[-0.0175391,51.6007545]]]}},
{"type":"Feature","properties":{"highway":"cycleway","name":null,"category":"Dedicated cycleway"},"geometry":{"type":"MultiLineString","coordinates":[[[-0.0181539,51.601938],[-0.0180892,51.601881],[-0.0179176,51.6017603],[-0.0177743,51.601671]]]}},
{"type":"Feature","properties":{"highway":"cycleway","name":null,"category":"Dedicated cycleway"},"geometry":{"type":"MultiLineString","coordinates":[[[-0.0189682,51.6024069],[-0.0190428,51.6024275],[-0.0192949,51.6025562],[-0.0193711,51.6025947],[-0.0193891,51.6026498]]]}},
{"type":"Feature","properties":{"highway":"cycleway","name":null,"category":"Dedicated cycleway"},"geometry":{"type":"MultiLineString","coordinates":[[[-0.0163887,51.6028736],[-0.0164324,51.6027967]]]}},
{"type":"Feature","properties":{"highway":"path","name":null,"category":"Shared path"},"geometry":{"type":"MultiLineString","coordinates":[[[-0.0119128,51.5994853],[-0.0118423,51.5994835],[-0.0113302,51.5995414]]]}},
{"type":"Feature","properties":{"highway":"cycleway","name":null,"category":"Dedicated cycleway"},"geometry":{"type":"MultiLineString","coordinates":[[[-0.0167306,51.6017288],[-0.016691,51.6017334],[-0.016684,51.601734],[-0.0166012,51.6017289]]]}},
{"type":"Feature","properties":{"highway":"cycleway","name":null,"category":"Dedicated cycleway"},"geometry":{"type":"MultiLineString","coordinates":[[[-0.0017715,51.6005913],[-0.0017862,51.6005681]]]}},
{"type":"Feature","properties":{"highway":"cycleway","name":null,"category":"Dedicated cycleway"},"geometry":{"type":"MultiLineString","coordinates":[[[-0.0039005,51.6006409],[-0.0040894,51.6006366]]]}},
{"type":"Feature","properties":{"highway":"cycleway","name":null,"category":"Dedicated cycleway"},"geometry":{"type":"MultiLineString","coordinates":[[[-0.0188743,51.6024143],[-0.0188561,51.6024166],[-0.0186297,51.6022792],[-0.0185097,51.6021946],[-0.0184869,51.6021785]]]}},
{"type":"Feature","properties":{"highway":"cycleway","name":null,"category":"Dedicated cycleway"},"geometry":{"type":"MultiLineString","coordinates":[[[-0.0184869,51.6021785],[-0.0184651,51.6021631],[-0.0184482,51.6021512]]]}},
{"type":"Feature","properties":{"highway":"cycleway","name":null,"category":"Dedicated cycleway"},"geometry":{"type":"MultiLineString","coordinates":[[[-0.0184482,51.6021512],[-0.0183038,51.6020493],[-0.0182718,51.6020267],[-0.0181957,51.6019726]]]}},
{"type":"Feature","properties":{"highway":"cycleway","name":null,"category":"Dedicated cycleway"},"geometry":{"type":"MultiLineString","coordinates":[[[-0.0181957,51.6019726],[-0.0181739,51.6019545],[-0.0181539,51.601938]]]}},
{"type":"Feature","properties":{"highway":"cycleway","name":null,"category":"Dedicated cycleway"},"geometry":{"type":"MultiLineString","coordinates":[[[-0.0177743,51.601671],[-0.0176386,51.6016703]]]}},
{"type":"Feature","properties":{"highway":"cycleway","name":null,"category":"Dedicated cycleway"},"geometry":{"type":"MultiLineString","coordinates":[[[-0.0172627,51.6013793],[-0.0173051,51.6013912],[-0.0173292,51.6013952],[-0.0173445,51.6013928],[-0.0174188,51.6013468]]]}},
{"type":"Feature","properties":{"highway":"cycleway","name":null,"category":"Dedicated cycleway"},"geometry":{"type":"MultiLineString","coordinates":[[[-0.0046113,51.6008278],[-0.0046108,51.6008175],[-0.0046465,51.6008168],[-0.0046457,51.6008096]]]}},
{"type":"Feature","properties":{"highway":"cycleway","name":null,"category":"Dedicated cycleway"},"geometry":{"type":"MultiLineString","coordinates":[[[-0.0046457,51.6008096],[-0.0046443,51.6007968],[-0.0046249,51.6007969]]]}},
{"type":"Feature","properties":{"highway":"cycleway","name":null,"category":"Dedicated cycleway"},"geometry":{"type":"MultiLineString","coordinates":[[[-0.004316,51.6006395],[-0.0043163,51.60065]]]}},
{"type":"Feature","properties":{"highway":"cycleway","name":null,"category":"Dedicated cycleway"},"geometry":{"type":"MultiLineString","coordinates":[[[-0.004015,51.6008031],[-0.0040014,51.6008034],[-0.0037601,51.6008073]]]}},
{"type":"Feature","properties":{"highway":"cycleway","name":null,"category":"Dedicated cycleway"},"geometry":{"type":"MultiLineString","coordinates":[[[-0.0010319,51.6041897],[-0.0010023,51.6041859]]]}},
{"type":"Feature","properties":{"highway":"cycleway","name":null,"category":"Dedicated cycleway"},"geometry":{"type":"MultiLineString","coordinates":[[[-0.0018729,51.6005813],[-0.0019138,51.6005894]]]}},
{"type":"Feature","properties":{"highway":"cycleway","name":null,"category":"Dedicated cycleway"},"geometry":{"type":"MultiLineString","coordinates":[[[-0.0122065,51.6033017],[-0.0118704,51.6032552],[-0.0116687,51.6032488],[-0.0114671,51.6032568],[-0.0111412,51.6032091]]]}},
{"type":"Feature","properties":{"highway":"cycleway","name":"Roberts Road","category":"Dedicated cycleway"},"geometry":{"type":"MultiLineString","coordinates":[[[-0.0136221,51.600032],[-0.01374,51.6000514],[-0.0137735,51.6000808],[-0.0138194,51.6002136],[-0.0138466,51.600228]]]}},
{"type":"Feature","properties":{"highway":"cycleway","name":null,"category":"Dedicated cycleway"},"geometry":{"type":"MultiLineString","coordinates":[[[-0.0165726,51.6007892],[-0.0165544,51.600758],[-0.0165366,51.6007347]]]}},
{"type":"Feature","properties":{"highway":"path","name":null,"category":"Shared path"},"geometry":{"type":"MultiLineString","coordinates":[[[-0.0124397,51.5926126],[-0.0116584,51.592701],[-0.0106656,51.5929054],[-0.0104884,51.5928886],[-0.010313,51.5928378],[-0.0101103,51.5927675],[-0.00997,51.592753],[-0.0098033,51.5927639]]]}},
{"type":"Feature","properties":{"highway":"cycleway","name":null,"category":"Dedicated cycleway"},"geometry":{"type":"MultiLineString","coordinates":[[[-0.0162933,51.5941243],[-0.0162696,51.5941502]]]}},
{"type":"Feature","properties":{"highway":"cycleway","name":null,"category":"Dedicated cycleway"},"geometry":{"type":"MultiLineString","coordinates":[[[-0.0161609,51.594323],[-0.0161716,51.5943262]]]}},
{"type":"Feature","properties":{"highway":"cycleway","name":null,"category":"Dedicated cycleway"},"geometry":{"type":"MultiLineString","coordinates":[[[-0.0050549,51.6003526],[-0.005079,51.6003394]]]}},
{"type":"Feature","properties":{"highway":"cycleway","name":null,"category":"Dedicated cycleway"},"geometry":{"type":"MultiLineString","coordinates":[[[-0.0162933,51.5941243],[-0.0163166,51.594095]]]}},
{"type":"Feature","properties":{"highway":"cycleway","name":null,"category":"Dedicated cycleway"},"geometry":{"type":"MultiLineString","coordinates":[[[-0.0194313,51.6005397],[-0.0194293,51.6005241]]]}},
{"type":"Feature","properties":{"highway":"path","name":null,"category":"Shared path"},"geometry":{"type":"MultiLineString","coordinates":[[[-0.0136017,51.5916491],[-0.0130129,51.591941],[-0.0126242,51.5920695],[-0.0099505,51.5926879],[-0.0098264,51.592752],[-0.0098033,51.5927639]]]}},
{"type":"Feature","properties":{"highway":"path","name":null,"category":"Shared path"},"geometry":{"type":"MultiLineString","coordinates":[[[-0.0098033,51.5927639],[-0.0096916,51.5928098],[-0.0096357,51.5928483]]]}},
{"type":"Feature","properties":{"highway":"cycleway","name":null,"category":"Dedicated cycleway"},"geometry":{"type":"MultiLineString","coordinates":[[[-0.0037601,51.6008073],[-0.0037653,51.6007985]]]}},
{"type":"Feature","properties":{"highway":"cycleway","name":null,"category":"Dedicated cycleway"},"geometry":{"type":"MultiLineString","coordinates":[[[-0.0162256,51.5999875],[-0.0162692,51.6000218],[-0.0162725,51.6000256],[-0.0163366,51.6000991]]]}},
{"type":"Feature","properties":{"highway":"cycleway","name":null,"category":"Dedicated cycleway"},"geometry":{"type":"MultiLineString","coordinates":[[[-0.0160587,51.6001845],[-0.0161369,51.6001474]]]}},
{"type":"Feature","properties":{"highway":"cycleway","name":null,"category":"Dedicated cycleway"},"geometry":{"type":"MultiLineString","coordinates":[[[-0.016169,51.594311],[-0.0161609,51.594323]]]}},
{"type":"Feature","properties":{"highway":"cycleway","name":null,"category":"Dedicated cycleway"},"geometry":{"type":"MultiLineString","coordinates":[[[-0.0162696,51.5941502],[-0.0162571,51.594163]]]}},
{"type":"Feature","properties":{"highway":"cycleway","name":null,"category":"Dedicated cycleway"},"geometry":{"type":"MultiLineString","coordinates":[[[-0.0163166,51.594095],[-0.0163233,51.5940866]]]}},
{"type":"Feature","properties":{"highway":"cycleway","name":null,"category":"Dedicated cycleway"},"geometry":{"type":"MultiLineString","coordinates":[[[-0.0109614,51.6025346],[-0.0110278,51.6025452],[-0.0110473,51.6025909],[-0.0110903,51.602858],[-0.0110871,51.6029391],[-0.0110855,51.6030726],[-0.0111301,51.6031656],[-0.0111412,51.6032091]]]}},
{"type":"Feature","properties":{"highway":"cycle_lane_on_street","name":"Walthamstow Avenue","category":"Cycle lane on street"},"geometry":{"type":"MultiLineString","coordinates":[[[-0.0201633,51.6030722],[-0.0202289,51.6031098],[-0.0205411,51.6032801],[-0.0208796,51.6034572]]]}},
{"type":"Feature","properties":{"highway":"cycle_lane_on_street","name":"Walthamstow Avenue","category":"Cycle lane on street"},"geometry":{"type":"MultiLineString","coordinates":[[[-0.0193891,51.6026498],[-0.0198293,51.602881],[-0.019944,51.6029467],[-0.0201633,51.6030722]]]}}
]
}
