{
"type": "FeatureCollection",
"name": "WALFO_7_cycling",
"crs": { "type": "name", "properties": { "name": "urn:ogc:def:crs:OGC:1.3:CRS84" } },
"features": [
{"type":"Feature","properties":{"highway":"cycleway","name":"College Road","category":"Dedicated cycleway"},"geometry":{"type":"MultiLineString","coordinates":[[[-0.0077595,51.5779497],[-0.0077381,51.5779308],[-0.0077014,51.5778794],[-0.0076899,51.5778639],[-0.007683,51.5778497]]]}},
{"type":"Feature","properties":{"highway":"bridleway","name":null,"category":"Bridleway"},"geometry":{"type":"MultiLineString","coordinates":[[[0.0033313,51.5802131],[0.0033526,51.5802275],[0.0034938,51.5803233],[0.004483,51.58086],[0.0048063,51.5808846],[0.0061976,51.5810659]]]}},
{"type":"Feature","properties":{"highway":"cycleway","name":null,"category":"Dedicated cycleway"},"geometry":{"type":"MultiLineString","coordinates":[[[0.0014941,51.580999],[0.0014774,51.5809945]]]}},
{"type":"Feature","properties":{"highway":"cycleway","name":"Lea Bridge Road","category":"Dedicated cycleway"},"geometry":{"type":"MultiLineString","coordinates":[[[0.0059745,51.5836715],[0.0059046,51.5836577],[0.0056192,51.5835133],[0.0049004,51.5831679],[0.0048508,51.5831282],[0.0047553,51.5830632],[0.0047073,51.5830379],[0.0045081,51.5829417],[0.0044516,51.5829198],[0.0043894,51.5829006],[0.0042841,51.5828676],[0.0040719,51.5827593],[0.003872,51.5826665],[0.0037473,51.5826068],[0.0035156,51.5824955]]]}},
{"type":"Feature","properties":{"highway":"cycleway","name":"West End Avenue","category":"Dedicated cycleway"},"geometry":{"type":"MultiLineString","coordinates":[[[-0.0018996,51.5783854],[-0.0019854,51.5783474],[-0.0020269,51.5783291]]]}},
{"type":"Feature","properties":{"highway":"cycleway","name":null,"category":"Dedicated cycleway"},"geometry":{"type":"MultiLineString","coordinates":[[[0.0015236,51.5802485],[0.0016289,51.5802417],[0.0017885,51.5802017],[0.0019321,51.5801508]]]}},
{"type":"Feature","properties":{"highway":"cycleway","name":"Grosvenor Rise East","category":"Dedicated cycleway"},"geometry":{"type":"MultiLineString","coordinates":[[[-0.0111766,51.5807947],[-0.0114195,51.5807555]]]}},
{"type":"Feature","properties":{"highway":"cycleway","name":"Grove Road","category":"Dedicated cycleway"},"geometry":{"type":"MultiLineString","coordinates":[[[-0.0109964,51.5790547],[-0.0108079,51.5790832]]]}},
{"type":"Feature","properties":{"highway":"cycleway","name":"Copeland Road","category":"Dedicated cycleway"},"geometry":{"type":"MultiLineString","coordinates":[[[-0.0109472,51.5771425],[-0.010964,51.5771614],[-0.0109997,51.5772052]]]}},
{"type":"Feature","properties":{"highway":"cycleway","name":"Roland Road","category":"Dedicated cycleway"},"geometry":{"type":"MultiLineString","coordinates":[[[-0.0004285,51.5837882],[-0.0004003,51.583794],[-0.0003227,51.5838101]]]}},
{"type":"Feature","properties":{"highway":"cycleway","name":"Eden Road","category":"Dedicated cycleway"},"geometry":{"type":"MultiLineString","coordinates":[[[-0.0113657,51.5806308],[-0.011325,51.5805329]]]}},
{"type":"Feature","properties":{"highway":"cycleway","name":null,"category":"Dedicated cycleway"},"geometry":{"type":"MultiLineString","coordinates":[[[0.0030005,51.5802128],[0.0029909,51.5802187],[0.0029663,51.5802401],[0.0026904,51.5803842],[0.0024787,51.5804982]]]}},
{"type":"Feature","properties":{"highway":"cycleway","name":null,"category":"Dedicated cycleway"},"geometry":{"type":"MultiLineString","coordinates":[[[0.0000285,51.5816767],[0.0001107,51.5817007],[0.0002081,51.5817291],[0.0002585,51.5817428]]]}},
{"type":"Feature","properties":{"highway":"cycleway","name":null,"category":"Dedicated cycleway"},"geometry":{"type":"MultiLineString","coordinates":[[[-0.0000565,51.5816669],[-0.0000261,51.5816658],[-0.0000071,51.5816682],[0.0000208,51.5816745],[0.0000285,51.5816767]]]}},
{"type":"Feature","properties":{"highway":"cycleway","name":null,"category":"Dedicated cycleway"},"geometry":{"type":"MultiLineString","coordinates":[[[0.000155,51.5818739],[0.0001851,51.581863],[0.000254,51.5818226],[0.000296,51.581795],[0.0003108,51.5817764],[0.0003103,51.581756]]]}},
{"type":"Feature","properties":{"highway":"cycleway","name":"Raglan Road","category":"Dedicated cycleway"},"geometry":{"type":"MultiLineString","coordinates":[[[-0.0005485,51.5813741],[-0.000564,51.5813781],[-0.0006322,51.5813818]]]}},
{"type":"Feature","properties":{"highway":"cycleway","name":"Lea Bridge Road","category":"Dedicated cycleway"},"geometry":{"type":"MultiLineString","coordinates":[[[-0.0005485,51.5813741],[-0.0004262,51.5814366],[-0.0003489,51.5814746],[-0.0002746,51.5815149],[-0.0002302,51.5815387],[-0.0001646,51.5815743],[-0.0001329,51.5815965],[-0.0001176,51.5816144],[-0.0000956,51.5816402],[-0.000083,51.5816547],[-0.0000704,51.5816636],[-0.0000565,51.5816669]]]}},
{"type":"Feature","properties":{"highway":"cycleway","name":null,"category":"Dedicated cycleway"},"geometry":{"type":"MultiLineString","coordinates":[[[0.0014229,51.5756711],[0.0014744,51.5756738],[0.0015134,51.5756372],[0.0015003,51.5756052]]]}},
{"type":"Feature","properties":{"highway":"cycleway","name":null,"category":"Dedicated cycleway"},"geometry":{"type":"MultiLineString","coordinates":[[[-0.0000565,51.5816669],[-0.000058,51.5816792],[-0.0000436,51.5817351],[-0.0000458,51.5817774],[-0.0001091,51.5819704],[-0.0000375,51.5820134]]]}},
{"type":"Feature","properties":{"highway":"cycleway","name":"Whipps Cross Road","category":"Dedicated cycleway"},"geometry":{"type":"MultiLineString","coordinates":[[[0.0023098,51.581029],[0.0023313,51.5809192],[0.0023674,51.5808363],[0.0024046,51.5807844],[0.0024687,51.5807104],[0.0025419,51.5806533],[0.0026446,51.5805782],[0.0032015,51.5802821],[0.0033313,51.5802131],[0.0033847,51.5801849]]]}},
{"type":"Feature","properties":{"highway":"cycleway","name":"Lea Bridge Road","category":"Dedicated cycleway"},"geometry":{"type":"MultiLineString","coordinates":[[[0.0013548,51.5815894],[0.0011161,51.5815318],[0.001016,51.5815165],[0.0008854,51.5814978],[0.0007241,51.5814864]]]}},
{"type":"Feature","properties":{"highway":"cycleway","name":"Lea Bridge Road","category":"Dedicated cycleway"},"geometry":{"type":"MultiLineString","coordinates":[[[0.0018711,51.5817302],[0.0016449,51.5816674]]]}},
{"type":"Feature","properties":{"highway":"cycleway","name":null,"category":"Dedicated cycleway"},"geometry":{"type":"MultiLineString","coordinates":[[[0.0020263,51.5820911],[0.0020546,51.5820646],[0.0020578,51.5820618]]]}},
{"type":"Feature","properties":{"highway":"cycleway","name":null,"category":"Dedicated cycleway"},"geometry":{"type":"MultiLineString","coordinates":[[[-0.0002221,51.583801],[-0.0001777,51.5838178],[-0.0001207,51.5838393]]]}},
{"type":"Feature","properties":{"highway":"cycleway","name":null,"category":"Dedicated cycleway"},"geometry":{"type":"MultiLineString","coordinates":[[[-0.0003227,51.5838101],[-0.0002746,51.5838002],[-0.0002429,51.5837931],[-0.0002221,51.583801]]]}},
{"type":"Feature","properties":{"highway":"cycleway","name":null,"category":"Dedicated cycleway"},"geometry":{"type":"MultiLineString","coordinates":[[[0.0013827,51.5809877],[0.0019321,51.5801508],[0.0020139,51.5800572],[0.0023478,51.5798049]]]}},
{"type":"Feature","properties":{"highway":"cycleway","name":null,"category":"Dedicated cycleway"},"geometry":{"type":"MultiLineString","coordinates":[[[0.0003236,51.5816775],[0.000304,51.5816469],[0.0002717,51.5816041],[0.0002494,51.5815762],[0.000238,51.5815612]]]}},
{"type":"Feature","properties":{"highway":"cycleway","name":null,"category":"Dedicated cycleway"},"geometry":{"type":"MultiLineString","coordinates":[[[0.0000525,51.5814706],[0.0000404,51.5814886],[0.0000297,51.5815043]]]}},
{"type":"Feature","properties":{"highway":"cycleway","name":null,"category":"Dedicated cycleway"},"geometry":{"type":"MultiLineString","coordinates":[[[-0.0124285,51.5825933],[-0.0124493,51.5826244]]]}},
{"type":"Feature","properties":{"highway":"cycleway","name":"Lea Bridge Road","category":"Dedicated cycleway"},"geometry":{"type":"MultiLineString","coordinates":[[[-0.016589,51.5730971],[-0.0165638,51.5731109],[-0.0165415,51.5731196],[-0.0163843,51.5731779],[-0.016253,51.5732206],[-0.0161517,51.5732565],[-0.0160185,51.5733045],[-0.0158588,51.5733691],[-0.0157388,51.573423],[-0.0156188,51.5734914],[-0.0154517,51.5735902],[-0.0154243,51.5736062],[-0.0153984,51.5736212],[-0.0152871,51.5736757]]]}},
{"type":"Feature","properties":{"highway":"cycleway","name":"Hoe Street","category":"Dedicated cycleway"},"geometry":{"type":"MultiLineString","coordinates":[[[-0.0178723,51.5792844],[-0.0177562,51.5791222],[-0.0177291,51.5790815],[-0.0176243,51.5789242],[-0.0175921,51.5788762],[-0.0174711,51.5787365],[-0.0174215,51.5786815],[-0.017222,51.5784423],[-0.0169415,51.5781791]]]}},
{"type":"Feature","properties":{"highway":"cycleway","name":"Hoe Street","category":"Dedicated cycleway"},"geometry":{"type":"MultiLineString","coordinates":[[[-0.0148653,51.5761205],[-0.0153636,51.5763587],[-0.0153914,51.5763725],[-0.0154555,51.5764041],[-0.0154937,51.576423],[-0.0155591,51.5764566],[-0.0156238,51.5764967],[-0.0156621,51.5765229],[-0.0158065,51.576674],[-0.015831,51.5767031],[-0.0159914,51.5769012],[-0.0161924,51.5771526],[-0.0162659,51.577248],[-0.0164273,51.5774575],[-0.0164507,51.5774879],[-0.0165145,51.577566],[-0.0166057,51.5776652],[-0.0166316,51.5776703],[-0.0166406,51.5776753],[-0.0166496,51.5776817],[-0.0166533,51.5776843],[-0.0166845,51.5777165],[-0.0168151,51.5778512],[-0.0170111,51.5780608],[-0.0170595,51.5781125],[-0.0171218,51.5781714],[-0.0171813,51.5782285],[-0.017199,51.5782543],[-0.0172006,51.578277],[-0.0173201,51.578375],[-0.0174688,51.5785351],[-0.0175486,51.5786188],[-0.0176004,51.5786772],[-0.0176243,51.5787001],[-0.0176507,51.5787252],[-0.0178101,51.5789098],[-0.0179038,51.5790384],[-0.0179299,51.5790769],[-0.0179729,51.5791409],[-0.0180228,51.5792151],[-0.0180587,51.5792773],[-0.0182236,51.579563],[-0.0182462,51.5796179],[-0.0183888,51.5799803],[-0.0184331,51.5800274],[-0.0184375,51.5800408],[-0.0184405,51.5800537],[-0.0184393,51.5800648],[-0.0184372,51.5800834]]]}},
{"type":"Feature","properties":{"highway":"cycleway","name":"Lea Bridge Road","category":"Dedicated cycleway"},"geometry":{"type":"MultiLineString","coordinates":[[[-0.0065946,51.578695],[-0.0065381,51.5787355],[-0.0064933,51.5787655],[-0.0064511,51.5788041],[-0.0064326,51.5788215],[-0.0064218,51.5788293],[-0.0063925,51.5788483]]]}},
{"type":"Feature","properties":{"highway":"cycleway","name":null,"category":"Dedicated cycleway"},"geometry":{"type":"MultiLineString","coordinates":[[[-0.0062869,51.5787786],[-0.0063186,51.5787995],[-0.0063586,51.5788258]]]}},
{"type":"Feature","properties":{"highway":"cycleway","name":null,"category":"Dedicated cycleway"},"geometry":{"type":"MultiLineString","coordinates":[[[-0.0063586,51.5788258],[-0.0063598,51.5788267],[-0.0063925,51.5788483]]]}},
{"type":"Feature","properties":{"highway":"cycleway","name":null,"category":"Dedicated cycleway"},"geometry":{"type":"MultiLineString","coordinates":[[[-0.0090206,51.584077],[-0.0090545,51.5840585],[-0.0091516,51.5840361]]]}},
{"type":"Feature","properties":{"highway":"cycleway","name":null,"category":"Dedicated cycleway"},"geometry":{"type":"MultiLineString","coordinates":[[[-0.0165691,51.5730777],[-0.0165478,51.5730562],[-0.0165204,51.5730285]]]}},
{"type":"Feature","properties":{"highway":"cycleway","name":null,"category":"Dedicated cycleway"},"geometry":{"type":"MultiLineString","coordinates":[[[-0.007683,51.5778497],[-0.0076394,51.5778661],[-0.0075936,51.5778872],[-0.00754,51.5779191],[-0.0074931,51.5779477],[-0.0074355,51.5779875],[-0.0072852,51.5781121],[-0.0070048,51.5783682],[-0.0068971,51.5784625],[-0.0068624,51.5784911],[-0.0068254,51.5785238],[-0.006711,51.5786157],[-0.0065946,51.578695]]]}},
{"type":"Feature","properties":{"highway":"cycleway","name":null,"category":"Dedicated cycleway"},"geometry":{"type":"MultiLineString","coordinates":[[[-0.0060324,51.5790385],[-0.0060896,51.5790816],[-0.0061502,51.5791252]]]}},
{"type":"Feature","properties":{"highway":"cycleway","name":null,"category":"Dedicated cycleway"},"geometry":{"type":"MultiLineString","coordinates":[[[0.0023162,51.5818625],[0.0023211,51.5818558],[0.0023269,51.5818307],[0.0023342,51.5817538],[0.0023465,51.5816128],[0.0023693,51.5814809],[0.0023731,51.5814194],[0.0023651,51.5813484],[0.0023537,51.5812833],[0.0023197,51.5811832],[0.0023081,51.5810931],[0.0023098,51.581029]]]}},
{"type":"Feature","properties":{"highway":"cycleway","name":null,"category":"Dedicated cycleway"},"geometry":{"type":"MultiLineString","coordinates":[[[-0.0000333,51.5815975],[-0.0000449,51.5816214],[-0.0000513,51.5816364],[-0.0000565,51.5816669]]]}},
{"type":"Feature","properties":{"highway":"cycleway","name":"Phyppe Way","category":"Dedicated cycleway"},"geometry":{"type":"MultiLineString","coordinates":[[[0.0021117,51.5806812],[0.0020564,51.580705],[0.0020231,51.5807224],[0.0019037,51.5807803],[0.0017051,51.5808767],[0.0017047,51.5808769],[0.001525,51.5809621],[0.0015173,51.5809686],[0.0014941,51.580999]]]}},
{"type":"Feature","properties":{"highway":"cycleway","name":"Forest Rise","category":"Dedicated cycleway"},"geometry":{"type":"MultiLineString","coordinates":[[[0.0020263,51.5820911],[0.0020599,51.582104],[0.0021325,51.5821331],[0.0022418,51.5821803],[0.0024175,51.5822598],[0.0028368,51.5824547],[0.0034883,51.5827676],[0.0035264,51.5827859],[0.0035885,51.582818],[0.0036717,51.5828554],[0.0037194,51.5828908],[0.0037523,51.5829112],[0.0037917,51.5829382],[0.0038145,51.5829524],[0.0040375,51.5830624],[0.0041208,51.5830993],[0.0042519,51.58315],[0.0043486,51.5831871],[0.0044226,51.5832201],[0.0053635,51.5836702],[0.0055068,51.5837514],[0.0056517,51.5838509],[0.0056748,51.5838611]]]}},
{"type":"Feature","properties":{"highway":"cycleway","name":"Phyppe Way","category":"Dedicated cycleway"},"geometry":{"type":"MultiLineString","coordinates":[[[0.0014941,51.580999],[0.0014597,51.5810411],[0.0014422,51.5810572],[0.0013894,51.5810874],[0.0012331,51.5811679],[0.001068,51.5812568],[0.0009676,51.5813085],[0.0008701,51.5813611],[0.0007936,51.5814049],[0.0007024,51.581451],[0.0006678,51.5814735],[0.0006505,51.5814827]]]}},
{"type":"Feature","properties":{"highway":"cycleway","name":"Lea Bridge Road","category":"Dedicated cycleway"},"geometry":{"type":"MultiLineString","coordinates":[[[0.0000963,51.5814492],[0.0000381,51.5814368],[-0.0000275,51.5814185],[-0.0001035,51.5813922],[-0.0004839,51.5812102],[-0.0006897,51.5811155],[-0.0008913,51.5810144],[-0.0017341,51.5806112],[-0.0017576,51.5806041],[-0.00184,51.5805632],[-0.0022882,51.5803467],[-0.0024439,51.5802712],[-0.0026635,51.5801731],[-0.002699,51.5801531],[-0.0027276,51.5801415]]]}},
{"type":"Feature","properties":{"highway":"cycleway","name":"Lea Bridge Road","category":"Dedicated cycleway"},"geometry":{"type":"MultiLineString","coordinates":[[[-0.012947,51.5751517],[-0.0129757,51.5751325],[-0.013114,51.5750463],[-0.0131812,51.5750113],[-0.0133327,51.5749312],[-0.0134672,51.5748423],[-0.0135478,51.5747862],[-0.0135876,51.5747537],[-0.013775,51.5746278],[-0.0139902,51.5744585],[-0.014062,51.5744082]]]}},
{"type":"Feature","properties":{"highway":"cycleway","name":"Lea Bridge Road","category":"Dedicated cycleway"},"geometry":{"type":"MultiLineString","coordinates":[[[-0.0147163,51.5739464],[-0.0149064,51.5738167],[-0.0149703,51.5737705],[-0.0151289,51.5736525],[-0.015161,51.5736264],[-0.015183,51.5736098],[-0.0152529,51.5735647]]]}},
{"type":"Feature","properties":{"highway":"cycleway","name":"Lea Bridge Road","category":"Dedicated cycleway"},"geometry":{"type":"MultiLineString","coordinates":[[[-0.014062,51.5744082],[-0.0141012,51.5743822]]]}},
{"type":"Feature","properties":{"highway":"cycleway","name":null,"category":"Dedicated cycleway"},"geometry":{"type":"MultiLineString","coordinates":[[[-0.0041168,51.5827557],[-0.004127,51.5827583],[-0.0041782,51.5827562],[-0.0043674,51.5827662]]]}},
{"type":"Feature","properties":{"highway":"cycleway","name":"Greville Road","category":"Dedicated cycleway"},"geometry":{"type":"MultiLineString","coordinates":[[[-0.004371,51.5827374],[-0.0043732,51.5827199]]]}},
{"type":"Feature","properties":{"highway":"cycleway","name":"Wingfield Road","category":"Dedicated cycleway"},"geometry":{"type":"MultiLineString","coordinates":[[[-0.0133725,51.5819999],[-0.0133318,51.5819873],[-0.013318,51.5819709],[-0.0133259,51.5819512]]]}},
{"type":"Feature","properties":{"highway":"cycleway","name":"Peterborough Road","category":"Dedicated cycleway"},"geometry":{"type":"MultiLineString","coordinates":[[[-0.0034581,51.5797243],[-0.0035097,51.5797281],[-0.0035357,51.5797551],[-0.0035098,51.5797826]]]}},
{"type":"Feature","properties":{"highway":"cycleway","name":null,"category":"Dedicated cycleway"},"geometry":{"type":"MultiLineString","coordinates":[[[0.0020547,51.5817987],[0.0018711,51.5817302]]]}},
{"type":"Feature","properties":{"highway":"cycleway","name":"Lea Bridge Road","category":"Dedicated cycleway"},"geometry":{"type":"MultiLineString","coordinates":[[[0.0001188,51.5814601],[0.0000963,51.5814492]]]}},
{"type":"Feature","properties":{"highway":"cycleway","name":"Lea Bridge Road","category":"Dedicated cycleway"},"geometry":{"type":"MultiLineString","coordinates":[[[-0.0037682,51.5797263],[-0.0037823,51.5797067]]]}},
{"type":"Feature","properties":{"highway":"cycleway","name":"Leyton Green Road","category":"Dedicated cycleway"},"geometry":{"type":"MultiLineString","coordinates":[[[-0.0077153,51.5775141],[-0.0077278,51.5775297],[-0.0076958,51.5776423],[-0.0077002,51.577654],[-0.007729,51.5776898],[-0.0077306,51.5777055],[-0.0077269,51.5777203]]]}},
{"type":"Feature","properties":{"highway":"cycleway","name":null,"category":"Dedicated cycleway"},"geometry":{"type":"MultiLineString","coordinates":[[[-0.0124955,51.5757181],[-0.0123673,51.575816],[-0.0121221,51.5760026],[-0.0118635,51.5761907],[-0.0117963,51.5762399],[-0.0117466,51.5762981],[-0.0117328,51.5763331],[-0.0116231,51.5764487],[-0.0115186,51.5764876],[-0.0114513,51.5765448],[-0.011423,51.5765709],[-0.0113882,51.5766014],[-0.0113634,51.5766293],[-0.0113271,51.5766684],[-0.0113051,51.576688],[-0.0112852,51.5767389],[-0.0111773,51.5767995],[-0.0110929,51.576838],[-0.0107761,51.5769416]]]}},
{"type":"Feature","properties":{"highway":"cycleway","name":"Lea Bridge Road","category":"Dedicated cycleway"},"geometry":{"type":"MultiLineString","coordinates":[[[-0.0152871,51.5736757],[-0.0151227,51.5737706],[-0.0150755,51.5738059],[-0.0149331,51.5738917],[-0.0148322,51.5739758],[-0.0147326,51.5740463],[-0.0146312,51.5741219],[-0.0143376,51.5743305],[-0.0142243,51.5744084],[-0.0142124,51.5744183],[-0.0142069,51.574427],[-0.0141692,51.5744885],[-0.0141183,51.5745294],[-0.0139425,51.5746848],[-0.0137729,51.5747903],[-0.0136898,51.5748497],[-0.0136378,51.574875],[-0.0135375,51.5749402]]]}},
{"type":"Feature","properties":{"highway":"cycleway","name":null,"category":"Dedicated cycleway"},"geometry":{"type":"MultiLineString","coordinates":[[[-0.011107,51.5767142],[-0.0111589,51.5766827],[-0.0112052,51.5766442],[-0.0113231,51.57653],[-0.0113505,51.5765039],[-0.0115541,51.5763163],[-0.011636,51.5762353],[-0.0117793,51.5761138],[-0.0118649,51.5760499],[-0.0121204,51.5758628],[-0.0121308,51.575844],[-0.0122626,51.5757432],[-0.0122868,51.5757352],[-0.0125905,51.5755102],[-0.0126536,51.575475],[-0.0126889,51.5754473],[-0.0127349,51.5754121],[-0.0127638,51.5753673],[-0.012774,51.5753515]]]}},
{"type":"Feature","properties":{"highway":"cycleway","name":"Lea Bridge Road","category":"Dedicated cycleway"},"geometry":{"type":"MultiLineString","coordinates":[[[-0.0129767,51.5753897],[-0.0129392,51.5754513],[-0.0129035,51.5755009]]]}},
{"type":"Feature","properties":{"highway":"cycleway","name":"Lea Bridge Road","category":"Dedicated cycleway"},"geometry":{"type":"MultiLineString","coordinates":[[[-0.012774,51.5753515],[-0.0128151,51.5752826],[-0.0128628,51.5752027]]]}},
{"type":"Feature","properties":{"highway":"cycleway","name":"Lea Bridge Road","category":"Dedicated cycleway"},"geometry":{"type":"MultiLineString","coordinates":[[[-0.0128474,51.5755271],[-0.0127847,51.5755343],[-0.0126984,51.575567],[-0.0126645,51.5755866],[-0.0124955,51.5757181]]]}},
{"type":"Feature","properties":{"highway":"cycleway","name":null,"category":"Dedicated cycleway"},"geometry":{"type":"MultiLineString","coordinates":[[[-0.0077196,51.5777417],[-0.0077051,51.5777845],[-0.0076891,51.5778318]]]}},
{"type":"Feature","properties":{"highway":"cycleway","name":null,"category":"Dedicated cycleway"},"geometry":{"type":"MultiLineString","coordinates":[[[-0.0075473,51.5777753],[-0.0076142,51.5777547],[-0.0076694,51.5777375]]]}},
{"type":"Feature","properties":{"highway":"cycleway","name":null,"category":"Dedicated cycleway"},"geometry":{"type":"MultiLineString","coordinates":[[[-0.0076595,51.5778449],[-0.0076061,51.5778245],[-0.0075313,51.5777959]]]}},
{"type":"Feature","properties":{"highway":"cycleway","name":"Leyton Green Road","category":"Dedicated cycleway"},"geometry":{"type":"MultiLineString","coordinates":[[[-0.0075213,51.5777886],[-0.0075514,51.5777418],[-0.0075602,51.5776925]]]}},
{"type":"Feature","properties":{"highway":"cycleway","name":null,"category":"Dedicated cycleway"},"geometry":{"type":"MultiLineString","coordinates":[[[-0.0077806,51.5777015],[-0.0078534,51.5776847],[-0.0079027,51.5776802],[-0.008158,51.5776163],[-0.0083237,51.5775655],[-0.0087702,51.577436],[-0.0089603,51.5773798],[-0.0089958,51.577362],[-0.009294,51.5772686],[-0.0093306,51.57725],[-0.0095677,51.57718],[-0.0107889,51.576822],[-0.0108818,51.5768057],[-0.0109772,51.5767717],[-0.0110464,51.576744],[-0.011107,51.5767142]]]}},
{"type":"Feature","properties":{"highway":"cycleway","name":"Lea Bridge Road","category":"Dedicated cycleway"},"geometry":{"type":"MultiLineString","coordinates":[[[-0.0141398,51.5743552],[-0.0142429,51.5742784],[-0.0143227,51.574221],[-0.0143457,51.5741774],[-0.0145351,51.5740482]]]}},
{"type":"Feature","properties":{"highway":"cycleway","name":"Leyton Green Road","category":"Dedicated cycleway"},"geometry":{"type":"MultiLineString","coordinates":[[[-0.0075602,51.5776925],[-0.0075766,51.57759]]]}},
{"type":"Feature","properties":{"highway":"cycleway","name":"Western Road","category":"Dedicated cycleway"},"geometry":{"type":"MultiLineString","coordinates":[[[-0.0038682,51.579832],[-0.0038498,51.5798065]]]}},
{"type":"Feature","properties":{"highway":"cycleway","name":"Lea Bridge Road","category":"Dedicated cycleway"},"geometry":{"type":"MultiLineString","coordinates":[[[-0.0035453,51.5798171],[-0.0037199,51.5797432],[-0.0037682,51.5797263]]]}},
{"type":"Feature","properties":{"highway":"cycleway","name":null,"category":"Dedicated cycleway"},"geometry":{"type":"MultiLineString","coordinates":[[[0.0021605,51.5819808],[0.0021857,51.5819612],[0.0022206,51.5819343]]]}},
{"type":"Feature","properties":{"highway":"cycleway","name":"Lea Bridge Road","category":"Dedicated cycleway"},"geometry":{"type":"MultiLineString","coordinates":[[[-0.0135375,51.5749402],[-0.0134076,51.575038],[-0.0132449,51.5751272],[-0.0131345,51.5752084],[-0.0130929,51.5752376],[-0.0129818,51.5753201]]]}},
{"type":"Feature","properties":{"highway":"cycleway","name":"Lea Bridge Road","category":"Dedicated cycleway"},"geometry":{"type":"MultiLineString","coordinates":[[[-0.0165016,51.5730095],[-0.0167343,51.5729337]]]}},
{"type":"Feature","properties":{"highway":"cycleway","name":null,"category":"Dedicated cycleway"},"geometry":{"type":"MultiLineString","coordinates":[[[-0.0128581,51.5751774],[-0.0128836,51.5751772]]]}},
{"type":"Feature","properties":{"highway":"cycleway","name":null,"category":"Dedicated cycleway"},"geometry":{"type":"MultiLineString","coordinates":[[[-0.0124314,51.5750521],[-0.0125055,51.5750337],[-0.0127232,51.5751371],[-0.0127554,51.5751496],[-0.012803,51.5751644],[-0.0128207,51.5751684],[-0.0128439,51.5751757],[-0.0128581,51.5751774]]]}},
{"type":"Feature","properties":{"highway":"cycleway","name":"Lea Bridge Road","category":"Dedicated cycleway"},"geometry":{"type":"MultiLineString","coordinates":[[[-0.0060324,51.5790385],[-0.0059015,51.5790944],[-0.0057993,51.5791366],[-0.0056976,51.5791757],[-0.0056652,51.5791882],[-0.0055824,51.5792188],[-0.0054843,51.5792364],[-0.0053817,51.579262],[-0.004793,51.5794851],[-0.0047815,51.5794897],[-0.0046594,51.579536],[-0.004167,51.5797185],[-0.0039221,51.5798121],[-0.0038682,51.579832],[-0.0035977,51.5799331],[-0.0035732,51.5799487],[-0.0032302,51.5800768],[-0.0031974,51.5801009],[-0.0031829,51.580108],[-0.0030973,51.5801426],[-0.00296,51.5801955]]]}},
{"type":"Feature","properties":{"highway":"cycleway","name":"Lea Bridge Road","category":"Dedicated cycleway"},"geometry":{"type":"MultiLineString","coordinates":[[[-0.0063925,51.5788483],[-0.0063469,51.5788725],[-0.0061286,51.5789895],[-0.0060324,51.5790385]]]}},
{"type":"Feature","properties":{"highway":"cycleway","name":"Lea Bridge Road","category":"Dedicated cycleway"},"geometry":{"type":"MultiLineString","coordinates":[[[0.0035156,51.5824955],[0.003339,51.5824075],[0.0031246,51.5823031],[0.0029288,51.5822068],[0.0027222,51.5821054],[0.0025116,51.582004],[0.0023826,51.5819374],[0.0023463,51.5819218],[0.0022993,51.5819313]]]}},
{"type":"Feature","properties":{"highway":"cycleway","name":"Lea Bridge Road","category":"Dedicated cycleway"},"geometry":{"type":"MultiLineString","coordinates":[[[0.0003453,51.5817079],[0.0003695,51.5817012],[0.0004477,51.5816753],[0.0004878,51.5816714],[0.0006303,51.5816775],[0.0007456,51.5816878],[0.0009278,51.581719],[0.0010229,51.5817386],[0.0011325,51.5817679],[0.0012862,51.5818154],[0.0015792,51.5819242],[0.0016293,51.5819421]]]}},
{"type":"Feature","properties":{"highway":"cycleway","name":"Lea Bridge Road","category":"Dedicated cycleway"},"geometry":{"type":"MultiLineString","coordinates":[[[-0.0152529,51.5735647],[-0.0153498,51.5735074],[-0.0156338,51.5733454],[-0.0158146,51.5732635],[-0.0159224,51.5732241]]]}},
{"type":"Feature","properties":{"highway":"cycleway","name":"Lea Bridge Road","category":"Dedicated cycleway"},"geometry":{"type":"MultiLineString","coordinates":[[[0.0002151,51.5814748],[0.0001679,51.5814702],[0.0001451,51.5814666],[0.0001188,51.5814601]]]}},
{"type":"Feature","properties":{"highway":"cycleway","name":"Lea Bridge Road","category":"Dedicated cycleway"},"geometry":{"type":"MultiLineString","coordinates":[[[0.0003103,51.581756],[0.0003145,51.5817527],[0.000343,51.5817173],[0.0003453,51.5817079]]]}},
{"type":"Feature","properties":{"highway":"cycleway","name":null,"category":"Dedicated cycleway"},"geometry":{"type":"MultiLineString","coordinates":[[[0.0022533,51.5819106],[0.0022902,51.5818838]]]}},
{"type":"Feature","properties":{"highway":"cycleway","name":null,"category":"Dedicated cycleway"},"geometry":{"type":"MultiLineString","coordinates":[[[0.003361,51.5801675],[0.0033154,51.5801331],[0.0032749,51.5801026]]]}},
{"type":"Feature","properties":{"highway":"cycleway","name":null,"category":"Dedicated cycleway"},"geometry":{"type":"MultiLineString","coordinates":[[[-0.0128474,51.5755271],[-0.0128123,51.5755032],[-0.0128047,51.5754988]]]}},
{"type":"Feature","properties":{"highway":"cycleway","name":null,"category":"Dedicated cycleway"},"geometry":{"type":"MultiLineString","coordinates":[[[-0.0128047,51.5754988],[-0.012746,51.5754727],[-0.0126889,51.5754473]]]}},
{"type":"Feature","properties":{"highway":"path","name":null,"category":"Shared path"},"geometry":{"type":"MultiLineString","coordinates":[[[-0.0082941,51.5775286],[-0.0081346,51.5775048],[-0.0077326,51.5774383],[-0.0076851,51.5774305]]]}},
{"type":"Feature","properties":{"highway":"path","name":null,"category":"Shared path"},"geometry":{"type":"MultiLineString","coordinates":[[[-0.0130075,51.5803811],[-0.0130173,51.5804132]]]}},
{"type":"Feature","properties":{"highway":"cycleway","name":null,"category":"Dedicated cycleway"},"geometry":{"type":"MultiLineString","coordinates":[[[-0.0128881,51.575177],[-0.0129047,51.5751825],[-0.0129143,51.5751926]]]}},
{"type":"Feature","properties":{"highway":"cycleway","name":"Western Road","category":"Dedicated cycleway"},"geometry":{"type":"MultiLineString","coordinates":[[[-0.0039333,51.5798979],[-0.0039216,51.5798868],[-0.0038803,51.5798476],[-0.0038682,51.579832]]]}},
{"type":"Feature","properties":{"highway":"cycleway","name":null,"category":"Dedicated cycleway"},"geometry":{"type":"MultiLineString","coordinates":[[[0.0014774,51.5809945],[0.0014165,51.5809928],[0.0013827,51.5809877],[0.0013535,51.5809797],[0.0012919,51.5809557],[0.001271,51.5809433],[0.0012473,51.5809242],[0.0012173,51.5808652]]]}},
{"type":"Feature","properties":{"highway":"cycleway","name":"Lea Bridge Road","category":"Dedicated cycleway"},"geometry":{"type":"MultiLineString","coordinates":[[[0.0006505,51.5814827],[0.0005592,51.5814798],[0.000411,51.5814773],[0.0002543,51.581478],[0.0002151,51.5814748]]]}},
{"type":"Feature","properties":{"highway":"cycleway","name":"Lea Bridge Road","category":"Dedicated cycleway"},"geometry":{"type":"MultiLineString","coordinates":[[[0.0007241,51.5814864],[0.0006505,51.5814827]]]}},
{"type":"Feature","properties":{"highway":"cycleway","name":"Lea Bridge Road","category":"Dedicated cycleway"},"geometry":{"type":"MultiLineString","coordinates":[[[-0.0037823,51.5797067],[-0.0038131,51.5796965],[-0.0042079,51.5795445],[-0.004367,51.579482],[-0.0045173,51.579423],[-0.0046713,51.5793697],[-0.0047861,51.5793296],[-0.004897,51.5793062],[-0.0049931,51.5792764],[-0.0051917,51.5791957],[-0.0052622,51.5791701],[-0.0053168,51.579138],[-0.0054137,51.5790958],[-0.0057411,51.5789638],[-0.0058456,51.5789107],[-0.0058682,51.5789001],[-0.0059613,51.5788706],[-0.0062019,51.5787925],[-0.0062231,51.5787814],[-0.0062614,51.5787612],[-0.0063661,51.578697],[-0.006418,51.5786664],[-0.0065421,51.5785782],[-0.0067316,51.5784331],[-0.0067695,51.5783567],[-0.0067896,51.5783333],[-0.0068825,51.5782429],[-0.0069768,51.5782117],[-0.0070027,51.5781905],[-0.0070399,51.5781493],[-0.0070535,51.5781389],[-0.0070763,51.5781194],[-0.0071943,51.578017],[-0.007234,51.5779851],[-0.0072881,51.5779435],[-0.007349,51.5778986],[-0.0073787,51.5778809],[-0.007489,51.5778113],[-0.0075018,51.5778042],[-0.0075213,51.5777886]]]}},
{"type":"Feature","properties":{"highway":"cycleway","name":null,"category":"Dedicated cycleway"},"geometry":{"type":"MultiLineString","coordinates":[[[-0.0038498,51.5798065],[-0.0038225,51.5797791],[-0.0037966,51.579753]]]}},
{"type":"Feature","properties":{"highway":"cycleway","name":"Western Road","category":"Dedicated cycleway"},"geometry":{"type":"MultiLineString","coordinates":[[[-0.0037966,51.579753],[-0.0037682,51.5797263]]]}},
{"type":"Feature","properties":{"highway":"cycleway","name":null,"category":"Dedicated cycleway"},"geometry":{"type":"MultiLineString","coordinates":[[[-0.0129143,51.5751926],[-0.0129467,51.5752589],[-0.0129818,51.5753201]]]}},
{"type":"Feature","properties":{"highway":"cycleway","name":"Lea Bridge Road","category":"Dedicated cycleway"},"geometry":{"type":"MultiLineString","coordinates":[[[0.0016449,51.5816674],[0.0015589,51.5816409],[0.0014121,51.5816032],[0.0013548,51.5815894]]]}},
{"type":"Feature","properties":{"highway":"cycleway","name":null,"category":"Dedicated cycleway"},"geometry":{"type":"MultiLineString","coordinates":[[[0.0033847,51.5801849],[0.003361,51.5801675]]]}},
{"type":"Feature","properties":{"highway":"cycleway","name":null,"category":"Dedicated cycleway"},"geometry":{"type":"MultiLineString","coordinates":[[[0.0032749,51.5801026],[0.003258,51.5800893]]]}},
{"type":"Feature","properties":{"highway":"cycleway","name":null,"category":"Dedicated cycleway"},"geometry":{"type":"MultiLineString","coordinates":[[[-0.0076694,51.5777375],[-0.0077269,51.5777203],[-0.0077806,51.5777015]]]}},
{"type":"Feature","properties":{"highway":"cycleway","name":null,"category":"Dedicated cycleway"},"geometry":{"type":"MultiLineString","coordinates":[[[-0.0077269,51.5777203],[-0.0077211,51.5777375],[-0.0077196,51.5777417]]]}},
{"type":"Feature","properties":{"highway":"cycleway","name":null,"category":"Dedicated cycleway"},"geometry":{"type":"MultiLineString","coordinates":[[[-0.0076891,51.5778318],[-0.007683,51.5778497]]]}},
{"type":"Feature","properties":{"highway":"cycleway","name":null,"category":"Dedicated cycleway"},"geometry":{"type":"MultiLineString","coordinates":[[[-0.0075213,51.5777886],[-0.0075473,51.5777753]]]}},
{"type":"Feature","properties":{"highway":"cycleway","name":null,"category":"Dedicated cycleway"},"geometry":{"type":"MultiLineString","coordinates":[[[-0.007683,51.5778497],[-0.0076595,51.5778449]]]}},
{"type":"Feature","properties":{"highway":"cycleway","name":null,"category":"Dedicated cycleway"},"geometry":{"type":"MultiLineString","coordinates":[[[-0.0075313,51.5777959],[-0.0075213,51.5777886]]]}},
{"type":"Feature","properties":{"highway":"cycleway","name":null,"category":"Dedicated cycleway"},"geometry":{"type":"MultiLineString","coordinates":[[[-0.0172942,51.5784465],[-0.017222,51.5784423]]]}},
{"type":"Feature","properties":{"highway":"cycleway","name":"Lea Bridge Road","category":"Dedicated cycleway"},"geometry":{"type":"MultiLineString","coordinates":[[[-0.0129818,51.5753201],[-0.0129787,51.57533],[-0.0129809,51.5753835]]]}},
{"type":"Feature","properties":{"highway":"cycleway","name":"Lea Bridge Road","category":"Dedicated cycleway"},"geometry":{"type":"MultiLineString","coordinates":[[[-0.0129809,51.5753835],[-0.0129767,51.5753897]]]}},
{"type":"Feature","properties":{"highway":"cycleway","name":"Lea Bridge Road","category":"Dedicated cycleway"},"geometry":{"type":"MultiLineString","coordinates":[[[-0.0159224,51.5732241],[-0.0159946,51.5731953],[-0.0160133,51.5731831],[-0.0162273,51.573102],[-0.0162739,51.5730874],[-0.0164516,51.5730233],[-0.0164754,51.5730144],[-0.0165016,51.5730095]]]}},
{"type":"Feature","properties":{"highway":"cycleway","name":"Lea Bridge Road","category":"Dedicated cycleway"},"geometry":{"type":"MultiLineString","coordinates":[[[-0.0170449,51.5729384],[-0.0169256,51.5729853],[-0.0166339,51.5730819],[-0.016589,51.5730971]]]}},
{"type":"Feature","properties":{"highway":"cycleway","name":"Lea Bridge Road","category":"Dedicated cycleway"},"geometry":{"type":"MultiLineString","coordinates":[[[-0.0182733,51.5725988],[-0.0176762,51.5727271],[-0.0176205,51.5727431],[-0.01751,51.5727874],[-0.0172778,51.5728643],[-0.0171169,51.5729172],[-0.0170449,51.5729384]]]}},
{"type":"Feature","properties":{"highway":"cycleway","name":"Lea Bridge Road","category":"Dedicated cycleway"},"geometry":{"type":"MultiLineString","coordinates":[[[-0.0167343,51.5729337],[-0.0167939,51.5729065],[-0.0170203,51.5728144],[-0.0175687,51.5726542]]]}},
{"type":"Feature","properties":{"highway":"cycleway","name":"Lea Bridge Road","category":"Dedicated cycleway"},"geometry":{"type":"MultiLineString","coordinates":[[[-0.0129035,51.5755009],[-0.0128782,51.5755185],[-0.0128474,51.5755271]]]}},
{"type":"Feature","properties":{"highway":"cycleway","name":null,"category":"Dedicated cycleway"},"geometry":{"type":"MultiLineString","coordinates":[[[-0.0107761,51.5769416],[-0.0106874,51.5769686],[-0.0096059,51.5772973],[-0.0088386,51.5775079],[-0.0085251,51.5775958],[-0.0085055,51.5776084],[-0.0083101,51.5776673],[-0.0082772,51.5776678],[-0.0081631,51.5776987],[-0.0079054,51.5777731],[-0.0078203,51.5778006],[-0.007731,51.5778298],[-0.007683,51.5778497]]]}},
{"type":"Feature","properties":{"highway":"cycleway","name":"Lea Bridge Road","category":"Dedicated cycleway"},"geometry":{"type":"MultiLineString","coordinates":[[[-0.0128628,51.5752027],[-0.0128694,51.5751888],[-0.0128836,51.5751772],[-0.0128881,51.575177]]]}},
{"type":"Feature","properties":{"highway":"cycleway","name":"Lea Bridge Road","category":"Dedicated cycleway"},"geometry":{"type":"MultiLineString","coordinates":[[[-0.0141012,51.5743822],[-0.0141398,51.5743552]]]}},
{"type":"Feature","properties":{"highway":"cycleway","name":"Lea Bridge Road","category":"Dedicated cycleway"},"geometry":{"type":"MultiLineString","coordinates":[[[-0.0145351,51.5740482],[-0.0146079,51.5740225],[-0.0146458,51.5739975]]]}},
{"type":"Feature","properties":{"highway":"cycleway","name":null,"category":"Dedicated cycleway"},"geometry":{"type":"MultiLineString","coordinates":[[[0.0002326,51.5815014],[0.0002291,51.581491],[0.0002151,51.5814748]]]}},
{"type":"Feature","properties":{"highway":"cycleway","name":null,"category":"Dedicated cycleway"},"geometry":{"type":"MultiLineString","coordinates":[[[0.0002585,51.5817428],[0.0002728,51.5817471],[0.0002983,51.5817549],[0.0003103,51.581756]]]}},
{"type":"Feature","properties":{"highway":"cycleway","name":null,"category":"Dedicated cycleway"},"geometry":{"type":"MultiLineString","coordinates":[[[0.0001188,51.5814601],[0.0000815,51.5814627],[0.0000622,51.5814647],[0.0000525,51.5814706]]]}},
{"type":"Feature","properties":{"highway":"cycleway","name":null,"category":"Dedicated cycleway"},"geometry":{"type":"MultiLineString","coordinates":[[[0.0003453,51.5817079],[0.00033,51.5816851],[0.0003236,51.5816775]]]}},
{"type":"Feature","properties":{"highway":"cycleway","name":null,"category":"Dedicated cycleway"},"geometry":{"type":"MultiLineString","coordinates":[[[0.00023,51.5815422],[0.0002283,51.5815215],[0.0002326,51.5815014]]]}},
{"type":"Feature","properties":{"highway":"cycleway","name":null,"category":"Dedicated cycleway"},"geometry":{"type":"MultiLineString","coordinates":[[[0.000238,51.5815612],[0.00023,51.5815422]]]}},
{"type":"Feature","properties":{"highway":"cycleway","name":"Lea Bridge Road","category":"Dedicated cycleway"},"geometry":{"type":"MultiLineString","coordinates":[[[-0.0028124,51.5802512],[-0.0025396,51.5803522],[-0.0025053,51.5803652],[-0.002252,51.5804873],[-0.0021205,51.5805489],[-0.001652,51.5807713],[-0.0014138,51.5808824],[-0.0009479,51.5811165],[-0.0007942,51.5811893],[-0.0006388,51.5812666],[-0.0006307,51.5812747],[-0.0006149,51.5812971],[-0.0005822,51.5813558],[-0.0005485,51.5813741]]]}},
{"type":"Feature","properties":{"highway":"cycleway","name":"Lea Bridge Road","category":"Dedicated cycleway"},"geometry":{"type":"MultiLineString","coordinates":[[[-0.00296,51.5801955],[-0.0028836,51.5802243],[-0.0028124,51.5802512]]]}},
{"type":"Feature","properties":{"highway":"cycleway","name":"Lea Bridge Road","category":"Dedicated cycleway"},"geometry":{"type":"MultiLineString","coordinates":[[[-0.0028516,51.5800923],[-0.0029869,51.5800392],[-0.0030225,51.5800272],[-0.0030363,51.5800234],[-0.0031151,51.5800053],[-0.0034552,51.5798709],[-0.0035006,51.5798341],[-0.0035453,51.5798171]]]}},
{"type":"Feature","properties":{"highway":"cycleway","name":"Lea Bridge Road","category":"Dedicated cycleway"},"geometry":{"type":"MultiLineString","coordinates":[[[-0.0027276,51.5801415],[-0.0027884,51.5801174],[-0.0028516,51.5800923]]]}},
{"type":"Feature","properties":{"highway":"cycleway","name":null,"category":"Dedicated cycleway"},"geometry":{"type":"MultiLineString","coordinates":[[[-0.0062614,51.5787612],[-0.006285,51.5787773],[-0.0062869,51.5787786]]]}},
{"type":"Feature","properties":{"highway":"cycleway","name":null,"category":"Dedicated cycleway"},"geometry":{"type":"MultiLineString","coordinates":[[[0.0020578,51.5820618],[0.0021014,51.5820269],[0.0021401,51.5819967]]]}},
{"type":"Feature","properties":{"highway":"cycleway","name":null,"category":"Dedicated cycleway"},"geometry":{"type":"MultiLineString","coordinates":[[[0.0021401,51.5819967],[0.0021605,51.5819808]]]}},
{"type":"Feature","properties":{"highway":"cycleway","name":null,"category":"Dedicated cycleway"},"geometry":{"type":"MultiLineString","coordinates":[[[0.0022334,51.581925],[0.0022533,51.5819106]]]}},
{"type":"Feature","properties":{"highway":"cycleway","name":null,"category":"Dedicated cycleway"},"geometry":{"type":"MultiLineString","coordinates":[[[0.0022206,51.5819343],[0.0022334,51.581925]]]}},
{"type":"Feature","properties":{"highway":"cycleway","name":null,"category":"Dedicated cycleway"},"geometry":{"type":"MultiLineString","coordinates":[[[0.0000297,51.5815043],[0.0000201,51.5815186]]]}},
{"type":"Feature","properties":{"highway":"cycleway","name":null,"category":"Dedicated cycleway"},"geometry":{"type":"MultiLineString","coordinates":[[[0.0000201,51.5815186],[-0.0000015,51.5815505],[-0.0000333,51.5815975]]]}},
{"type":"Feature","properties":{"highway":"cycleway","name":"Peterborough Road","category":"Dedicated cycleway"},"geometry":{"type":"MultiLineString","coordinates":[[[0.0008488,51.5761254],[0.0009298,51.576105],[0.0009604,51.576079],[0.0009573,51.5760401]]]}},
{"type":"Feature","properties":{"highway":"cycleway","name":"Grove Road","category":"Dedicated cycleway"},"geometry":{"type":"MultiLineString","coordinates":[[[-0.0107821,51.5790873],[-0.0107273,51.5790967]]]}},
{"type":"Feature","properties":{"highway":"cycleway","name":"Grove Road","category":"Dedicated cycleway"},"geometry":{"type":"MultiLineString","coordinates":[[[-0.0108079,51.5790832],[-0.0107919,51.5790856],[-0.0107821,51.5790873]]]}},
{"type":"Feature","properties":{"highway":"cycleway","name":null,"category":"Dedicated cycleway"},"geometry":{"type":"MultiLineString","coordinates":[[[-0.016589,51.5730971],[-0.0165804,51.5730892],[-0.0165691,51.5730777]]]}},
{"type":"Feature","properties":{"highway":"cycleway","name":null,"category":"Dedicated cycleway"},"geometry":{"type":"MultiLineString","coordinates":[[[-0.0165204,51.5730285],[-0.0165111,51.5730191],[-0.0165016,51.5730095]]]}},
{"type":"Feature","properties":{"highway":"cycleway","name":null,"category":"Dedicated cycleway"},"geometry":{"type":"MultiLineString","coordinates":[[[-0.0124493,51.5826244],[-0.0124546,51.5826323]]]}},
{"type":"Feature","properties":{"highway":"cycleway","name":"Greville Road","category":"Dedicated cycleway"},"geometry":{"type":"MultiLineString","coordinates":[[[-0.004377,51.5827069],[-0.0043864,51.5826787]]]}},
{"type":"Feature","properties":{"highway":"cycleway","name":"Greville Road","category":"Dedicated cycleway"},"geometry":{"type":"MultiLineString","coordinates":[[[-0.0043732,51.5827199],[-0.004377,51.5827069]]]}},
{"type":"Feature","properties":{"highway":"cycleway","name":null,"category":"Dedicated cycleway"},"geometry":{"type":"MultiLineString","coordinates":[[[-0.004062,51.5827242],[-0.004098,51.5827469]]]}},
{"type":"Feature","properties":{"highway":"cycleway","name":null,"category":"Dedicated cycleway"},"geometry":{"type":"MultiLineString","coordinates":[[[-0.004098,51.5827469],[-0.0041168,51.5827557]]]}},
{"type":"Feature","properties":{"highway":"cycleway","name":"Hoe Street","category":"Dedicated cycleway"},"geometry":{"type":"MultiLineString","coordinates":[[[-0.0133696,51.5757253],[-0.0132775,51.5756974],[-0.0131627,51.5756546],[-0.01313,51.5756431],[-0.0130249,51.575588],[-0.0129151,51.5755363],[-0.0129139,51.5755357],[-0.0128678,51.5755294],[-0.0128474,51.5755271]]]}},
{"type":"Feature","properties":{"highway":"cycleway","name":null,"category":"Dedicated cycleway"},"geometry":{"type":"MultiLineString","coordinates":[[[-0.0165263,51.57773],[-0.0165766,51.5777116],[-0.0166112,51.577699]]]}},
{"type":"Feature","properties":{"highway":"cycleway","name":null,"category":"Dedicated cycleway"},"geometry":{"type":"MultiLineString","coordinates":[[[-0.0164787,51.5777466],[-0.0164922,51.5777424],[-0.0165043,51.577738],[-0.0165218,51.5777316],[-0.0165263,51.57773]]]}},
{"type":"Feature","properties":{"highway":"cycleway","name":null,"category":"Dedicated cycleway"},"geometry":{"type":"MultiLineString","coordinates":[[[-0.0166112,51.577699],[-0.0166162,51.5776972],[-0.0166301,51.5776921],[-0.0166418,51.5776875],[-0.0166456,51.5776849],[-0.0166496,51.5776817]]]}},
{"type":"Feature","properties":{"highway":"cycleway","name":"Hoe Street","category":"Dedicated cycleway"},"geometry":{"type":"MultiLineString","coordinates":[[[-0.0136525,51.575714],[-0.0137224,51.5757337],[-0.0140047,51.5757997],[-0.0141116,51.5758262],[-0.0142978,51.5758723],[-0.0144294,51.575916],[-0.0145051,51.5759505],[-0.0146197,51.5760027],[-0.0147393,51.57606]]]}},
{"type":"Feature","properties":{"highway":"cycleway","name":"Hoe Street","category":"Dedicated cycleway"},"geometry":{"type":"MultiLineString","coordinates":[[[-0.0169415,51.5781791],[-0.0169062,51.5781404],[-0.0167871,51.5780142],[-0.0167488,51.5779755],[-0.0167213,51.5779706],[-0.0166788,51.5779627],[-0.0165509,51.5778305],[-0.0165179,51.5777941],[-0.0165065,51.577781],[-0.0164838,51.577755],[-0.0164787,51.5777466],[-0.0164656,51.5777265],[-0.016452,51.5777064],[-0.0164414,51.5776896],[-0.0164251,51.5776638],[-0.0164124,51.5776356],[-0.0164098,51.5776174],[-0.0163998,51.5776042],[-0.0163834,51.5775862],[-0.0163636,51.5775836],[-0.016359,51.5775782],[-0.0163081,51.5775139],[-0.0162954,51.5774947],[-0.0162789,51.5774698],[-0.0162694,51.5774485],[-0.0162599,51.577412],[-0.0162603,51.5774012],[-0.016224,51.5773556],[-0.0157931,51.5768068],[-0.0157225,51.5767171],[-0.0156851,51.5766704],[-0.015643,51.5766252],[-0.0155932,51.5765847],[-0.0154707,51.576511],[-0.0153195,51.5764292],[-0.0152947,51.5764158],[-0.0147254,51.57616],[-0.0146373,51.5761204],[-0.0143952,51.5760067],[-0.0142956,51.5759686],[-0.0141885,51.5759329],[-0.0140239,51.5758925],[-0.0136694,51.5758081],[-0.0135999,51.5757915],[-0.0135246,51.5757703],[-0.0134344,51.575745],[-0.0133696,51.5757253]]]}},
{"type":"Feature","properties":{"highway":"cycleway","name":"Hoe Street","category":"Dedicated cycleway"},"geometry":{"type":"MultiLineString","coordinates":[[[-0.0147393,51.57606],[-0.0148074,51.5760927],[-0.0148653,51.5761205]]]}},
{"type":"Feature","properties":{"highway":"cycleway","name":"Lea Bridge Road","category":"Dedicated cycleway"},"geometry":{"type":"MultiLineString","coordinates":[[[-0.0128881,51.575177],[-0.012909,51.5751708],[-0.0129191,51.5751668],[-0.012947,51.5751517]]]}},
{"type":"Feature","properties":{"highway":"cycleway","name":null,"category":"Dedicated cycleway"},"geometry":{"type":"MultiLineString","coordinates":[[[0.003258,51.5800893],[0.0031293,51.5801522],[0.0031035,51.5801545],[0.0030866,51.5801631]]]}},
{"type":"Feature","properties":{"highway":"cycleway","name":null,"category":"Dedicated cycleway"},"geometry":{"type":"MultiLineString","coordinates":[[[0.0030866,51.5801631],[0.0030551,51.5801791],[0.0030005,51.5802128]]]}},
{"type":"Feature","properties":{"highway":"cycleway","name":null,"category":"Dedicated cycleway"},"geometry":{"type":"MultiLineString","coordinates":[[[-0.0153195,51.5764292],[-0.0153541,51.5764019],[-0.0153914,51.5763725]]]}},
{"type":"Feature","properties":{"highway":"cycleway","name":"Hoe Street","category":"Dedicated cycleway"},"geometry":{"type":"MultiLineString","coordinates":[[[-0.0134687,51.5757113],[-0.0136525,51.575714]]]}},
{"type":"Feature","properties":{"highway":"cycleway","name":null,"category":"Dedicated cycleway"},"geometry":{"type":"MultiLineString","coordinates":[[[0.0000424,51.5818866],[0.000155,51.5818739]]]}},
{"type":"Feature","properties":{"highway":"cycleway","name":"Forest Rise","category":"Dedicated cycleway"},"geometry":{"type":"MultiLineString","coordinates":[[[0.0016293,51.5819421],[0.0017784,51.5819956],[0.0019951,51.5820794],[0.0020263,51.5820911]]]}},
{"type":"Feature","properties":{"highway":"path","name":null,"category":"Shared path"},"geometry":{"type":"MultiLineString","coordinates":[[[-0.0130173,51.5804132],[-0.0130832,51.5805038]]]}},
{"type":"Feature","properties":{"highway":"path","name":null,"category":"Shared path"},"geometry":{"type":"MultiLineString","coordinates":[[[0.006481,51.5816239],[0.006373,51.5816681],[0.0062226,51.5817372],[0.0060639,51.5817628],[0.0057897,51.5817359],[0.0053693,51.5815925],[0.0049859,51.58154],[0.0045551,51.5815438],[0.0042068,51.5815182],[0.0039863,51.5814426],[0.0036462,51.5814209],[0.0034792,51.5813235],[0.0033778,51.5811726]]]}},
{"type":"Feature","properties":{"highway":"cycleway","name":"Phyppe Way","category":"Dedicated cycleway"},"geometry":{"type":"MultiLineString","coordinates":[[[0.0024787,51.5804982],[0.0023423,51.5805757],[0.0022124,51.5806409],[0.0021623,51.5806665],[0.0021333,51.5806763],[0.0021117,51.5806812]]]}},
{"type":"Feature","properties":{"highway":"cycleway","name":null,"category":"Dedicated cycleway"},"geometry":{"type":"MultiLineString","coordinates":[[[0.0022902,51.5818838],[0.0022954,51.5818801],[0.0023087,51.5818696],[0.0023162,51.5818625]]]}},
{"type":"Feature","properties":{"highway":"cycleway","name":"Whipps Cross Road","category":"Dedicated cycleway"},"geometry":{"type":"MultiLineString","coordinates":[[[0.0033847,51.5801849],[0.0040926,51.5798433],[0.0051092,51.5794416],[0.0062527,51.5790021],[0.0069653,51.5787282],[0.0069815,51.5787221],[0.007313,51.5785971],[0.0075312,51.5785148],[0.0081712,51.5783287],[0.008242,51.5783081],[0.0089716,51.5781181],[0.009229,51.5780531],[0.0093873,51.5779964],[0.0094416,51.5779755],[0.0094971,51.5779541],[0.0095416,51.5779368]]]}},
{"type":"Feature","properties":{"highway":"cycleway","name":"Buck Walk","category":"Dedicated cycleway"},"geometry":{"type":"MultiLineString","coordinates":[[[-0.0000094,51.5839419],[-0.00006,51.5839232],[-0.0000963,51.5838662],[-0.0001066,51.5838548],[-0.0001207,51.5838393]]]}},
{"type":"Feature","properties":{"highway":"cycleway","name":null,"category":"Dedicated cycleway"},"geometry":{"type":"MultiLineString","coordinates":[[[-0.0114423,51.5765412],[-0.0114039,51.5765255],[-0.0113612,51.5765082]]]}},
{"type":"Feature","properties":{"highway":"cycleway","name":"Leyton Green Road","category":"Dedicated cycleway"},"geometry":{"type":"MultiLineString","coordinates":[[[-0.0076706,51.5774946],[-0.0077153,51.5775141]]]}},
{"type":"Feature","properties":{"highway":"cycleway","name":"Leyton Green Road","category":"Dedicated cycleway"},"geometry":{"type":"MultiLineString","coordinates":[[[-0.0075766,51.57759],[-0.0076493,51.5775753]]]}},
{"type":"Feature","properties":{"highway":"cycleway","name":"Lea Bridge Road","category":"Dedicated cycleway"},"geometry":{"type":"MultiLineString","coordinates":[[[-0.0146861,51.5739701],[-0.0147163,51.5739464]]]}},
{"type":"Feature","properties":{"highway":"cycleway","name":"Lea Bridge Road","category":"Dedicated cycleway"},"geometry":{"type":"MultiLineString","coordinates":[[[-0.0146458,51.5739975],[-0.0146861,51.5739701]]]}},
{"type":"Feature","properties":{"highway":"cycleway","name":null,"category":"Dedicated cycleway"},"geometry":{"type":"MultiLineString","coordinates":[[[-0.0113612,51.5765082],[-0.0113505,51.5765039]]]}},
{"type":"Feature","properties":{"highway":"cycleway","name":null,"category":"Dedicated cycleway"},"geometry":{"type":"MultiLineString","coordinates":[[[-0.0114513,51.5765448],[-0.0114423,51.5765412]]]}},
{"type":"Feature","properties":{"highway":"cycle_lane_on_street","name":"Leyton Green Road","category":"Cycle lane on street"},"geometry":{"type":"MultiLineString","coordinates":[[[-0.0098087,51.5738739],[-0.009695,51.5738978],[-0.0095684,51.5739313],[-0.0095389,51.5739415],[-0.0094781,51.573961],[-0.0093863,51.5739894],[-0.0092976,51.5740293],[-0.009266,51.5740485],[-0.0092103,51.5740824],[-0.0091874,51.5740963],[-0.0091392,51.5741302]]]}},
{"type":"Feature","properties":{"highway":"cycle_lane_on_street","name":"Lea Bridge Road","category":"Cycle lane on street"},"geometry":{"type":"MultiLineString","coordinates":[[[-0.0028431,51.5801745],[-0.0026911,51.5802347]]]}},
{"type":"Feature","properties":{"highway":"cycle_lane_on_street","name":"High Road Leyton","category":"Cycle lane on street"},"geometry":{"type":"MultiLineString","coordinates":[[[-0.0098087,51.5738739],[-0.0095534,51.5737653],[-0.0095054,51.5737434],[-0.0094496,51.5737161],[-0.0091278,51.5735831]]]}},
{"type":"Feature","properties":{"highway":"cycle_lane_on_street","name":"Wood Street","category":"Cycle lane on street"},"geometry":{"type":"MultiLineString","coordinates":[[[-0.0018665,51.5857366],[-0.0018235,51.585672],[-0.0017644,51.5855641],[-0.0017349,51.5855102],[-0.001699,51.5854392],[-0.0014695,51.5849853],[-0.0013991,51.584886],[-0.0009518,51.5844012],[-0.0007834,51.5842274],[-0.0005876,51.5840586],[-0.0004501,51.5839673],[-0.0002577,51.5838708],[-0.0002057,51.5838423]]]}},
{"type":"Feature","properties":{"highway":"cycle_lane_on_street","name":"Lea Bridge Road","category":"Cycle lane on street"},"geometry":{"type":"MultiLineString","coordinates":[[[-0.0028431,51.5801745],[-0.0030451,51.5800926],[-0.0031206,51.5800655],[-0.003147,51.5800559]]]}},
{"type":"Feature","properties":{"highway":"cycle_lane_on_street","name":"Lea Bridge Road","category":"Cycle lane on street"},"geometry":{"type":"MultiLineString","coordinates":[[[-0.003147,51.5800559],[-0.0033047,51.5799911],[-0.0034562,51.5799288]]]}},
{"type":"Feature","properties":{"highway":"cycle_lane_on_street","name":"High Road Leyton","category":"Cycle lane on street"},"geometry":{"type":"MultiLineString","coordinates":[[[-0.0091278,51.5735831],[-0.0090188,51.573532],[-0.0089161,51.5734727],[-0.0088657,51.5734271],[-0.0087577,51.5733295],[-0.0086294,51.5731712],[-0.008544,51.5730121],[-0.0084703,51.5728859],[-0.0084132,51.5727516],[-0.0083786,51.5726254],[-0.0083729,51.5725866],[-0.0083572,51.5724786],[-0.0083621,51.5723794],[-0.0083648,51.5722059],[-0.0083828,51.5718404],[-0.0083939,51.5716164],[-0.0083901,51.5714136],[-0.0083722,51.571132],[-0.0083674,51.5710759],[-0.0083268,51.5706867],[-0.0083171,51.5705943],[-0.0083078,51.5705048],[-0.0083054,51.5704814],[-0.0082927,51.5703603]]]}},
{"type":"Feature","properties":{"highway":"cycle_lane_on_street","name":"Lea Bridge Road","category":"Cycle lane on street"},"geometry":{"type":"MultiLineString","coordinates":[[[-0.0072828,51.5780321],[-0.0073439,51.5779808],[-0.0074071,51.5779338]]]}},
{"type":"Feature","properties":{"highway":"cycle_lane_on_street","name":"Leyton Green Road","category":"Cycle lane on street"},"geometry":{"type":"MultiLineString","coordinates":[[[-0.0091392,51.5741302],[-0.0090648,51.574191],[-0.0090175,51.5742384],[-0.0089563,51.5743216],[-0.0088724,51.5744355],[-0.0087859,51.5745528],[-0.0086712,51.5747119],[-0.0086415,51.5747532],[-0.0084485,51.5750991],[-0.0083323,51.5752076],[-0.008195,51.575287],[-0.0079731,51.5753681],[-0.0079042,51.5753991],[-0.0078232,51.5754334],[-0.007691,51.5755225],[-0.0076089,51.5756071],[-0.0075557,51.5756865],[-0.0075372,51.5757524]]]}},
{"type":"Feature","properties":{"highway":"cycle_lane_on_street","name":"Leyton Green Road","category":"Cycle lane on street"},"geometry":{"type":"MultiLineString","coordinates":[[[-0.0075372,51.5757524],[-0.0075428,51.5757956],[-0.0076077,51.5761934],[-0.0076261,51.5763074],[-0.0076718,51.5765305]]]}},
{"type":"Feature","properties":{"highway":"cycle_lane_on_street","name":"Lea Bridge Road","category":"Cycle lane on street"},"geometry":{"type":"MultiLineString","coordinates":[[[-0.0113133,51.5766118],[-0.0112624,51.5766574],[-0.0112256,51.5766885],[-0.0111889,51.5767176]]]}},
{"type":"Feature","properties":{"highway":"cycle_lane_on_street","name":"Lea Bridge Road","category":"Cycle lane on street"},"geometry":{"type":"MultiLineString","coordinates":[[[-0.0018847,51.5806031],[-0.0017683,51.5806579],[-0.0016368,51.5807193],[-0.0012333,51.5809166]]]}},
{"type":"Feature","properties":{"highway":"cycle_lane_on_street","name":"Lea Bridge Road","category":"Cycle lane on street"},"geometry":{"type":"MultiLineString","coordinates":[[[-0.0058764,51.5789956],[-0.0059542,51.578966],[-0.0060636,51.5789242],[-0.0062439,51.5788391],[-0.006279,51.5788216],[-0.0063186,51.5787995]]]}},
{"type":"Feature","properties":{"highway":"cycle_lane_on_street","name":"Lea Bridge Road","category":"Cycle lane on street"},"geometry":{"type":"MultiLineString","coordinates":[[[-0.006539,51.5786622],[-0.0067384,51.5785124],[-0.0068075,51.5784546]]]}},
{"type":"Feature","properties":{"highway":"cycle_lane_on_street","name":"Lea Bridge Road","category":"Cycle lane on street"},"geometry":{"type":"MultiLineString","coordinates":[[[-0.0063186,51.5787995],[-0.006359,51.5787767],[-0.0064466,51.5787261],[-0.006539,51.5786622]]]}},
{"type":"Feature","properties":{"highway":"cycle_lane_on_street","name":"Lea Bridge Road","category":"Cycle lane on street"},"geometry":{"type":"MultiLineString","coordinates":[[[-0.0009437,51.5810564],[-0.0007655,51.5811496]]]}},
{"type":"Feature","properties":{"highway":"cycle_lane_on_street","name":"Lea Bridge Road","category":"Cycle lane on street"},"geometry":{"type":"MultiLineString","coordinates":[[[-0.0134793,51.5749113],[-0.0130743,51.5751759],[-0.0130308,51.5752025]]]}},
{"type":"Feature","properties":{"highway":"cycle_lane_on_street","name":"High Road","category":"Cycle lane on street"},"geometry":{"type":"MultiLineString","coordinates":[[[-0.0100198,51.5739688],[-0.0098087,51.5738739]]]}},
{"type":"Feature","properties":{"highway":"cycle_lane_on_street","name":"High Road","category":"Cycle lane on street"},"geometry":{"type":"MultiLineString","coordinates":[[[-0.0103304,51.5741082],[-0.0101239,51.5740144]]]}},
{"type":"Feature","properties":{"highway":"cycle_lane_on_street","name":"Lea Bridge Road","category":"Cycle lane on street"},"geometry":{"type":"MultiLineString","coordinates":[[[-0.0042017,51.5796435],[-0.004325,51.5795884],[-0.0045078,51.5795182],[-0.0045824,51.5794896]]]}},
{"type":"Feature","properties":{"highway":"cycle_lane_on_street","name":"Lea Bridge Road","category":"Cycle lane on street"},"geometry":{"type":"MultiLineString","coordinates":[[[-0.0010011,51.5810287],[-0.0009437,51.5810564]]]}},
{"type":"Feature","properties":{"highway":"cycle_lane_on_street","name":"Wood Street","category":"Cycle lane on street"},"geometry":{"type":"MultiLineString","coordinates":[[[-0.0001181,51.5837635],[-0.0000986,51.5837267],[-0.00009,51.5836292],[-0.0001045,51.5833706],[-0.0001123,51.5832897],[-0.000123,51.5831776],[-0.0001552,51.5829795],[-0.0001978,51.5828074],[-0.0002559,51.58257],[-0.0002684,51.5824721],[-0.0002437,51.5823557],[-0.0001954,51.5822405],[-0.0000993,51.5821026],[-0.0000578,51.5820413],[-0.0000375,51.5820134]]]}},
{"type":"Feature","properties":{"highway":"cycle_lane_on_street","name":"Lea Bridge Road","category":"Cycle lane on street"},"geometry":{"type":"MultiLineString","coordinates":[[[-0.0130308,51.5752025],[-0.012955,51.5752534]]]}}
]
}
