{
"type": "FeatureCollection",
"name": "CROYD_19_cycling",
"crs": { "type": "name", "properties": { "name": "urn:ogc:def:crs:OGC:1.3:CRS84" } },
"features": [
{"type":"Feature","properties":{"highway":"cycleway","name":null,"category":"Dedicated cycleway"},"geometry":{"type":"MultiLineString","coordinates":[[[-0.0606828,51.3949777],[-0.0605872,51.3949045],[-0.0602772,51.394667],[-0.0600542,51.3944875],[-0.0599215,51.3943806],[-0.0594991,51.3942057],[-0.058539,51.3937893],[-0.0583756,51.3937524],[-0.0583092,51.3937303],[-0.0582569,51.3937049],[-0.0581984,51.3936724],[-0.0581744,51.3936334],[-0.0581922,51.3936003],[-0.0582088,51.3935843],[-0.0582062,51.393547],[-0.0581666,51.393523],[-0.0581175,51.3935132],[-0.0580777,51.3935084]]]}},
{"type":"Feature","properties":{"highway":"cycleway","name":null,"category":"Dedicated cycleway"},"geometry":{"type":"MultiLineString","coordinates":[[[-0.0586672,51.3914384],[-0.0585846,51.3914763],[-0.0585681,51.3914662]]]}},
{"type":"Feature","properties":{"highway":"cycleway","name":null,"category":"Dedicated cycleway"},"geometry":{"type":"MultiLineString","coordinates":[[[-0.0655372,51.3835401],[-0.0658132,51.3837752],[-0.0660641,51.3839318],[-0.0665776,51.3842267],[-0.0671118,51.3845178],[-0.067376,51.3846395],[-0.0676084,51.3847788],[-0.0677708,51.384925],[-0.0678695,51.3851766],[-0.0679251,51.3854294],[-0.0679525,51.3855166]]]}},
{"type":"Feature","properties":{"highway":"cycleway","name":"Dickenson's Lane","category":"Dedicated cycleway"},"geometry":{"type":"MultiLineString","coordinates":[[[-0.073158,51.3926542],[-0.0730744,51.3926646],[-0.0729569,51.3924866],[-0.0730165,51.3922638],[-0.0730076,51.3921432],[-0.0729819,51.3920235],[-0.0728832,51.3919071],[-0.0727881,51.3916775],[-0.072636,51.3914649],[-0.0725506,51.3913235],[-0.0724408,51.3911023],[-0.0724067,51.3909285],[-0.0723907,51.3908468],[-0.0723545,51.3905967],[-0.0723834,51.3903759],[-0.0722717,51.3899999],[-0.0721697,51.3897363],[-0.0719762,51.3894473],[-0.0718143,51.3892165],[-0.0717268,51.3891001],[-0.0716773,51.3889723],[-0.071717,51.3888733]]]}},
{"type":"Feature","properties":{"highway":"cycleway","name":"Dalmally Passage","category":"Dedicated cycleway"},"geometry":{"type":"MultiLineString","coordinates":[[[-0.0755517,51.3831088],[-0.0755961,51.383142],[-0.0756452,51.3831145],[-0.0756622,51.3831277],[-0.0758965,51.3833094],[-0.0758145,51.3833542],[-0.0759509,51.3834798]]]}},
{"type":"Feature","properties":{"highway":"cycleway","name":"Addiscombe Railway Park","category":"Dedicated cycleway"},"geometry":{"type":"MultiLineString","coordinates":[[[-0.0796649,51.3814014],[-0.0796315,51.3814574],[-0.0792866,51.3816484],[-0.0790641,51.3817717],[-0.0783419,51.3821673],[-0.0781577,51.3823279],[-0.078014,51.3824764],[-0.0778737,51.3825824],[-0.0777082,51.382677],[-0.0775124,51.3827701],[-0.0770878,51.3829613],[-0.0768025,51.3830826],[-0.0765849,51.3831619],[-0.0760546,51.3834168],[-0.0759509,51.3834798]]]}},
{"type":"Feature","properties":{"highway":"cycleway","name":null,"category":"Dedicated cycleway"},"geometry":{"type":"MultiLineString","coordinates":[[[-0.0682854,51.385977],[-0.0683043,51.3859965],[-0.0683232,51.386016],[-0.0683889,51.3859885]]]}},
{"type":"Feature","properties":{"highway":"cycleway","name":null,"category":"Dedicated cycleway"},"geometry":{"type":"MultiLineString","coordinates":[[[-0.0604831,51.3852472],[-0.060438,51.3852645],[-0.0603183,51.3852487],[-0.0602267,51.3851976],[-0.0598829,51.3853304],[-0.0598002,51.3853444],[-0.0597351,51.3853399],[-0.0595299,51.3852615],[-0.0585527,51.3849274],[-0.0573402,51.3845521],[-0.0568564,51.3843914],[-0.0567445,51.3843483],[-0.0566348,51.3843061],[-0.0561763,51.3841296],[-0.0547686,51.3836114],[-0.0546401,51.3835786],[-0.0541543,51.3834547],[-0.0531357,51.3832421],[-0.0527742,51.3831667],[-0.0528142,51.3831241]]]}},
{"type":"Feature","properties":{"highway":"cycleway","name":"Addiscombe Railway Park","category":"Dedicated cycleway"},"geometry":{"type":"MultiLineString","coordinates":[[[-0.0700446,51.3853402],[-0.0703558,51.385239],[-0.0710819,51.3850327],[-0.0715828,51.3849053],[-0.0732398,51.3844689],[-0.0742815,51.384158],[-0.0748586,51.3839488],[-0.0759509,51.3834798]]]}},
{"type":"Feature","properties":{"highway":"cycleway","name":null,"category":"Dedicated cycleway"},"geometry":{"type":"MultiLineString","coordinates":[[[-0.0655087,51.3835158],[-0.06526,51.3836458],[-0.0650063,51.383824],[-0.0646928,51.3841131],[-0.0645006,51.3843229]]]}},
{"type":"Feature","properties":{"highway":"cycleway","name":"Estcourt Road","category":"Dedicated cycleway"},"geometry":{"type":"MultiLineString","coordinates":[[[-0.064818,51.3880205],[-0.0647114,51.3880255],[-0.0646381,51.3880457],[-0.064535,51.3881022],[-0.0644909,51.3880916]]]}},
{"type":"Feature","properties":{"highway":"cycleway","name":null,"category":"Dedicated cycleway"},"geometry":{"type":"MultiLineString","coordinates":[[[-0.0681143,51.3858059],[-0.0681464,51.3858393]]]}},
{"type":"Feature","properties":{"highway":"cycleway","name":null,"category":"Dedicated cycleway"},"geometry":{"type":"MultiLineString","coordinates":[[[-0.0763984,51.3839009],[-0.0764285,51.3839266]]]}},
{"type":"Feature","properties":{"highway":"cycleway","name":null,"category":"Dedicated cycleway"},"geometry":{"type":"MultiLineString","coordinates":[[[-0.0764285,51.3839266],[-0.0764798,51.3839701]]]}},
{"type":"Feature","properties":{"highway":"cycleway","name":"Watcombe Road","category":"Dedicated cycleway"},"geometry":{"type":"MultiLineString","coordinates":[[[-0.0671574,51.3940679],[-0.0670776,51.3940819],[-0.0670207,51.3940707]]]}},
{"type":"Feature","properties":{"highway":"cycleway","name":null,"category":"Dedicated cycleway"},"geometry":{"type":"MultiLineString","coordinates":[[[-0.0630354,51.3858378],[-0.062972,51.3858041],[-0.0628931,51.3857621]]]}},
{"type":"Feature","properties":{"highway":"cycleway","name":null,"category":"Dedicated cycleway"},"geometry":{"type":"MultiLineString","coordinates":[[[-0.0654462,51.383469],[-0.0655087,51.3835158],[-0.0655372,51.3835401]]]}},
{"type":"Feature","properties":{"highway":"cycleway","name":null,"category":"Dedicated cycleway"},"geometry":{"type":"MultiLineString","coordinates":[[[-0.071717,51.3888733],[-0.071927,51.388526]]]}},
{"type":"Feature","properties":{"highway":"path","name":null,"category":"Shared path"},"geometry":{"type":"MultiLineString","coordinates":[[[-0.0681256,51.3891739],[-0.0680806,51.3891591],[-0.0680681,51.389155],[-0.0679726,51.3891708],[-0.067875,51.3891816],[-0.0676901,51.3891905],[-0.0675051,51.3891822],[-0.0673221,51.3891781],[-0.0671117,51.3891829],[-0.0668967,51.389174],[-0.0667529,51.3891657],[-0.0666381,51.3891703],[-0.0664623,51.3891525],[-0.066381,51.3891994]]]}},
{"type":"Feature","properties":{"highway":"cycleway","name":"Addiscombe Railway Park","category":"Dedicated cycleway"},"geometry":{"type":"MultiLineString","coordinates":[[[-0.0699955,51.3853097],[-0.0700201,51.385325],[-0.0700446,51.3853402]]]}},
{"type":"Feature","properties":{"highway":"cycleway","name":"Dalmally Road","category":"Dedicated cycleway"},"geometry":{"type":"MultiLineString","coordinates":[[[-0.0711642,51.3846605],[-0.0711004,51.3846824],[-0.0710618,51.3846957],[-0.0710214,51.3847112]]]}},
{"type":"Feature","properties":{"highway":"cycleway","name":null,"category":"Dedicated cycleway"},"geometry":{"type":"MultiLineString","coordinates":[[[-0.0581178,51.3934577],[-0.0581463,51.3934274],[-0.0581869,51.3933977],[-0.0582023,51.393386]]]}},
{"type":"Feature","properties":{"highway":"cycleway","name":null,"category":"Dedicated cycleway"},"geometry":{"type":"MultiLineString","coordinates":[[[-0.0582023,51.393386],[-0.0582172,51.3933746],[-0.0582691,51.3933973],[-0.0583098,51.3933652],[-0.0584351,51.3932923],[-0.0586213,51.3931246],[-0.0589019,51.3928992],[-0.0592366,51.3927071],[-0.0593785,51.3926127],[-0.0594645,51.3925438],[-0.0595562,51.3924602],[-0.059668,51.3923468],[-0.0597183,51.3923012]]]}},
{"type":"Feature","properties":{"highway":"cycleway","name":null,"category":"Dedicated cycleway"},"geometry":{"type":"MultiLineString","coordinates":[[[-0.0591338,51.3916951],[-0.0586672,51.3914384]]]}},
{"type":"Feature","properties":{"highway":"cycleway","name":null,"category":"Dedicated cycleway"},"geometry":{"type":"MultiLineString","coordinates":[[[-0.0585681,51.3914662],[-0.0585488,51.3914544],[-0.0585076,51.3914294],[-0.0584775,51.3914118],[-0.0584516,51.3913972]]]}},
{"type":"Feature","properties":{"highway":"cycleway","name":null,"category":"Dedicated cycleway"},"geometry":{"type":"MultiLineString","coordinates":[[[-0.0584516,51.3913972],[-0.0584319,51.3913868],[-0.058455,51.3913697],[-0.0585064,51.391331],[-0.0584781,51.3913076],[-0.0585289,51.3912667]]]}},
{"type":"Feature","properties":{"highway":"cycleway","name":null,"category":"Dedicated cycleway"},"geometry":{"type":"MultiLineString","coordinates":[[[-0.058507,51.3912298],[-0.05843,51.3911001],[-0.0583516,51.3909195],[-0.0582524,51.3908476],[-0.0577507,51.3905532],[-0.057673,51.3905039],[-0.0568237,51.3900037],[-0.0566457,51.3898981]]]}},
{"type":"Feature","properties":{"highway":"cycleway","name":null,"category":"Dedicated cycleway"},"geometry":{"type":"MultiLineString","coordinates":[[[-0.063153,51.3859058],[-0.0630354,51.3858378]]]}},
{"type":"Feature","properties":{"highway":"cycleway","name":null,"category":"Dedicated cycleway"},"geometry":{"type":"MultiLineString","coordinates":[[[-0.0591805,51.3917784],[-0.0592239,51.3917401],[-0.0591338,51.3916951]]]}},
{"type":"Feature","properties":{"highway":"cycleway","name":"Belfast Road","category":"Dedicated cycleway"},"geometry":{"type":"MultiLineString","coordinates":[[[-0.0642757,51.3960889],[-0.0642499,51.3960953],[-0.0641562,51.3961188]]]}},
{"type":"Feature","properties":{"highway":"cycleway","name":"Elmers Road","category":"Dedicated cycleway"},"geometry":{"type":"MultiLineString","coordinates":[[[-0.0713769,51.3854726],[-0.0714042,51.3854717],[-0.0714681,51.3854705],[-0.0715287,51.3854702]]]}},
{"type":"Feature","properties":{"highway":"cycleway","name":null,"category":"Dedicated cycleway"},"geometry":{"type":"MultiLineString","coordinates":[[[-0.0711642,51.3846605],[-0.0711574,51.3846995],[-0.0711479,51.3847147],[-0.0711381,51.384719],[-0.0711078,51.3847323],[-0.07115,51.3847821],[-0.0711425,51.3847841]]]}},
{"type":"Feature","properties":{"highway":"cycleway","name":"Dalmally Road","category":"Dedicated cycleway"},"geometry":{"type":"MultiLineString","coordinates":[[[-0.0712469,51.3846321],[-0.0712281,51.3846385],[-0.0711642,51.3846605]]]}},
{"type":"Feature","properties":{"highway":"cycleway","name":"Kemerton Road","category":"Dedicated cycleway"},"geometry":{"type":"MultiLineString","coordinates":[[[-0.0782017,51.3840771],[-0.0781675,51.384086],[-0.0781118,51.3841006]]]}},
{"type":"Feature","properties":{"highway":"path","name":null,"category":"Shared path"},"geometry":{"type":"MultiLineString","coordinates":[[[-0.0696072,51.3876088],[-0.0694812,51.3877515],[-0.0693225,51.3879534],[-0.0692041,51.3880671],[-0.0691232,51.3881407],[-0.0689282,51.3883216],[-0.0687495,51.388461],[-0.0686863,51.3885571],[-0.0686462,51.3886609],[-0.0686508,51.3887728]]]}},
{"type":"Feature","properties":{"highway":"path","name":null,"category":"Shared path"},"geometry":{"type":"MultiLineString","coordinates":[[[-0.0695364,51.3874421],[-0.0691458,51.3876246],[-0.0688414,51.3877847],[-0.0682433,51.3881569],[-0.0679832,51.3883225],[-0.0677867,51.3884164],[-0.0677446,51.3884339],[-0.0676912,51.388456]]]}},
{"type":"Feature","properties":{"highway":"cycleway","name":"Foot Path 796","category":"Dedicated cycleway"},"geometry":{"type":"MultiLineString","coordinates":[[[-0.071927,51.388526],[-0.0719239,51.3885028],[-0.0719354,51.3882903],[-0.0719372,51.3882214]]]}},
{"type":"Feature","properties":{"highway":"cycleway","name":null,"category":"Dedicated cycleway"},"geometry":{"type":"MultiLineString","coordinates":[[[-0.0645537,51.3843475],[-0.0645006,51.3843229],[-0.0644202,51.3842858]]]}},
{"type":"Feature","properties":{"highway":"cycleway","name":null,"category":"Dedicated cycleway"},"geometry":{"type":"MultiLineString","coordinates":[[[-0.0585289,51.3912667],[-0.058507,51.3912298]]]}},
{"type":"Feature","properties":{"highway":"cycleway","name":null,"category":"Dedicated cycleway"},"geometry":{"type":"MultiLineString","coordinates":[[[-0.0607904,51.395035],[-0.0606828,51.3949777]]]}},
{"type":"Feature","properties":{"highway":"cycleway","name":null,"category":"Dedicated cycleway"},"geometry":{"type":"MultiLineString","coordinates":[[[-0.0597183,51.3923012],[-0.0597225,51.3922385]]]}},
{"type":"Feature","properties":{"highway":"path","name":null,"category":"Shared path"},"geometry":{"type":"MultiLineString","coordinates":[[[-0.0677558,51.3933512],[-0.0677549,51.3933641]]]}},
{"type":"Feature","properties":{"highway":"cycle_lane_on_street","name":"Woodside Road","category":"Cycle lane on street"},"geometry":{"type":"MultiLineString","coordinates":[[[-0.0685805,51.386146],[-0.0684694,51.3862067],[-0.0683095,51.3862924],[-0.0681985,51.3863545],[-0.0675203,51.3867498],[-0.0666856,51.3872458],[-0.0665063,51.3873495],[-0.0663004,51.3874562],[-0.0661467,51.3875284],[-0.0658463,51.3876607],[-0.0649497,51.3880622]]]}},
{"type":"Feature","properties":{"highway":"cycle_lane_on_street","name":"Lower Addiscombe Road","category":"Cycle lane on street"},"geometry":{"type":"MultiLineString","coordinates":[[[-0.0690894,51.3821928],[-0.069014,51.3822167],[-0.0688137,51.3822744],[-0.0685212,51.3823245]]]}},
{"type":"Feature","properties":{"highway":"cycle_lane_on_street","name":"Lower Addiscombe Road","category":"Cycle lane on street"},"geometry":{"type":"MultiLineString","coordinates":[[[-0.0682632,51.3823295],[-0.0679894,51.3823484]]]}},
{"type":"Feature","properties":{"highway":"cycle_lane_on_street","name":"Lower Addiscombe Road","category":"Cycle lane on street"},"geometry":{"type":"MultiLineString","coordinates":[[[-0.0685212,51.3823245],[-0.0684897,51.3823281],[-0.0682632,51.3823295]]]}}
]
}
