{
"type": "FeatureCollection",
"name": "CROYD_8_cycling",
"crs": { "type": "name", "properties": { "name": "urn:ogc:def:crs:OGC:1.3:CRS84" } },
"features": [
{"type":"Feature","properties":{"highway":"cycleway","name":null,"category":"Dedicated cycleway"},"geometry":{"type":"MultiLineString","coordinates":[[[-0.0655372,51.3835401],[-0.0658132,51.3837752],[-0.0660641,51.3839318],[-0.0665776,51.3842267],[-0.0671118,51.3845178],[-0.067376,51.3846395],[-0.0676084,51.3847788],[-0.0677708,51.384925],[-0.0678695,51.3851766],[-0.0679251,51.3854294],[-0.0679525,51.3855166]]]}},
{"type":"Feature","properties":{"highway":"cycleway","name":"Dickenson's Lane","category":"Dedicated cycleway"},"geometry":{"type":"MultiLineString","coordinates":[[[-0.073158,51.3926542],[-0.0730744,51.3926646],[-0.0729569,51.3924866],[-0.0730165,51.3922638],[-0.0730076,51.3921432],[-0.0729819,51.3920235],[-0.0728832,51.3919071],[-0.0727881,51.3916775],[-0.072636,51.3914649],[-0.0725506,51.3913235],[-0.0724408,51.3911023],[-0.0724067,51.3909285],[-0.0723907,51.3908468],[-0.0723545,51.3905967],[-0.0723834,51.3903759],[-0.0722717,51.3899999],[-0.0721697,51.3897363],[-0.0719762,51.3894473],[-0.0718143,51.3892165],[-0.0717268,51.3891001],[-0.0716773,51.3889723],[-0.071717,51.3888733]]]}},
{"type":"Feature","properties":{"highway":"cycleway","name":"Dalmally Passage","category":"Dedicated cycleway"},"geometry":{"type":"MultiLineString","coordinates":[[[-0.0755517,51.3831088],[-0.0755961,51.383142],[-0.0756452,51.3831145],[-0.0756622,51.3831277],[-0.0758965,51.3833094],[-0.0758145,51.3833542],[-0.0759509,51.3834798]]]}},
{"type":"Feature","properties":{"highway":"cycleway","name":"Addiscombe Railway Park","category":"Dedicated cycleway"},"geometry":{"type":"MultiLineString","coordinates":[[[-0.0796649,51.3814014],[-0.0796315,51.3814574],[-0.0792866,51.3816484],[-0.0790641,51.3817717],[-0.0783419,51.3821673],[-0.0781577,51.3823279],[-0.078014,51.3824764],[-0.0778737,51.3825824],[-0.0777082,51.382677],[-0.0775124,51.3827701],[-0.0770878,51.3829613],[-0.0768025,51.3830826],[-0.0765849,51.3831619],[-0.0760546,51.3834168],[-0.0759509,51.3834798]]]}},
{"type":"Feature","properties":{"highway":"cycleway","name":null,"category":"Dedicated cycleway"},"geometry":{"type":"MultiLineString","coordinates":[[[-0.0682854,51.385977],[-0.0683043,51.3859965],[-0.0683232,51.386016],[-0.0683889,51.3859885]]]}},
{"type":"Feature","properties":{"highway":"cycleway","name":"Addiscombe Railway Park","category":"Dedicated cycleway"},"geometry":{"type":"MultiLineString","coordinates":[[[-0.0700446,51.3853402],[-0.0703558,51.385239],[-0.0710819,51.3850327],[-0.0715828,51.3849053],[-0.0732398,51.3844689],[-0.0742815,51.384158],[-0.0748586,51.3839488],[-0.0759509,51.3834798]]]}},
{"type":"Feature","properties":{"highway":"cycleway","name":null,"category":"Dedicated cycleway"},"geometry":{"type":"MultiLineString","coordinates":[[[-0.0655087,51.3835158],[-0.06526,51.3836458],[-0.0650063,51.383824],[-0.0646928,51.3841131],[-0.0645006,51.3843229]]]}},
{"type":"Feature","properties":{"highway":"cycleway","name":"Estcourt Road","category":"Dedicated cycleway"},"geometry":{"type":"MultiLineString","coordinates":[[[-0.064818,51.3880205],[-0.0647114,51.3880255],[-0.0646381,51.3880457],[-0.064535,51.3881022],[-0.0644909,51.3880916]]]}},
{"type":"Feature","properties":{"highway":"cycleway","name":null,"category":"Dedicated cycleway"},"geometry":{"type":"MultiLineString","coordinates":[[[-0.0681143,51.3858059],[-0.0681464,51.3858393]]]}},
{"type":"Feature","properties":{"highway":"cycleway","name":null,"category":"Dedicated cycleway"},"geometry":{"type":"MultiLineString","coordinates":[[[-0.0763984,51.3839009],[-0.0764285,51.3839266]]]}},
{"type":"Feature","properties":{"highway":"cycleway","name":null,"category":"Dedicated cycleway"},"geometry":{"type":"MultiLineString","coordinates":[[[-0.0764285,51.3839266],[-0.0764798,51.3839701]]]}},
{"type":"Feature","properties":{"highway":"cycleway","name":null,"category":"Dedicated cycleway"},"geometry":{"type":"MultiLineString","coordinates":[[[-0.0654462,51.383469],[-0.0655087,51.3835158],[-0.0655372,51.3835401]]]}},
{"type":"Feature","properties":{"highway":"cycleway","name":null,"category":"Dedicated cycleway"},"geometry":{"type":"MultiLineString","coordinates":[[[-0.071717,51.3888733],[-0.071927,51.388526]]]}},
{"type":"Feature","properties":{"highway":"path","name":null,"category":"Shared path"},"geometry":{"type":"MultiLineString","coordinates":[[[-0.0681256,51.3891739],[-0.0680806,51.3891591],[-0.0680681,51.389155],[-0.0679726,51.3891708],[-0.067875,51.3891816],[-0.0676901,51.3891905],[-0.0675051,51.3891822],[-0.0673221,51.3891781],[-0.0671117,51.3891829],[-0.0668967,51.389174],[-0.0667529,51.3891657],[-0.0666381,51.3891703],[-0.0664623,51.3891525],[-0.066381,51.3891994]]]}},
{"type":"Feature","properties":{"highway":"cycleway","name":"Addiscombe Railway Park","category":"Dedicated cycleway"},"geometry":{"type":"MultiLineString","coordinates":[[[-0.0699955,51.3853097],[-0.0700201,51.385325],[-0.0700446,51.3853402]]]}},
{"type":"Feature","properties":{"highway":"cycleway","name":"Dalmally Road","category":"Dedicated cycleway"},"geometry":{"type":"MultiLineString","coordinates":[[[-0.0711642,51.3846605],[-0.0711004,51.3846824],[-0.0710618,51.3846957],[-0.0710214,51.3847112]]]}},
{"type":"Feature","properties":{"highway":"cycleway","name":"Cross Road","category":"Dedicated cycleway"},"geometry":{"type":"MultiLineString","coordinates":[[[-0.0896918,51.38094],[-0.0897938,51.3808816],[-0.0898266,51.3808704],[-0.0898614,51.3808652]]]}},
{"type":"Feature","properties":{"highway":"cycleway","name":"Elmers Road","category":"Dedicated cycleway"},"geometry":{"type":"MultiLineString","coordinates":[[[-0.0713769,51.3854726],[-0.0714042,51.3854717],[-0.0714681,51.3854705],[-0.0715287,51.3854702]]]}},
{"type":"Feature","properties":{"highway":"cycleway","name":null,"category":"Dedicated cycleway"},"geometry":{"type":"MultiLineString","coordinates":[[[-0.0711642,51.3846605],[-0.0711574,51.3846995],[-0.0711479,51.3847147],[-0.0711381,51.384719],[-0.0711078,51.3847323],[-0.07115,51.3847821],[-0.0711425,51.3847841]]]}},
{"type":"Feature","properties":{"highway":"cycleway","name":"Dalmally Road","category":"Dedicated cycleway"},"geometry":{"type":"MultiLineString","coordinates":[[[-0.0712469,51.3846321],[-0.0712281,51.3846385],[-0.0711642,51.3846605]]]}},
{"type":"Feature","properties":{"highway":"cycleway","name":"Kemerton Road","category":"Dedicated cycleway"},"geometry":{"type":"MultiLineString","coordinates":[[[-0.0782017,51.3840771],[-0.0781675,51.384086],[-0.0781118,51.3841006]]]}},
{"type":"Feature","properties":{"highway":"path","name":null,"category":"Shared path"},"geometry":{"type":"MultiLineString","coordinates":[[[-0.0696072,51.3876088],[-0.0694812,51.3877515],[-0.0693225,51.3879534],[-0.0692041,51.3880671],[-0.0691232,51.3881407],[-0.0689282,51.3883216],[-0.0687495,51.388461],[-0.0686863,51.3885571],[-0.0686462,51.3886609],[-0.0686508,51.3887728]]]}},
{"type":"Feature","properties":{"highway":"path","name":null,"category":"Shared path"},"geometry":{"type":"MultiLineString","coordinates":[[[-0.0695364,51.3874421],[-0.0691458,51.3876246],[-0.0688414,51.3877847],[-0.0682433,51.3881569],[-0.0679832,51.3883225],[-0.0677867,51.3884164],[-0.0677446,51.3884339],[-0.0676912,51.388456]]]}},
{"type":"Feature","properties":{"highway":"cycleway","name":"Foot Path 796","category":"Dedicated cycleway"},"geometry":{"type":"MultiLineString","coordinates":[[[-0.071927,51.388526],[-0.0719239,51.3885028],[-0.0719354,51.3882903],[-0.0719372,51.3882214]]]}},
{"type":"Feature","properties":{"highway":"cycleway","name":null,"category":"Dedicated cycleway"},"geometry":{"type":"MultiLineString","coordinates":[[[-0.0645537,51.3843475],[-0.0645006,51.3843229],[-0.0644202,51.3842858]]]}},
{"type":"Feature","properties":{"highway":"cycle_lane_on_street","name":"Woodside Road","category":"Cycle lane on street"},"geometry":{"type":"MultiLineString","coordinates":[[[-0.0685805,51.386146],[-0.0684694,51.3862067],[-0.0683095,51.3862924],[-0.0681985,51.3863545],[-0.0675203,51.3867498],[-0.0666856,51.3872458],[-0.0665063,51.3873495],[-0.0663004,51.3874562],[-0.0661467,51.3875284],[-0.0658463,51.3876607],[-0.0649497,51.3880622]]]}},
{"type":"Feature","properties":{"highway":"cycle_lane_on_street","name":"Lower Addiscombe Road","category":"Cycle lane on street"},"geometry":{"type":"MultiLineString","coordinates":[[[-0.0690894,51.3821928],[-0.069014,51.3822167],[-0.0688137,51.3822744],[-0.0685212,51.3823245]]]}},
{"type":"Feature","properties":{"highway":"cycle_lane_on_street","name":"Lower Addiscombe Road","category":"Cycle lane on street"},"geometry":{"type":"MultiLineString","coordinates":[[[-0.0682632,51.3823295],[-0.0679894,51.3823484]]]}},
{"type":"Feature","properties":{"highway":"cycle_lane_on_street","name":"Lower Addiscombe Road","category":"Cycle lane on street"},"geometry":{"type":"MultiLineString","coordinates":[[[-0.0685212,51.3823245],[-0.0684897,51.3823281],[-0.0682632,51.3823295]]]}}
]
}
