{
"type": "FeatureCollection",
"name": "CROYD_40_cycling",
"crs": { "type": "name", "properties": { "name": "urn:ogc:def:crs:OGC:1.3:CRS84" } },
"features": [
{"type":"Feature","properties":{"highway":"cycleway","name":null,"category":"Dedicated cycleway"},"geometry":{"type":"MultiLineString","coordinates":[[[-0.1065148,51.3751136],[-0.106516,51.3751722]]]}},
{"type":"Feature","properties":{"highway":"cycleway","name":null,"category":"Dedicated cycleway"},"geometry":{"type":"MultiLineString","coordinates":[[[-0.1072062,51.3723223],[-0.1072015,51.3722741],[-0.1071416,51.3720449],[-0.1071342,51.37202],[-0.1070795,51.3717955],[-0.1068452,51.3713469],[-0.1068163,51.3712788]]]}},
{"type":"Feature","properties":{"highway":"cycleway","name":null,"category":"Dedicated cycleway"},"geometry":{"type":"MultiLineString","coordinates":[[[-0.1036671,51.3693717],[-0.1036495,51.3693042]]]}},
{"type":"Feature","properties":{"highway":"cycleway","name":null,"category":"Dedicated cycleway"},"geometry":{"type":"MultiLineString","coordinates":[[[-0.1032955,51.3701005],[-0.10311,51.3701253]]]}},
{"type":"Feature","properties":{"highway":"cycleway","name":null,"category":"Dedicated cycleway"},"geometry":{"type":"MultiLineString","coordinates":[[[-0.1042325,51.3752974],[-0.1042577,51.3753109],[-0.1042773,51.3753227]]]}},
{"type":"Feature","properties":{"highway":"cycleway","name":null,"category":"Dedicated cycleway"},"geometry":{"type":"MultiLineString","coordinates":[[[-0.1075842,51.3747977],[-0.1075616,51.3748575],[-0.1075087,51.3749143],[-0.1073459,51.3750335],[-0.1072943,51.3750698],[-0.1071656,51.3750957],[-0.1069998,51.3751183],[-0.1068104,51.3751442],[-0.106516,51.3751722]]]}},
{"type":"Feature","properties":{"highway":"cycleway","name":null,"category":"Dedicated cycleway"},"geometry":{"type":"MultiLineString","coordinates":[[[-0.1042202,51.3780863],[-0.1041731,51.3780462],[-0.1041692,51.3779568],[-0.1042019,51.3779285]]]}},
{"type":"Feature","properties":{"highway":"cycleway","name":null,"category":"Dedicated cycleway"},"geometry":{"type":"MultiLineString","coordinates":[[[-0.1195571,51.3787458],[-0.1195729,51.3787382],[-0.1195771,51.3787293],[-0.1196172,51.3786617],[-0.119631,51.378654]]]}},
{"type":"Feature","properties":{"highway":"cycleway","name":null,"category":"Dedicated cycleway"},"geometry":{"type":"MultiLineString","coordinates":[[[-0.119631,51.378654],[-0.1196476,51.3786461],[-0.1196737,51.3786678],[-0.1197656,51.3786255]]]}},
{"type":"Feature","properties":{"highway":"cycleway","name":null,"category":"Dedicated cycleway"},"geometry":{"type":"MultiLineString","coordinates":[[[-0.1072062,51.3723223],[-0.1072236,51.372321],[-0.1072436,51.3723195],[-0.1073637,51.3723163],[-0.1073745,51.372316],[-0.1074178,51.3723459]]]}},
{"type":"Feature","properties":{"highway":"cycleway","name":null,"category":"Dedicated cycleway"},"geometry":{"type":"MultiLineString","coordinates":[[[-0.1065572,51.3722393],[-0.1067314,51.3722384],[-0.106778,51.3722387],[-0.1067841,51.3724145],[-0.1068132,51.3724141]]]}},
{"type":"Feature","properties":{"highway":"cycleway","name":null,"category":"Dedicated cycleway"},"geometry":{"type":"MultiLineString","coordinates":[[[-0.102993,51.3773531],[-0.103194,51.3773871]]]}},
{"type":"Feature","properties":{"highway":"path","name":null,"category":"Shared path"},"geometry":{"type":"MultiLineString","coordinates":[[[-0.1064777,51.3715478],[-0.1064384,51.3716223],[-0.1062274,51.3721747],[-0.1061285,51.3724337],[-0.1060914,51.3725307],[-0.1061895,51.372515],[-0.1062995,51.3725159],[-0.1064013,51.3725471],[-0.1064353,51.3725647],[-0.1065286,51.3725647]]]}},
{"type":"Feature","properties":{"highway":"cycleway","name":"Mint Walk","category":"Dedicated cycleway"},"geometry":{"type":"MultiLineString","coordinates":[[[-0.1003729,51.3716424],[-0.1003366,51.3716433],[-0.1000201,51.3716709]]]}},
{"type":"Feature","properties":{"highway":"cycleway","name":null,"category":"Dedicated cycleway"},"geometry":{"type":"MultiLineString","coordinates":[[[-0.1062871,51.3743637],[-0.1062748,51.3743981]]]}},
{"type":"Feature","properties":{"highway":"cycleway","name":null,"category":"Dedicated cycleway"},"geometry":{"type":"MultiLineString","coordinates":[[[-0.1071677,51.3723903],[-0.1071739,51.3724811],[-0.1071842,51.372702],[-0.1071878,51.3728017],[-0.1072026,51.3728569],[-0.1072365,51.3729208],[-0.1072175,51.3729294]]]}},
{"type":"Feature","properties":{"highway":"cycleway","name":null,"category":"Dedicated cycleway"},"geometry":{"type":"MultiLineString","coordinates":[[[-0.1065572,51.3722393],[-0.1065804,51.3720128],[-0.1065658,51.3718631],[-0.1065247,51.3716319],[-0.1065156,51.3715805],[-0.1064777,51.3715478]]]}},
{"type":"Feature","properties":{"highway":"cycleway","name":null,"category":"Dedicated cycleway"},"geometry":{"type":"MultiLineString","coordinates":[[[-0.1197656,51.3786255],[-0.1198116,51.3786043],[-0.1198637,51.3785803],[-0.1198876,51.3786028],[-0.1206607,51.3793174]]]}},
{"type":"Feature","properties":{"highway":"cycleway","name":null,"category":"Dedicated cycleway"},"geometry":{"type":"MultiLineString","coordinates":[[[-0.1062985,51.3744346],[-0.1068674,51.3745029],[-0.1068782,51.3745042]]]}},
{"type":"Feature","properties":{"highway":"cycleway","name":null,"category":"Dedicated cycleway"},"geometry":{"type":"MultiLineString","coordinates":[[[-0.1068782,51.3745042],[-0.1069328,51.374521]]]}},
{"type":"Feature","properties":{"highway":"cycleway","name":"Crown Hill","category":"Dedicated cycleway"},"geometry":{"type":"MultiLineString","coordinates":[[[-0.1003532,51.3737163],[-0.1004048,51.3737184],[-0.1004677,51.3737194],[-0.1005499,51.373718],[-0.1006078,51.3737139],[-0.1006625,51.3737071],[-0.1007081,51.3737003],[-0.1010301,51.3736477],[-0.1010937,51.3736371]]]}},
{"type":"Feature","properties":{"highway":"cycleway","name":null,"category":"Dedicated cycleway"},"geometry":{"type":"MultiLineString","coordinates":[[[-0.1060375,51.3742039],[-0.1061279,51.3742532],[-0.1061935,51.3743094],[-0.1062748,51.3743981],[-0.1062985,51.3744346]]]}},
{"type":"Feature","properties":{"highway":"cycleway","name":null,"category":"Dedicated cycleway"},"geometry":{"type":"MultiLineString","coordinates":[[[-0.1057784,51.3740026],[-0.1057851,51.3740437],[-0.1057998,51.3740706],[-0.105858,51.3741315],[-0.105918,51.3741689],[-0.1060375,51.3742039]]]}},
{"type":"Feature","properties":{"highway":"cycleway","name":null,"category":"Dedicated cycleway"},"geometry":{"type":"MultiLineString","coordinates":[[[-0.1037696,51.3716669],[-0.1037366,51.3716914],[-0.1036348,51.3716928]]]}},
{"type":"Feature","properties":{"highway":"cycleway","name":null,"category":"Dedicated cycleway"},"geometry":{"type":"MultiLineString","coordinates":[[[-0.1035892,51.3718166],[-0.1035673,51.3718165],[-0.1035548,51.3718361],[-0.1035252,51.3718538],[-0.1034164,51.3718774],[-0.1030825,51.3718847],[-0.1029336,51.3718857],[-0.102847,51.3718684],[-0.1028242,51.371881]]]}},
{"type":"Feature","properties":{"highway":"cycleway","name":null,"category":"Dedicated cycleway"},"geometry":{"type":"MultiLineString","coordinates":[[[-0.1135662,51.374106],[-0.1134367,51.3739558]]]}},
{"type":"Feature","properties":{"highway":"track","name":null,"category":"Track"},"geometry":{"type":"MultiLineString","coordinates":[[[-0.1091565,51.3757878],[-0.1092043,51.3757752],[-0.1095696,51.3756713],[-0.109649,51.3757693]]]}},
{"type":"Feature","properties":{"highway":"cycleway","name":null,"category":"Dedicated cycleway"},"geometry":{"type":"MultiLineString","coordinates":[[[-0.113286,51.3738427],[-0.1131462,51.3738028],[-0.1130432,51.3735506],[-0.1129436,51.3734564]]]}},
{"type":"Feature","properties":{"highway":"cycleway","name":null,"category":"Dedicated cycleway"},"geometry":{"type":"MultiLineString","coordinates":[[[-0.1055422,51.3743276],[-0.1055079,51.3743481]]]}},
{"type":"Feature","properties":{"highway":"cycleway","name":null,"category":"Dedicated cycleway"},"geometry":{"type":"MultiLineString","coordinates":[[[-0.1054826,51.3743491],[-0.1053029,51.3744707]]]}},
{"type":"Feature","properties":{"highway":"cycleway","name":"Courtney Place","category":"Dedicated cycleway"},"geometry":{"type":"MultiLineString","coordinates":[[[-0.1151005,51.3711287],[-0.1142088,51.3712139],[-0.1130516,51.3713013],[-0.1128328,51.3712092]]]}},
{"type":"Feature","properties":{"highway":"cycleway","name":null,"category":"Dedicated cycleway"},"geometry":{"type":"MultiLineString","coordinates":[[[-0.1134367,51.3739558],[-0.1134184,51.3739374],[-0.1133622,51.373891],[-0.113286,51.3738427]]]}},
{"type":"Feature","properties":{"highway":"cycleway","name":null,"category":"Dedicated cycleway"},"geometry":{"type":"MultiLineString","coordinates":[[[-0.1064777,51.3715478],[-0.1064762,51.3715113],[-0.1064471,51.371467],[-0.1063979,51.3714152],[-0.1063162,51.3712994],[-0.1061694,51.3710637]]]}},
{"type":"Feature","properties":{"highway":"cycleway","name":null,"category":"Dedicated cycleway"},"geometry":{"type":"MultiLineString","coordinates":[[[-0.1131095,51.373286],[-0.1131414,51.3732964],[-0.113356,51.3733618],[-0.1137942,51.3735248],[-0.1139045,51.3735692],[-0.1140434,51.3736432],[-0.1143144,51.3738249],[-0.1147592,51.3742099],[-0.114872,51.3743076],[-0.1150628,51.3743407]]]}},
{"type":"Feature","properties":{"highway":"cycleway","name":null,"category":"Dedicated cycleway"},"geometry":{"type":"MultiLineString","coordinates":[[[-0.106516,51.3751722],[-0.1065155,51.3752193],[-0.1064694,51.3752487],[-0.1063821,51.3752955],[-0.1063153,51.375338],[-0.1063001,51.3753691],[-0.1063239,51.3754125],[-0.1064022,51.3754636],[-0.1064913,51.3754951],[-0.1064435,51.3755309]]]}},
{"type":"Feature","properties":{"highway":"cycleway","name":null,"category":"Dedicated cycleway"},"geometry":{"type":"MultiLineString","coordinates":[[[-0.1129436,51.3734564],[-0.1130133,51.3733902]]]}},
{"type":"Feature","properties":{"highway":"cycleway","name":null,"category":"Dedicated cycleway"},"geometry":{"type":"MultiLineString","coordinates":[[[-0.1055305,51.3742519],[-0.1055382,51.3742868],[-0.1055398,51.374303]]]}},
{"type":"Feature","properties":{"highway":"cycleway","name":"Theobald Road","category":"Dedicated cycleway"},"geometry":{"type":"MultiLineString","coordinates":[[[-0.1078,51.3761761],[-0.1078471,51.3761991],[-0.1079127,51.3761862],[-0.1079598,51.3762153]]]}},
{"type":"Feature","properties":{"highway":"cycleway","name":null,"category":"Dedicated cycleway"},"geometry":{"type":"MultiLineString","coordinates":[[[-0.1076578,51.3762109],[-0.1077229,51.3761941],[-0.1078,51.3761761]]]}},
{"type":"Feature","properties":{"highway":"cycleway","name":null,"category":"Dedicated cycleway"},"geometry":{"type":"MultiLineString","coordinates":[[[-0.1072748,51.3763762],[-0.1073292,51.3763637],[-0.1076397,51.3762877],[-0.1076578,51.3762109]]]}},
{"type":"Feature","properties":{"highway":"cycleway","name":null,"category":"Dedicated cycleway"},"geometry":{"type":"MultiLineString","coordinates":[[[-0.1097045,51.3762783],[-0.1097648,51.3762367],[-0.1098543,51.3761757],[-0.1100856,51.3759418]]]}},
{"type":"Feature","properties":{"highway":"cycleway","name":null,"category":"Dedicated cycleway"},"geometry":{"type":"MultiLineString","coordinates":[[[-0.1100856,51.3759418],[-0.1104792,51.3758279],[-0.1108453,51.3757388]]]}},
{"type":"Feature","properties":{"highway":"cycleway","name":null,"category":"Dedicated cycleway"},"geometry":{"type":"MultiLineString","coordinates":[[[-0.1130133,51.3733902],[-0.1130396,51.3733621],[-0.1130643,51.3733357],[-0.1130794,51.3733196]]]}},
{"type":"Feature","properties":{"highway":"cycleway","name":null,"category":"Dedicated cycleway"},"geometry":{"type":"MultiLineString","coordinates":[[[-0.1130794,51.3733196],[-0.1131095,51.373286]]]}},
{"type":"Feature","properties":{"highway":"cycleway","name":null,"category":"Dedicated cycleway"},"geometry":{"type":"MultiLineString","coordinates":[[[-0.1131095,51.373286],[-0.1130734,51.3732732],[-0.1130206,51.3732553],[-0.1130552,51.3732305],[-0.1131005,51.3732271]]]}},
{"type":"Feature","properties":{"highway":"cycleway","name":null,"category":"Dedicated cycleway"},"geometry":{"type":"MultiLineString","coordinates":[[[-0.1068132,51.3724141],[-0.1068641,51.372414],[-0.1069258,51.3724138]]]}},
{"type":"Feature","properties":{"highway":"cycleway","name":null,"category":"Dedicated cycleway"},"geometry":{"type":"MultiLineString","coordinates":[[[-0.1069258,51.3724138],[-0.1069686,51.3724142],[-0.1069686,51.3723423],[-0.1070088,51.3723425]]]}},
{"type":"Feature","properties":{"highway":"cycleway","name":null,"category":"Dedicated cycleway"},"geometry":{"type":"MultiLineString","coordinates":[[[-0.1070088,51.3723425],[-0.1070545,51.3723417],[-0.1071196,51.3723426]]]}},
{"type":"Feature","properties":{"highway":"cycleway","name":null,"category":"Dedicated cycleway"},"geometry":{"type":"MultiLineString","coordinates":[[[-0.1071196,51.3723426],[-0.1071738,51.372342]]]}},
{"type":"Feature","properties":{"highway":"cycleway","name":null,"category":"Dedicated cycleway"},"geometry":{"type":"MultiLineString","coordinates":[[[-0.1070795,51.3717955],[-0.1071336,51.3717905]]]}},
{"type":"Feature","properties":{"highway":"cycleway","name":null,"category":"Dedicated cycleway"},"geometry":{"type":"MultiLineString","coordinates":[[[-0.107107,51.3730271],[-0.1071208,51.3729668]]]}},
{"type":"Feature","properties":{"highway":"cycleway","name":null,"category":"Dedicated cycleway"},"geometry":{"type":"MultiLineString","coordinates":[[[-0.1071208,51.3729668],[-0.1071834,51.3729421],[-0.1072175,51.3729294]]]}},
{"type":"Feature","properties":{"highway":"cycleway","name":null,"category":"Dedicated cycleway"},"geometry":{"type":"MultiLineString","coordinates":[[[-0.1070964,51.3730627],[-0.1070749,51.3731269],[-0.1070902,51.3731414]]]}},
{"type":"Feature","properties":{"highway":"cycleway","name":null,"category":"Dedicated cycleway"},"geometry":{"type":"MultiLineString","coordinates":[[[-0.1070964,51.3730627],[-0.1071011,51.3730469],[-0.107107,51.3730271]]]}},
{"type":"Feature","properties":{"highway":"cycleway","name":"Bedford Park","category":"Dedicated cycleway"},"geometry":{"type":"MultiLineString","coordinates":[[[-0.0994156,51.3785321],[-0.0994172,51.3785118],[-0.0994874,51.3784858],[-0.0995086,51.378478],[-0.0995609,51.3784575]]]}},
{"type":"Feature","properties":{"highway":"cycleway","name":"Poplar Walk","category":"Dedicated cycleway"},"geometry":{"type":"MultiLineString","coordinates":[[[-0.0998919,51.3783628],[-0.0999515,51.3783768]]]}},
{"type":"Feature","properties":{"highway":"cycleway","name":null,"category":"Dedicated cycleway"},"geometry":{"type":"MultiLineString","coordinates":[[[-0.0995609,51.3784575],[-0.0995815,51.3784409],[-0.0996209,51.3784193],[-0.0996462,51.3784078]]]}},
{"type":"Feature","properties":{"highway":"path","name":null,"category":"Shared path"},"geometry":{"type":"MultiLineString","coordinates":[[[-0.1154831,51.373431],[-0.1153701,51.3732421]]]}},
{"type":"Feature","properties":{"highway":"cycleway","name":null,"category":"Dedicated cycleway"},"geometry":{"type":"MultiLineString","coordinates":[[[-0.1108453,51.3757388],[-0.1131346,51.375155],[-0.1134119,51.375076],[-0.1135728,51.3749636],[-0.1136755,51.3748669],[-0.1137239,51.3747119]]]}},
{"type":"Feature","properties":{"highway":"cycleway","name":null,"category":"Dedicated cycleway"},"geometry":{"type":"MultiLineString","coordinates":[[[-0.1046179,51.3686549],[-0.1046574,51.3689771],[-0.1047069,51.3690272],[-0.1052645,51.3695562],[-0.105295,51.369589],[-0.1057436,51.3700778]]]}},
{"type":"Feature","properties":{"highway":"cycleway","name":null,"category":"Dedicated cycleway"},"geometry":{"type":"MultiLineString","coordinates":[[[-0.1071571,51.3764053],[-0.1072151,51.3763914],[-0.1072748,51.3763762]]]}},
{"type":"Feature","properties":{"highway":"cycleway","name":null,"category":"Dedicated cycleway"},"geometry":{"type":"MultiLineString","coordinates":[[[-0.1069595,51.3761747],[-0.1068878,51.3762079],[-0.1068483,51.3761739]]]}},
{"type":"Feature","properties":{"highway":"cycleway","name":"Poplar Walk","category":"Dedicated cycleway"},"geometry":{"type":"MultiLineString","coordinates":[[[-0.0999515,51.3783768],[-0.0999666,51.3783468],[-0.1001921,51.3782681],[-0.100912,51.3780103],[-0.1009902,51.3780216]]]}},
{"type":"Feature","properties":{"highway":"cycleway","name":null,"category":"Dedicated cycleway"},"geometry":{"type":"MultiLineString","coordinates":[[[-0.1069595,51.3761747],[-0.1069304,51.3761375],[-0.1069042,51.3761046]]]}},
{"type":"Feature","properties":{"highway":"cycleway","name":null,"category":"Dedicated cycleway"},"geometry":{"type":"MultiLineString","coordinates":[[[-0.1071571,51.3764053],[-0.1070448,51.3762227],[-0.107015,51.3761785],[-0.1069921,51.3761714],[-0.1069595,51.3761747]]]}},
{"type":"Feature","properties":{"highway":"cycleway","name":null,"category":"Dedicated cycleway"},"geometry":{"type":"MultiLineString","coordinates":[[[-0.1068483,51.3761739],[-0.1068269,51.3761309],[-0.1069042,51.3761046]]]}},
{"type":"Feature","properties":{"highway":"cycleway","name":null,"category":"Dedicated cycleway"},"geometry":{"type":"MultiLineString","coordinates":[[[-0.1069042,51.3761046],[-0.1069348,51.3760914],[-0.1069425,51.3760774],[-0.1069271,51.3760501]]]}},
{"type":"Feature","properties":{"highway":"cycleway","name":null,"category":"Dedicated cycleway"},"geometry":{"type":"MultiLineString","coordinates":[[[-0.1021797,51.3776215],[-0.1021567,51.3775966]]]}},
{"type":"Feature","properties":{"highway":"cycleway","name":null,"category":"Dedicated cycleway"},"geometry":{"type":"MultiLineString","coordinates":[[[-0.1028242,51.371881],[-0.1027671,51.3719125],[-0.1027177,51.3719412]]]}},
{"type":"Feature","properties":{"highway":"cycleway","name":null,"category":"Dedicated cycleway"},"geometry":{"type":"MultiLineString","coordinates":[[[-0.1027177,51.3719412],[-0.1026753,51.3719615],[-0.102621,51.3719889]]]}},
{"type":"Feature","properties":{"highway":"cycleway","name":null,"category":"Dedicated cycleway"},"geometry":{"type":"MultiLineString","coordinates":[[[-0.1074178,51.3723459],[-0.1073839,51.3723723],[-0.1073622,51.3723792],[-0.1072178,51.3723839],[-0.1071677,51.3723903]]]}},
{"type":"Feature","properties":{"highway":"cycleway","name":null,"category":"Dedicated cycleway"},"geometry":{"type":"MultiLineString","coordinates":[[[-0.1074322,51.3723437],[-0.1074602,51.3723395]]]}},
{"type":"Feature","properties":{"highway":"cycleway","name":null,"category":"Dedicated cycleway"},"geometry":{"type":"MultiLineString","coordinates":[[[-0.1025088,51.3777477],[-0.1025966,51.377792],[-0.1026639,51.3777899],[-0.1026981,51.3777894]]]}},
{"type":"Feature","properties":{"highway":"cycleway","name":null,"category":"Dedicated cycleway"},"geometry":{"type":"MultiLineString","coordinates":[[[-0.102153,51.3775927],[-0.1022521,51.3775637]]]}},
{"type":"Feature","properties":{"highway":"cycleway","name":"High Street","category":"Dedicated cycleway"},"geometry":{"type":"MultiLineString","coordinates":[[[-0.1002266,51.3731458],[-0.1002168,51.3731368],[-0.1002149,51.3731344],[-0.100214,51.3731305],[-0.1002131,51.3731181],[-0.1002134,51.3728177],[-0.1002301,51.3726649],[-0.1002495,51.3724639],[-0.1002574,51.37242]]]}},
{"type":"Feature","properties":{"highway":"cycleway","name":null,"category":"Dedicated cycleway"},"geometry":{"type":"MultiLineString","coordinates":[[[-0.1022521,51.3775637],[-0.1022908,51.3775594],[-0.1023381,51.3775618],[-0.1024037,51.377597],[-0.1025088,51.3777477]]]}},
{"type":"Feature","properties":{"highway":"cycleway","name":null,"category":"Dedicated cycleway"},"geometry":{"type":"MultiLineString","coordinates":[[[-0.1025088,51.3777477],[-0.1024916,51.3777747],[-0.1025065,51.3777973],[-0.1024867,51.3778246]]]}},
{"type":"Feature","properties":{"highway":"cycleway","name":null,"category":"Dedicated cycleway"},"geometry":{"type":"MultiLineString","coordinates":[[[-0.1063407,51.3743826],[-0.1063211,51.3742084]]]}},
{"type":"Feature","properties":{"highway":"cycleway","name":null,"category":"Dedicated cycleway"},"geometry":{"type":"MultiLineString","coordinates":[[[-0.1068033,51.3742938],[-0.1068226,51.374161],[-0.1070399,51.3734049],[-0.1070841,51.3732764],[-0.1070959,51.3732557],[-0.1071045,51.3732449],[-0.1071192,51.3732302],[-0.1071356,51.3732176],[-0.1071572,51.3732047]]]}},
{"type":"Feature","properties":{"highway":"cycleway","name":null,"category":"Dedicated cycleway"},"geometry":{"type":"MultiLineString","coordinates":[[[-0.1068033,51.3742938],[-0.1068028,51.3746129],[-0.1068176,51.3747107],[-0.1069044,51.3750042],[-0.1069831,51.3751638],[-0.1071499,51.3754797],[-0.1073118,51.3757269],[-0.1076563,51.3762273],[-0.1078696,51.3765639]]]}},
{"type":"Feature","properties":{"highway":"cycleway","name":null,"category":"Dedicated cycleway"},"geometry":{"type":"MultiLineString","coordinates":[[[-0.1075348,51.3767047],[-0.107392,51.3764818],[-0.1069817,51.3758671],[-0.1067589,51.3755065],[-0.1066486,51.3753288],[-0.1065228,51.375081],[-0.1064109,51.3747235],[-0.1063553,51.3745067],[-0.1063407,51.3743826]]]}},
{"type":"Feature","properties":{"highway":"cycleway","name":null,"category":"Dedicated cycleway"},"geometry":{"type":"MultiLineString","coordinates":[[[-0.1078696,51.3765639],[-0.1079543,51.3766846],[-0.1080972,51.3768489],[-0.1082438,51.3770158],[-0.1082806,51.37706],[-0.1083024,51.3770336],[-0.1083506,51.3769868]]]}},
{"type":"Feature","properties":{"highway":"cycleway","name":null,"category":"Dedicated cycleway"},"geometry":{"type":"MultiLineString","coordinates":[[[-0.1070902,51.3731414],[-0.1071205,51.37317],[-0.1071404,51.3731888]]]}},
{"type":"Feature","properties":{"highway":"cycleway","name":null,"category":"Dedicated cycleway"},"geometry":{"type":"MultiLineString","coordinates":[[[-0.1081603,51.3776757],[-0.1081701,51.3776433]]]}},
{"type":"Feature","properties":{"highway":"cycleway","name":null,"category":"Dedicated cycleway"},"geometry":{"type":"MultiLineString","coordinates":[[[-0.1063211,51.3742084],[-0.1062736,51.3742112]]]}},
{"type":"Feature","properties":{"highway":"cycleway","name":null,"category":"Dedicated cycleway"},"geometry":{"type":"MultiLineString","coordinates":[[[-0.119631,51.378654],[-0.1182423,51.3774178],[-0.1182037,51.3774328],[-0.1179674,51.3772152],[-0.1179992,51.3771975]]]}},
{"type":"Feature","properties":{"highway":"cycleway","name":null,"category":"Dedicated cycleway"},"geometry":{"type":"MultiLineString","coordinates":[[[-0.1080051,51.3774984],[-0.107976,51.3774511],[-0.1077558,51.3770808],[-0.1075348,51.3767047]]]}},
{"type":"Feature","properties":{"highway":"cycleway","name":null,"category":"Dedicated cycleway"},"geometry":{"type":"MultiLineString","coordinates":[[[-0.1064336,51.3708135],[-0.1063674,51.3707884],[-0.1060462,51.3704275],[-0.1058465,51.3701892],[-0.1058408,51.370132],[-0.1058104,51.3700964],[-0.1057436,51.3700778]]]}},
{"type":"Feature","properties":{"highway":"cycleway","name":"Howley Road","category":"Dedicated cycleway"},"geometry":{"type":"MultiLineString","coordinates":[[[-0.10515,51.3716118],[-0.1050986,51.3716477],[-0.1050454,51.3716483],[-0.1050095,51.3716182]]]}},
{"type":"Feature","properties":{"highway":"cycleway","name":null,"category":"Dedicated cycleway"},"geometry":{"type":"MultiLineString","coordinates":[[[-0.1137239,51.3747119],[-0.1137671,51.3745541],[-0.1137867,51.374439],[-0.1137459,51.3743346],[-0.1136724,51.374232],[-0.1135921,51.3741333],[-0.1135662,51.374106]]]}},
{"type":"Feature","properties":{"highway":"cycleway","name":null,"category":"Dedicated cycleway"},"geometry":{"type":"MultiLineString","coordinates":[[[-0.0996462,51.3784078],[-0.0996943,51.3783881],[-0.099766,51.3783763]]]}},
{"type":"Feature","properties":{"highway":"cycleway","name":null,"category":"Dedicated cycleway"},"geometry":{"type":"MultiLineString","coordinates":[[[-0.099766,51.3783763],[-0.0998017,51.3783704],[-0.0998721,51.3783643],[-0.0998919,51.3783628]]]}},
{"type":"Feature","properties":{"highway":"cycleway","name":null,"category":"Dedicated cycleway"},"geometry":{"type":"MultiLineString","coordinates":[[[-0.1198876,51.3786028],[-0.1202599,51.3784528]]]}},
{"type":"Feature","properties":{"highway":"cycleway","name":"Bedford Park","category":"Dedicated cycleway"},"geometry":{"type":"MultiLineString","coordinates":[[[-0.0955402,51.3788012],[-0.0956106,51.3787797],[-0.0958828,51.3788812],[-0.0963906,51.3790569],[-0.0967335,51.3791741],[-0.0967873,51.379184],[-0.0968388,51.3791906],[-0.096894,51.3791906],[-0.0969495,51.3791839],[-0.0970098,51.3791693],[-0.0971174,51.3791407],[-0.0971406,51.3791343],[-0.097859,51.3789345],[-0.098032,51.3788864],[-0.0991311,51.3785725],[-0.0992434,51.3785823],[-0.0992776,51.3785933]]]}},
{"type":"Feature","properties":{"highway":"cycleway","name":"Whitgift Street","category":"Dedicated cycleway"},"geometry":{"type":"MultiLineString","coordinates":[[[-0.101205,51.3707197],[-0.1011652,51.3707594],[-0.1010707,51.3707779],[-0.1009828,51.3707581]]]}},
{"type":"Feature","properties":{"highway":"cycleway","name":"Whitgift Street","category":"Dedicated cycleway"},"geometry":{"type":"MultiLineString","coordinates":[[[-0.1018525,51.3706079],[-0.1017958,51.3706236],[-0.101766,51.3706292],[-0.1016938,51.3706187]]]}},
{"type":"Feature","properties":{"highway":"cycleway","name":"High Street","category":"Dedicated cycleway"},"geometry":{"type":"MultiLineString","coordinates":[[[-0.1003492,51.3735944],[-0.1003505,51.3736134],[-0.1003569,51.3736892]]]}},
{"type":"Feature","properties":{"highway":"cycleway","name":null,"category":"Dedicated cycleway"},"geometry":{"type":"MultiLineString","coordinates":[[[-0.1069271,51.3760501],[-0.1069648,51.376034]]]}},
{"type":"Feature","properties":{"highway":"cycleway","name":null,"category":"Dedicated cycleway"},"geometry":{"type":"MultiLineString","coordinates":[[[-0.1071738,51.372342],[-0.1071677,51.3723903]]]}},
{"type":"Feature","properties":{"highway":"cycleway","name":null,"category":"Dedicated cycleway"},"geometry":{"type":"MultiLineString","coordinates":[[[-0.1071738,51.372342],[-0.1071923,51.3723341],[-0.1072062,51.3723223]]]}},
{"type":"Feature","properties":{"highway":"cycleway","name":null,"category":"Dedicated cycleway"},"geometry":{"type":"MultiLineString","coordinates":[[[-0.105757,51.3738998],[-0.1058077,51.3739389],[-0.1058111,51.3739469]]]}},
{"type":"Feature","properties":{"highway":"cycleway","name":null,"category":"Dedicated cycleway"},"geometry":{"type":"MultiLineString","coordinates":[[[-0.1058111,51.3739469],[-0.105806,51.3739548],[-0.1057784,51.3740026]]]}},
{"type":"Feature","properties":{"highway":"cycleway","name":null,"category":"Dedicated cycleway"},"geometry":{"type":"MultiLineString","coordinates":[[[-0.1054862,51.3741974],[-0.1055305,51.3742519]]]}},
{"type":"Feature","properties":{"highway":"cycleway","name":null,"category":"Dedicated cycleway"},"geometry":{"type":"MultiLineString","coordinates":[[[-0.1055398,51.374303],[-0.1055422,51.3743276]]]}},
{"type":"Feature","properties":{"highway":"cycleway","name":null,"category":"Dedicated cycleway"},"geometry":{"type":"MultiLineString","coordinates":[[[-0.1055079,51.3743481],[-0.1054826,51.3743491]]]}},
{"type":"Feature","properties":{"highway":"cycleway","name":null,"category":"Dedicated cycleway"},"geometry":{"type":"MultiLineString","coordinates":[[[-0.1071404,51.3731888],[-0.1071572,51.3732047]]]}},
{"type":"Feature","properties":{"highway":"cycleway","name":null,"category":"Dedicated cycleway"},"geometry":{"type":"MultiLineString","coordinates":[[[-0.1036352,51.3718166],[-0.1035892,51.3718166]]]}},
{"type":"Feature","properties":{"highway":"cycleway","name":"High Street","category":"Dedicated cycleway"},"geometry":{"type":"MultiLineString","coordinates":[[[-0.1002574,51.37242],[-0.1002734,51.3724064],[-0.1002985,51.3723975],[-0.1003717,51.372373],[-0.1003961,51.3723585],[-0.1004278,51.3723187],[-0.1004428,51.3722386],[-0.1004637,51.3720491],[-0.1004717,51.3719367],[-0.1004515,51.3719185],[-0.1004417,51.3719007],[-0.1004468,51.3718403],[-0.1004094,51.3717917]]]}},
{"type":"Feature","properties":{"highway":"cycleway","name":"High Street","category":"Dedicated cycleway"},"geometry":{"type":"MultiLineString","coordinates":[[[-0.1004162,51.3714936],[-0.1004668,51.3715303],[-0.1004719,51.3715542],[-0.100477,51.3715844],[-0.1004704,51.3716368],[-0.1004674,51.3716467]]]}},
{"type":"Feature","properties":{"highway":"cycleway","name":"High Street","category":"Dedicated cycleway"},"geometry":{"type":"MultiLineString","coordinates":[[[-0.1002769,51.370992],[-0.1002817,51.3710072],[-0.1002511,51.3710486]]]}},
{"type":"Feature","properties":{"highway":"cycleway","name":null,"category":"Dedicated cycleway"},"geometry":{"type":"MultiLineString","coordinates":[[[-0.1002769,51.370992],[-0.1002543,51.3709857],[-0.1002306,51.3709823],[-0.1002115,51.3709835]]]}},
{"type":"Feature","properties":{"highway":"cycleway","name":"High Street","category":"Dedicated cycleway"},"geometry":{"type":"MultiLineString","coordinates":[[[-0.100185,51.3708762],[-0.1002639,51.3709154],[-0.1002771,51.3709561],[-0.1002806,51.3709669],[-0.1002769,51.370992]]]}},
{"type":"Feature","properties":{"highway":"cycleway","name":null,"category":"Dedicated cycleway"},"geometry":{"type":"MultiLineString","coordinates":[[[-0.1002115,51.3709835],[-0.1001908,51.3709867]]]}},
{"type":"Feature","properties":{"highway":"cycleway","name":null,"category":"Dedicated cycleway"},"geometry":{"type":"MultiLineString","coordinates":[[[-0.100269,51.3736632],[-0.1002181,51.3736542]]]}},
{"type":"Feature","properties":{"highway":"cycleway","name":null,"category":"Dedicated cycleway"},"geometry":{"type":"MultiLineString","coordinates":[[[-0.1003569,51.3736892],[-0.1003532,51.3737163]]]}},
{"type":"Feature","properties":{"highway":"cycleway","name":null,"category":"Dedicated cycleway"},"geometry":{"type":"MultiLineString","coordinates":[[[-0.1003569,51.3736892],[-0.100269,51.3736632]]]}},
{"type":"Feature","properties":{"highway":"cycleway","name":null,"category":"Dedicated cycleway"},"geometry":{"type":"MultiLineString","coordinates":[[[-0.1074178,51.3723459],[-0.1074322,51.3723437]]]}},
{"type":"Feature","properties":{"highway":"cycleway","name":null,"category":"Dedicated cycleway"},"geometry":{"type":"MultiLineString","coordinates":[[[-0.104298,51.3753352],[-0.1043562,51.3753702]]]}},
{"type":"Feature","properties":{"highway":"cycleway","name":null,"category":"Dedicated cycleway"},"geometry":{"type":"MultiLineString","coordinates":[[[-0.1042773,51.3753227],[-0.104298,51.3753352]]]}},
{"type":"Feature","properties":{"highway":"cycleway","name":"High Street","category":"Dedicated cycleway"},"geometry":{"type":"MultiLineString","coordinates":[[[-0.100341,51.3735283],[-0.1003391,51.3733867],[-0.1003346,51.3733468],[-0.1003272,51.3732927],[-0.1003264,51.3732335],[-0.1003234,51.3732234],[-0.1003158,51.3732146],[-0.1002991,51.3732041],[-0.1002877,51.3731961],[-0.1002689,51.3731786],[-0.1002587,51.3731684],[-0.1002463,51.3731588],[-0.1002266,51.3731458]]]}},
{"type":"Feature","properties":{"highway":"cycleway","name":"High Street","category":"Dedicated cycleway"},"geometry":{"type":"MultiLineString","coordinates":[[[-0.100341,51.3735283],[-0.1003463,51.3735553],[-0.1003492,51.3735944]]]}},
{"type":"Feature","properties":{"highway":"cycleway","name":null,"category":"Dedicated cycleway"},"geometry":{"type":"MultiLineString","coordinates":[[[-0.1021567,51.3775966],[-0.102153,51.3775927]]]}},
{"type":"Feature","properties":{"highway":"cycleway","name":null,"category":"Dedicated cycleway"},"geometry":{"type":"MultiLineString","coordinates":[[[-0.1004926,51.3716704],[-0.1005138,51.3716809],[-0.1005248,51.3717117],[-0.1005416,51.3717244],[-0.1005799,51.3717353],[-0.1006016,51.3717473],[-0.1006084,51.3717597],[-0.1006059,51.3717869]]]}},
{"type":"Feature","properties":{"highway":"cycleway","name":null,"category":"Dedicated cycleway"},"geometry":{"type":"MultiLineString","coordinates":[[[-0.1004026,51.3716435],[-0.1004674,51.3716467]]]}},
{"type":"Feature","properties":{"highway":"cycleway","name":"High Street","category":"Dedicated cycleway"},"geometry":{"type":"MultiLineString","coordinates":[[[-0.1004674,51.3716467],[-0.1004242,51.3716905]]]}},
{"type":"Feature","properties":{"highway":"cycleway","name":null,"category":"Dedicated cycleway"},"geometry":{"type":"MultiLineString","coordinates":[[[-0.1004674,51.3716467],[-0.1004926,51.3716704]]]}},
{"type":"Feature","properties":{"highway":"cycleway","name":"Mint Walk","category":"Dedicated cycleway"},"geometry":{"type":"MultiLineString","coordinates":[[[-0.1004026,51.3716435],[-0.1003729,51.3716424]]]}},
{"type":"Feature","properties":{"highway":"cycle_lane_on_street","name":"Tamworth Road","category":"Cycle lane on street"},"geometry":{"type":"MultiLineString","coordinates":[[[-0.1029754,51.3774178],[-0.102993,51.3773531]]]}},
{"type":"Feature","properties":{"highway":"cycle_lane_on_street","name":"Tamworth Road","category":"Cycle lane on street"},"geometry":{"type":"MultiLineString","coordinates":[[[-0.1026981,51.3777894],[-0.1028904,51.3776255],[-0.1029148,51.3775986],[-0.1029291,51.3775772],[-0.102945,51.3775421],[-0.1029535,51.3775164],[-0.1029754,51.3774178]]]}}
]
}
