{
"type": "FeatureCollection",
"name": "CROYD_113_cycling",
"crs": { "type": "name", "properties": { "name": "urn:ogc:def:crs:OGC:1.3:CRS84" } },
"features": [
{"type":"Feature","properties":{"highway":"cycleway","name":"Regina Road","category":"Dedicated cycleway"},"geometry":{"type":"MultiLineString","coordinates":[[[-0.0671676,51.4012364],[-0.0672475,51.4012702],[-0.0673402,51.401297]]]}},
{"type":"Feature","properties":{"highway":"track","name":null,"category":"Track"},"geometry":{"type":"MultiLineString","coordinates":[[[-0.0768135,51.3960976],[-0.076794,51.3960486],[-0.076706,51.3959384],[-0.0765486,51.3957998],[-0.07632,51.3957195]]]}},
{"type":"Feature","properties":{"highway":"cycleway","name":"Holmesdale Road","category":"Dedicated cycleway"},"geometry":{"type":"MultiLineString","coordinates":[[[-0.0790618,51.3995654],[-0.0790902,51.3995565],[-0.0791132,51.3995484]]]}}
]
}
