{
"type": "FeatureCollection",
"name": "CROYD_42_cycling",
"crs": { "type": "name", "properties": { "name": "urn:ogc:def:crs:OGC:1.3:CRS84" } },
"features": [
{"type":"Feature","properties":{"highway":"bridleway","name":null,"category":"Bridleway"},"geometry":{"type":"MultiLineString","coordinates":[[[-0.0890783,51.3689508],[-0.0891598,51.3689076],[-0.0895757,51.3686389],[-0.0897496,51.3686249]]]}},
{"type":"Feature","properties":{"highway":"cycleway","name":null,"category":"Dedicated cycleway"},"geometry":{"type":"MultiLineString","coordinates":[[[-0.1065148,51.3751136],[-0.106516,51.3751722]]]}},
{"type":"Feature","properties":{"highway":"cycleway","name":null,"category":"Dedicated cycleway"},"geometry":{"type":"MultiLineString","coordinates":[[[-0.1072062,51.3723223],[-0.1072015,51.3722741],[-0.1071416,51.3720449],[-0.1071342,51.37202],[-0.1070795,51.3717955],[-0.1068452,51.3713469],[-0.1068163,51.3712788]]]}},
{"type":"Feature","properties":{"highway":"cycleway","name":null,"category":"Dedicated cycleway"},"geometry":{"type":"MultiLineString","coordinates":[[[-0.1036671,51.3693717],[-0.1036495,51.3693042]]]}},
{"type":"Feature","properties":{"highway":"cycleway","name":null,"category":"Dedicated cycleway"},"geometry":{"type":"MultiLineString","coordinates":[[[-0.1032955,51.3701005],[-0.10311,51.3701253]]]}},
{"type":"Feature","properties":{"highway":"cycleway","name":null,"category":"Dedicated cycleway"},"geometry":{"type":"MultiLineString","coordinates":[[[-0.1042325,51.3752974],[-0.1042577,51.3753109],[-0.1042773,51.3753227]]]}},
{"type":"Feature","properties":{"highway":"cycleway","name":null,"category":"Dedicated cycleway"},"geometry":{"type":"MultiLineString","coordinates":[[[-0.1075842,51.3747977],[-0.1075616,51.3748575],[-0.1075087,51.3749143],[-0.1073459,51.3750335],[-0.1072943,51.3750698],[-0.1071656,51.3750957],[-0.1069998,51.3751183],[-0.1068104,51.3751442],[-0.106516,51.3751722]]]}},
{"type":"Feature","properties":{"highway":"cycleway","name":null,"category":"Dedicated cycleway"},"geometry":{"type":"MultiLineString","coordinates":[[[-0.1042202,51.3780863],[-0.1041731,51.3780462],[-0.1041692,51.3779568],[-0.1042019,51.3779285]]]}},
{"type":"Feature","properties":{"highway":"cycleway","name":null,"category":"Dedicated cycleway"},"geometry":{"type":"MultiLineString","coordinates":[[[-0.0932973,51.36682],[-0.0932772,51.3662403],[-0.0933107,51.3655966],[-0.0933622,51.3652286],[-0.0935075,51.3650203],[-0.0935459,51.3648273],[-0.0935022,51.3647935]]]}},
{"type":"Feature","properties":{"highway":"cycleway","name":null,"category":"Dedicated cycleway"},"geometry":{"type":"MultiLineString","coordinates":[[[-0.0936045,51.374391],[-0.0936462,51.3744964],[-0.0936539,51.3745164],[-0.0936668,51.3745493]]]}},
{"type":"Feature","properties":{"highway":"cycleway","name":null,"category":"Dedicated cycleway"},"geometry":{"type":"MultiLineString","coordinates":[[[-0.1072062,51.3723223],[-0.1072236,51.372321],[-0.1072436,51.3723195],[-0.1073637,51.3723163],[-0.1073745,51.372316],[-0.1074178,51.3723459]]]}},
{"type":"Feature","properties":{"highway":"cycleway","name":null,"category":"Dedicated cycleway"},"geometry":{"type":"MultiLineString","coordinates":[[[-0.1065572,51.3722393],[-0.1067314,51.3722384],[-0.106778,51.3722387],[-0.1067841,51.3724145],[-0.1068132,51.3724141]]]}},
{"type":"Feature","properties":{"highway":"cycleway","name":null,"category":"Dedicated cycleway"},"geometry":{"type":"MultiLineString","coordinates":[[[-0.102993,51.3773531],[-0.103194,51.3773871]]]}},
{"type":"Feature","properties":{"highway":"path","name":null,"category":"Shared path"},"geometry":{"type":"MultiLineString","coordinates":[[[-0.1064777,51.3715478],[-0.1064384,51.3716223],[-0.1062274,51.3721747],[-0.1061285,51.3724337],[-0.1060914,51.3725307],[-0.1061895,51.372515],[-0.1062995,51.3725159],[-0.1064013,51.3725471],[-0.1064353,51.3725647],[-0.1065286,51.3725647]]]}},
{"type":"Feature","properties":{"highway":"cycleway","name":"Mint Walk","category":"Dedicated cycleway"},"geometry":{"type":"MultiLineString","coordinates":[[[-0.1003729,51.3716424],[-0.1003366,51.3716433],[-0.1000201,51.3716709]]]}},
{"type":"Feature","properties":{"highway":"cycleway","name":"Mint Walk","category":"Dedicated cycleway"},"geometry":{"type":"MultiLineString","coordinates":[[[-0.1000201,51.3716709],[-0.0999668,51.3716755]]]}},
{"type":"Feature","properties":{"highway":"cycleway","name":null,"category":"Dedicated cycleway"},"geometry":{"type":"MultiLineString","coordinates":[[[-0.0920169,51.3720627],[-0.0920249,51.3720547],[-0.0920773,51.3719834],[-0.0920252,51.3719094],[-0.0920169,51.3718613],[-0.0919804,51.371792],[-0.091767,51.371585],[-0.091571,51.3714231],[-0.0911681,51.3710666],[-0.0911661,51.3708605],[-0.0911536,51.3702825],[-0.0911453,51.3698985],[-0.0911327,51.3694187],[-0.0911427,51.3691757],[-0.0911273,51.368958],[-0.091094,51.3687956],[-0.0909652,51.3686789],[-0.0907718,51.3686957],[-0.0904778,51.3687054],[-0.089803,51.3686375],[-0.0897712,51.3686245]]]}},
{"type":"Feature","properties":{"highway":"cycleway","name":null,"category":"Dedicated cycleway"},"geometry":{"type":"MultiLineString","coordinates":[[[-0.1062871,51.3743637],[-0.1062748,51.3743981]]]}},
{"type":"Feature","properties":{"highway":"cycleway","name":"West Street","category":"Dedicated cycleway"},"geometry":{"type":"MultiLineString","coordinates":[[[-0.0993855,51.3684674],[-0.0995424,51.3684431],[-0.0995848,51.368455]]]}},
{"type":"Feature","properties":{"highway":"cycleway","name":null,"category":"Dedicated cycleway"},"geometry":{"type":"MultiLineString","coordinates":[[[-0.1071677,51.3723903],[-0.1071739,51.3724811],[-0.1071842,51.372702],[-0.1071878,51.3728017],[-0.1072026,51.3728569],[-0.1072365,51.3729208],[-0.1072175,51.3729294]]]}},
{"type":"Feature","properties":{"highway":"cycleway","name":null,"category":"Dedicated cycleway"},"geometry":{"type":"MultiLineString","coordinates":[[[-0.1065572,51.3722393],[-0.1065804,51.3720128],[-0.1065658,51.3718631],[-0.1065247,51.3716319],[-0.1065156,51.3715805],[-0.1064777,51.3715478]]]}},
{"type":"Feature","properties":{"highway":"cycleway","name":null,"category":"Dedicated cycleway"},"geometry":{"type":"MultiLineString","coordinates":[[[-0.1062985,51.3744346],[-0.1068674,51.3745029],[-0.1068782,51.3745042]]]}},
{"type":"Feature","properties":{"highway":"cycleway","name":null,"category":"Dedicated cycleway"},"geometry":{"type":"MultiLineString","coordinates":[[[-0.1068782,51.3745042],[-0.1069328,51.374521]]]}},
{"type":"Feature","properties":{"highway":"cycleway","name":"Crown Hill","category":"Dedicated cycleway"},"geometry":{"type":"MultiLineString","coordinates":[[[-0.1003532,51.3737163],[-0.1004048,51.3737184],[-0.1004677,51.3737194],[-0.1005499,51.373718],[-0.1006078,51.3737139],[-0.1006625,51.3737071],[-0.1007081,51.3737003],[-0.1010301,51.3736477],[-0.1010937,51.3736371]]]}},
{"type":"Feature","properties":{"highway":"cycleway","name":null,"category":"Dedicated cycleway"},"geometry":{"type":"MultiLineString","coordinates":[[[-0.1060375,51.3742039],[-0.1061279,51.3742532],[-0.1061935,51.3743094],[-0.1062748,51.3743981],[-0.1062985,51.3744346]]]}},
{"type":"Feature","properties":{"highway":"cycleway","name":null,"category":"Dedicated cycleway"},"geometry":{"type":"MultiLineString","coordinates":[[[-0.1057784,51.3740026],[-0.1057851,51.3740437],[-0.1057998,51.3740706],[-0.105858,51.3741315],[-0.105918,51.3741689],[-0.1060375,51.3742039]]]}},
{"type":"Feature","properties":{"highway":"cycleway","name":null,"category":"Dedicated cycleway"},"geometry":{"type":"MultiLineString","coordinates":[[[-0.0971538,51.3710184],[-0.0972251,51.3710915]]]}},
{"type":"Feature","properties":{"highway":"cycleway","name":null,"category":"Dedicated cycleway"},"geometry":{"type":"MultiLineString","coordinates":[[[-0.098108,51.3709896],[-0.0977469,51.3710042],[-0.0975622,51.3710269]]]}},
{"type":"Feature","properties":{"highway":"cycleway","name":null,"category":"Dedicated cycleway"},"geometry":{"type":"MultiLineString","coordinates":[[[-0.0982188,51.3709249],[-0.098126,51.3709739]]]}},
{"type":"Feature","properties":{"highway":"cycleway","name":null,"category":"Dedicated cycleway"},"geometry":{"type":"MultiLineString","coordinates":[[[-0.0920169,51.3720627],[-0.0920784,51.372079],[-0.0921211,51.372076],[-0.0924566,51.3720225]]]}},
{"type":"Feature","properties":{"highway":"cycleway","name":null,"category":"Dedicated cycleway"},"geometry":{"type":"MultiLineString","coordinates":[[[-0.0925289,51.372011],[-0.0930124,51.37195]]]}},
{"type":"Feature","properties":{"highway":"cycleway","name":null,"category":"Dedicated cycleway"},"geometry":{"type":"MultiLineString","coordinates":[[[-0.0969217,51.3724168],[-0.0969372,51.3724411]]]}},
{"type":"Feature","properties":{"highway":"cycleway","name":null,"category":"Dedicated cycleway"},"geometry":{"type":"MultiLineString","coordinates":[[[-0.0969215,51.3721337],[-0.0968401,51.3721273]]]}},
{"type":"Feature","properties":{"highway":"cycleway","name":null,"category":"Dedicated cycleway"},"geometry":{"type":"MultiLineString","coordinates":[[[-0.1037696,51.3716669],[-0.1037366,51.3716914],[-0.1036348,51.3716928]]]}},
{"type":"Feature","properties":{"highway":"cycleway","name":null,"category":"Dedicated cycleway"},"geometry":{"type":"MultiLineString","coordinates":[[[-0.0973563,51.3707525],[-0.0973832,51.3707505],[-0.0974153,51.3707454],[-0.0978534,51.3707162],[-0.0980623,51.3706884],[-0.0982306,51.3706348],[-0.0982896,51.3705956],[-0.0983593,51.370588]]]}},
{"type":"Feature","properties":{"highway":"cycleway","name":null,"category":"Dedicated cycleway"},"geometry":{"type":"MultiLineString","coordinates":[[[-0.1035892,51.3718166],[-0.1035673,51.3718165],[-0.1035548,51.3718361],[-0.1035252,51.3718538],[-0.1034164,51.3718774],[-0.1030825,51.3718847],[-0.1029336,51.3718857],[-0.102847,51.3718684],[-0.1028242,51.371881]]]}},
{"type":"Feature","properties":{"highway":"cycleway","name":null,"category":"Dedicated cycleway"},"geometry":{"type":"MultiLineString","coordinates":[[[-0.0970812,51.3707979],[-0.0971723,51.3707664],[-0.0971962,51.370755]]]}},
{"type":"Feature","properties":{"highway":"cycleway","name":null,"category":"Dedicated cycleway"},"geometry":{"type":"MultiLineString","coordinates":[[[-0.1055422,51.3743276],[-0.1055079,51.3743481]]]}},
{"type":"Feature","properties":{"highway":"cycleway","name":null,"category":"Dedicated cycleway"},"geometry":{"type":"MultiLineString","coordinates":[[[-0.1054826,51.3743491],[-0.1053029,51.3744707]]]}},
{"type":"Feature","properties":{"highway":"track","name":null,"category":"Track"},"geometry":{"type":"MultiLineString","coordinates":[[[-0.0984092,51.3675779],[-0.0983983,51.3673849]]]}},
{"type":"Feature","properties":{"highway":"cycleway","name":null,"category":"Dedicated cycleway"},"geometry":{"type":"MultiLineString","coordinates":[[[-0.1009692,51.3663995],[-0.1008643,51.3664519],[-0.1007945,51.3664671]]]}},
{"type":"Feature","properties":{"highway":"cycleway","name":null,"category":"Dedicated cycleway"},"geometry":{"type":"MultiLineString","coordinates":[[[-0.0969215,51.3721337],[-0.0969077,51.3723338],[-0.0969094,51.372382]]]}},
{"type":"Feature","properties":{"highway":"cycleway","name":null,"category":"Dedicated cycleway"},"geometry":{"type":"MultiLineString","coordinates":[[[-0.1064777,51.3715478],[-0.1064762,51.3715113],[-0.1064471,51.371467],[-0.1063979,51.3714152],[-0.1063162,51.3712994],[-0.1061694,51.3710637]]]}},
{"type":"Feature","properties":{"highway":"cycleway","name":null,"category":"Dedicated cycleway"},"geometry":{"type":"MultiLineString","coordinates":[[[-0.106516,51.3751722],[-0.1065155,51.3752193],[-0.1064694,51.3752487],[-0.1063821,51.3752955],[-0.1063153,51.375338],[-0.1063001,51.3753691],[-0.1063239,51.3754125],[-0.1064022,51.3754636],[-0.1064913,51.3754951],[-0.1064435,51.3755309]]]}},
{"type":"Feature","properties":{"highway":"bridleway","name":null,"category":"Bridleway"},"geometry":{"type":"MultiLineString","coordinates":[[[-0.0897712,51.3686245],[-0.0897664,51.368464],[-0.089824,51.3680435],[-0.0904705,51.3677403]]]}},
{"type":"Feature","properties":{"highway":"cycleway","name":null,"category":"Dedicated cycleway"},"geometry":{"type":"MultiLineString","coordinates":[[[-0.1055305,51.3742519],[-0.1055382,51.3742868],[-0.1055398,51.374303]]]}},
{"type":"Feature","properties":{"highway":"cycleway","name":null,"category":"Dedicated cycleway"},"geometry":{"type":"MultiLineString","coordinates":[[[-0.0971962,51.370755],[-0.0972597,51.3707518],[-0.0973563,51.3707525]]]}},
{"type":"Feature","properties":{"highway":"cycleway","name":null,"category":"Dedicated cycleway"},"geometry":{"type":"MultiLineString","coordinates":[[[-0.1068132,51.3724141],[-0.1068641,51.372414],[-0.1069258,51.3724138]]]}},
{"type":"Feature","properties":{"highway":"cycleway","name":null,"category":"Dedicated cycleway"},"geometry":{"type":"MultiLineString","coordinates":[[[-0.1069258,51.3724138],[-0.1069686,51.3724142],[-0.1069686,51.3723423],[-0.1070088,51.3723425]]]}},
{"type":"Feature","properties":{"highway":"cycleway","name":null,"category":"Dedicated cycleway"},"geometry":{"type":"MultiLineString","coordinates":[[[-0.1070088,51.3723425],[-0.1070545,51.3723417],[-0.1071196,51.3723426]]]}},
{"type":"Feature","properties":{"highway":"cycleway","name":null,"category":"Dedicated cycleway"},"geometry":{"type":"MultiLineString","coordinates":[[[-0.1071196,51.3723426],[-0.1071738,51.372342]]]}},
{"type":"Feature","properties":{"highway":"cycleway","name":null,"category":"Dedicated cycleway"},"geometry":{"type":"MultiLineString","coordinates":[[[-0.1070795,51.3717955],[-0.1071336,51.3717905]]]}},
{"type":"Feature","properties":{"highway":"cycleway","name":null,"category":"Dedicated cycleway"},"geometry":{"type":"MultiLineString","coordinates":[[[-0.107107,51.3730271],[-0.1071208,51.3729668]]]}},
{"type":"Feature","properties":{"highway":"cycleway","name":null,"category":"Dedicated cycleway"},"geometry":{"type":"MultiLineString","coordinates":[[[-0.1071208,51.3729668],[-0.1071834,51.3729421],[-0.1072175,51.3729294]]]}},
{"type":"Feature","properties":{"highway":"cycleway","name":null,"category":"Dedicated cycleway"},"geometry":{"type":"MultiLineString","coordinates":[[[-0.1070964,51.3730627],[-0.1070749,51.3731269],[-0.1070902,51.3731414]]]}},
{"type":"Feature","properties":{"highway":"cycleway","name":null,"category":"Dedicated cycleway"},"geometry":{"type":"MultiLineString","coordinates":[[[-0.1070964,51.3730627],[-0.1071011,51.3730469],[-0.107107,51.3730271]]]}},
{"type":"Feature","properties":{"highway":"cycleway","name":"Bedford Park","category":"Dedicated cycleway"},"geometry":{"type":"MultiLineString","coordinates":[[[-0.0994156,51.3785321],[-0.0994172,51.3785118],[-0.0994874,51.3784858],[-0.0995086,51.378478],[-0.0995609,51.3784575]]]}},
{"type":"Feature","properties":{"highway":"cycleway","name":"Poplar Walk","category":"Dedicated cycleway"},"geometry":{"type":"MultiLineString","coordinates":[[[-0.0998919,51.3783628],[-0.0999515,51.3783768]]]}},
{"type":"Feature","properties":{"highway":"cycleway","name":null,"category":"Dedicated cycleway"},"geometry":{"type":"MultiLineString","coordinates":[[[-0.0995609,51.3784575],[-0.0995815,51.3784409],[-0.0996209,51.3784193],[-0.0996462,51.3784078]]]}},
{"type":"Feature","properties":{"highway":"cycleway","name":null,"category":"Dedicated cycleway"},"geometry":{"type":"MultiLineString","coordinates":[[[-0.0911713,51.3753344],[-0.0910824,51.3753535]]]}},
{"type":"Feature","properties":{"highway":"cycleway","name":null,"category":"Dedicated cycleway"},"geometry":{"type":"MultiLineString","coordinates":[[[-0.0910307,51.3755231],[-0.0909721,51.3755059],[-0.0909006,51.37541]]]}},
{"type":"Feature","properties":{"highway":"cycleway","name":null,"category":"Dedicated cycleway"},"geometry":{"type":"MultiLineString","coordinates":[[[-0.0910824,51.3753535],[-0.0910445,51.3753585]]]}},
{"type":"Feature","properties":{"highway":"cycleway","name":null,"category":"Dedicated cycleway"},"geometry":{"type":"MultiLineString","coordinates":[[[-0.090583,51.3752772],[-0.0905823,51.3752948],[-0.0905791,51.3753217]]]}},
{"type":"Feature","properties":{"highway":"cycleway","name":null,"category":"Dedicated cycleway"},"geometry":{"type":"MultiLineString","coordinates":[[[-0.0903519,51.3753079],[-0.090366,51.3752801]]]}},
{"type":"Feature","properties":{"highway":"cycleway","name":null,"category":"Dedicated cycleway"},"geometry":{"type":"MultiLineString","coordinates":[[[-0.0905791,51.3753217],[-0.0904807,51.3753155]]]}},
{"type":"Feature","properties":{"highway":"cycleway","name":null,"category":"Dedicated cycleway"},"geometry":{"type":"MultiLineString","coordinates":[[[-0.1046179,51.3686549],[-0.1046574,51.3689771],[-0.1047069,51.3690272],[-0.1052645,51.3695562],[-0.105295,51.369589],[-0.1057436,51.3700778]]]}},
{"type":"Feature","properties":{"highway":"cycleway","name":null,"category":"Dedicated cycleway"},"geometry":{"type":"MultiLineString","coordinates":[[[-0.0973734,51.3708386],[-0.0973765,51.3708534],[-0.09713,51.3708735],[-0.0971338,51.3709079]]]}},
{"type":"Feature","properties":{"highway":"cycleway","name":null,"category":"Dedicated cycleway"},"geometry":{"type":"MultiLineString","coordinates":[[[-0.0972251,51.3710915],[-0.0972158,51.3711237],[-0.0971106,51.3714391],[-0.0970612,51.3714956],[-0.0969785,51.3717492],[-0.0969441,51.3719659],[-0.0969215,51.3721337]]]}},
{"type":"Feature","properties":{"highway":"cycleway","name":null,"category":"Dedicated cycleway"},"geometry":{"type":"MultiLineString","coordinates":[[[-0.0973587,51.3707615],[-0.0973694,51.3708015],[-0.0973734,51.3708386]]]}},
{"type":"Feature","properties":{"highway":"cycleway","name":null,"category":"Dedicated cycleway"},"geometry":{"type":"MultiLineString","coordinates":[[[-0.0971338,51.3709079],[-0.0971447,51.370968],[-0.0971538,51.3710184]]]}},
{"type":"Feature","properties":{"highway":"cycleway","name":"Poplar Walk","category":"Dedicated cycleway"},"geometry":{"type":"MultiLineString","coordinates":[[[-0.0999515,51.3783768],[-0.0999666,51.3783468],[-0.1001921,51.3782681],[-0.100912,51.3780103],[-0.1009902,51.3780216]]]}},
{"type":"Feature","properties":{"highway":"cycleway","name":null,"category":"Dedicated cycleway"},"geometry":{"type":"MultiLineString","coordinates":[[[-0.1021797,51.3776215],[-0.1021567,51.3775966]]]}},
{"type":"Feature","properties":{"highway":"cycleway","name":null,"category":"Dedicated cycleway"},"geometry":{"type":"MultiLineString","coordinates":[[[-0.0931203,51.3719383],[-0.0933927,51.3719089]]]}},
{"type":"Feature","properties":{"highway":"cycleway","name":null,"category":"Dedicated cycleway"},"geometry":{"type":"MultiLineString","coordinates":[[[-0.0935415,51.3719948],[-0.093533,51.3719758],[-0.0934211,51.37199],[-0.0934161,51.3719764]]]}},
{"type":"Feature","properties":{"highway":"cycleway","name":null,"category":"Dedicated cycleway"},"geometry":{"type":"MultiLineString","coordinates":[[[-0.0935613,51.3720534],[-0.0935516,51.3720248],[-0.0935415,51.3719948]]]}},
{"type":"Feature","properties":{"highway":"cycleway","name":null,"category":"Dedicated cycleway"},"geometry":{"type":"MultiLineString","coordinates":[[[-0.0934161,51.3719764],[-0.093406,51.3719471],[-0.0933969,51.3719209]]]}},
{"type":"Feature","properties":{"highway":"cycleway","name":null,"category":"Dedicated cycleway"},"geometry":{"type":"MultiLineString","coordinates":[[[-0.0969094,51.372382],[-0.0969217,51.3724168]]]}},
{"type":"Feature","properties":{"highway":"cycleway","name":null,"category":"Dedicated cycleway"},"geometry":{"type":"MultiLineString","coordinates":[[[-0.0969459,51.372463],[-0.0969485,51.3724932]]]}},
{"type":"Feature","properties":{"highway":"cycleway","name":null,"category":"Dedicated cycleway"},"geometry":{"type":"MultiLineString","coordinates":[[[-0.0966665,51.3719612],[-0.0965698,51.3719807]]]}},
{"type":"Feature","properties":{"highway":"cycleway","name":null,"category":"Dedicated cycleway"},"geometry":{"type":"MultiLineString","coordinates":[[[-0.0967404,51.3721199],[-0.0967062,51.3721173],[-0.0967354,51.3719664],[-0.0966665,51.3719612]]]}},
{"type":"Feature","properties":{"highway":"cycleway","name":null,"category":"Dedicated cycleway"},"geometry":{"type":"MultiLineString","coordinates":[[[-0.0960241,51.3718391],[-0.0960013,51.3718339],[-0.0959914,51.3718208],[-0.0959488,51.3718126],[-0.0958502,51.3718164],[-0.0957341,51.3718278],[-0.0957098,51.3718303],[-0.0951954,51.3718831],[-0.0946631,51.3719452],[-0.0946298,51.3719551],[-0.0945955,51.3719804],[-0.0945802,51.3719814]]]}},
{"type":"Feature","properties":{"highway":"cycleway","name":null,"category":"Dedicated cycleway"},"geometry":{"type":"MultiLineString","coordinates":[[[-0.0969372,51.3724411],[-0.0969459,51.372463]]]}},
{"type":"Feature","properties":{"highway":"cycleway","name":null,"category":"Dedicated cycleway"},"geometry":{"type":"MultiLineString","coordinates":[[[-0.1028242,51.371881],[-0.1027671,51.3719125],[-0.1027177,51.3719412]]]}},
{"type":"Feature","properties":{"highway":"cycleway","name":null,"category":"Dedicated cycleway"},"geometry":{"type":"MultiLineString","coordinates":[[[-0.1027177,51.3719412],[-0.1026753,51.3719615],[-0.102621,51.3719889]]]}},
{"type":"Feature","properties":{"highway":"cycleway","name":null,"category":"Dedicated cycleway"},"geometry":{"type":"MultiLineString","coordinates":[[[-0.1074178,51.3723459],[-0.1073839,51.3723723],[-0.1073622,51.3723792],[-0.1072178,51.3723839],[-0.1071677,51.3723903]]]}},
{"type":"Feature","properties":{"highway":"cycleway","name":null,"category":"Dedicated cycleway"},"geometry":{"type":"MultiLineString","coordinates":[[[-0.1074322,51.3723437],[-0.1074602,51.3723395]]]}},
{"type":"Feature","properties":{"highway":"cycleway","name":null,"category":"Dedicated cycleway"},"geometry":{"type":"MultiLineString","coordinates":[[[-0.1025088,51.3777477],[-0.1025966,51.377792],[-0.1026639,51.3777899],[-0.1026981,51.3777894]]]}},
{"type":"Feature","properties":{"highway":"cycleway","name":null,"category":"Dedicated cycleway"},"geometry":{"type":"MultiLineString","coordinates":[[[-0.102153,51.3775927],[-0.1022521,51.3775637]]]}},
{"type":"Feature","properties":{"highway":"cycleway","name":"High Street","category":"Dedicated cycleway"},"geometry":{"type":"MultiLineString","coordinates":[[[-0.1002266,51.3731458],[-0.1002168,51.3731368],[-0.1002149,51.3731344],[-0.100214,51.3731305],[-0.1002131,51.3731181],[-0.1002134,51.3728177],[-0.1002301,51.3726649],[-0.1002495,51.3724639],[-0.1002574,51.37242]]]}},
{"type":"Feature","properties":{"highway":"cycleway","name":null,"category":"Dedicated cycleway"},"geometry":{"type":"MultiLineString","coordinates":[[[-0.1022521,51.3775637],[-0.1022908,51.3775594],[-0.1023381,51.3775618],[-0.1024037,51.377597],[-0.1025088,51.3777477]]]}},
{"type":"Feature","properties":{"highway":"cycleway","name":null,"category":"Dedicated cycleway"},"geometry":{"type":"MultiLineString","coordinates":[[[-0.1025088,51.3777477],[-0.1024916,51.3777747],[-0.1025065,51.3777973],[-0.1024867,51.3778246]]]}},
{"type":"Feature","properties":{"highway":"cycleway","name":null,"category":"Dedicated cycleway"},"geometry":{"type":"MultiLineString","coordinates":[[[-0.1063407,51.3743826],[-0.1063211,51.3742084]]]}},
{"type":"Feature","properties":{"highway":"cycleway","name":null,"category":"Dedicated cycleway"},"geometry":{"type":"MultiLineString","coordinates":[[[-0.1068033,51.3742938],[-0.1068226,51.374161],[-0.1070399,51.3734049],[-0.1070841,51.3732764],[-0.1070959,51.3732557],[-0.1071045,51.3732449],[-0.1071192,51.3732302],[-0.1071356,51.3732176],[-0.1071572,51.3732047]]]}},
{"type":"Feature","properties":{"highway":"cycleway","name":null,"category":"Dedicated cycleway"},"geometry":{"type":"MultiLineString","coordinates":[[[-0.1068033,51.3742938],[-0.1068028,51.3746129],[-0.1068176,51.3747107],[-0.1069044,51.3750042],[-0.1069831,51.3751638],[-0.1071499,51.3754797],[-0.1073118,51.3757269],[-0.1076563,51.3762273],[-0.1078696,51.3765639]]]}},
{"type":"Feature","properties":{"highway":"cycleway","name":null,"category":"Dedicated cycleway"},"geometry":{"type":"MultiLineString","coordinates":[[[-0.1075348,51.3767047],[-0.107392,51.3764818],[-0.1069817,51.3758671],[-0.1067589,51.3755065],[-0.1066486,51.3753288],[-0.1065228,51.375081],[-0.1064109,51.3747235],[-0.1063553,51.3745067],[-0.1063407,51.3743826]]]}},
{"type":"Feature","properties":{"highway":"cycleway","name":null,"category":"Dedicated cycleway"},"geometry":{"type":"MultiLineString","coordinates":[[[-0.1070902,51.3731414],[-0.1071205,51.37317],[-0.1071404,51.3731888]]]}},
{"type":"Feature","properties":{"highway":"cycleway","name":null,"category":"Dedicated cycleway"},"geometry":{"type":"MultiLineString","coordinates":[[[-0.0904807,51.3753155],[-0.0903519,51.3753079],[-0.0900708,51.3752915]]]}},
{"type":"Feature","properties":{"highway":"cycleway","name":null,"category":"Dedicated cycleway"},"geometry":{"type":"MultiLineString","coordinates":[[[-0.0904807,51.3753155],[-0.0904789,51.3752997]]]}},
{"type":"Feature","properties":{"highway":"bridleway","name":null,"category":"Bridleway"},"geometry":{"type":"MultiLineString","coordinates":[[[-0.0897496,51.3686249],[-0.0897712,51.3686245]]]}},
{"type":"Feature","properties":{"highway":"cycleway","name":null,"category":"Dedicated cycleway"},"geometry":{"type":"MultiLineString","coordinates":[[[-0.1063211,51.3742084],[-0.1062736,51.3742112]]]}},
{"type":"Feature","properties":{"highway":"cycleway","name":null,"category":"Dedicated cycleway"},"geometry":{"type":"MultiLineString","coordinates":[[[-0.0933927,51.3719089],[-0.0934906,51.3718949],[-0.0935353,51.3718703],[-0.0935688,51.371831],[-0.0935776,51.3718311]]]}},
{"type":"Feature","properties":{"highway":"cycleway","name":null,"category":"Dedicated cycleway"},"geometry":{"type":"MultiLineString","coordinates":[[[-0.0935643,51.3720624],[-0.093444,51.3720734]]]}},
{"type":"Feature","properties":{"highway":"cycleway","name":null,"category":"Dedicated cycleway"},"geometry":{"type":"MultiLineString","coordinates":[[[-0.1064336,51.3708135],[-0.1063674,51.3707884],[-0.1060462,51.3704275],[-0.1058465,51.3701892],[-0.1058408,51.370132],[-0.1058104,51.3700964],[-0.1057436,51.3700778]]]}},
{"type":"Feature","properties":{"highway":"cycleway","name":null,"category":"Dedicated cycleway"},"geometry":{"type":"MultiLineString","coordinates":[[[-0.0965698,51.3719807],[-0.0964765,51.3719996]]]}},
{"type":"Feature","properties":{"highway":"cycleway","name":"Howley Road","category":"Dedicated cycleway"},"geometry":{"type":"MultiLineString","coordinates":[[[-0.10515,51.3716118],[-0.1050986,51.3716477],[-0.1050454,51.3716483],[-0.1050095,51.3716182]]]}},
{"type":"Feature","properties":{"highway":"cycleway","name":"Cherry Orchard Road","category":"Dedicated cycleway"},"geometry":{"type":"MultiLineString","coordinates":[[[-0.0911462,51.3754938],[-0.091247,51.3755233],[-0.0912749,51.3755815],[-0.091289,51.3756422],[-0.0912917,51.3756527],[-0.0913197,51.375762],[-0.0913308,51.3758352],[-0.0912894,51.3759108],[-0.0912309,51.375971]]]}},
{"type":"Feature","properties":{"highway":"cycleway","name":null,"category":"Dedicated cycleway"},"geometry":{"type":"MultiLineString","coordinates":[[[-0.0968401,51.3721273],[-0.0967903,51.3721236],[-0.0967404,51.3721199]]]}},
{"type":"Feature","properties":{"highway":"cycleway","name":"Park Lane","category":"Dedicated cycleway"},"geometry":{"type":"MultiLineString","coordinates":[[[-0.0963411,51.3736708],[-0.09631,51.3736435],[-0.0962716,51.3734323],[-0.0962197,51.3730336],[-0.0962155,51.3729985],[-0.0962133,51.3729926],[-0.0962082,51.3729882],[-0.0961347,51.3729606],[-0.0960964,51.3728067],[-0.0960956,51.3727978],[-0.0960971,51.3727866],[-0.0961027,51.3727771],[-0.0961924,51.372681],[-0.0963302,51.3725337],[-0.0963372,51.372521],[-0.0963383,51.3725041]]]}},
{"type":"Feature","properties":{"highway":"cycleway","name":null,"category":"Dedicated cycleway"},"geometry":{"type":"MultiLineString","coordinates":[[[-0.0904715,51.37496],[-0.0904806,51.3747057]]]}},
{"type":"Feature","properties":{"highway":"cycleway","name":null,"category":"Dedicated cycleway"},"geometry":{"type":"MultiLineString","coordinates":[[[-0.0903962,51.3751174],[-0.0904537,51.3750873]]]}},
{"type":"Feature","properties":{"highway":"cycleway","name":null,"category":"Dedicated cycleway"},"geometry":{"type":"MultiLineString","coordinates":[[[-0.090366,51.3752801],[-0.0903705,51.3752659],[-0.0903766,51.3752469],[-0.0903821,51.3752298],[-0.0903877,51.375212]]]}},
{"type":"Feature","properties":{"highway":"cycleway","name":null,"category":"Dedicated cycleway"},"geometry":{"type":"MultiLineString","coordinates":[[[-0.0904049,51.3751594],[-0.0904021,51.3751457],[-0.0903962,51.3751174]]]}},
{"type":"Feature","properties":{"highway":"cycleway","name":null,"category":"Dedicated cycleway"},"geometry":{"type":"MultiLineString","coordinates":[[[-0.0908182,51.3753564],[-0.0907907,51.3753491],[-0.0907559,51.3753413],[-0.0905791,51.3753217]]]}},
{"type":"Feature","properties":{"highway":"cycleway","name":null,"category":"Dedicated cycleway"},"geometry":{"type":"MultiLineString","coordinates":[[[-0.0904789,51.3752997],[-0.0904746,51.3752813],[-0.0904697,51.3752608],[-0.0904657,51.3752437],[-0.0904624,51.3752298]]]}},
{"type":"Feature","properties":{"highway":"cycleway","name":null,"category":"Dedicated cycleway"},"geometry":{"type":"MultiLineString","coordinates":[[[-0.0904605,51.3751462],[-0.0904583,51.3751274],[-0.0904537,51.3750873]]]}},
{"type":"Feature","properties":{"highway":"cycleway","name":null,"category":"Dedicated cycleway"},"geometry":{"type":"MultiLineString","coordinates":[[[-0.0904806,51.3747057],[-0.0904853,51.3746899],[-0.0904954,51.3746785],[-0.0905181,51.3746772],[-0.0905892,51.3746814]]]}},
{"type":"Feature","properties":{"highway":"cycleway","name":null,"category":"Dedicated cycleway"},"geometry":{"type":"MultiLineString","coordinates":[[[-0.0904806,51.3747057],[-0.0905503,51.3747028],[-0.0905902,51.3747026]]]}},
{"type":"Feature","properties":{"highway":"cycleway","name":null,"category":"Dedicated cycleway"},"geometry":{"type":"MultiLineString","coordinates":[[[-0.0910445,51.3753585],[-0.0909482,51.3753711],[-0.0909056,51.3753768]]]}},
{"type":"Feature","properties":{"highway":"cycleway","name":null,"category":"Dedicated cycleway"},"geometry":{"type":"MultiLineString","coordinates":[[[-0.0996462,51.3784078],[-0.0996943,51.3783881],[-0.099766,51.3783763]]]}},
{"type":"Feature","properties":{"highway":"cycleway","name":null,"category":"Dedicated cycleway"},"geometry":{"type":"MultiLineString","coordinates":[[[-0.099766,51.3783763],[-0.0998017,51.3783704],[-0.0998721,51.3783643],[-0.0998919,51.3783628]]]}},
{"type":"Feature","properties":{"highway":"cycleway","name":null,"category":"Dedicated cycleway"},"geometry":{"type":"MultiLineString","coordinates":[[[-0.0955863,51.3769292],[-0.0955281,51.3770211]]]}},
{"type":"Feature","properties":{"highway":"cycleway","name":"Lansdowne Road","category":"Dedicated cycleway"},"geometry":{"type":"MultiLineString","coordinates":[[[-0.095486,51.3770877],[-0.0954204,51.3770739],[-0.0954025,51.3770617]]]}},
{"type":"Feature","properties":{"highway":"cycleway","name":"Lansdowne Road","category":"Dedicated cycleway"},"geometry":{"type":"MultiLineString","coordinates":[[[-0.0956277,51.3768637],[-0.0957506,51.3768914],[-0.0957616,51.3768987]]]}},
{"type":"Feature","properties":{"highway":"cycleway","name":"Dingwall Road","category":"Dedicated cycleway"},"geometry":{"type":"MultiLineString","coordinates":[[[-0.0955388,51.3768502],[-0.0955747,51.3768508],[-0.0956277,51.3768637]]]}},
{"type":"Feature","properties":{"highway":"cycleway","name":"Dingwall Road","category":"Dedicated cycleway"},"geometry":{"type":"MultiLineString","coordinates":[[[-0.0956254,51.3771147],[-0.0956071,51.3771144],[-0.095486,51.3770877]]]}},
{"type":"Feature","properties":{"highway":"cycleway","name":"Bedford Park","category":"Dedicated cycleway"},"geometry":{"type":"MultiLineString","coordinates":[[[-0.0955402,51.3788012],[-0.0956106,51.3787797],[-0.0958828,51.3788812],[-0.0963906,51.3790569],[-0.0967335,51.3791741],[-0.0967873,51.379184],[-0.0968388,51.3791906],[-0.096894,51.3791906],[-0.0969495,51.3791839],[-0.0970098,51.3791693],[-0.0971174,51.3791407],[-0.0971406,51.3791343],[-0.097859,51.3789345],[-0.098032,51.3788864],[-0.0991311,51.3785725],[-0.0992434,51.3785823],[-0.0992776,51.3785933]]]}},
{"type":"Feature","properties":{"highway":"cycleway","name":"Dingwall Road","category":"Dedicated cycleway"},"geometry":{"type":"MultiLineString","coordinates":[[[-0.0941352,51.3747828],[-0.0942199,51.3749113],[-0.0944206,51.3752144],[-0.0944073,51.3752471]]]}},
{"type":"Feature","properties":{"highway":"cycleway","name":null,"category":"Dedicated cycleway"},"geometry":{"type":"MultiLineString","coordinates":[[[-0.0956206,51.376875],[-0.0955999,51.3769077]]]}},
{"type":"Feature","properties":{"highway":"cycleway","name":null,"category":"Dedicated cycleway"},"geometry":{"type":"MultiLineString","coordinates":[[[-0.0955119,51.3770468],[-0.0954927,51.377077]]]}},
{"type":"Feature","properties":{"highway":"cycleway","name":null,"category":"Dedicated cycleway"},"geometry":{"type":"MultiLineString","coordinates":[[[-0.0955999,51.3769077],[-0.0955863,51.3769292]]]}},
{"type":"Feature","properties":{"highway":"cycleway","name":null,"category":"Dedicated cycleway"},"geometry":{"type":"MultiLineString","coordinates":[[[-0.0955281,51.3770211],[-0.0955119,51.3770468]]]}},
{"type":"Feature","properties":{"highway":"cycleway","name":null,"category":"Dedicated cycleway"},"geometry":{"type":"MultiLineString","coordinates":[[[-0.0956277,51.3768637],[-0.0956206,51.376875]]]}},
{"type":"Feature","properties":{"highway":"cycleway","name":null,"category":"Dedicated cycleway"},"geometry":{"type":"MultiLineString","coordinates":[[[-0.0954927,51.377077],[-0.095486,51.3770877]]]}},
{"type":"Feature","properties":{"highway":"cycleway","name":"Blake Road","category":"Dedicated cycleway"},"geometry":{"type":"MultiLineString","coordinates":[[[-0.0891258,51.3750834],[-0.0891178,51.3751006],[-0.089088,51.3751734],[-0.0890591,51.3751955],[-0.0890164,51.3752134]]]}},
{"type":"Feature","properties":{"highway":"cycleway","name":"Whitgift Street","category":"Dedicated cycleway"},"geometry":{"type":"MultiLineString","coordinates":[[[-0.101205,51.3707197],[-0.1011652,51.3707594],[-0.1010707,51.3707779],[-0.1009828,51.3707581]]]}},
{"type":"Feature","properties":{"highway":"cycleway","name":"Whitgift Street","category":"Dedicated cycleway"},"geometry":{"type":"MultiLineString","coordinates":[[[-0.1018525,51.3706079],[-0.1017958,51.3706236],[-0.101766,51.3706292],[-0.1016938,51.3706187]]]}},
{"type":"Feature","properties":{"highway":"cycleway","name":"High Street","category":"Dedicated cycleway"},"geometry":{"type":"MultiLineString","coordinates":[[[-0.1003492,51.3735944],[-0.1003505,51.3736134],[-0.1003569,51.3736892]]]}},
{"type":"Feature","properties":{"highway":"cycleway","name":null,"category":"Dedicated cycleway"},"geometry":{"type":"MultiLineString","coordinates":[[[-0.0939818,51.3720166],[-0.0935643,51.3720624]]]}},
{"type":"Feature","properties":{"highway":"cycleway","name":null,"category":"Dedicated cycleway"},"geometry":{"type":"MultiLineString","coordinates":[[[-0.0945802,51.3719814],[-0.0944714,51.3719937],[-0.0943435,51.3720081]]]}},
{"type":"Feature","properties":{"highway":"cycleway","name":null,"category":"Dedicated cycleway"},"geometry":{"type":"MultiLineString","coordinates":[[[-0.0963987,51.3719926],[-0.0963919,51.3719826],[-0.0963822,51.3719751],[-0.0962017,51.3718838],[-0.0961443,51.3718674]]]}},
{"type":"Feature","properties":{"highway":"cycleway","name":null,"category":"Dedicated cycleway"},"geometry":{"type":"MultiLineString","coordinates":[[[-0.0964765,51.3719996],[-0.0964096,51.3720153]]]}},
{"type":"Feature","properties":{"highway":"cycleway","name":"Park Lane","category":"Dedicated cycleway"},"geometry":{"type":"MultiLineString","coordinates":[[[-0.0964181,51.3720394],[-0.0964096,51.3720153]]]}},
{"type":"Feature","properties":{"highway":"cycleway","name":null,"category":"Dedicated cycleway"},"geometry":{"type":"MultiLineString","coordinates":[[[-0.0964096,51.3720153],[-0.0963987,51.3719926]]]}},
{"type":"Feature","properties":{"highway":"cycleway","name":"Park Lane","category":"Dedicated cycleway"},"geometry":{"type":"MultiLineString","coordinates":[[[-0.0963537,51.3724118],[-0.0964288,51.3721029],[-0.0964286,51.3720908],[-0.0964181,51.3720394]]]}},
{"type":"Feature","properties":{"highway":"cycleway","name":"Park Lane","category":"Dedicated cycleway"},"geometry":{"type":"MultiLineString","coordinates":[[[-0.0963383,51.3725041],[-0.096346,51.372458],[-0.0963537,51.3724118]]]}},
{"type":"Feature","properties":{"highway":"cycleway","name":null,"category":"Dedicated cycleway"},"geometry":{"type":"MultiLineString","coordinates":[[[-0.0963585,51.3737173],[-0.0963411,51.3736708]]]}},
{"type":"Feature","properties":{"highway":"cycleway","name":null,"category":"Dedicated cycleway"},"geometry":{"type":"MultiLineString","coordinates":[[[-0.1071738,51.372342],[-0.1071677,51.3723903]]]}},
{"type":"Feature","properties":{"highway":"cycleway","name":null,"category":"Dedicated cycleway"},"geometry":{"type":"MultiLineString","coordinates":[[[-0.1071738,51.372342],[-0.1071923,51.3723341],[-0.1072062,51.3723223]]]}},
{"type":"Feature","properties":{"highway":"cycleway","name":null,"category":"Dedicated cycleway"},"geometry":{"type":"MultiLineString","coordinates":[[[-0.0919611,51.3720866],[-0.0920093,51.3720683]]]}},
{"type":"Feature","properties":{"highway":"cycleway","name":"Dingwall Road","category":"Dedicated cycleway"},"geometry":{"type":"MultiLineString","coordinates":[[[-0.0956594,51.3771148],[-0.0956254,51.3771147]]]}},
{"type":"Feature","properties":{"highway":"cycleway","name":"Lansdowne Road","category":"Dedicated cycleway"},"geometry":{"type":"MultiLineString","coordinates":[[[-0.0954025,51.3770617],[-0.0953737,51.377034]]]}},
{"type":"Feature","properties":{"highway":"cycleway","name":"Dingwall Road","category":"Dedicated cycleway"},"geometry":{"type":"MultiLineString","coordinates":[[[-0.0954777,51.3768531],[-0.0955388,51.3768502]]]}},
{"type":"Feature","properties":{"highway":"cycleway","name":"Lansdowne Road","category":"Dedicated cycleway"},"geometry":{"type":"MultiLineString","coordinates":[[[-0.0957616,51.3768987],[-0.0958071,51.3769103]]]}},
{"type":"Feature","properties":{"highway":"cycleway","name":null,"category":"Dedicated cycleway"},"geometry":{"type":"MultiLineString","coordinates":[[[-0.105757,51.3738998],[-0.1058077,51.3739389],[-0.1058111,51.3739469]]]}},
{"type":"Feature","properties":{"highway":"cycleway","name":null,"category":"Dedicated cycleway"},"geometry":{"type":"MultiLineString","coordinates":[[[-0.1058111,51.3739469],[-0.105806,51.3739548],[-0.1057784,51.3740026]]]}},
{"type":"Feature","properties":{"highway":"cycleway","name":null,"category":"Dedicated cycleway"},"geometry":{"type":"MultiLineString","coordinates":[[[-0.1054862,51.3741974],[-0.1055305,51.3742519]]]}},
{"type":"Feature","properties":{"highway":"cycleway","name":null,"category":"Dedicated cycleway"},"geometry":{"type":"MultiLineString","coordinates":[[[-0.1055398,51.374303],[-0.1055422,51.3743276]]]}},
{"type":"Feature","properties":{"highway":"cycleway","name":null,"category":"Dedicated cycleway"},"geometry":{"type":"MultiLineString","coordinates":[[[-0.1055079,51.3743481],[-0.1054826,51.3743491]]]}},
{"type":"Feature","properties":{"highway":"cycleway","name":null,"category":"Dedicated cycleway"},"geometry":{"type":"MultiLineString","coordinates":[[[-0.1071404,51.3731888],[-0.1071572,51.3732047]]]}},
{"type":"Feature","properties":{"highway":"cycleway","name":null,"category":"Dedicated cycleway"},"geometry":{"type":"MultiLineString","coordinates":[[[-0.1036352,51.3718166],[-0.1035892,51.3718166]]]}},
{"type":"Feature","properties":{"highway":"cycleway","name":"High Street","category":"Dedicated cycleway"},"geometry":{"type":"MultiLineString","coordinates":[[[-0.1002574,51.37242],[-0.1002734,51.3724064],[-0.1002985,51.3723975],[-0.1003717,51.372373],[-0.1003961,51.3723585],[-0.1004278,51.3723187],[-0.1004428,51.3722386],[-0.1004637,51.3720491],[-0.1004717,51.3719367],[-0.1004515,51.3719185],[-0.1004417,51.3719007],[-0.1004468,51.3718403],[-0.1004094,51.3717917]]]}},
{"type":"Feature","properties":{"highway":"cycleway","name":null,"category":"Dedicated cycleway"},"geometry":{"type":"MultiLineString","coordinates":[[[-0.0973563,51.3707525],[-0.0973587,51.3707615]]]}},
{"type":"Feature","properties":{"highway":"cycleway","name":null,"category":"Dedicated cycleway"},"geometry":{"type":"MultiLineString","coordinates":[[[-0.0973832,51.3707505],[-0.0974254,51.3707576],[-0.0974944,51.3707965]]]}},
{"type":"Feature","properties":{"highway":"cycleway","name":"High Street","category":"Dedicated cycleway"},"geometry":{"type":"MultiLineString","coordinates":[[[-0.1004162,51.3714936],[-0.1004668,51.3715303],[-0.1004719,51.3715542],[-0.100477,51.3715844],[-0.1004704,51.3716368],[-0.1004674,51.3716467]]]}},
{"type":"Feature","properties":{"highway":"cycleway","name":"High Street","category":"Dedicated cycleway"},"geometry":{"type":"MultiLineString","coordinates":[[[-0.1002769,51.370992],[-0.1002817,51.3710072],[-0.1002511,51.3710486]]]}},
{"type":"Feature","properties":{"highway":"cycleway","name":null,"category":"Dedicated cycleway"},"geometry":{"type":"MultiLineString","coordinates":[[[-0.1002769,51.370992],[-0.1002543,51.3709857],[-0.1002306,51.3709823],[-0.1002115,51.3709835]]]}},
{"type":"Feature","properties":{"highway":"cycleway","name":"High Street","category":"Dedicated cycleway"},"geometry":{"type":"MultiLineString","coordinates":[[[-0.100185,51.3708762],[-0.1002639,51.3709154],[-0.1002771,51.3709561],[-0.1002806,51.3709669],[-0.1002769,51.370992]]]}},
{"type":"Feature","properties":{"highway":"cycleway","name":null,"category":"Dedicated cycleway"},"geometry":{"type":"MultiLineString","coordinates":[[[-0.1002115,51.3709835],[-0.1001908,51.3709867]]]}},
{"type":"Feature","properties":{"highway":"cycleway","name":null,"category":"Dedicated cycleway"},"geometry":{"type":"MultiLineString","coordinates":[[[-0.100269,51.3736632],[-0.1002181,51.3736542]]]}},
{"type":"Feature","properties":{"highway":"cycleway","name":null,"category":"Dedicated cycleway"},"geometry":{"type":"MultiLineString","coordinates":[[[-0.1003569,51.3736892],[-0.1003532,51.3737163]]]}},
{"type":"Feature","properties":{"highway":"cycleway","name":null,"category":"Dedicated cycleway"},"geometry":{"type":"MultiLineString","coordinates":[[[-0.1003569,51.3736892],[-0.100269,51.3736632]]]}},
{"type":"Feature","properties":{"highway":"cycleway","name":null,"category":"Dedicated cycleway"},"geometry":{"type":"MultiLineString","coordinates":[[[-0.098126,51.3709739],[-0.098108,51.3709896]]]}},
{"type":"Feature","properties":{"highway":"cycleway","name":null,"category":"Dedicated cycleway"},"geometry":{"type":"MultiLineString","coordinates":[[[-0.0975622,51.3710269],[-0.0974263,51.3710568],[-0.0973039,51.3710688],[-0.0972251,51.3710915]]]}},
{"type":"Feature","properties":{"highway":"cycleway","name":null,"category":"Dedicated cycleway"},"geometry":{"type":"MultiLineString","coordinates":[[[-0.0930124,51.37195],[-0.0931203,51.3719383]]]}},
{"type":"Feature","properties":{"highway":"cycleway","name":null,"category":"Dedicated cycleway"},"geometry":{"type":"MultiLineString","coordinates":[[[-0.0935643,51.3720624],[-0.0935613,51.3720534]]]}},
{"type":"Feature","properties":{"highway":"cycleway","name":null,"category":"Dedicated cycleway"},"geometry":{"type":"MultiLineString","coordinates":[[[-0.0933969,51.3719209],[-0.0933927,51.3719089]]]}},
{"type":"Feature","properties":{"highway":"cycleway","name":null,"category":"Dedicated cycleway"},"geometry":{"type":"MultiLineString","coordinates":[[[-0.0935776,51.3718311],[-0.0936367,51.3718319]]]}},
{"type":"Feature","properties":{"highway":"cycleway","name":null,"category":"Dedicated cycleway"},"geometry":{"type":"MultiLineString","coordinates":[[[-0.093444,51.3720734],[-0.0933912,51.372079]]]}},
{"type":"Feature","properties":{"highway":"cycleway","name":null,"category":"Dedicated cycleway"},"geometry":{"type":"MultiLineString","coordinates":[[[-0.0924566,51.3720225],[-0.0925289,51.372011]]]}},
{"type":"Feature","properties":{"highway":"cycleway","name":null,"category":"Dedicated cycleway"},"geometry":{"type":"MultiLineString","coordinates":[[[-0.0920093,51.3720683],[-0.0920169,51.3720627]]]}},
{"type":"Feature","properties":{"highway":"cycleway","name":null,"category":"Dedicated cycleway"},"geometry":{"type":"MultiLineString","coordinates":[[[-0.0943435,51.3720081],[-0.0943275,51.3720106],[-0.0942702,51.371992],[-0.0942422,51.3719898],[-0.0941356,51.3720004]]]}},
{"type":"Feature","properties":{"highway":"cycleway","name":null,"category":"Dedicated cycleway"},"geometry":{"type":"MultiLineString","coordinates":[[[-0.0941356,51.3720004],[-0.0940706,51.3720069],[-0.0939818,51.3720166]]]}},
{"type":"Feature","properties":{"highway":"cycleway","name":null,"category":"Dedicated cycleway"},"geometry":{"type":"MultiLineString","coordinates":[[[-0.0961443,51.3718674],[-0.0960842,51.3718534],[-0.0960241,51.3718391]]]}},
{"type":"Feature","properties":{"highway":"cycleway","name":null,"category":"Dedicated cycleway"},"geometry":{"type":"MultiLineString","coordinates":[[[-0.1074178,51.3723459],[-0.1074322,51.3723437]]]}},
{"type":"Feature","properties":{"highway":"cycleway","name":null,"category":"Dedicated cycleway"},"geometry":{"type":"MultiLineString","coordinates":[[[-0.0904537,51.3750873],[-0.0904715,51.37496]]]}},
{"type":"Feature","properties":{"highway":"cycleway","name":null,"category":"Dedicated cycleway"},"geometry":{"type":"MultiLineString","coordinates":[[[-0.0908771,51.3753815],[-0.0908538,51.3753693],[-0.0908182,51.3753564]]]}},
{"type":"Feature","properties":{"highway":"cycleway","name":null,"category":"Dedicated cycleway"},"geometry":{"type":"MultiLineString","coordinates":[[[-0.0909006,51.37541],[-0.0908771,51.3753815]]]}},
{"type":"Feature","properties":{"highway":"cycleway","name":null,"category":"Dedicated cycleway"},"geometry":{"type":"MultiLineString","coordinates":[[[-0.0909056,51.3753768],[-0.0908771,51.3753815]]]}},
{"type":"Feature","properties":{"highway":"cycleway","name":null,"category":"Dedicated cycleway"},"geometry":{"type":"MultiLineString","coordinates":[[[-0.104298,51.3753352],[-0.1043562,51.3753702]]]}},
{"type":"Feature","properties":{"highway":"cycleway","name":null,"category":"Dedicated cycleway"},"geometry":{"type":"MultiLineString","coordinates":[[[-0.1042773,51.3753227],[-0.104298,51.3753352]]]}},
{"type":"Feature","properties":{"highway":"cycleway","name":"High Street","category":"Dedicated cycleway"},"geometry":{"type":"MultiLineString","coordinates":[[[-0.100341,51.3735283],[-0.1003391,51.3733867],[-0.1003346,51.3733468],[-0.1003272,51.3732927],[-0.1003264,51.3732335],[-0.1003234,51.3732234],[-0.1003158,51.3732146],[-0.1002991,51.3732041],[-0.1002877,51.3731961],[-0.1002689,51.3731786],[-0.1002587,51.3731684],[-0.1002463,51.3731588],[-0.1002266,51.3731458]]]}},
{"type":"Feature","properties":{"highway":"cycleway","name":"High Street","category":"Dedicated cycleway"},"geometry":{"type":"MultiLineString","coordinates":[[[-0.100341,51.3735283],[-0.1003463,51.3735553],[-0.1003492,51.3735944]]]}},
{"type":"Feature","properties":{"highway":"cycleway","name":null,"category":"Dedicated cycleway"},"geometry":{"type":"MultiLineString","coordinates":[[[-0.1021567,51.3775966],[-0.102153,51.3775927]]]}},
{"type":"Feature","properties":{"highway":"cycleway","name":"Cedar Road","category":"Dedicated cycleway"},"geometry":{"type":"MultiLineString","coordinates":[[[-0.0912187,51.3764873],[-0.091252,51.3764431],[-0.0913157,51.3764326],[-0.0913966,51.3764193]]]}},
{"type":"Feature","properties":{"highway":"cycleway","name":"Cedar Road","category":"Dedicated cycleway"},"geometry":{"type":"MultiLineString","coordinates":[[[-0.0908792,51.3765243],[-0.0908946,51.3764916],[-0.0909304,51.3764864],[-0.0909706,51.3765144]]]}},
{"type":"Feature","properties":{"highway":"cycleway","name":null,"category":"Dedicated cycleway"},"geometry":{"type":"MultiLineString","coordinates":[[[-0.1004926,51.3716704],[-0.1005138,51.3716809],[-0.1005248,51.3717117],[-0.1005416,51.3717244],[-0.1005799,51.3717353],[-0.1006016,51.3717473],[-0.1006084,51.3717597],[-0.1006059,51.3717869]]]}},
{"type":"Feature","properties":{"highway":"cycleway","name":null,"category":"Dedicated cycleway"},"geometry":{"type":"MultiLineString","coordinates":[[[-0.1004026,51.3716435],[-0.1004674,51.3716467]]]}},
{"type":"Feature","properties":{"highway":"cycleway","name":"High Street","category":"Dedicated cycleway"},"geometry":{"type":"MultiLineString","coordinates":[[[-0.1004674,51.3716467],[-0.1004242,51.3716905]]]}},
{"type":"Feature","properties":{"highway":"cycleway","name":null,"category":"Dedicated cycleway"},"geometry":{"type":"MultiLineString","coordinates":[[[-0.1004674,51.3716467],[-0.1004926,51.3716704]]]}},
{"type":"Feature","properties":{"highway":"cycleway","name":"Mint Walk","category":"Dedicated cycleway"},"geometry":{"type":"MultiLineString","coordinates":[[[-0.1004026,51.3716435],[-0.1003729,51.3716424]]]}},
{"type":"Feature","properties":{"highway":"cycleway","name":null,"category":"Dedicated cycleway"},"geometry":{"type":"MultiLineString","coordinates":[[[-0.0904624,51.3752298],[-0.0904605,51.3751462]]]}},
{"type":"Feature","properties":{"highway":"cycleway","name":"Dingwall Road","category":"Dedicated cycleway"},"geometry":{"type":"MultiLineString","coordinates":[[[-0.0949976,51.3761272],[-0.0950345,51.3761408],[-0.0951861,51.3763695],[-0.095464,51.3767757],[-0.095451,51.3768096]]]}},
{"type":"Feature","properties":{"highway":"cycleway","name":"Dingwall Road","category":"Dedicated cycleway"},"geometry":{"type":"MultiLineString","coordinates":[[[-0.0941352,51.3747828],[-0.0941071,51.374766],[-0.0940619,51.374758]]]}},
{"type":"Feature","properties":{"highway":"cycleway","name":"Dingwall Road","category":"Dedicated cycleway"},"geometry":{"type":"MultiLineString","coordinates":[[[-0.0940479,51.3747008],[-0.0941047,51.3747222],[-0.0941329,51.3747624],[-0.0941352,51.3747828]]]}},
{"type":"Feature","properties":{"highway":"cycle_lane_on_street","name":"Dingwall Road","category":"Cycle lane on street"},"geometry":{"type":"MultiLineString","coordinates":[[[-0.0956393,51.3782183],[-0.0955567,51.378433]]]}},
{"type":"Feature","properties":{"highway":"cycle_lane_on_street","name":"Wellesley Road","category":"Cycle lane on street"},"geometry":{"type":"MultiLineString","coordinates":[[[-0.0981295,51.3761959],[-0.0980805,51.3760783],[-0.0980527,51.3760114]]]}},
{"type":"Feature","properties":{"highway":"cycle_lane_on_street","name":"Addiscombe Road","category":"Cycle lane on street"},"geometry":{"type":"MultiLineString","coordinates":[[[-0.0914817,51.3746822],[-0.09171,51.3746826],[-0.0917433,51.3746835]]]}},
{"type":"Feature","properties":{"highway":"cycle_lane_on_street","name":"Chepstow Road","category":"Cycle lane on street"},"geometry":{"type":"MultiLineString","coordinates":[[[-0.085319,51.3726373],[-0.0851686,51.3726453],[-0.0849035,51.372662],[-0.0846384,51.3726833]]]}},
{"type":"Feature","properties":{"highway":"cycle_lane_on_street","name":"Tamworth Road","category":"Cycle lane on street"},"geometry":{"type":"MultiLineString","coordinates":[[[-0.1029754,51.3774178],[-0.102993,51.3773531]]]}},
{"type":"Feature","properties":{"highway":"cycle_lane_on_street","name":"Chepstow Road","category":"Cycle lane on street"},"geometry":{"type":"MultiLineString","coordinates":[[[-0.0864925,51.3725904],[-0.0864314,51.3725933],[-0.0861649,51.3726063]]]}},
{"type":"Feature","properties":{"highway":"cycle_lane_on_street","name":"Tamworth Road","category":"Cycle lane on street"},"geometry":{"type":"MultiLineString","coordinates":[[[-0.1026981,51.3777894],[-0.1028904,51.3776255],[-0.1029148,51.3775986],[-0.1029291,51.3775772],[-0.102945,51.3775421],[-0.1029535,51.3775164],[-0.1029754,51.3774178]]]}},
{"type":"Feature","properties":{"highway":"cycle_lane_on_street","name":"Chepstow Road","category":"Cycle lane on street"},"geometry":{"type":"MultiLineString","coordinates":[[[-0.0846384,51.3726833],[-0.0845028,51.3726952]]]}},
{"type":"Feature","properties":{"highway":"cycle_lane_on_street","name":"Dingwall Road","category":"Cycle lane on street"},"geometry":{"type":"MultiLineString","coordinates":[[[-0.0956594,51.3771148],[-0.0956768,51.377152],[-0.0956965,51.3772059],[-0.0957173,51.3772722],[-0.0957542,51.3774268]]]}},
{"type":"Feature","properties":{"highway":"cycle_lane_on_street","name":"Wellesley Road","category":"Cycle lane on street"},"geometry":{"type":"MultiLineString","coordinates":[[[-0.098258,51.3764321],[-0.0982099,51.3763551]]]}},
{"type":"Feature","properties":{"highway":"cycle_lane_on_street","name":"Chepstow Road","category":"Cycle lane on street"},"geometry":{"type":"MultiLineString","coordinates":[[[-0.0861649,51.3726063],[-0.0858864,51.372617],[-0.085319,51.3726373]]]}}
]
}
