{
"type": "FeatureCollection",
"name": "CROYD_33_cycling",
"crs": { "type": "name", "properties": { "name": "urn:ogc:def:crs:OGC:1.3:CRS84" } },
"features": [
{"type":"Feature","properties":{"highway":"bridleway","name":null,"category":"Bridleway"},"geometry":{"type":"MultiLineString","coordinates":[[[-0.1066786,51.3489254],[-0.1068881,51.3485956],[-0.1072454,51.3482226],[-0.1076965,51.3483863],[-0.1075089,51.3485833],[-0.1074436,51.3486566],[-0.1072939,51.348825],[-0.1071178,51.349058],[-0.1079482,51.3492669],[-0.1080362,51.349289],[-0.1100799,51.349672],[-0.1113373,51.3499372],[-0.111409,51.3493985],[-0.1113768,51.3490404],[-0.1113694,51.3487918],[-0.11368,51.3488406],[-0.1141199,51.3479652],[-0.1140563,51.3479152],[-0.1142417,51.3474219],[-0.114249,51.3472953],[-0.1142512,51.3471765],[-0.1141618,51.3467771],[-0.1140067,51.3457118],[-0.1142495,51.3456517],[-0.114449,51.3456136],[-0.1145124,51.3455994],[-0.1145681,51.3455869],[-0.1154068,51.3454053],[-0.1165166,51.3451797],[-0.1172061,51.3450575],[-0.1172861,51.3456681]]]}},
{"type":"Feature","properties":{"highway":"bridleway","name":null,"category":"Bridleway"},"geometry":{"type":"MultiLineString","coordinates":[[[-0.1097584,51.346658],[-0.1093479,51.346855],[-0.1084782,51.3472563],[-0.1081037,51.3474546],[-0.1076208,51.3478378],[-0.1072454,51.3482226]]]}},
{"type":"Feature","properties":{"highway":"bridleway","name":null,"category":"Bridleway"},"geometry":{"type":"MultiLineString","coordinates":[[[-0.1072454,51.3482226],[-0.1068881,51.3485956],[-0.1066786,51.3489254]]]}},
{"type":"Feature","properties":{"highway":"bridleway","name":null,"category":"Bridleway"},"geometry":{"type":"MultiLineString","coordinates":[[[-0.1066786,51.3489254],[-0.1066619,51.3489517],[-0.1065516,51.3491253],[-0.1063672,51.3494046],[-0.1062536,51.3496407],[-0.106049,51.3499311],[-0.1060416,51.3499648]]]}},
{"type":"Feature","properties":{"highway":"bridleway","name":"Haling Grove","category":"Bridleway"},"geometry":{"type":"MultiLineString","coordinates":[[[-0.1045406,51.3542244],[-0.1043695,51.3542232],[-0.1039102,51.3542292]]]}},
{"type":"Feature","properties":{"highway":"bridleway","name":"Haling Grove","category":"Bridleway"},"geometry":{"type":"MultiLineString","coordinates":[[[-0.1047432,51.3540132],[-0.1046841,51.3541497],[-0.1046167,51.3542005],[-0.1045406,51.3542244]]]}},
{"type":"Feature","properties":{"highway":"bridleway","name":null,"category":"Bridleway"},"geometry":{"type":"MultiLineString","coordinates":[[[-0.1047432,51.3540132],[-0.1047825,51.3539143],[-0.1048039,51.3538105],[-0.1048261,51.35371],[-0.1048078,51.3535397],[-0.1047781,51.3533917],[-0.1047694,51.3531372],[-0.1048213,51.3529701],[-0.1048766,51.352781],[-0.1051665,51.3520196],[-0.1053028,51.3516031],[-0.1053892,51.3513406],[-0.1054395,51.3511194],[-0.1053723,51.350924]]]}},
{"type":"Feature","properties":{"highway":"bridleway","name":"Haling Grove","category":"Bridleway"},"geometry":{"type":"MultiLineString","coordinates":[[[-0.1053723,51.350924],[-0.1054395,51.3511194],[-0.1053892,51.3513406],[-0.1053028,51.3516031],[-0.1051665,51.3520196],[-0.1048766,51.352781],[-0.1048213,51.3529701],[-0.1047694,51.3531372],[-0.1047781,51.3533917],[-0.1048078,51.3535397],[-0.1048261,51.35371],[-0.1048039,51.3538105],[-0.1047825,51.3539143],[-0.1047432,51.3540132]]]}},
{"type":"Feature","properties":{"highway":"bridleway","name":null,"category":"Bridleway"},"geometry":{"type":"MultiLineString","coordinates":[[[-0.1053723,51.350924],[-0.1053841,51.3508584],[-0.1054133,51.3507945],[-0.1056854,51.3504744],[-0.1060416,51.3499648],[-0.106049,51.3499311]]]}},
{"type":"Feature","properties":{"highway":"bridleway","name":null,"category":"Bridleway"},"geometry":{"type":"MultiLineString","coordinates":[[[-0.1060416,51.3499648],[-0.1056854,51.3504744],[-0.1054133,51.3507945],[-0.1053841,51.3508584],[-0.1053723,51.350924]]]}},
{"type":"Feature","properties":{"highway":"track","name":null,"category":"Track"},"geometry":{"type":"MultiLineString","coordinates":[[[-0.1080996,51.3490594],[-0.1082729,51.3491009],[-0.1088467,51.3492414],[-0.1111079,51.3498435],[-0.1112262,51.3498464]]]}},
{"type":"Feature","properties":{"highway":"track","name":null,"category":"Track"},"geometry":{"type":"MultiLineString","coordinates":[[[-0.1089726,51.3481455],[-0.1091128,51.3482006],[-0.1093018,51.3482469],[-0.1097314,51.3483331],[-0.1112322,51.348735]]]}},
{"type":"Feature","properties":{"highway":"bridleway","name":null,"category":"Bridleway"},"geometry":{"type":"MultiLineString","coordinates":[[[-0.106049,51.3499311],[-0.1062536,51.3496407],[-0.1063672,51.3494046],[-0.1065516,51.3491253],[-0.1066619,51.3489517],[-0.1066786,51.3489254]]]}},
{"type":"Feature","properties":{"highway":"cycle_lane_on_street","name":"Brighton Road","category":"Cycle lane on street"},"geometry":{"type":"MultiLineString","coordinates":[[[-0.0984329,51.3522904],[-0.0984859,51.3522013],[-0.0987506,51.3517608],[-0.098836,51.3516328],[-0.0989633,51.3514515],[-0.0993071,51.3510277],[-0.0996128,51.350653],[-0.099897,51.3503063],[-0.100122,51.3500395],[-0.1001575,51.3499965],[-0.1005842,51.3494735],[-0.100683,51.3493551]]]}}
]
}
