{
"type": "FeatureCollection",
"name": "3fd48f9540ee_foliage",
"crs": { "type": "name", "properties": { "name": "urn:ogc:def:crs:OGC:1.3:CRS84" } },
"features": [
{ "type": "Feature", "properties": { "max_height": 2.2422499656677246, "mean_height": 0.39777660369873047, "std_height": 0.70643907785415649, "count_pixels": 38, "percent_cover": 0.13708513708513709, "percent_above_0.1m": 31.578947368421051, "low_level_<0.5": 5.2631578947368416, "mid_level_0.5-2": 18.421052631578945, "tall_2+": 5.2631578947368416 }, "geometry": { "type": "Point", "coordinates": [ -0.050549919693699, 51.480953735706954 ] } },
{ "type": "Feature", "properties": { "max_height": 4.1960010528564453, "mean_height": 1.5606371164321899, "std_height": 1.3305345773696899, "count_pixels": 42, "percent_cover": 0.15151515151515152, "percent_above_0.1m": 78.571428571428569, "low_level_<0.5": 11.904761904761903, "mid_level_0.5-2": 28.571428571428569, "tall_2+": 38.095238095238095 }, "geometry": { "type": "Point", "coordinates": [ -0.050350498452536, 51.480950418011908 ] } },
{ "type": "Feature", "properties": { "max_height": 5.4650030136108398, "mean_height": 0.71350711584091187, "std_height": 1.245699405670166, "count_pixels": 41, "percent_cover": 0.14790764790764793, "percent_above_0.1m": 43.902439024390247, "low_level_<0.5": 9.7560975609756095, "mid_level_0.5-2": 19.512195121951219, "tall_2+": 12.195121951219512 }, "geometry": { "type": "Point", "coordinates": [ -0.050645029754265, 51.481063232557915 ] } },
{ "type": "Feature", "properties": { "max_height": 2.0925002098083496, "mean_height": 0.22039309144020081, "std_height": 0.45102548599243164, "count_pixels": 42, "percent_cover": 0.15151515151515152, "percent_above_0.1m": 28.571428571428569, "low_level_<0.5": 11.904761904761903, "mid_level_0.5-2": 14.285714285714285, "tall_2+": 2.3809523809523809 }, "geometry": { "type": "Point", "coordinates": [ -0.050445608012673, 51.481059915019507 ] } },
{ "type": "Feature", "properties": { "max_height": 4.7607507705688477, "mean_height": 0.30090886354446411, "std_height": 0.93900847434997559, "count_pixels": 41, "percent_cover": 0.14790764790764793, "percent_above_0.1m": 17.073170731707318, "low_level_<0.5": 4.8780487804878048, "mid_level_0.5-2": 7.3170731707317067, "tall_2+": 4.8780487804878048 }, "geometry": { "type": "Point", "coordinates": [ -0.050246186309911, 51.481056597142135 ] } },
{ "type": "Feature", "properties": { "max_height": 5.627772331237793, "mean_height": 3.37567138671875, "std_height": 1.3723222017288208, "count_pixels": 43, "percent_cover": 0.15512265512265513, "percent_above_0.1m": 93.023255813953483, "low_level_<0.5": 4.6511627906976747, "mid_level_0.5-2": 4.6511627906976747, "tall_2+": 83.720930232558146 }, "geometry": { "type": "Point", "coordinates": [ -0.050740140276431, 51.481172729334737 ] } },
{ "type": "Feature", "properties": { "max_height": 4.2750797271728516, "mean_height": 1.6315230131149292, "std_height": 1.6844183206558228, "count_pixels": 38, "percent_cover": 0.13708513708513709, "percent_above_0.1m": 68.421052631578945, "low_level_<0.5": 10.526315789473683, "mid_level_0.5-2": 13.157894736842104, "tall_2+": 42.105263157894733 }, "geometry": { "type": "Point", "coordinates": [ -0.050540718034406, 51.481169411952955 ] } },
{ "type": "Feature", "properties": { "max_height": 1.9259998798370361, "mean_height": 0.37969660758972168, "std_height": 0.50065666437149048, "count_pixels": 42, "percent_cover": 0.15151515151515152, "percent_above_0.1m": 50.0, "low_level_<0.5": 21.428571428571427, "mid_level_0.5-2": 28.571428571428569, "tall_2+": 0.0 }, "geometry": { "type": "Point", "coordinates": [ -0.05034129583121, 51.481166094232194 ] } },
{ "type": "Feature", "properties": { "max_height": 0.48400020599365234, "mean_height": 0.028069984167814255, "std_height": 0.091150999069213867, "count_pixels": 43, "percent_cover": 0.15512265512265513, "percent_above_0.1m": 11.627906976744185, "low_level_<0.5": 9.3023255813953494, "mid_level_0.5-2": 0.0, "tall_2+": 0.0 }, "geometry": { "type": "Point", "coordinates": [ -0.050141873666847, 51.481162776172468 ] } },
{ "type": "Feature", "properties": { "max_height": 4.5537509918212891, "mean_height": 0.78478002548217773, "std_height": 1.2532732486724854, "count_pixels": 42, "percent_cover": 0.15151515151515152, "percent_above_0.1m": 50.0, "low_level_<0.5": 11.904761904761903, "mid_level_0.5-2": 14.285714285714285, "tall_2+": 19.047619047619047 }, "geometry": { "type": "Point", "coordinates": [ -0.049942451541322, 51.481159457773771 ] } },
{ "type": "Feature", "properties": { "max_height": 3.3772146701812744, "mean_height": 1.7804363965988159, "std_height": 0.87036210298538208, "count_pixels": 42, "percent_cover": 0.15151515151515152, "percent_above_0.1m": 97.61904761904762, "low_level_<0.5": 4.7619047619047619, "mid_level_0.5-2": 52.380952380952387, "tall_2+": 40.476190476190474 }, "geometry": { "type": "Point", "coordinates": [ -0.050436405814101, 51.481275591248085 ] } },
{ "type": "Feature", "properties": { "max_height": 1.3974132537841797, "mean_height": 0.11758769303560257, "std_height": 0.28838446736335754, "count_pixels": 41, "percent_cover": 0.14790764790764793, "percent_above_0.1m": 21.951219512195124, "low_level_<0.5": 9.7560975609756095, "mid_level_0.5-2": 7.3170731707317067, "tall_2+": 0.0 }, "geometry": { "type": "Point", "coordinates": [ -0.050236983149303, 51.481272273344992 ] } },
{ "type": "Feature", "properties": { "max_height": 2.8507499694824219, "mean_height": 0.075475841760635376, "std_height": 0.43910828232765198, "count_pixels": 41, "percent_cover": 0.14790764790764793, "percent_above_0.1m": 2.4390243902439024, "low_level_<0.5": 0.0, "mid_level_0.5-2": 0.0, "tall_2+": 2.4390243902439024 }, "geometry": { "type": "Point", "coordinates": [ -0.050037560523337, 51.481268955102905 ] } },
{ "type": "Feature", "properties": { "max_height": 6.5832500457763672, "mean_height": 2.1503217220306396, "std_height": 2.1376800537109375, "count_pixels": 42, "percent_cover": 0.15151515151515152, "percent_above_0.1m": 85.714285714285708, "low_level_<0.5": 16.666666666666664, "mid_level_0.5-2": 26.190476190476193, "tall_2+": 42.857142857142854 }, "geometry": { "type": "Point", "coordinates": [ -0.049838137936216, 51.481265636521861 ] } },
{ "type": "Feature", "properties": { "max_height": 9.8027505874633789, "mean_height": 3.8215858936309814, "std_height": 3.9669687747955322, "count_pixels": 38, "percent_cover": 0.13708513708513709, "percent_above_0.1m": 71.05263157894737, "low_level_<0.5": 7.8947368421052628, "mid_level_0.5-2": 15.789473684210526, "tall_2+": 47.368421052631575 }, "geometry": { "type": "Point", "coordinates": [ -0.04904044797621, 51.481252358807943 ] } },
{ "type": "Feature", "properties": { "max_height": 1.6140003204345703, "mean_height": 0.1769857257604599, "std_height": 0.35485321283340454, "count_pixels": 42, "percent_cover": 0.15151515151515152, "percent_above_0.1m": 28.571428571428569, "low_level_<0.5": 19.047619047619047, "mid_level_0.5-2": 7.1428571428571423, "tall_2+": 0.0 }, "geometry": { "type": "Point", "coordinates": [ -0.050332093093356, 51.481381770443335 ] } },
{ "type": "Feature", "properties": { "max_height": 1.6640005111694336, "mean_height": 0.042872462421655655, "std_height": 0.25068208575248718, "count_pixels": 43, "percent_cover": 0.15512265512265513, "percent_above_0.1m": 2.3255813953488373, "low_level_<0.5": 0.0, "mid_level_0.5-2": 2.3255813953488373, "tall_2+": 0.0 }, "geometry": { "type": "Point", "coordinates": [ -0.050132669966949, 51.481378452357873 ] } },
{ "type": "Feature", "properties": { "max_height": 0.60125017166137695, "mean_height": 0.080660954117774963, "std_height": 0.15871931612491608, "count_pixels": 42, "percent_cover": 0.15151515151515152, "percent_above_0.1m": 21.428571428571427, "low_level_<0.5": 19.047619047619047, "mid_level_0.5-2": 2.3809523809523809, "tall_2+": 0.0 }, "geometry": { "type": "Point", "coordinates": [ -0.049933246879381, 51.48137513393344 ] } },
{ "type": "Feature", "properties": { "max_height": 5.3920001983642578, "mean_height": 1.0267682075500488, "std_height": 1.3689496517181396, "count_pixels": 42, "percent_cover": 0.15151515151515152, "percent_above_0.1m": 66.666666666666657, "low_level_<0.5": 11.904761904761903, "mid_level_0.5-2": 26.190476190476193, "tall_2+": 16.666666666666664 }, "geometry": { "type": "Point", "coordinates": [ -0.049733823830657, 51.481371815170036 ] } },
{ "type": "Feature", "properties": { "max_height": 5.1067509651184082, "mean_height": 0.51386004686355591, "std_height": 0.97540116310119629, "count_pixels": 41, "percent_cover": 0.14790764790764793, "percent_above_0.1m": 48.780487804878049, "low_level_<0.5": 17.073170731707318, "mid_level_0.5-2": 24.390243902439025, "tall_2+": 4.8780487804878048 }, "geometry": { "type": "Point", "coordinates": [ -0.04953440082078, 51.481368496067653 ] } },
{ "type": "Feature", "properties": { "max_height": 3.9755001068115234, "mean_height": 1.7534027099609375, "std_height": 1.2371728420257568, "count_pixels": 41, "percent_cover": 0.14790764790764793, "percent_above_0.1m": 78.048780487804876, "low_level_<0.5": 0.0, "mid_level_0.5-2": 26.829268292682929, "tall_2+": 51.219512195121951 }, "geometry": { "type": "Point", "coordinates": [ -0.049334977849754, 51.481365176626305 ] } },
{ "type": "Feature", "properties": { "max_height": 7.1865005493164062, "mean_height": 1.5904881954193115, "std_height": 1.4000927209854126, "count_pixels": 42, "percent_cover": 0.15151515151515152, "percent_above_0.1m": 90.476190476190482, "low_level_<0.5": 7.1428571428571423, "mid_level_0.5-2": 59.523809523809526, "tall_2+": 23.809523809523807 }, "geometry": { "type": "Point", "coordinates": [ -0.049135554917581, 51.481361856845979 ] } },
{ "type": "Feature", "properties": { "max_height": 2.9470000267028809, "mean_height": 1.1311100721359253, "std_height": 0.84403353929519653, "count_pixels": 41, "percent_cover": 0.14790764790764793, "percent_above_0.1m": 82.926829268292678, "low_level_<0.5": 7.3170731707317067, "mid_level_0.5-2": 58.536585365853654, "tall_2+": 14.634146341463413 }, "geometry": { "type": "Point", "coordinates": [ -0.048936132024272, 51.481358536726688 ] } },
{ "type": "Feature", "properties": { "max_height": 3.6257495880126953, "mean_height": 1.4244060516357422, "std_height": 0.96233773231506348, "count_pixels": 41, "percent_cover": 0.14790764790764793, "percent_above_0.1m": 85.365853658536579, "low_level_<0.5": 2.4390243902439024, "mid_level_0.5-2": 48.780487804878049, "tall_2+": 29.268292682926827 }, "geometry": { "type": "Point", "coordinates": [ -0.048736709169821, 51.481355216268426 ] } },
{ "type": "Feature", "properties": { "max_height": 4.0320005416870117, "mean_height": 1.8399343490600586, "std_height": 0.99286729097366333, "count_pixels": 41, "percent_cover": 0.14790764790764793, "percent_above_0.1m": 97.560975609756099, "low_level_<0.5": 7.3170731707317067, "mid_level_0.5-2": 48.780487804878049, "tall_2+": 41.463414634146339 }, "geometry": { "type": "Point", "coordinates": [ -0.048537286354237, 51.481351895471178 ] } },
{ "type": "Feature", "properties": { "max_height": 0.34575033187866211, "mean_height": 0.042933277785778046, "std_height": 0.074162088334560394, "count_pixels": 41, "percent_cover": 0.14790764790764793, "percent_above_0.1m": 12.195121951219512, "low_level_<0.5": 4.8780487804878048, "mid_level_0.5-2": 0.0, "tall_2+": 0.0 }, "geometry": { "type": "Point", "coordinates": [ -0.05022777987216, 51.481487949538689 ] } },
{ "type": "Feature", "properties": { "max_height": 1.5525002479553223, "mean_height": 0.13059176504611969, "std_height": 0.3016030490398407, "count_pixels": 41, "percent_cover": 0.14790764790764793, "percent_above_0.1m": 24.390243902439025, "low_level_<0.5": 9.7560975609756095, "mid_level_0.5-2": 9.7560975609756095, "tall_2+": 0.0 }, "geometry": { "type": "Point", "coordinates": [ -0.050028356284147, 51.481484631270867 ] } },
{ "type": "Feature", "properties": { "max_height": 0.025000572204589844, "mean_height": 4.7933488531270996e-05, "std_height": 0.0070888022892177105, "count_pixels": 42, "percent_cover": 0.15151515151515152, "percent_above_0.1m": 0.0, "low_level_<0.5": 0.0, "mid_level_0.5-2": 0.0, "tall_2+": 0.0 }, "geometry": { "type": "Point", "coordinates": [ -0.049828932734974, 51.481481312664073 ] } },
{ "type": "Feature", "properties": { "max_height": 0.57149982452392578, "mean_height": 0.036345548927783966, "std_height": 0.11063365638256073, "count_pixels": 42, "percent_cover": 0.15151515151515152, "percent_above_0.1m": 11.904761904761903, "low_level_<0.5": 9.5238095238095237, "mid_level_0.5-2": 2.3809523809523809, "tall_2+": 0.0 }, "geometry": { "type": "Point", "coordinates": [ -0.049629509224647, 51.481477993718315 ] } },
{ "type": "Feature", "properties": { "max_height": 3.9470000267028809, "mean_height": 1.0798259973526001, "std_height": 1.2611207962036133, "count_pixels": 43, "percent_cover": 0.15512265512265513, "percent_above_0.1m": 53.488372093023251, "low_level_<0.5": 4.6511627906976747, "mid_level_0.5-2": 18.604651162790699, "tall_2+": 30.232558139534881 }, "geometry": { "type": "Point", "coordinates": [ -0.049430085753166, 51.481474674433578 ] } },
{ "type": "Feature", "properties": { "max_height": 3.0560007095336914, "mean_height": 1.5703275203704834, "std_height": 0.80639833211898804, "count_pixels": 42, "percent_cover": 0.15151515151515152, "percent_above_0.1m": 95.238095238095227, "low_level_<0.5": 0.0, "mid_level_0.5-2": 61.904761904761905, "tall_2+": 33.333333333333329 }, "geometry": { "type": "Point", "coordinates": [ -0.049230662320542, 51.481471354809862 ] } },
{ "type": "Feature", "properties": { "max_height": 3.0477504730224609, "mean_height": 0.8554345965385437, "std_height": 0.99839818477630615, "count_pixels": 38, "percent_cover": 0.13708513708513709, "percent_above_0.1m": 76.31578947368422, "low_level_<0.5": 26.315789473684209, "mid_level_0.5-2": 26.315789473684209, "tall_2+": 18.421052631578945 }, "geometry": { "type": "Point", "coordinates": [ -0.049031238926774, 51.481468034847197 ] } },
{ "type": "Feature", "properties": { "max_height": 1.0492000579833984, "mean_height": 0.077248603105545044, "std_height": 0.2288268506526947, "count_pixels": 43, "percent_cover": 0.15512265512265513, "percent_above_0.1m": 13.953488372093023, "low_level_<0.5": 9.3023255813953494, "mid_level_0.5-2": 4.6511627906976747, "tall_2+": 0.0 }, "geometry": { "type": "Point", "coordinates": [ -0.048831815571868, 51.481464714545531 ] } },
{ "type": "Feature", "properties": { "max_height": 4.4514894485473633, "mean_height": 0.72614282369613647, "std_height": 0.99508708715438843, "count_pixels": 43, "percent_cover": 0.15512265512265513, "percent_above_0.1m": 53.488372093023251, "low_level_<0.5": 4.6511627906976747, "mid_level_0.5-2": 39.534883720930232, "tall_2+": 9.3023255813953494 }, "geometry": { "type": "Point", "coordinates": [ -0.048632392255827, 51.481461393904887 ] } },
{ "type": "Feature", "properties": { "max_height": 2.8002510070800781, "mean_height": 0.64111346006393433, "std_height": 0.63076257705688477, "count_pixels": 42, "percent_cover": 0.15151515151515152, "percent_above_0.1m": 71.428571428571431, "low_level_<0.5": 23.809523809523807, "mid_level_0.5-2": 45.238095238095241, "tall_2+": 2.3809523809523809 }, "geometry": { "type": "Point", "coordinates": [ -0.048432968978655, 51.481458072925307 ] } },
{ "type": "Feature", "properties": { "max_height": 4.6105003356933594, "mean_height": 1.1492798328399658, "std_height": 1.1465929746627808, "count_pixels": 41, "percent_cover": 0.14790764790764793, "percent_above_0.1m": 80.487804878048792, "low_level_<0.5": 12.195121951219512, "mid_level_0.5-2": 46.341463414634148, "tall_2+": 17.073170731707318 }, "geometry": { "type": "Point", "coordinates": [ -0.048233545740356, 51.481454751606734 ] } },
{ "type": "Feature", "properties": { "max_height": 0.27225065231323242, "mean_height": 0.014952694065868855, "std_height": 0.048425354063510895, "count_pixels": 42, "percent_cover": 0.15151515151515152, "percent_above_0.1m": 4.7619047619047619, "low_level_<0.5": 4.7619047619047619, "mid_level_0.5-2": 0.0, "tall_2+": 0.0 }, "geometry": { "type": "Point", "coordinates": [ -0.049924042100891, 51.481590810083951 ] } },
{ "type": "Feature", "properties": { "max_height": 0.0025005340576171875, "mean_height": 0.00032166071468964219, "std_height": 0.00083864177577197552, "count_pixels": 42, "percent_cover": 0.15151515151515152, "percent_above_0.1m": 0.0, "low_level_<0.5": 0.0, "mid_level_0.5-2": 0.0, "tall_2+": 0.0 }, "geometry": { "type": "Point", "coordinates": [ -0.04972461809011, 51.481587491294796 ] } },
{ "type": "Feature", "properties": { "max_height": 0.0017504692077636719, "mean_height": -7.8968885645736009e-05, "std_height": 0.00057760393247008324, "count_pixels": 41, "percent_cover": 0.14790764790764793, "percent_above_0.1m": 0.0, "low_level_<0.5": 0.0, "mid_level_0.5-2": 0.0, "tall_2+": 0.0 }, "geometry": { "type": "Point", "coordinates": [ -0.049525194118179, 51.481584172166677 ] } },
{ "type": "Feature", "properties": { "max_height": 0.23800039291381836, "mean_height": 0.0059576034545898438, "std_height": 0.036698229610919952, "count_pixels": 41, "percent_cover": 0.14790764790764793, "percent_above_0.1m": 2.4390243902439024, "low_level_<0.5": 2.4390243902439024, "mid_level_0.5-2": 0.0, "tall_2+": 0.0 }, "geometry": { "type": "Point", "coordinates": [ -0.049325770185096, 51.481580852699594 ] } },
{ "type": "Feature", "properties": { "max_height": 0.92300081253051758, "mean_height": 0.045666921883821487, "std_height": 0.18084330856800079, "count_pixels": 42, "percent_cover": 0.15151515151515152, "percent_above_0.1m": 7.1428571428571423, "low_level_<0.5": 2.3809523809523809, "mid_level_0.5-2": 4.7619047619047619, "tall_2+": 0.0 }, "geometry": { "type": "Point", "coordinates": [ -0.049126346290871, 51.481577532893525 ] } },
{ "type": "Feature", "properties": { "max_height": 0.018250465393066406, "mean_height": -1.1920928955078125e-05, "std_height": 0.0042455205693840981, "count_pixels": 41, "percent_cover": 0.14790764790764793, "percent_above_0.1m": 0.0, "low_level_<0.5": 0.0, "mid_level_0.5-2": 0.0, "tall_2+": 0.0 }, "geometry": { "type": "Point", "coordinates": [ -0.048926922435504, 51.481574212748491 ] } },
{ "type": "Feature", "properties": { "max_height": 0.0015001296997070312, "mean_height": 1.9468912796583027e-05, "std_height": 0.00055677606724202633, "count_pixels": 41, "percent_cover": 0.14790764790764793, "percent_above_0.1m": 0.0, "low_level_<0.5": 0.0, "mid_level_0.5-2": 0.0, "tall_2+": 0.0 }, "geometry": { "type": "Point", "coordinates": [ -0.048727498619002, 51.481570892264443 ] } },
{ "type": "Feature", "properties": { "max_height": 0.0024995803833007812, "mean_height": -5.9872138081118464e-05, "std_height": 0.00089199491776525974, "count_pixels": 41, "percent_cover": 0.14790764790764793, "percent_above_0.1m": 0.0, "low_level_<0.5": 0.0, "mid_level_0.5-2": 0.0, "tall_2+": 0.0 }, "geometry": { "type": "Point", "coordinates": [ -0.048528074841368, 51.481567571441474 ] } },
{ "type": "Feature", "properties": { "max_height": 2.0477504730224609, "mean_height": 0.53983521461486816, "std_height": 0.56435436010360718, "count_pixels": 42, "percent_cover": 0.15151515151515152, "percent_above_0.1m": 57.142857142857139, "low_level_<0.5": 11.904761904761903, "mid_level_0.5-2": 42.857142857142854, "tall_2+": 2.3809523809523809 }, "geometry": { "type": "Point", "coordinates": [ -0.048328651102603, 51.481564250279504 ] } },
{ "type": "Feature", "properties": { "max_height": 6.1183490753173828, "mean_height": 2.3426718711853027, "std_height": 1.4532879590988159, "count_pixels": 43, "percent_cover": 0.15512265512265513, "percent_above_0.1m": 95.348837209302332, "low_level_<0.5": 11.627906976744185, "mid_level_0.5-2": 23.255813953488371, "tall_2+": 58.139534883720934 }, "geometry": { "type": "Point", "coordinates": [ -0.048129227402717, 51.48156092877857 ] } },
{ "type": "Feature", "properties": { "max_height": 9.4007511138916016, "mean_height": 3.3048932552337646, "std_height": 2.916968822479248, "count_pixels": 43, "percent_cover": 0.15512265512265513, "percent_above_0.1m": 81.395348837209298, "low_level_<0.5": 2.3255813953488373, "mid_level_0.5-2": 18.604651162790699, "tall_2+": 60.465116279069761 }, "geometry": { "type": "Point", "coordinates": [ -0.047929803741707, 51.481557606938644 ] } },
{ "type": "Feature", "properties": { "max_height": 0.49050045013427734, "mean_height": 0.044619470834732056, "std_height": 0.11093759536743164, "count_pixels": 42, "percent_cover": 0.15151515151515152, "percent_above_0.1m": 11.904761904761903, "low_level_<0.5": 11.904761904761903, "mid_level_0.5-2": 0.0, "tall_2+": 0.0 }, "geometry": { "type": "Point", "coordinates": [ -0.049819727417175, 51.48169698879714 ] } },
{ "type": "Feature", "properties": { "max_height": 0.0012502670288085938, "mean_height": 4.7751836973475292e-05, "std_height": 0.00055440381402149796, "count_pixels": 42, "percent_cover": 0.15151515151515152, "percent_above_0.1m": 0.0, "low_level_<0.5": 0.0, "mid_level_0.5-2": 0.0, "tall_2+": 0.0 }, "geometry": { "type": "Point", "coordinates": [ -0.049620302944786, 51.481693669825638 ] } },
{ "type": "Feature", "properties": { "max_height": 0.0010004043579101562, "mean_height": -6.9751295086462051e-05, "std_height": 0.00058890937361866236, "count_pixels": 43, "percent_cover": 0.15512265512265513, "percent_above_0.1m": 0.0, "low_level_<0.5": 0.0, "mid_level_0.5-2": 0.0, "tall_2+": 0.0 }, "geometry": { "type": "Point", "coordinates": [ -0.049420878511246, 51.481690350515159 ] } },
{ "type": "Feature", "properties": { "max_height": 0.0034999847412109375, "mean_height": -1.7847332856035791e-05, "std_height": 0.0006931161624379456, "count_pixels": 42, "percent_cover": 0.15151515151515152, "percent_above_0.1m": 0.0, "low_level_<0.5": 0.0, "mid_level_0.5-2": 0.0, "tall_2+": 0.0 }, "geometry": { "type": "Point", "coordinates": [ -0.049221454116564, 51.481687030865707 ] } },
{ "type": "Feature", "properties": { "max_height": 0.00075054168701171875, "mean_height": 6.6004299696942326e-06, "std_height": 0.00041161797707900405, "count_pixels": 38, "percent_cover": 0.13708513708513709, "percent_above_0.1m": 0.0, "low_level_<0.5": 0.0, "mid_level_0.5-2": 0.0, "tall_2+": 0.0 }, "geometry": { "type": "Point", "coordinates": [ -0.049022029760732, 51.481683710877277 ] } },
{ "type": "Feature", "properties": { "max_height": 0.00025081634521484375, "mean_height": -7.5539879617281258e-05, "std_height": 0.00026695730048231781, "count_pixels": 43, "percent_cover": 0.15512265512265513, "percent_above_0.1m": 0.0, "low_level_<0.5": 0.0, "mid_level_0.5-2": 0.0, "tall_2+": 0.0 }, "geometry": { "type": "Point", "coordinates": [ -0.048822605443769, 51.481680390549869 ] } },
{ "type": "Feature", "properties": { "max_height": 0.0017499923706054688, "mean_height": 2.324303932255134e-05, "std_height": 0.0004306088958401233, "count_pixels": 43, "percent_cover": 0.15512265512265513, "percent_above_0.1m": 0.0, "low_level_<0.5": 0.0, "mid_level_0.5-2": 0.0, "tall_2+": 0.0 }, "geometry": { "type": "Point", "coordinates": [ -0.048623181165669, 51.481677069883482 ] } },
{ "type": "Feature", "properties": { "max_height": 0.0025005340576171875, "mean_height": 2.2706531765948057e-08, "std_height": 0.00073500716825947165, "count_pixels": 42, "percent_cover": 0.15151515151515152, "percent_above_0.1m": 0.0, "low_level_<0.5": 0.0, "mid_level_0.5-2": 0.0, "tall_2+": 0.0 }, "geometry": { "type": "Point", "coordinates": [ -0.048423756926438, 51.481673748878116 ] } },
{ "type": "Feature", "properties": { "max_height": 0.79650020599365234, "mean_height": 0.050918556749820709, "std_height": 0.15594355762004852, "count_pixels": 41, "percent_cover": 0.14790764790764793, "percent_above_0.1m": 9.7560975609756095, "low_level_<0.5": 4.8780487804878048, "mid_level_0.5-2": 4.8780487804878048, "tall_2+": 0.0 }, "geometry": { "type": "Point", "coordinates": [ -0.048224332726082, 51.481670427533786 ] } },
{ "type": "Feature", "properties": { "max_height": 3.7547512054443359, "mean_height": 1.1321569681167603, "std_height": 0.94161021709442139, "count_pixels": 41, "percent_cover": 0.14790764790764793, "percent_above_0.1m": 85.365853658536579, "low_level_<0.5": 7.3170731707317067, "mid_level_0.5-2": 53.658536585365859, "tall_2+": 21.951219512195124 }, "geometry": { "type": "Point", "coordinates": [ -0.048024908564607, 51.481667105850498 ] } },
{ "type": "Feature", "properties": { "max_height": 5.6032509803771973, "mean_height": 1.105414867401123, "std_height": 1.5346025228500366, "count_pixels": 41, "percent_cover": 0.14790764790764793, "percent_above_0.1m": 51.219512195121951, "low_level_<0.5": 7.3170731707317067, "mid_level_0.5-2": 19.512195121951219, "tall_2+": 24.390243902439025 }, "geometry": { "type": "Point", "coordinates": [ -0.047825484442008, 51.481663783828196 ] } },
{ "type": "Feature", "properties": { "max_height": 0.94525003433227539, "mean_height": 0.078762158751487732, "std_height": 0.2255113422870636, "count_pixels": 42, "percent_cover": 0.15151515151515152, "percent_above_0.1m": 11.904761904761903, "low_level_<0.5": 4.7619047619047619, "mid_level_0.5-2": 7.1428571428571423, "tall_2+": 0.0 }, "geometry": { "type": "Point", "coordinates": [ -0.047626060358299, 51.481660461466952 ] } },
{ "type": "Feature", "properties": { "max_height": 0.45400047302246094, "mean_height": 0.032339561730623245, "std_height": 0.10075969994068146, "count_pixels": 42, "percent_cover": 0.15151515151515152, "percent_above_0.1m": 9.5238095238095237, "low_level_<0.5": 9.5238095238095237, "mid_level_0.5-2": 0.0, "tall_2+": 0.0 }, "geometry": { "type": "Point", "coordinates": [ -0.049715412233001, 51.481803167410433 ] } },
{ "type": "Feature", "properties": { "max_height": 0.0017499923706054688, "mean_height": 9.7623684268910438e-05, "std_height": 0.00044472469016909599, "count_pixels": 41, "percent_cover": 0.14790764790764793, "percent_above_0.1m": 0.0, "low_level_<0.5": 0.0, "mid_level_0.5-2": 0.0, "tall_2+": 0.0 }, "geometry": { "type": "Point", "coordinates": [ -0.049515987298998, 51.481799848256557 ] } },
{ "type": "Feature", "properties": { "max_height": 0.0012502670288085938, "mean_height": -7.9224751971196383e-05, "std_height": 0.0005616361740976572, "count_pixels": 41, "percent_cover": 0.14790764790764793, "percent_above_0.1m": 0.0, "low_level_<0.5": 0.0, "mid_level_0.5-2": 0.0, "tall_2+": 0.0 }, "geometry": { "type": "Point", "coordinates": [ -0.049316562403851, 51.481796528763724 ] } },
{ "type": "Feature", "properties": { "max_height": 0.0024995803833007812, "mean_height": 1.7938160453923047e-05, "std_height": 0.00047047057887539268, "count_pixels": 42, "percent_cover": 0.15151515151515152, "percent_above_0.1m": 0.0, "low_level_<0.5": 0.0, "mid_level_0.5-2": 0.0, "tall_2+": 0.0 }, "geometry": { "type": "Point", "coordinates": [ -0.049117137547559, 51.481793208931897 ] } },
{ "type": "Feature", "properties": { "max_height": 0.0017499923706054688, "mean_height": 3.6565270420396701e-05, "std_height": 0.00046704575652256608, "count_pixels": 41, "percent_cover": 0.14790764790764793, "percent_above_0.1m": 0.0, "low_level_<0.5": 0.0, "mid_level_0.5-2": 0.0, "tall_2+": 0.0 }, "geometry": { "type": "Point", "coordinates": [ -0.048917712730129, 51.481789888761114 ] } },
{ "type": "Feature", "properties": { "max_height": 0.0012493133544921875, "mean_height": -1.8212853319710121e-05, "std_height": 0.00043248562724329531, "count_pixels": 41, "percent_cover": 0.14790764790764793, "percent_above_0.1m": 0.0, "low_level_<0.5": 0.0, "mid_level_0.5-2": 0.0, "tall_2+": 0.0 }, "geometry": { "type": "Point", "coordinates": [ -0.048718287951562, 51.481786568251344 ] } },
{ "type": "Feature", "properties": { "max_height": 0.00424957275390625, "mean_height": 0.0001951543235918507, "std_height": 0.00077985529787838459, "count_pixels": 41, "percent_cover": 0.14790764790764793, "percent_above_0.1m": 0.0, "low_level_<0.5": 0.0, "mid_level_0.5-2": 0.0, "tall_2+": 0.0 }, "geometry": { "type": "Point", "coordinates": [ -0.048518863211862, 51.481783247402603 ] } },
{ "type": "Feature", "properties": { "max_height": 0.0020008087158203125, "mean_height": 5.949111255176831e-06, "std_height": 0.00051623181207105517, "count_pixels": 42, "percent_cover": 0.15151515151515152, "percent_above_0.1m": 0.0, "low_level_<0.5": 0.0, "mid_level_0.5-2": 0.0, "tall_2+": 0.0 }, "geometry": { "type": "Point", "coordinates": [ -0.048319438511039, 51.481779926214863 ] } },
{ "type": "Feature", "properties": { "max_height": 0.19935035705566406, "mean_height": 0.0049872067756950855, "std_height": 0.030094042420387268, "count_pixels": 43, "percent_cover": 0.15512265512265513, "percent_above_0.1m": 2.3255813953488373, "low_level_<0.5": 2.3255813953488373, "mid_level_0.5-2": 0.0, "tall_2+": 0.0 }, "geometry": { "type": "Point", "coordinates": [ -0.048120013849089, 51.481776604688164 ] } },
{ "type": "Feature", "properties": { "max_height": 5.5572500228881836, "mean_height": 1.1382639408111572, "std_height": 1.5165053606033325, "count_pixels": 43, "percent_cover": 0.15512265512265513, "percent_above_0.1m": 65.116279069767444, "low_level_<0.5": 18.604651162790699, "mid_level_0.5-2": 20.930232558139537, "tall_2+": 25.581395348837212 }, "geometry": { "type": "Point", "coordinates": [ -0.047920589226015, 51.481773282822488 ] } },
{ "type": "Feature", "properties": { "max_height": 8.1305007934570312, "mean_height": 2.5031187534332275, "std_height": 2.2604644298553467, "count_pixels": 38, "percent_cover": 0.13708513708513709, "percent_above_0.1m": 94.73684210526315, "low_level_<0.5": 10.526315789473683, "mid_level_0.5-2": 28.947368421052634, "tall_2+": 50.0 }, "geometry": { "type": "Point", "coordinates": [ -0.047721164641832, 51.481769960617839 ] } },
{ "type": "Feature", "properties": { "max_height": 5.7337498664855957, "mean_height": 2.3182563781738281, "std_height": 1.8502119779586792, "count_pixels": 42, "percent_cover": 0.15151515151515152, "percent_above_0.1m": 78.571428571428569, "low_level_<0.5": 0.0, "mid_level_0.5-2": 26.190476190476193, "tall_2+": 52.380952380952387 }, "geometry": { "type": "Point", "coordinates": [ -0.047521740096535, 51.481766638074205 ] } },
{ "type": "Feature", "properties": { "max_height": 0.0035004615783691406, "mean_height": -0.00040456227725371718, "std_height": 0.0023890410084277391, "count_pixels": 42, "percent_cover": 0.15151515151515152, "percent_above_0.1m": 0.0, "low_level_<0.5": 0.0, "mid_level_0.5-2": 0.0, "tall_2+": 0.0 }, "geometry": { "type": "Point", "coordinates": [ -0.049611096548356, 51.481909345923803 ] } },
{ "type": "Feature", "properties": { "max_height": 0.0022497177124023438, "mean_height": -8.1483711255714297e-05, "std_height": 0.00086217513307929039, "count_pixels": 43, "percent_cover": 0.15512265512265513, "percent_above_0.1m": 0.0, "low_level_<0.5": 0.0, "mid_level_0.5-2": 0.0, "tall_2+": 0.0 }, "geometry": { "type": "Point", "coordinates": [ -0.049411671152745, 51.481906026587588 ] } },
{ "type": "Feature", "properties": { "max_height": 0.00075054168701171875, "mean_height": -5.3587413276545703e-05, "std_height": 0.00041380833135917783, "count_pixels": 42, "percent_cover": 0.15151515151515152, "percent_above_0.1m": 0.0, "low_level_<0.5": 0.0, "mid_level_0.5-2": 0.0, "tall_2+": 0.0 }, "geometry": { "type": "Point", "coordinates": [ -0.049212245795987, 51.481902706912386 ] } },
{ "type": "Feature", "properties": { "max_height": 0.0032491683959960938, "mean_height": -2.6376623281976208e-05, "std_height": 0.00077103619696572423, "count_pixels": 38, "percent_cover": 0.13708513708513709, "percent_above_0.1m": 0.0, "low_level_<0.5": 0.0, "mid_level_0.5-2": 0.0, "tall_2+": 0.0 }, "geometry": { "type": "Point", "coordinates": [ -0.049012820478084, 51.481899386898192 ] } },
{ "type": "Feature", "properties": { "max_height": 0.0020008087158203125, "mean_height": 2.903162021539174e-05, "std_height": 0.00055312743643298745, "count_pixels": 43, "percent_cover": 0.15512265512265513, "percent_above_0.1m": 0.0, "low_level_<0.5": 0.0, "mid_level_0.5-2": 0.0, "tall_2+": 0.0 }, "geometry": { "type": "Point", "coordinates": [ -0.048813395199052, 51.48189606654504 ] } },
{ "type": "Feature", "properties": { "max_height": 0.00075054168701171875, "mean_height": 5.810759830637835e-06, "std_height": 0.00032127398299053311, "count_pixels": 43, "percent_cover": 0.15512265512265513, "percent_above_0.1m": 0.0, "low_level_<0.5": 0.0, "mid_level_0.5-2": 0.0, "tall_2+": 0.0 }, "geometry": { "type": "Point", "coordinates": [ -0.048613969958882, 51.48189274585291 ] } },
{ "type": "Feature", "properties": { "max_height": 0.0010004043579101562, "mean_height": 3.5830908018397167e-05, "std_height": 0.00042459412361495197, "count_pixels": 42, "percent_cover": 0.15151515151515152, "percent_above_0.1m": 0.0, "low_level_<0.5": 0.0, "mid_level_0.5-2": 0.0, "tall_2+": 0.0 }, "geometry": { "type": "Point", "coordinates": [ -0.048414544757582, 51.481889424821794 ] } },
{ "type": "Feature", "properties": { "max_height": 0.002750396728515625, "mean_height": 0.00018931597878690809, "std_height": 0.0007152578909881413, "count_pixels": 41, "percent_cover": 0.14790764790764793, "percent_above_0.1m": 0.0, "low_level_<0.5": 0.0, "mid_level_0.5-2": 0.0, "tall_2+": 0.0 }, "geometry": { "type": "Point", "coordinates": [ -0.048215119595158, 51.481886103451707 ] } },
{ "type": "Feature", "properties": { "max_height": 0.001251220703125, "mean_height": 6.175622547743842e-05, "std_height": 0.00046458773431368172, "count_pixels": 41, "percent_cover": 0.14790764790764793, "percent_above_0.1m": 0.0, "low_level_<0.5": 0.0, "mid_level_0.5-2": 0.0, "tall_2+": 0.0 }, "geometry": { "type": "Point", "coordinates": [ -0.048015694471611, 51.481882781742634 ] } },
{ "type": "Feature", "properties": { "max_height": 5.5690011978149414, "mean_height": 0.46128711104393005, "std_height": 1.3065775632858276, "count_pixels": 41, "percent_cover": 0.14790764790764793, "percent_above_0.1m": 14.634146341463413, "low_level_<0.5": 2.4390243902439024, "mid_level_0.5-2": 2.4390243902439024, "tall_2+": 9.7560975609756095 }, "geometry": { "type": "Point", "coordinates": [ -0.047816269386948, 51.481879459694582 ] } },
{ "type": "Feature", "properties": { "max_height": 5.7957501411437988, "mean_height": 1.4864766597747803, "std_height": 1.7287520170211792, "count_pixels": 42, "percent_cover": 0.15151515151515152, "percent_above_0.1m": 71.428571428571431, "low_level_<0.5": 16.666666666666664, "mid_level_0.5-2": 19.047619047619047, "tall_2+": 33.333333333333329 }, "geometry": { "type": "Point", "coordinates": [ -0.047616844341169, 51.481876137307566 ] } },
{ "type": "Feature", "properties": { "max_height": 9.0040006637573242, "mean_height": 3.0466222763061523, "std_height": 2.810338020324707, "count_pixels": 41, "percent_cover": 0.14790764790764793, "percent_above_0.1m": 65.853658536585371, "low_level_<0.5": 4.8780487804878048, "mid_level_0.5-2": 2.4390243902439024, "tall_2+": 58.536585365853654 }, "geometry": { "type": "Point", "coordinates": [ -0.047417419334284, 51.481872814581557 ] } },
{ "type": "Feature", "properties": { "max_height": 0.60499954223632812, "mean_height": 0.024243982508778572, "std_height": 0.10312547534704208, "count_pixels": 41, "percent_cover": 0.14790764790764793, "percent_above_0.1m": 7.3170731707317067, "low_level_<0.5": 2.4390243902439024, "mid_level_0.5-2": 2.4390243902439024, "tall_2+": 0.0 }, "geometry": { "type": "Point", "coordinates": [ -0.049506780363244, 51.482015524337292 ] } },
{ "type": "Feature", "properties": { "max_height": 0.00099945068359375, "mean_height": 3.0424536817008629e-05, "std_height": 0.00030336421332322061, "count_pixels": 41, "percent_cover": 0.14790764790764793, "percent_above_0.1m": 0.0, "low_level_<0.5": 0.0, "mid_level_0.5-2": 0.0, "tall_2+": 0.0 }, "geometry": { "type": "Point", "coordinates": [ -0.049307354506019, 51.482012204818695 ] } },
{ "type": "Feature", "properties": { "max_height": 0.0020008087158203125, "mean_height": 5.361012154025957e-05, "std_height": 0.0004245789023116231, "count_pixels": 42, "percent_cover": 0.15151515151515152, "percent_above_0.1m": 0.0, "low_level_<0.5": 0.0, "mid_level_0.5-2": 0.0, "tall_2+": 0.0 }, "geometry": { "type": "Point", "coordinates": [ -0.049107928687648, 51.482008884961132 ] } },
{ "type": "Feature", "properties": { "max_height": 0.0010004043579101562, "mean_height": -9.1366651759017259e-05, "std_height": 0.00043036224087700248, "count_pixels": 41, "percent_cover": 0.14790764790764793, "percent_above_0.1m": 0.0, "low_level_<0.5": 0.0, "mid_level_0.5-2": 0.0, "tall_2+": 0.0 }, "geometry": { "type": "Point", "coordinates": [ -0.04890850290814, 51.482005564764599 ] } },
{ "type": "Feature", "properties": { "max_height": 0.0030002593994140625, "mean_height": 0.00013409591338131577, "std_height": 0.00060258148005232215, "count_pixels": 41, "percent_cover": 0.14790764790764793, "percent_above_0.1m": 0.0, "low_level_<0.5": 0.0, "mid_level_0.5-2": 0.0, "tall_2+": 0.0 }, "geometry": { "type": "Point", "coordinates": [ -0.048709077167498, 51.482002244229072 ] } },
{ "type": "Feature", "properties": { "max_height": 0.000499725341796875, "mean_height": -1.8236114556202665e-05, "std_height": 0.00024312888854183257, "count_pixels": 41, "percent_cover": 0.14790764790764793, "percent_above_0.1m": 0.0, "low_level_<0.5": 0.0, "mid_level_0.5-2": 0.0, "tall_2+": 0.0 }, "geometry": { "type": "Point", "coordinates": [ -0.048509651465722, 51.481998923354574 ] } },
{ "type": "Feature", "properties": { "max_height": 0.0020008087158203125, "mean_height": -4.7365825594170019e-05, "std_height": 0.00062500918284058571, "count_pixels": 42, "percent_cover": 0.15151515151515152, "percent_above_0.1m": 0.0, "low_level_<0.5": 0.0, "mid_level_0.5-2": 0.0, "tall_2+": 0.0 }, "geometry": { "type": "Point", "coordinates": [ -0.04831022580282, 51.481995602141083 ] } },
{ "type": "Feature", "properties": { "max_height": 0.0010004043579101562, "mean_height": -0.00010421664046589285, "std_height": 0.00055832363432273269, "count_pixels": 43, "percent_cover": 0.15512265512265513, "percent_above_0.1m": 0.0, "low_level_<0.5": 0.0, "mid_level_0.5-2": 0.0, "tall_2+": 0.0 }, "geometry": { "type": "Point", "coordinates": [ -0.048110800178797, 51.481992280588621 ] } },
{ "type": "Feature", "properties": { "max_height": 3.5927505493164062, "mean_height": 0.14571575820446014, "std_height": 0.58424067497253418, "count_pixels": 43, "percent_cover": 0.15512265512265513, "percent_above_0.1m": 11.627906976744185, "low_level_<0.5": 2.3255813953488373, "mid_level_0.5-2": 4.6511627906976747, "tall_2+": 2.3255813953488373 }, "geometry": { "type": "Point", "coordinates": [ -0.04791137459365, 51.481988958697187 ] } },
{ "type": "Feature", "properties": { "max_height": 6.0902500152587891, "mean_height": 3.1703624725341797, "std_height": 1.8549296855926514, "count_pixels": 38, "percent_cover": 0.13708513708513709, "percent_above_0.1m": 89.473684210526315, "low_level_<0.5": 2.6315789473684208, "mid_level_0.5-2": 13.157894736842104, "tall_2+": 71.05263157894737 }, "geometry": { "type": "Point", "coordinates": [ -0.047711949047395, 51.481985636466767 ] } },
{ "type": "Feature", "properties": { "max_height": 10.516750335693359, "mean_height": 2.7371668815612793, "std_height": 2.8946907520294189, "count_pixels": 42, "percent_cover": 0.15151515151515152, "percent_above_0.1m": 83.333333333333343, "low_level_<0.5": 9.5238095238095237, "mid_level_0.5-2": 26.190476190476193, "tall_2+": 45.238095238095241 }, "geometry": { "type": "Point", "coordinates": [ -0.047512523540022, 51.481982313897369 ] } },
{ "type": "Feature", "properties": { "max_height": 0.96675014495849609, "mean_height": 0.0576193667948246, "std_height": 0.16023184359073639, "count_pixels": 42, "percent_cover": 0.15151515151515152, "percent_above_0.1m": 11.904761904761903, "low_level_<0.5": 7.1428571428571423, "mid_level_0.5-2": 2.3809523809523809, "tall_2+": 0.0 }, "geometry": { "type": "Point", "coordinates": [ -0.049601890035356, 51.482125022012823 ] } },
{ "type": "Feature", "properties": { "max_height": 0.0022497177124023438, "mean_height": -6.4051426306832582e-05, "std_height": 0.00092625315301120281, "count_pixels": 43, "percent_cover": 0.15512265512265513, "percent_above_0.1m": 0.0, "low_level_<0.5": 0.0, "mid_level_0.5-2": 0.0, "tall_2+": 0.0 }, "geometry": { "type": "Point", "coordinates": [ -0.049402463677655, 51.482121702650858 ] } },
{ "type": "Feature", "properties": { "max_height": 0.003749847412109375, "mean_height": -5.3587413276545703e-05, "std_height": 0.00093457236653193831, "count_pixels": 42, "percent_cover": 0.15151515151515152, "percent_above_0.1m": 0.0, "low_level_<0.5": 0.0, "mid_level_0.5-2": 0.0, "tall_2+": 0.0 }, "geometry": { "type": "Point", "coordinates": [ -0.049203037358814, 51.482118382949913 ] } },
{ "type": "Feature", "properties": { "max_height": 0.0017499923706054688, "mean_height": 3.9451999327866361e-05, "std_height": 0.00056336965644732118, "count_pixels": 38, "percent_cover": 0.13708513708513709, "percent_above_0.1m": 0.0, "low_level_<0.5": 0.0, "mid_level_0.5-2": 0.0, "tall_2+": 0.0 }, "geometry": { "type": "Point", "coordinates": [ -0.049003611078837, 51.482115062909983 ] } },
{ "type": "Feature", "properties": { "max_height": 0.0017499923706054688, "mean_height": -8.7294465629383922e-05, "std_height": 0.00060969969490543008, "count_pixels": 43, "percent_cover": 0.15512265512265513, "percent_above_0.1m": 0.0, "low_level_<0.5": 0.0, "mid_level_0.5-2": 0.0, "tall_2+": 0.0 }, "geometry": { "type": "Point", "coordinates": [ -0.048804184837714, 51.482111742531067 ] } },
{ "type": "Feature", "properties": { "max_height": 0.0015001296997070312, "mean_height": -4.630865078070201e-05, "std_height": 0.00080010527744889259, "count_pixels": 43, "percent_cover": 0.15512265512265513, "percent_above_0.1m": 0.0, "low_level_<0.5": 0.0, "mid_level_0.5-2": 0.0, "tall_2+": 0.0 }, "geometry": { "type": "Point", "coordinates": [ -0.04860475863546, 51.482108421813173 ] } },
{ "type": "Feature", "properties": { "max_height": 0.0010004043579101562, "mean_height": 1.2216113645990845e-05, "std_height": 0.00067470752401277423, "count_pixels": 42, "percent_cover": 0.15151515151515152, "percent_above_0.1m": 0.0, "low_level_<0.5": 0.0, "mid_level_0.5-2": 0.0, "tall_2+": 0.0 }, "geometry": { "type": "Point", "coordinates": [ -0.048405332472084, 51.482105100756328 ] } },
{ "type": "Feature", "properties": { "max_height": 0.0010004043579101562, "mean_height": 6.4663772718631662e-06, "std_height": 0.00038052929448895156, "count_pixels": 41, "percent_cover": 0.14790764790764793, "percent_above_0.1m": 0.0, "low_level_<0.5": 0.0, "mid_level_0.5-2": 0.0, "tall_2+": 0.0 }, "geometry": { "type": "Point", "coordinates": [ -0.048205906347576, 51.482101779360463 ] } },
{ "type": "Feature", "properties": { "max_height": 1.7937498092651367, "mean_height": 0.19336016476154327, "std_height": 0.47348874807357788, "count_pixels": 41, "percent_cover": 0.14790764790764793, "percent_above_0.1m": 21.951219512195124, "low_level_<0.5": 12.195121951219512, "mid_level_0.5-2": 9.7560975609756095, "tall_2+": 0.0 }, "geometry": { "type": "Point", "coordinates": [ -0.048006480261952, 51.482098457625625 ] } },
{ "type": "Feature", "properties": { "max_height": 5.9525003433227539, "mean_height": 2.8749940395355225, "std_height": 1.8457926511764526, "count_pixels": 41, "percent_cover": 0.14790764790764793, "percent_above_0.1m": 87.804878048780495, "low_level_<0.5": 0.0, "mid_level_0.5-2": 17.073170731707318, "tall_2+": 65.853658536585371 }, "geometry": { "type": "Point", "coordinates": [ -0.047807054215206, 51.482095135551809 ] } },
{ "type": "Feature", "properties": { "max_height": 6.6164999008178711, "mean_height": 1.5378751754760742, "std_height": 1.8077664375305176, "count_pixels": 42, "percent_cover": 0.15151515151515152, "percent_above_0.1m": 69.047619047619051, "low_level_<0.5": 4.7619047619047619, "mid_level_0.5-2": 26.190476190476193, "tall_2+": 33.333333333333329 }, "geometry": { "type": "Point", "coordinates": [ -0.047607628207352, 51.482091813139029 ] } },
{ "type": "Feature", "properties": { "max_height": 0.072750568389892578, "mean_height": 0.0056771417148411274, "std_height": 0.014628332108259201, "count_pixels": 41, "percent_cover": 0.14790764790764793, "percent_above_0.1m": 0.0, "low_level_<0.5": 0.0, "mid_level_0.5-2": 0.0, "tall_2+": 0.0 }, "geometry": { "type": "Point", "coordinates": [ -0.04949757331091, 51.482231200408854 ] } },
{ "type": "Feature", "properties": { "max_height": 0.0054998397827148438, "mean_height": 3.6635050491895527e-05, "std_height": 0.0016235485672950745, "count_pixels": 41, "percent_cover": 0.14790764790764793, "percent_above_0.1m": 0.0, "low_level_<0.5": 0.0, "mid_level_0.5-2": 0.0, "tall_2+": 0.0 }, "geometry": { "type": "Point", "coordinates": [ -0.049298146491593, 51.482227880864528 ] } },
{ "type": "Feature", "properties": { "max_height": 0.003749847412109375, "mean_height": 0.00022043500212021172, "std_height": 0.0014911495381966233, "count_pixels": 42, "percent_cover": 0.15151515151515152, "percent_above_0.1m": 0.0, "low_level_<0.5": 0.0, "mid_level_0.5-2": 0.0, "tall_2+": 0.0 }, "geometry": { "type": "Point", "coordinates": [ -0.049098719711134, 51.482224560981223 ] } },
{ "type": "Feature", "properties": { "max_height": 0.0042505264282226562, "mean_height": 0.0001040900606312789, "std_height": 0.0017329683760181069, "count_pixels": 41, "percent_cover": 0.14790764790764793, "percent_above_0.1m": 0.0, "low_level_<0.5": 0.0, "mid_level_0.5-2": 0.0, "tall_2+": 0.0 }, "geometry": { "type": "Point", "coordinates": [ -0.048899292969537, 51.482221240758918 ] } },
{ "type": "Feature", "properties": { "max_height": 0.0037508010864257812, "mean_height": -0.00038975040661171079, "std_height": 0.0015763102564960718, "count_pixels": 41, "percent_cover": 0.14790764790764793, "percent_above_0.1m": 0.0, "low_level_<0.5": 0.0, "mid_level_0.5-2": 0.0, "tall_2+": 0.0 }, "geometry": { "type": "Point", "coordinates": [ -0.048699866266805, 51.482217920197648 ] } },
{ "type": "Feature", "properties": { "max_height": 0.001251220703125, "mean_height": -0.00030422210693359375, "std_height": 0.00087395485024899244, "count_pixels": 41, "percent_cover": 0.14790764790764793, "percent_above_0.1m": 0.0, "low_level_<0.5": 0.0, "mid_level_0.5-2": 0.0, "tall_2+": 0.0 }, "geometry": { "type": "Point", "coordinates": [ -0.048500439602944, 51.482214599297386 ] } },
{ "type": "Feature", "properties": { "max_height": 0.0020008087158203125, "mean_height": -5.3314935939852148e-05, "std_height": 0.00092663825489580631, "count_pixels": 42, "percent_cover": 0.15151515151515152, "percent_above_0.1m": 0.0, "low_level_<0.5": 0.0, "mid_level_0.5-2": 0.0, "tall_2+": 0.0 }, "geometry": { "type": "Point", "coordinates": [ -0.048301012977957, 51.482211278058152 ] } },
{ "type": "Feature", "properties": { "max_height": 0.35325050354003906, "mean_height": 0.012139586731791496, "std_height": 0.056785739958286285, "count_pixels": 43, "percent_cover": 0.15512265512265513, "percent_above_0.1m": 4.6511627906976747, "low_level_<0.5": 2.3255813953488373, "mid_level_0.5-2": 0.0, "tall_2+": 0.0 }, "geometry": { "type": "Point", "coordinates": [ -0.048101586391842, 51.482207956479911 ] } },
{ "type": "Feature", "properties": { "max_height": 8.8915014266967773, "mean_height": 2.1706745624542236, "std_height": 1.826741099357605, "count_pixels": 43, "percent_cover": 0.15512265512265513, "percent_above_0.1m": 86.04651162790698, "low_level_<0.5": 9.3023255813953494, "mid_level_0.5-2": 23.255813953488371, "tall_2+": 53.488372093023251 }, "geometry": { "type": "Point", "coordinates": [ -0.047902159844614, 51.482204634562706 ] } },
{ "type": "Feature", "properties": { "max_height": 2.5277500152587891, "mean_height": 0.75842124223709106, "std_height": 0.54565334320068359, "count_pixels": 38, "percent_cover": 0.13708513708513709, "percent_above_0.1m": 86.842105263157904, "low_level_<0.5": 18.421052631578945, "mid_level_0.5-2": 63.157894736842103, "tall_2+": 5.2631578947368416 }, "geometry": { "type": "Point", "coordinates": [ -0.047702733336272, 51.482201312306522 ] } },
{ "type": "Feature", "properties": { "max_height": 0.036000251770019531, "mean_height": 0.0010466797975823283, "std_height": 0.0065334970131516457, "count_pixels": 43, "percent_cover": 0.15512265512265513, "percent_above_0.1m": 0.0, "low_level_<0.5": 0.0, "mid_level_0.5-2": 0.0, "tall_2+": 0.0 }, "geometry": { "type": "Point", "coordinates": [ -0.049393256085985, 51.482337378704997 ] } },
{ "type": "Feature", "properties": { "max_height": 0.0035009384155273438, "mean_height": 0.00017860958178061992, "std_height": 0.0015003208536654711, "count_pixels": 42, "percent_cover": 0.15151515151515152, "percent_above_0.1m": 0.0, "low_level_<0.5": 0.0, "mid_level_0.5-2": 0.0, "tall_2+": 0.0 }, "geometry": { "type": "Point", "coordinates": [ -0.049193828805049, 51.482334058978296 ] } },
{ "type": "Feature", "properties": { "max_height": 0.006999969482421875, "mean_height": 0.00011240808817092329, "std_height": 0.0023839713539928198, "count_pixels": 38, "percent_cover": 0.13708513708513709, "percent_above_0.1m": 0.0, "low_level_<0.5": 0.0, "mid_level_0.5-2": 0.0, "tall_2+": 0.0 }, "geometry": { "type": "Point", "coordinates": [ -0.048994401562968, 51.482330738912609 ] } },
{ "type": "Feature", "properties": { "max_height": 0.0027513504028320312, "mean_height": 0.00028554783784784377, "std_height": 0.00092854961985722184, "count_pixels": 43, "percent_cover": 0.15512265512265513, "percent_above_0.1m": 0.0, "low_level_<0.5": 0.0, "mid_level_0.5-2": 0.0, "tall_2+": 0.0 }, "geometry": { "type": "Point", "coordinates": [ -0.048794974359757, 51.482327418507943 ] } },
{ "type": "Feature", "properties": { "max_height": 0.0035009384155273438, "mean_height": 4.118542346986942e-05, "std_height": 0.0012735502095893025, "count_pixels": 43, "percent_cover": 0.15512265512265513, "percent_above_0.1m": 0.0, "low_level_<0.5": 0.0, "mid_level_0.5-2": 0.0, "tall_2+": 0.0 }, "geometry": { "type": "Point", "coordinates": [ -0.04859554719541, 51.482324097764291 ] } },
{ "type": "Feature", "properties": { "max_height": 0.0077505111694335938, "mean_height": 0.0004469326522666961, "std_height": 0.0021646989043802023, "count_pixels": 42, "percent_cover": 0.15151515151515152, "percent_above_0.1m": 0.0, "low_level_<0.5": 0.0, "mid_level_0.5-2": 0.0, "tall_2+": 0.0 }, "geometry": { "type": "Point", "coordinates": [ -0.048396120069938, 51.482320776681682 ] } },
{ "type": "Feature", "properties": { "max_height": 2.6287498474121094, "mean_height": 0.46204882860183716, "std_height": 0.69936764240264893, "count_pixels": 41, "percent_cover": 0.14790764790764793, "percent_above_0.1m": 43.902439024390247, "low_level_<0.5": 9.7560975609756095, "mid_level_0.5-2": 26.829268292682929, "tall_2+": 4.8780487804878048 }, "geometry": { "type": "Point", "coordinates": [ -0.048196692983338, 51.482317455260045 ] } },
{ "type": "Feature", "properties": { "max_height": 12.059250831604004, "mean_height": 5.3522143363952637, "std_height": 3.5596108436584473, "count_pixels": 41, "percent_cover": 0.14790764790764793, "percent_above_0.1m": 97.560975609756099, "low_level_<0.5": 7.3170731707317067, "mid_level_0.5-2": 9.7560975609756095, "tall_2+": 80.487804878048792 }, "geometry": { "type": "Point", "coordinates": [ -0.047997265935617, 51.48231413349945 ] } },
{ "type": "Feature", "properties": { "max_height": 7.6900005340576172, "mean_height": 2.2205491065979004, "std_height": 1.9654593467712402, "count_pixels": 41, "percent_cover": 0.14790764790764793, "percent_above_0.1m": 95.121951219512198, "low_level_<0.5": 7.3170731707317067, "mid_level_0.5-2": 41.463414634146339, "tall_2+": 43.902439024390247 }, "geometry": { "type": "Point", "coordinates": [ -0.047797838926788, 51.482310811399891 ] } },
{ "type": "Feature", "properties": { "max_height": 0.29349994659423828, "mean_height": 0.02806735597550869, "std_height": 0.060872837901115417, "count_pixels": 41, "percent_cover": 0.14790764790764793, "percent_above_0.1m": 12.195121951219512, "low_level_<0.5": 7.3170731707317067, "mid_level_0.5-2": 0.0, "tall_2+": 0.0 }, "geometry": { "type": "Point", "coordinates": [ -0.049288938360576, 51.482443556901195 ] } },
{ "type": "Feature", "properties": { "max_height": 0.0067501068115234375, "mean_height": 0.00023828234407119453, "std_height": 0.0023749927058815956, "count_pixels": 42, "percent_cover": 0.15151515151515152, "percent_above_0.1m": 0.0, "low_level_<0.5": 0.0, "mid_level_0.5-2": 0.0, "tall_2+": 0.0 }, "geometry": { "type": "Point", "coordinates": [ -0.049089510618016, 51.482440236992133 ] } },
{ "type": "Feature", "properties": { "max_height": 0.0067510604858398438, "mean_height": 0.00028105478850193322, "std_height": 0.0017252087127417326, "count_pixels": 41, "percent_cover": 0.14790764790764793, "percent_above_0.1m": 0.0, "low_level_<0.5": 0.0, "mid_level_0.5-2": 0.0, "tall_2+": 0.0 }, "geometry": { "type": "Point", "coordinates": [ -0.048890082914318, 51.482436916744099 ] } },
{ "type": "Feature", "properties": { "max_height": 0.0017499923706054688, "mean_height": 5.5429412896046415e-05, "std_height": 0.0010068420087918639, "count_pixels": 41, "percent_cover": 0.14790764790764793, "percent_above_0.1m": 0.0, "low_level_<0.5": 0.0, "mid_level_0.5-2": 0.0, "tall_2+": 0.0 }, "geometry": { "type": "Point", "coordinates": [ -0.048690655249486, 51.482433596157058 ] } },
{ "type": "Feature", "properties": { "max_height": 0.041501045227050781, "mean_height": 0.0031224461272358894, "std_height": 0.0091532878577709198, "count_pixels": 41, "percent_cover": 0.14790764790764793, "percent_above_0.1m": 0.0, "low_level_<0.5": 0.0, "mid_level_0.5-2": 0.0, "tall_2+": 0.0 }, "geometry": { "type": "Point", "coordinates": [ -0.048491227623524, 51.482430275231046 ] } },
{ "type": "Feature", "properties": { "max_height": 5.2847499847412109, "mean_height": 0.55615478754043579, "std_height": 0.94618833065032959, "count_pixels": 42, "percent_cover": 0.15151515151515152, "percent_above_0.1m": 50.0, "low_level_<0.5": 14.285714285714285, "mid_level_0.5-2": 30.952380952380953, "tall_2+": 4.7619047619047619 }, "geometry": { "type": "Point", "coordinates": [ -0.048291800036436, 51.482426953966055 ] } },
{ "type": "Feature", "properties": { "max_height": 6.0349998474121094, "mean_height": 1.6143025159835815, "std_height": 1.6453826427459717, "count_pixels": 43, "percent_cover": 0.15512265512265513, "percent_above_0.1m": 93.023255813953483, "low_level_<0.5": 18.604651162790699, "mid_level_0.5-2": 51.162790697674424, "tall_2+": 23.255813953488371 }, "geometry": { "type": "Point", "coordinates": [ -0.048092372488229, 51.48242363236205 ] } },
{ "type": "Feature", "properties": { "max_height": 11.078250885009766, "mean_height": 2.0633723735809326, "std_height": 3.2794177532196045, "count_pixels": 43, "percent_cover": 0.15512265512265513, "percent_above_0.1m": 67.441860465116278, "low_level_<0.5": 16.279069767441861, "mid_level_0.5-2": 18.604651162790699, "tall_2+": 27.906976744186046 }, "geometry": { "type": "Point", "coordinates": [ -0.047892944978899, 51.482420310419108 ] } },
{ "type": "Feature", "properties": { "max_height": 0.68225002288818359, "mean_height": 0.051654882729053497, "std_height": 0.15593430399894714, "count_pixels": 42, "percent_cover": 0.15151515151515152, "percent_above_0.1m": 11.904761904761903, "low_level_<0.5": 4.7619047619047619, "mid_level_0.5-2": 7.1428571428571423, "tall_2+": 0.0 }, "geometry": { "type": "Point", "coordinates": [ -0.049184620134678, 51.482549734997519 ] } },
{ "type": "Feature", "properties": { "max_height": 0.057001113891601562, "mean_height": 0.0027041435241699219, "std_height": 0.010409794747829437, "count_pixels": 38, "percent_cover": 0.13708513708513709, "percent_above_0.1m": 0.0, "low_level_<0.5": 0.0, "mid_level_0.5-2": 0.0, "tall_2+": 0.0 }, "geometry": { "type": "Point", "coordinates": [ -0.048985191930497, 51.482546414906082 ] } },
{ "type": "Feature", "properties": { "max_height": 0.0025005340576171875, "mean_height": -0.00030180465546436608, "std_height": 0.0014532837085425854, "count_pixels": 43, "percent_cover": 0.15512265512265513, "percent_above_0.1m": 0.0, "low_level_<0.5": 0.0, "mid_level_0.5-2": 0.0, "tall_2+": 0.0 }, "geometry": { "type": "Point", "coordinates": [ -0.048785763765173, 51.482543094475645 ] } },
{ "type": "Feature", "properties": { "max_height": 0.012500762939453125, "mean_height": 0.0013317285338416696, "std_height": 0.0034391945227980614, "count_pixels": 43, "percent_cover": 0.15512265512265513, "percent_above_0.1m": 0.0, "low_level_<0.5": 0.0, "mid_level_0.5-2": 0.0, "tall_2+": 0.0 }, "geometry": { "type": "Point", "coordinates": [ -0.048586335638723, 51.482539773706257 ] } },
{ "type": "Feature", "properties": { "max_height": 2.5845003128051758, "mean_height": 0.7061428427696228, "std_height": 0.79780584573745728, "count_pixels": 42, "percent_cover": 0.15151515151515152, "percent_above_0.1m": 59.523809523809526, "low_level_<0.5": 9.5238095238095237, "mid_level_0.5-2": 35.714285714285715, "tall_2+": 9.5238095238095237 }, "geometry": { "type": "Point", "coordinates": [ -0.048386907551141, 51.48253645259787 ] } },
{ "type": "Feature", "properties": { "max_height": 8.4285011291503906, "mean_height": 1.935677170753479, "std_height": 2.3781588077545166, "count_pixels": 41, "percent_cover": 0.14790764790764793, "percent_above_0.1m": 75.609756097560975, "low_level_<0.5": 14.634146341463413, "mid_level_0.5-2": 21.951219512195124, "tall_2+": 34.146341463414636 }, "geometry": { "type": "Point", "coordinates": [ -0.048187479502443, 51.482533131150511 ] } },
{ "type": "Feature", "properties": { "max_height": 12.01775074005127, "mean_height": 5.810457706451416, "std_height": 4.409548282623291, "count_pixels": 41, "percent_cover": 0.14790764790764793, "percent_above_0.1m": 90.243902439024396, "low_level_<0.5": 7.3170731707317067, "mid_level_0.5-2": 7.3170731707317067, "tall_2+": 73.170731707317074 }, "geometry": { "type": "Point", "coordinates": [ -0.047988051492618, 51.482529809364159 ] } },
{ "type": "Feature", "properties": { "max_height": 5.3515005111694336, "mean_height": 0.4463658332824707, "std_height": 1.0305272340774536, "count_pixels": 41, "percent_cover": 0.14790764790764793, "percent_above_0.1m": 46.341463414634148, "low_level_<0.5": 24.390243902439025, "mid_level_0.5-2": 12.195121951219512, "tall_2+": 4.8780487804878048 }, "geometry": { "type": "Point", "coordinates": [ -0.049279730112962, 51.482659232928718 ] } },
{ "type": "Feature", "properties": { "max_height": 0.37375068664550781, "mean_height": 0.024714378640055656, "std_height": 0.077132880687713623, "count_pixels": 42, "percent_cover": 0.15151515151515152, "percent_above_0.1m": 7.1428571428571423, "low_level_<0.5": 7.1428571428571423, "mid_level_0.5-2": 0.0, "tall_2+": 0.0 }, "geometry": { "type": "Point", "coordinates": [ -0.04908030140829, 51.482655912993913 ] } },
{ "type": "Feature", "properties": { "max_height": 0.042250633239746094, "mean_height": 0.0035615782253444195, "std_height": 0.0095330895856022835, "count_pixels": 41, "percent_cover": 0.14790764790764793, "percent_above_0.1m": 0.0, "low_level_<0.5": 0.0, "mid_level_0.5-2": 0.0, "tall_2+": 0.0 }, "geometry": { "type": "Point", "coordinates": [ -0.048880872742478, 51.482652592720108 ] } },
{ "type": "Feature", "properties": { "max_height": 0.19425010681152344, "mean_height": 0.0097320368513464928, "std_height": 0.033648725599050522, "count_pixels": 41, "percent_cover": 0.14790764790764793, "percent_above_0.1m": 2.4390243902439024, "low_level_<0.5": 2.4390243902439024, "mid_level_0.5-2": 0.0, "tall_2+": 0.0 }, "geometry": { "type": "Point", "coordinates": [ -0.048681444115539, 51.482649272107324 ] } },
{ "type": "Feature", "properties": { "max_height": 4.561251163482666, "mean_height": 1.0765308141708374, "std_height": 1.1384203433990479, "count_pixels": 41, "percent_cover": 0.14790764790764793, "percent_above_0.1m": 73.170731707317074, "low_level_<0.5": 9.7560975609756095, "mid_level_0.5-2": 43.902439024390247, "tall_2+": 17.073170731707318 }, "geometry": { "type": "Point", "coordinates": [ -0.048482015527463, 51.482645951155554 ] } },
{ "type": "Feature", "properties": { "max_height": 4.9757504463195801, "mean_height": 0.99770843982696533, "std_height": 1.1245839595794678, "count_pixels": 42, "percent_cover": 0.15151515151515152, "percent_above_0.1m": 83.333333333333343, "low_level_<0.5": 21.428571428571427, "mid_level_0.5-2": 42.857142857142854, "tall_2+": 14.285714285714285 }, "geometry": { "type": "Point", "coordinates": [ -0.048282586978263, 51.482642629864799 ] } },
{ "type": "Feature", "properties": { "max_height": 3.9917497634887695, "mean_height": 0.21159340441226959, "std_height": 0.77323925495147705, "count_pixels": 43, "percent_cover": 0.15512265512265513, "percent_above_0.1m": 11.627906976744185, "low_level_<0.5": 4.6511627906976747, "mid_level_0.5-2": 2.3255813953488373, "tall_2+": 4.6511627906976747 }, "geometry": { "type": "Point", "coordinates": [ -0.049374840552874, 51.482768730785764 ] } },
{ "type": "Feature", "properties": { "max_height": 0.48775005340576172, "mean_height": 0.076012194156646729, "std_height": 0.13388091325759888, "count_pixels": 42, "percent_cover": 0.15151515151515152, "percent_above_0.1m": 23.809523809523807, "low_level_<0.5": 21.428571428571427, "mid_level_0.5-2": 0.0, "tall_2+": 0.0 }, "geometry": { "type": "Point", "coordinates": [ -0.04917541134771, 51.482765411007577 ] } },
{ "type": "Feature", "properties": { "max_height": 0.011250495910644531, "mean_height": 5.9579546359600499e-05, "std_height": 0.0029841852374374866, "count_pixels": 38, "percent_cover": 0.13708513708513709, "percent_above_0.1m": 0.0, "low_level_<0.5": 0.0, "mid_level_0.5-2": 0.0, "tall_2+": 0.0 }, "geometry": { "type": "Point", "coordinates": [ -0.048975982181404, 51.482762090890397 ] } },
{ "type": "Feature", "properties": { "max_height": 0.0045003890991210938, "mean_height": 0.00026197210536338389, "std_height": 0.001975255087018013, "count_pixels": 43, "percent_cover": 0.15512265512265513, "percent_above_0.1m": 0.0, "low_level_<0.5": 0.0, "mid_level_0.5-2": 0.0, "tall_2+": 0.0 }, "geometry": { "type": "Point", "coordinates": [ -0.048776553053968, 51.482758770434238 ] } },
{ "type": "Feature", "properties": { "max_height": 5.1835007667541504, "mean_height": 1.8256573677062988, "std_height": 1.5445810556411743, "count_pixels": 43, "percent_cover": 0.15512265512265513, "percent_above_0.1m": 79.069767441860463, "low_level_<0.5": 6.9767441860465116, "mid_level_0.5-2": 27.906976744186046, "tall_2+": 41.860465116279073 }, "geometry": { "type": "Point", "coordinates": [ -0.048577123965396, 51.482755449639072 ] } },
{ "type": "Feature", "properties": { "max_height": 5.3080005645751953, "mean_height": 1.6985955238342285, "std_height": 1.4109692573547363, "count_pixels": 42, "percent_cover": 0.15151515151515152, "percent_above_0.1m": 83.333333333333343, "low_level_<0.5": 9.5238095238095237, "mid_level_0.5-2": 23.809523809523807, "tall_2+": 45.238095238095241 }, "geometry": { "type": "Point", "coordinates": [ -0.048377694915704, 51.482752128504934 ] } },
{ "type": "Feature", "properties": { "max_height": 1.730750560760498, "mean_height": 0.37566500902175903, "std_height": 0.50307172536849976, "count_pixels": 41, "percent_cover": 0.14790764790764793, "percent_above_0.1m": 46.341463414634148, "low_level_<0.5": 12.195121951219512, "mid_level_0.5-2": 34.146341463414636, "tall_2+": 0.0 }, "geometry": { "type": "Point", "coordinates": [ -0.049270521748755, 51.482874908947082 ] } },
{ "type": "Feature", "properties": { "max_height": 0.024250984191894531, "mean_height": 0.00074439955642446876, "std_height": 0.0058684968389570713, "count_pixels": 42, "percent_cover": 0.15151515151515152, "percent_above_0.1m": 0.0, "low_level_<0.5": 0.0, "mid_level_0.5-2": 0.0, "tall_2+": 0.0 }, "geometry": { "type": "Point", "coordinates": [ -0.049071092081958, 51.482871588986534 ] } },
{ "type": "Feature", "properties": { "max_height": 0.030500411987304688, "mean_height": 0.0012931358069181442, "std_height": 0.0062964004464447498, "count_pixels": 41, "percent_cover": 0.14790764790764793, "percent_above_0.1m": 0.0, "low_level_<0.5": 0.0, "mid_level_0.5-2": 0.0, "tall_2+": 0.0 }, "geometry": { "type": "Point", "coordinates": [ -0.048871662454019, 51.482868268686971 ] } },
{ "type": "Feature", "properties": { "max_height": 7.5922508239746094, "mean_height": 2.3213725090026855, "std_height": 2.1439297199249268, "count_pixels": 41, "percent_cover": 0.14790764790764793, "percent_above_0.1m": 73.170731707317074, "low_level_<0.5": 2.4390243902439024, "mid_level_0.5-2": 17.073170731707318, "tall_2+": 53.658536585365859 }, "geometry": { "type": "Point", "coordinates": [ -0.048672232864955, 51.48286494804843 ] } },
{ "type": "Feature", "properties": { "max_height": 12.012001037597656, "mean_height": 5.011725902557373, "std_height": 4.365117073059082, "count_pixels": 41, "percent_cover": 0.14790764790764793, "percent_above_0.1m": 95.121951219512198, "low_level_<0.5": 2.4390243902439024, "mid_level_0.5-2": 34.146341463414636, "tall_2+": 58.536585365853654 }, "geometry": { "type": "Point", "coordinates": [ -0.048472803314757, 51.482861627070903 ] } },
{ "type": "Feature", "properties": { "max_height": 1.1387500762939453, "mean_height": 0.14065150916576385, "std_height": 0.25447621941566467, "count_pixels": 43, "percent_cover": 0.15512265512265513, "percent_above_0.1m": 25.581395348837212, "low_level_<0.5": 11.627906976744185, "mid_level_0.5-2": 13.953488372093023, "tall_2+": 0.0 }, "geometry": { "type": "Point", "coordinates": [ -0.049365632611431, 51.482984406812434 ] } },
{ "type": "Feature", "properties": { "max_height": 1.0817503929138184, "mean_height": 0.068220458924770355, "std_height": 0.20231956243515015, "count_pixels": 42, "percent_cover": 0.15151515151515152, "percent_above_0.1m": 11.904761904761903, "low_level_<0.5": 7.1428571428571423, "mid_level_0.5-2": 4.7619047619047619, "tall_2+": 0.0 }, "geometry": { "type": "Point", "coordinates": [ -0.049166202444137, 51.482981087008497 ] } },
{ "type": "Feature", "properties": { "max_height": 0.045749664306640625, "mean_height": 0.0063489614985883236, "std_height": 0.011226235888898373, "count_pixels": 38, "percent_cover": 0.13708513708513709, "percent_above_0.1m": 0.0, "low_level_<0.5": 0.0, "mid_level_0.5-2": 0.0, "tall_2+": 0.0 }, "geometry": { "type": "Point", "coordinates": [ -0.0489667723157, 51.482977766865559 ] } },
{ "type": "Feature", "properties": { "max_height": 7.8007502555847168, "mean_height": 2.2354073524475098, "std_height": 2.2545359134674072, "count_pixels": 43, "percent_cover": 0.15512265512265513, "percent_above_0.1m": 72.093023255813947, "low_level_<0.5": 9.3023255813953494, "mid_level_0.5-2": 18.604651162790699, "tall_2+": 44.186046511627907 }, "geometry": { "type": "Point", "coordinates": [ -0.048767342226132, 51.482974446383629 ] } },
{ "type": "Feature", "properties": { "max_height": 11.163251876831055, "mean_height": 3.9086806774139404, "std_height": 3.1398482322692871, "count_pixels": 43, "percent_cover": 0.15512265512265513, "percent_above_0.1m": 95.348837209302332, "low_level_<0.5": 9.3023255813953494, "mid_level_0.5-2": 9.3023255813953494, "tall_2+": 74.418604651162795 }, "geometry": { "type": "Point", "coordinates": [ -0.048567912175435, 51.482971125562742 ] } },
{ "type": "Feature", "properties": { "max_height": 1.4652500152587891, "mean_height": 0.46200641989707947, "std_height": 0.42271912097930908, "count_pixels": 41, "percent_cover": 0.14790764790764793, "percent_above_0.1m": 73.170731707317074, "low_level_<0.5": 34.146341463414636, "mid_level_0.5-2": 36.585365853658537, "tall_2+": 0.0 }, "geometry": { "type": "Point", "coordinates": [ -0.049261313267949, 51.483090584956294 ] } },
{ "type": "Feature", "properties": { "max_height": 0.013500213623046875, "mean_height": 0.00029183569131419063, "std_height": 0.003307117847725749, "count_pixels": 42, "percent_cover": 0.15151515151515152, "percent_above_0.1m": 0.0, "low_level_<0.5": 0.0, "mid_level_0.5-2": 0.0, "tall_2+": 0.0 }, "geometry": { "type": "Point", "coordinates": [ -0.049061882639011, 51.483087264969974 ] } },
{ "type": "Feature", "properties": { "max_height": 5.1237502098083496, "mean_height": 1.2691037654876709, "std_height": 1.6710538864135742, "count_pixels": 41, "percent_cover": 0.14790764790764793, "percent_above_0.1m": 51.219512195121951, "low_level_<0.5": 4.8780487804878048, "mid_level_0.5-2": 17.073170731707318, "tall_2+": 29.268292682926827 }, "geometry": { "type": "Point", "coordinates": [ -0.048862452048938, 51.483083944644697 ] } },
{ "type": "Feature", "properties": { "max_height": 8.5402507781982422, "mean_height": 2.1503965854644775, "std_height": 2.2925336360931396, "count_pixels": 41, "percent_cover": 0.14790764790764793, "percent_above_0.1m": 85.365853658536579, "low_level_<0.5": 19.512195121951219, "mid_level_0.5-2": 26.829268292682929, "tall_2+": 39.024390243902438 }, "geometry": { "type": "Point", "coordinates": [ -0.04866302149774, 51.483080623980392 ] } },
{ "type": "Feature", "properties": { "max_height": 1.3585004806518555, "mean_height": 0.25755268335342407, "std_height": 0.4289899468421936, "count_pixels": 43, "percent_cover": 0.15512265512265513, "percent_above_0.1m": 32.558139534883722, "low_level_<0.5": 9.3023255813953494, "mid_level_0.5-2": 20.930232558139537, "tall_2+": 0.0 }, "geometry": { "type": "Point", "coordinates": [ -0.049356424553395, 51.483200082829939 ] } },
{ "type": "Feature", "properties": { "max_height": 0.81424999237060547, "mean_height": 0.059952680021524429, "std_height": 0.17842134833335876, "count_pixels": 42, "percent_cover": 0.15151515151515152, "percent_above_0.1m": 11.904761904761903, "low_level_<0.5": 7.1428571428571423, "mid_level_0.5-2": 4.7619047619047619, "tall_2+": 0.0 }, "geometry": { "type": "Point", "coordinates": [ -0.049156993423958, 51.483196763000251 ] } },
{ "type": "Feature", "properties": { "max_height": 7.6880011558532715, "mean_height": 2.3776912689208984, "std_height": 2.6871294975280762, "count_pixels": 38, "percent_cover": 0.13708513708513709, "percent_above_0.1m": 55.26315789473685, "low_level_<0.5": 2.6315789473684208, "mid_level_0.5-2": 10.526315789473683, "tall_2+": 42.105263157894733 }, "geometry": { "type": "Point", "coordinates": [ -0.048957562333381, 51.483193442831563 ] } },
{ "type": "Feature", "properties": { "max_height": 6.1310005187988281, "mean_height": 1.6957910060882568, "std_height": 1.6668680906295776, "count_pixels": 43, "percent_cover": 0.15512265512265513, "percent_above_0.1m": 74.418604651162795, "low_level_<0.5": 13.953488372093023, "mid_level_0.5-2": 20.930232558139537, "tall_2+": 39.534883720930232 }, "geometry": { "type": "Point", "coordinates": [ -0.048758131281668, 51.483190122323897 ] } },
{ "type": "Feature", "properties": { "max_height": 1.6979770660400391, "mean_height": 0.19946922361850739, "std_height": 0.43095880746841431, "count_pixels": 41, "percent_cover": 0.14790764790764793, "percent_above_0.1m": 29.268292682926827, "low_level_<0.5": 9.7560975609756095, "mid_level_0.5-2": 12.195121951219512, "tall_2+": 0.0 }, "geometry": { "type": "Point", "coordinates": [ -0.04925210467054, 51.483306260956354 ] } },
{ "type": "Feature", "properties": { "max_height": 6.0539999008178711, "mean_height": 1.6053457260131836, "std_height": 2.0354869365692139, "count_pixels": 42, "percent_cover": 0.15151515151515152, "percent_above_0.1m": 50.0, "low_level_<0.5": 4.7619047619047619, "mid_level_0.5-2": 4.7619047619047619, "tall_2+": 38.095238095238095 }, "geometry": { "type": "Point", "coordinates": [ -0.049052673079455, 51.483302940944306 ] } },
{ "type": "Feature", "properties": { "max_height": 8.1347503662109375, "mean_height": 3.2493174076080322, "std_height": 1.9220666885375977, "count_pixels": 41, "percent_cover": 0.14790764790764793, "percent_above_0.1m": 92.682926829268297, "low_level_<0.5": 2.4390243902439024, "mid_level_0.5-2": 17.073170731707318, "tall_2+": 73.170731707317074 }, "geometry": { "type": "Point", "coordinates": [ -0.048853241527233, 51.483299620593236 ] } },
{ "type": "Feature", "properties": { "max_height": 5.2352828979492188, "mean_height": 2.7912790775299072, "std_height": 1.3896720409393311, "count_pixels": 43, "percent_cover": 0.15512265512265513, "percent_above_0.1m": 95.348837209302332, "low_level_<0.5": 2.3255813953488373, "mid_level_0.5-2": 25.581395348837212, "tall_2+": 67.441860465116278 }, "geometry": { "type": "Point", "coordinates": [ -0.049347216378763, 51.483415758838291 ] } },
{ "type": "Feature", "properties": { "max_height": 3.614750862121582, "mean_height": 0.38116097450256348, "std_height": 0.81061369180679321, "count_pixels": 42, "percent_cover": 0.15151515151515152, "percent_above_0.1m": 28.571428571428569, "low_level_<0.5": 9.5238095238095237, "mid_level_0.5-2": 11.904761904761903, "tall_2+": 7.1428571428571423 }, "geometry": { "type": "Point", "coordinates": [ -0.049147784287172, 51.48341243898286 ] } },
{ "type": "Feature", "properties": { "max_height": 7.5750007629394531, "mean_height": 2.5865795612335205, "std_height": 2.0438177585601807, "count_pixels": 38, "percent_cover": 0.13708513708513709, "percent_above_0.1m": 78.94736842105263, "low_level_<0.5": 2.6315789473684208, "mid_level_0.5-2": 13.157894736842104, "tall_2+": 63.157894736842103 }, "geometry": { "type": "Point", "coordinates": [ -0.04894835223444, 51.48340911878843 ] } },
{ "type": "Feature", "properties": { "max_height": 5.4892363548278809, "mean_height": 0.83330386877059937, "std_height": 1.6993556022644043, "count_pixels": 41, "percent_cover": 0.14790764790764793, "percent_above_0.1m": 26.829268292682929, "low_level_<0.5": 4.8780487804878048, "mid_level_0.5-2": 4.8780487804878048, "tall_2+": 17.073170731707318 }, "geometry": { "type": "Point", "coordinates": [ -0.049242895956529, 51.483521936947263 ] } },
{ "type": "Feature", "properties": { "max_height": 4.2060003280639648, "mean_height": 1.6048275232315063, "std_height": 1.3434280157089233, "count_pixels": 42, "percent_cover": 0.15151515151515152, "percent_above_0.1m": 73.80952380952381, "low_level_<0.5": 4.7619047619047619, "mid_level_0.5-2": 38.095238095238095, "tall_2+": 30.952380952380953 }, "geometry": { "type": "Point", "coordinates": [ -0.049043463403283, 51.483518616909457 ] } },
{ "type": "Feature", "properties": { "max_height": 3.1302499771118164, "mean_height": 1.8750119209289551, "std_height": 0.91627311706542969, "count_pixels": 43, "percent_cover": 0.15512265512265513, "percent_above_0.1m": 88.372093023255815, "low_level_<0.5": 2.3255813953488373, "mid_level_0.5-2": 20.930232558139537, "tall_2+": 65.116279069767444 }, "geometry": { "type": "Point", "coordinates": [ -0.049338008087537, 51.483631434837491 ] } },
{ "type": "Feature", "properties": { "max_height": 3.2909998893737793, "mean_height": 0.58710139989852905, "std_height": 1.0855908393859863, "count_pixels": 42, "percent_cover": 0.15151515151515152, "percent_above_0.1m": 26.190476190476193, "low_level_<0.5": 2.3809523809523809, "mid_level_0.5-2": 4.7619047619047619, "tall_2+": 19.047619047619047 }, "geometry": { "type": "Point", "coordinates": [ -0.049138575033774, 51.483628114956325 ] } },
{ "type": "Feature", "properties": { "max_height": 12.054250717163086, "mean_height": 5.4677577018737793, "std_height": 4.9401979446411133, "count_pixels": 38, "percent_cover": 0.13708513708513709, "percent_above_0.1m": 86.842105263157904, "low_level_<0.5": 13.157894736842104, "mid_level_0.5-2": 13.157894736842104, "tall_2+": 60.526315789473685 }, "geometry": { "type": "Point", "coordinates": [ -0.048939142018878, 51.483624794736137 ] } },
{ "type": "Feature", "properties": { "max_height": 2.7987508773803711, "mean_height": 0.51252460479736328, "std_height": 0.84380322694778442, "count_pixels": 41, "percent_cover": 0.14790764790764793, "percent_above_0.1m": 41.463414634146339, "low_level_<0.5": 12.195121951219512, "mid_level_0.5-2": 14.634146341463413, "tall_2+": 12.195121951219512 }, "geometry": { "type": "Point", "coordinates": [ -0.049233687125917, 51.483737612929005 ] } },
{ "type": "Feature", "properties": { "max_height": 2.4612503051757812, "mean_height": 0.47948232293128967, "std_height": 0.68708974123001099, "count_pixels": 42, "percent_cover": 0.15151515151515152, "percent_above_0.1m": 47.619047619047613, "low_level_<0.5": 16.666666666666664, "mid_level_0.5-2": 26.190476190476193, "tall_2+": 4.7619047619047619 }, "geometry": { "type": "Point", "coordinates": [ -0.049034253610497, 51.483734292865464 ] } },
{ "type": "Feature", "properties": { "max_height": 2.8862504959106445, "mean_height": 1.6093488931655884, "std_height": 1.1208177804946899, "count_pixels": 43, "percent_cover": 0.15512265512265513, "percent_above_0.1m": 76.744186046511629, "low_level_<0.5": 4.6511627906976747, "mid_level_0.5-2": 11.627906976744185, "tall_2+": 60.465116279069761 }, "geometry": { "type": "Point", "coordinates": [ -0.049328799539536, 51.483847110844529 ] } },
{ "type": "Feature", "properties": { "max_height": 4.908750057220459, "mean_height": 0.60949426889419556, "std_height": 0.98751300573348999, "count_pixels": 42, "percent_cover": 0.15151515151515152, "percent_above_0.1m": 40.476190476190474, "low_level_<0.5": 4.7619047619047619, "mid_level_0.5-2": 28.571428571428569, "tall_2+": 4.7619047619047619 }, "geometry": { "type": "Point", "coordinates": [ -0.049129365537465, 51.48384379093627 ] } },
{ "type": "Feature", "properties": { "max_height": 5.3940000534057617, "mean_height": 0.9783782958984375, "std_height": 1.5055334568023682, "count_pixels": 41, "percent_cover": 0.14790764790764793, "percent_above_0.1m": 43.902439024390247, "low_level_<0.5": 2.4390243902439024, "mid_level_0.5-2": 19.512195121951219, "tall_2+": 21.951219512195124 }, "geometry": { "type": "Point", "coordinates": [ -0.049224477422154, 51.483953288968436 ] } },
{ "type": "Feature", "properties": { "max_height": 9.4503936767578125, "mean_height": 5.8844699859619141, "std_height": 3.3428871631622314, "count_pixels": 42, "percent_cover": 0.15151515151515152, "percent_above_0.1m": 95.238095238095227, "low_level_<0.5": 0.0, "mid_level_0.5-2": 11.904761904761903, "tall_2+": 80.952380952380949 }, "geometry": { "type": "Point", "coordinates": [ -0.049025042978925, 51.483949968875919 ] } },
{ "type": "Feature", "properties": { "max_height": 5.8880009651184082, "mean_height": 2.541860818862915, "std_height": 1.8727459907531738, "count_pixels": 43, "percent_cover": 0.15512265512265513, "percent_above_0.1m": 79.069767441860463, "low_level_<0.5": 2.3255813953488373, "mid_level_0.5-2": 13.953488372093023, "tall_2+": 62.790697674418603 }, "geometry": { "type": "Point", "coordinates": [ -0.049319589598251, 51.484062786946616 ] } },
{ "type": "Feature", "properties": { "max_height": 11.082592964172363, "mean_height": 1.7241165637969971, "std_height": 3.1649327278137207, "count_pixels": 42, "percent_cover": 0.15151515151515152, "percent_above_0.1m": 30.952380952380953, "low_level_<0.5": 0.0, "mid_level_0.5-2": 4.7619047619047619, "tall_2+": 23.809523809523807 }, "geometry": { "type": "Point", "coordinates": [ -0.049120154665879, 51.484059467009502 ] } },
{ "type": "Feature", "properties": { "max_height": 5.8423633575439453, "mean_height": 0.98574066162109375, "std_height": 1.8892489671707153, "count_pixels": 41, "percent_cover": 0.14790764790764793, "percent_above_0.1m": 29.268292682926827, "low_level_<0.5": 2.4390243902439024, "mid_level_0.5-2": 7.3170731707317067, "tall_2+": 19.512195121951219 }, "geometry": { "type": "Point", "coordinates": [ -0.049215266803787, 51.484168965070062 ] } },
{ "type": "Feature", "properties": { "max_height": 12.004734992980957, "mean_height": 7.3896536827087402, "std_height": 4.7620701789855957, "count_pixels": 42, "percent_cover": 0.15151515151515152, "percent_above_0.1m": 85.714285714285708, "low_level_<0.5": 4.7619047619047619, "mid_level_0.5-2": 2.3809523809523809, "tall_2+": 76.19047619047619 }, "geometry": { "type": "Point", "coordinates": [ -0.049015831420461, 51.484165644949471 ] } },
{ "type": "Feature", "properties": { "max_height": 6.8100099563598633, "mean_height": 4.3689088821411133, "std_height": 2.5972025394439697, "count_pixels": 43, "percent_cover": 0.15512265512265513, "percent_above_0.1m": 76.744186046511629, "low_level_<0.5": 0.0, "mid_level_0.5-2": 0.0, "tall_2+": 76.744186046511629 }, "geometry": { "type": "Point", "coordinates": [ -0.049310379392649, 51.484278463057599 ] } },
{ "type": "Feature", "properties": { "max_height": 1.4027373790740967, "mean_height": 0.23428812623023987, "std_height": 0.41730040311813354, "count_pixels": 42, "percent_cover": 0.15151515151515152, "percent_above_0.1m": 26.190476190476193, "low_level_<0.5": 4.7619047619047619, "mid_level_0.5-2": 21.428571428571427, "tall_2+": 0.0 }, "geometry": { "type": "Point", "coordinates": [ -0.049110943520179, 51.484275143092425 ] } }
]
}
