{
"type": "FeatureCollection",
"name": "d85b9aaf53fc_foliage",
"crs": { "type": "name", "properties": { "name": "urn:ogc:def:crs:OGC:1.3:CRS84" } },
"features": [
{ "type": "Feature", "properties": { "max_height": 9.4699935913085938, "mean_height": 4.0798168182373047, "std_height": 2.3491153717041016, "count_pixels": 41, "percent_cover": 0.44798951048951052, "percent_above_0.1m": 97.560975609756099, "low_level_<0.5": 2.4390243902439024, "mid_level_0.5-2": 19.512195121951219, "tall_2+": 75.609756097560975 }, "geometry": { "type": "Point", "coordinates": [ -0.060796197513503, 51.434486472594081 ] } },
{ "type": "Feature", "properties": { "max_height": 8.9975051879882812, "mean_height": 4.6103672981262207, "std_height": 2.618046760559082, "count_pixels": 41, "percent_cover": 0.44798951048951052, "percent_above_0.1m": 92.682926829268297, "low_level_<0.5": 0.0, "mid_level_0.5-2": 19.512195121951219, "tall_2+": 73.170731707317074 }, "geometry": { "type": "Point", "coordinates": [ -0.060596980086746, 51.434483174702009 ] } },
{ "type": "Feature", "properties": { "max_height": 7.43499755859375, "mean_height": 2.389268159866333, "std_height": 2.470106840133667, "count_pixels": 41, "percent_cover": 0.44798951048951052, "percent_above_0.1m": 75.609756097560975, "low_level_<0.5": 12.195121951219512, "mid_level_0.5-2": 19.512195121951219, "tall_2+": 43.902439024390247 }, "geometry": { "type": "Point", "coordinates": [ -0.061090458351954, 51.434599258172454 ] } },
{ "type": "Feature", "properties": { "max_height": 6.5224990844726562, "mean_height": 1.7985128164291382, "std_height": 2.1303246021270752, "count_pixels": 42, "percent_cover": 0.45891608391608391, "percent_above_0.1m": 69.047619047619051, "low_level_<0.5": 11.904761904761903, "mid_level_0.5-2": 23.809523809523807, "tall_2+": 33.333333333333329 }, "geometry": { "type": "Point", "coordinates": [ -0.060891240405205, 51.434595960769421 ] } },
{ "type": "Feature", "properties": { "max_height": 6.94500732421875, "mean_height": 1.2234307527542114, "std_height": 2.3489487171173096, "count_pixels": 43, "percent_cover": 0.46984265734265729, "percent_above_0.1m": 27.906976744186046, "low_level_<0.5": 2.3255813953488373, "mid_level_0.5-2": 4.6511627906976747, "tall_2+": 20.930232558139537 }, "geometry": { "type": "Point", "coordinates": [ -0.060692022495993, 51.43459266302829 ] } },
{ "type": "Feature", "properties": { "max_height": 13.397499084472656, "mean_height": 7.8130803108215332, "std_height": 4.3291511535644531, "count_pixels": 43, "percent_cover": 0.46984265734265729, "percent_above_0.1m": 88.372093023255815, "low_level_<0.5": 2.3255813953488373, "mid_level_0.5-2": 4.6511627906976747, "tall_2+": 81.395348837209298 }, "geometry": { "type": "Point", "coordinates": [ -0.06049280462432, 51.434589364949076 ] } },
{ "type": "Feature", "properties": { "max_height": 6.0175018310546875, "mean_height": 1.7319774627685547, "std_height": 1.8736172914505005, "count_pixels": 43, "percent_cover": 0.46984265734265729, "percent_above_0.1m": 72.093023255813947, "low_level_<0.5": 9.3023255813953494, "mid_level_0.5-2": 20.930232558139537, "tall_2+": 37.209302325581397 }, "geometry": { "type": "Point", "coordinates": [ -0.061185502171024, 51.434708746127811 ] } },
{ "type": "Feature", "properties": { "max_height": 1.7775039672851562, "mean_height": 0.11684617400169373, "std_height": 0.42609092593193054, "count_pixels": 42, "percent_cover": 0.45891608391608391, "percent_above_0.1m": 7.1428571428571423, "low_level_<0.5": 0.0, "mid_level_0.5-2": 7.1428571428571423, "tall_2+": 0.0 }, "geometry": { "type": "Point", "coordinates": [ -0.060986283741822, 51.434705448875754 ] } },
{ "type": "Feature", "properties": { "max_height": 0.00250244140625, "mean_height": -0.00030461754067800939, "std_height": 0.0012595185544341803, "count_pixels": 41, "percent_cover": 0.44798951048951052, "percent_above_0.1m": 0.0, "low_level_<0.5": 0.0, "mid_level_0.5-2": 0.0, "tall_2+": 0.0 }, "geometry": { "type": "Point", "coordinates": [ -0.060787065350148, 51.434702151285606 ] } },
{ "type": "Feature", "properties": { "max_height": 7.62939453125e-06, "mean_height": -0.00036565269692800939, "std_height": 0.0010418271413072944, "count_pixels": 41, "percent_cover": 0.44798951048951052, "percent_above_0.1m": 0.0, "low_level_<0.5": 0.0, "mid_level_0.5-2": 0.0, "tall_2+": 0.0 }, "geometry": { "type": "Point", "coordinates": [ -0.060587846996013, 51.434698853357375 ] } },
{ "type": "Feature", "properties": { "max_height": 7.967498779296875, "mean_height": 4.0066461563110352, "std_height": 3.2171061038970947, "count_pixels": 41, "percent_cover": 0.44798951048951052, "percent_above_0.1m": 78.048780487804876, "low_level_<0.5": 4.8780487804878048, "mid_level_0.5-2": 14.634146341463413, "tall_2+": 58.536585365853654 }, "geometry": { "type": "Point", "coordinates": [ -0.06038862867942, 51.434695555091047 ] } },
{ "type": "Feature", "properties": { "max_height": 4.8799972534179688, "mean_height": 1.7029879093170166, "std_height": 1.3696733713150024, "count_pixels": 41, "percent_cover": 0.44798951048951052, "percent_above_0.1m": 78.048780487804876, "low_level_<0.5": 4.8780487804878048, "mid_level_0.5-2": 29.268292682926827, "tall_2+": 43.902439024390247 }, "geometry": { "type": "Point", "coordinates": [ -0.061280546435016, 51.43481823401418 ] } },
{ "type": "Feature", "properties": { "max_height": 0.00250244140625, "mean_height": -0.00030368712032213807, "std_height": 0.0011303821811452508, "count_pixels": 41, "percent_cover": 0.44798951048951052, "percent_above_0.1m": 0.0, "low_level_<0.5": 0.0, "mid_level_0.5-2": 0.0, "tall_2+": 0.0 }, "geometry": { "type": "Point", "coordinates": [ -0.06108132752335, 51.434814936913114 ] } },
{ "type": "Feature", "properties": { "max_height": 7.62939453125e-06, "mean_height": -0.0011898222146555781, "std_height": 0.0029499577358365059, "count_pixels": 42, "percent_cover": 0.45891608391608391, "percent_above_0.1m": 0.0, "low_level_<0.5": 0.0, "mid_level_0.5-2": 0.0, "tall_2+": 0.0 }, "geometry": { "type": "Point", "coordinates": [ -0.060882108649217, 51.434811639473949 ] } },
{ "type": "Feature", "properties": { "max_height": 7.62939453125e-06, "mean_height": -0.0008711703703738749, "std_height": 0.0016952594742178917, "count_pixels": 43, "percent_cover": 0.46984265734265729, "percent_above_0.1m": 0.0, "low_level_<0.5": 0.0, "mid_level_0.5-2": 0.0, "tall_2+": 0.0 }, "geometry": { "type": "Point", "coordinates": [ -0.060682889812619, 51.43480834169668 ] } },
{ "type": "Feature", "properties": { "max_height": 7.62939453125e-06, "mean_height": -0.001045936718583107, "std_height": 0.0021723054815083742, "count_pixels": 43, "percent_cover": 0.46984265734265729, "percent_above_0.1m": 0.0, "low_level_<0.5": 0.0, "mid_level_0.5-2": 0.0, "tall_2+": 0.0 }, "geometry": { "type": "Point", "coordinates": [ -0.060483671013556, 51.434805043581328 ] } },
{ "type": "Feature", "properties": { "max_height": 7.5824966430664062, "mean_height": 2.4234867095947266, "std_height": 2.8921246528625488, "count_pixels": 38, "percent_cover": 0.41520979020979021, "percent_above_0.1m": 57.894736842105267, "low_level_<0.5": 5.2631578947368416, "mid_level_0.5-2": 7.8947368421052628, "tall_2+": 42.105263157894733 }, "geometry": { "type": "Point", "coordinates": [ -0.060284452252038, 51.434801745127892 ] } },
{ "type": "Feature", "properties": { "max_height": 3.1175079345703125, "mean_height": 1.1460473537445068, "std_height": 1.0652377605438232, "count_pixels": 43, "percent_cover": 0.46984265734265729, "percent_above_0.1m": 74.418604651162795, "low_level_<0.5": 9.3023255813953494, "mid_level_0.5-2": 37.209302325581397, "tall_2+": 25.581395348837212 }, "geometry": { "type": "Point", "coordinates": [ -0.061375591143931, 51.434927721831592 ] } },
{ "type": "Feature", "properties": { "max_height": 0.287506103515625, "mean_height": 0.0051168398931622505, "std_height": 0.043706294149160385, "count_pixels": 43, "percent_cover": 0.46984265734265729, "percent_above_0.1m": 2.3255813953488373, "low_level_<0.5": 2.3255813953488373, "mid_level_0.5-2": 0.0, "tall_2+": 0.0 }, "geometry": { "type": "Point", "coordinates": [ -0.061176371749798, 51.434924424881487 ] } },
{ "type": "Feature", "properties": { "max_height": 0.06499481201171875, "mean_height": 0.0029169719200581312, "std_height": 0.01306859590113163, "count_pixels": 42, "percent_cover": 0.45891608391608391, "percent_above_0.1m": 0.0, "low_level_<0.5": 0.0, "mid_level_0.5-2": 0.0, "tall_2+": 0.0 }, "geometry": { "type": "Point", "coordinates": [ -0.060977152393203, 51.434921127593306 ] } },
{ "type": "Feature", "properties": { "max_height": 0.00499725341796875, "mean_height": -0.00097525992896407843, "std_height": 0.002129406901076436, "count_pixels": 41, "percent_cover": 0.44798951048951052, "percent_above_0.1m": 0.0, "low_level_<0.5": 0.0, "mid_level_0.5-2": 0.0, "tall_2+": 0.0 }, "geometry": { "type": "Point", "coordinates": [ -0.060777933074134, 51.43491782996702 ] } },
{ "type": "Feature", "properties": { "max_height": 0.0099945068359375, "mean_height": -0.0015247623668983579, "std_height": 0.0037400759756565094, "count_pixels": 41, "percent_cover": 0.44798951048951052, "percent_above_0.1m": 0.0, "low_level_<0.5": 0.0, "mid_level_0.5-2": 0.0, "tall_2+": 0.0 }, "geometry": { "type": "Point", "coordinates": [ -0.060578713792607, 51.434914532002651 ] } },
{ "type": "Feature", "properties": { "max_height": 0.00250244140625, "mean_height": -0.0022562539670616388, "std_height": 0.0041614780202507973, "count_pixels": 41, "percent_cover": 0.44798951048951052, "percent_above_0.1m": 0.0, "low_level_<0.5": 0.0, "mid_level_0.5-2": 0.0, "tall_2+": 0.0 }, "geometry": { "type": "Point", "coordinates": [ -0.06037949454862, 51.434911233700163 ] } },
{ "type": "Feature", "properties": { "max_height": 16.80999755859375, "mean_height": 9.3272628784179688, "std_height": 4.1794867515563965, "count_pixels": 42, "percent_cover": 0.45891608391608391, "percent_above_0.1m": 95.238095238095227, "low_level_<0.5": 0.0, "mid_level_0.5-2": 2.3809523809523809, "tall_2+": 92.857142857142861 }, "geometry": { "type": "Point", "coordinates": [ -0.060180275342177, 51.434907935059613 ] } },
{ "type": "Feature", "properties": { "max_height": 6.5925064086914062, "mean_height": 2.5273785591125488, "std_height": 1.8941348791122437, "count_pixels": 41, "percent_cover": 0.44798951048951052, "percent_above_0.1m": 85.365853658536579, "low_level_<0.5": 0.0, "mid_level_0.5-2": 36.585365853658537, "tall_2+": 48.780487804878049 }, "geometry": { "type": "Point", "coordinates": [ -0.061470636297769, 51.435037209580003 ] } },
{ "type": "Feature", "properties": { "max_height": 1.2274932861328125, "mean_height": 0.03865814208984375, "std_height": 0.2001742422580719, "count_pixels": 41, "percent_cover": 0.44798951048951052, "percent_above_0.1m": 4.8780487804878048, "low_level_<0.5": 2.4390243902439024, "mid_level_0.5-2": 2.4390243902439024, "tall_2+": 0.0 }, "geometry": { "type": "Point", "coordinates": [ -0.061271416421171, 51.435033912780888 ] } },
{ "type": "Feature", "properties": { "max_height": 1.9449996948242188, "mean_height": 0.11018446087837219, "std_height": 0.33582320809364319, "count_pixels": 41, "percent_cover": 0.44798951048951052, "percent_above_0.1m": 17.073170731707318, "low_level_<0.5": 7.3170731707317067, "mid_level_0.5-2": 9.7560975609756095, "tall_2+": 0.0 }, "geometry": { "type": "Point", "coordinates": [ -0.061072196582109, 51.435030615643683 ] } },
{ "type": "Feature", "properties": { "max_height": 0.01000213623046875, "mean_height": 0.00035785493673756719, "std_height": 0.0031615374609827995, "count_pixels": 42, "percent_cover": 0.45891608391608391, "percent_above_0.1m": 0.0, "low_level_<0.5": 0.0, "mid_level_0.5-2": 0.0, "tall_2+": 0.0 }, "geometry": { "type": "Point", "coordinates": [ -0.060872976780572, 51.435027318168373 ] } },
{ "type": "Feature", "properties": { "max_height": 0.00749969482421875, "mean_height": -0.0015116847353056073, "std_height": 0.0045793894678354263, "count_pixels": 43, "percent_cover": 0.46984265734265729, "percent_above_0.1m": 0.0, "low_level_<0.5": 0.0, "mid_level_0.5-2": 0.0, "tall_2+": 0.0 }, "geometry": { "type": "Point", "coordinates": [ -0.060673757016573, 51.43502402035498 ] } },
{ "type": "Feature", "properties": { "max_height": 0.0149993896484375, "mean_height": -0.005348915234208107, "std_height": 0.00657263258472085, "count_pixels": 43, "percent_cover": 0.46984265734265729, "percent_above_0.1m": 0.0, "low_level_<0.5": 0.0, "mid_level_0.5-2": 0.0, "tall_2+": 0.0 }, "geometry": { "type": "Point", "coordinates": [ -0.060474537290114, 51.435020722203483 ] } },
{ "type": "Feature", "properties": { "max_height": 2.962493896484375, "mean_height": 0.22138254344463348, "std_height": 0.61221659183502197, "count_pixels": 38, "percent_cover": 0.41520979020979021, "percent_above_0.1m": 15.789473684210526, "low_level_<0.5": 2.6315789473684208, "mid_level_0.5-2": 10.526315789473683, "tall_2+": 2.6315789473684208 }, "geometry": { "type": "Point", "coordinates": [ -0.060275317601201, 51.435017423713894 ] } },
{ "type": "Feature", "properties": { "max_height": 13.180000305175781, "mean_height": 7.2130956649780273, "std_height": 3.1973021030426025, "count_pixels": 42, "percent_cover": 0.45891608391608391, "percent_above_0.1m": 97.61904761904762, "low_level_<0.5": 0.0, "mid_level_0.5-2": 2.3809523809523809, "tall_2+": 95.238095238095227 }, "geometry": { "type": "Point", "coordinates": [ -0.060076097949827, 51.435014124886202 ] } },
{ "type": "Feature", "properties": { "max_height": 6.1100006103515625, "mean_height": 2.0758557319641113, "std_height": 1.6187622547149658, "count_pixels": 38, "percent_cover": 0.41520979020979021, "percent_above_0.1m": 89.473684210526315, "low_level_<0.5": 7.8947368421052628, "mid_level_0.5-2": 39.473684210526315, "tall_2+": 42.105263157894733 }, "geometry": { "type": "Point", "coordinates": [ -0.061565681896534, 51.435146697259434 ] } },
{ "type": "Feature", "properties": { "max_height": 5.6975021362304688, "mean_height": 0.3393608033657074, "std_height": 1.0232169628143311, "count_pixels": 43, "percent_cover": 0.46984265734265729, "percent_above_0.1m": 18.604651162790699, "low_level_<0.5": 4.6511627906976747, "mid_level_0.5-2": 9.3023255813953494, "tall_2+": 4.6511627906976747 }, "geometry": { "type": "Point", "coordinates": [ -0.061366461537473, 51.435143400611295 ] } },
{ "type": "Feature", "properties": { "max_height": 0.462493896484375, "mean_height": 0.0080811260268092155, "std_height": 0.070752620697021484, "count_pixels": 43, "percent_cover": 0.46984265734265729, "percent_above_0.1m": 2.3255813953488373, "low_level_<0.5": 2.3255813953488373, "mid_level_0.5-2": 0.0, "tall_2+": 0.0 }, "geometry": { "type": "Point", "coordinates": [ -0.061167241215936, 51.435140103625073 ] } },
{ "type": "Feature", "properties": { "max_height": 0.74250030517578125, "mean_height": 0.022321609780192375, "std_height": 0.11552342772483826, "count_pixels": 42, "percent_cover": 0.45891608391608391, "percent_above_0.1m": 4.7619047619047619, "low_level_<0.5": 0.0, "mid_level_0.5-2": 2.3809523809523809, "tall_2+": 0.0 }, "geometry": { "type": "Point", "coordinates": [ -0.060968020931932, 51.43513680630074 ] } },
{ "type": "Feature", "properties": { "max_height": 0.19750213623046875, "mean_height": 0.0045741009525954723, "std_height": 0.030866244807839394, "count_pixels": 41, "percent_cover": 0.44798951048951052, "percent_above_0.1m": 2.4390243902439024, "low_level_<0.5": 2.4390243902439024, "mid_level_0.5-2": 0.0, "tall_2+": 0.0 }, "geometry": { "type": "Point", "coordinates": [ -0.060768800685463, 51.43513350863833 ] } },
{ "type": "Feature", "properties": { "max_height": 0.01000213623046875, "mean_height": -0.0021338113583624363, "std_height": 0.004297901876270771, "count_pixels": 41, "percent_cover": 0.44798951048951052, "percent_above_0.1m": 0.0, "low_level_<0.5": 0.0, "mid_level_0.5-2": 0.0, "tall_2+": 0.0 }, "geometry": { "type": "Point", "coordinates": [ -0.060569580476529, 51.435130210637809 ] } },
{ "type": "Feature", "properties": { "max_height": 4.589996337890625, "mean_height": 0.83414572477340698, "std_height": 1.4837406873703003, "count_pixels": 41, "percent_cover": 0.44798951048951052, "percent_above_0.1m": 31.707317073170731, "low_level_<0.5": 2.4390243902439024, "mid_level_0.5-2": 9.7560975609756095, "tall_2+": 19.512195121951219 }, "geometry": { "type": "Point", "coordinates": [ -0.060370360305138, 51.435126912299182 ] } },
{ "type": "Feature", "properties": { "max_height": 8.9250030517578125, "mean_height": 3.215595006942749, "std_height": 2.4144711494445801, "count_pixels": 42, "percent_cover": 0.45891608391608391, "percent_above_0.1m": 97.61904761904762, "low_level_<0.5": 7.1428571428571423, "mid_level_0.5-2": 16.666666666666664, "tall_2+": 71.428571428571431 }, "geometry": { "type": "Point", "coordinates": [ -0.060171140171291, 51.435123613622487 ] } },
{ "type": "Feature", "properties": { "max_height": 4.9199981689453125, "mean_height": 1.4308542013168335, "std_height": 1.343113899230957, "count_pixels": 41, "percent_cover": 0.44798951048951052, "percent_above_0.1m": 75.609756097560975, "low_level_<0.5": 7.3170731707317067, "mid_level_0.5-2": 31.707317073170731, "tall_2+": 36.585365853658537 }, "geometry": { "type": "Point", "coordinates": [ -0.059971920074996, 51.435120314607687 ] } },
{ "type": "Feature", "properties": { "max_height": 9.5949935913085938, "mean_height": 3.9409527778625488, "std_height": 2.0691983699798584, "count_pixels": 42, "percent_cover": 0.45891608391608391, "percent_above_0.1m": 97.61904761904762, "low_level_<0.5": 0.0, "mid_level_0.5-2": 16.666666666666664, "tall_2+": 80.952380952380949 }, "geometry": { "type": "Point", "coordinates": [ -0.061660727940235, 51.435256184869871 ] } },
{ "type": "Feature", "properties": { "max_height": 3.4925003051757812, "mean_height": 0.20963361859321594, "std_height": 0.74634087085723877, "count_pixels": 41, "percent_cover": 0.44798951048951052, "percent_above_0.1m": 9.7560975609756095, "low_level_<0.5": 0.0, "mid_level_0.5-2": 4.8780487804878048, "tall_2+": 4.8780487804878048 }, "geometry": { "type": "Point", "coordinates": [ -0.061461507098703, 51.435252888372723 ] } },
{ "type": "Feature", "properties": { "max_height": 0.00749969482421875, "mean_height": -0.0062791779637336731, "std_height": 0.0074314875528216362, "count_pixels": 41, "percent_cover": 0.44798951048951052, "percent_above_0.1m": 0.0, "low_level_<0.5": 0.0, "mid_level_0.5-2": 0.0, "tall_2+": 0.0 }, "geometry": { "type": "Point", "coordinates": [ -0.061262286294697, 51.435249591537477 ] } },
{ "type": "Feature", "properties": { "max_height": 1.9549942016601562, "mean_height": 0.17993852496147156, "std_height": 0.49561265110969543, "count_pixels": 41, "percent_cover": 0.44798951048951052, "percent_above_0.1m": 17.073170731707318, "low_level_<0.5": 4.8780487804878048, "mid_level_0.5-2": 12.195121951219512, "tall_2+": 0.0 }, "geometry": { "type": "Point", "coordinates": [ -0.061063065528218, 51.435246294364141 ] } },
{ "type": "Feature", "properties": { "max_height": 0.31749725341796875, "mean_height": 0.01023810263723135, "std_height": 0.05433809757232666, "count_pixels": 42, "percent_cover": 0.45891608391608391, "percent_above_0.1m": 4.7619047619047619, "low_level_<0.5": 4.7619047619047619, "mid_level_0.5-2": 0.0, "tall_2+": 0.0 }, "geometry": { "type": "Point", "coordinates": [ -0.060863844799272, 51.435242996852693 ] } },
{ "type": "Feature", "properties": { "max_height": 3.217498779296875, "mean_height": 0.1615699976682663, "std_height": 0.60479837656021118, "count_pixels": 43, "percent_cover": 0.46984265734265729, "percent_above_0.1m": 9.3023255813953494, "low_level_<0.5": 0.0, "mid_level_0.5-2": 4.6511627906976747, "tall_2+": 4.6511627906976747 }, "geometry": { "type": "Point", "coordinates": [ -0.060664624107865, 51.435239699003169 ] } },
{ "type": "Feature", "properties": { "max_height": 7.7449951171875, "mean_height": 0.72552329301834106, "std_height": 1.7902587652206421, "count_pixels": 43, "percent_cover": 0.46984265734265729, "percent_above_0.1m": 23.255813953488371, "low_level_<0.5": 4.6511627906976747, "mid_level_0.5-2": 2.3255813953488373, "tall_2+": 13.953488372093023 }, "geometry": { "type": "Point", "coordinates": [ -0.060465403453994, 51.435236400815505 ] } },
{ "type": "Feature", "properties": { "max_height": 8.1374969482421875, "mean_height": 1.723421573638916, "std_height": 2.2528312206268311, "count_pixels": 38, "percent_cover": 0.41520979020979021, "percent_above_0.1m": 71.05263157894737, "low_level_<0.5": 18.421052631578945, "mid_level_0.5-2": 21.052631578947366, "tall_2+": 28.947368421052634 }, "geometry": { "type": "Point", "coordinates": [ -0.060266182837672, 51.435233102289772 ] } },
{ "type": "Feature", "properties": { "max_height": 6.2074966430664062, "mean_height": 1.2519059181213379, "std_height": 1.4456084966659546, "count_pixels": 42, "percent_cover": 0.45891608391608391, "percent_above_0.1m": 69.047619047619051, "low_level_<0.5": 2.3809523809523809, "mid_level_0.5-2": 45.238095238095241, "tall_2+": 21.428571428571427 }, "geometry": { "type": "Point", "coordinates": [ -0.061755774428873, 51.435365672411329 ] } },
{ "type": "Feature", "properties": { "max_height": 8.4225006103515625, "mean_height": 0.68098771572113037, "std_height": 1.9275295734405518, "count_pixels": 38, "percent_cover": 0.41520979020979021, "percent_above_0.1m": 15.789473684210526, "low_level_<0.5": 0.0, "mid_level_0.5-2": 5.2631578947368416, "tall_2+": 10.526315789473683 }, "geometry": { "type": "Point", "coordinates": [ -0.061556553104868, 51.435362376065171 ] } },
{ "type": "Feature", "properties": { "max_height": 0.00250244140625, "mean_height": -0.0072674420662224293, "std_height": 0.0066856592893600464, "count_pixels": 43, "percent_cover": 0.46984265734265729, "percent_above_0.1m": 0.0, "low_level_<0.5": 0.0, "mid_level_0.5-2": 0.0, "tall_2+": 0.0 }, "geometry": { "type": "Point", "coordinates": [ -0.061357331818388, 51.435359079380902 ] } },
{ "type": "Feature", "properties": { "max_height": 0.01250457763671875, "mean_height": -0.002440696582198143, "std_height": 0.0052961506880819798, "count_pixels": 43, "percent_cover": 0.46984265734265729, "percent_above_0.1m": 0.0, "low_level_<0.5": 0.0, "mid_level_0.5-2": 0.0, "tall_2+": 0.0 }, "geometry": { "type": "Point", "coordinates": [ -0.061158110569434, 51.435355782358542 ] } },
{ "type": "Feature", "properties": { "max_height": 0.00250244140625, "mean_height": -0.0048808143474161625, "std_height": 0.0041530188173055649, "count_pixels": 42, "percent_cover": 0.45891608391608391, "percent_above_0.1m": 0.0, "low_level_<0.5": 0.0, "mid_level_0.5-2": 0.0, "tall_2+": 0.0 }, "geometry": { "type": "Point", "coordinates": [ -0.060958889358012, 51.435352484998077 ] } },
{ "type": "Feature", "properties": { "max_height": 6.4874954223632812, "mean_height": 0.83024501800537109, "std_height": 1.7245757579803467, "count_pixels": 41, "percent_cover": 0.44798951048951052, "percent_above_0.1m": 29.268292682926827, "low_level_<0.5": 2.4390243902439024, "mid_level_0.5-2": 9.7560975609756095, "tall_2+": 17.073170731707318 }, "geometry": { "type": "Point", "coordinates": [ -0.060759668184126, 51.435349187299501 ] } },
{ "type": "Feature", "properties": { "max_height": 6.9625015258789062, "mean_height": 3.1017074584960938, "std_height": 1.7982935905456543, "count_pixels": 41, "percent_cover": 0.44798951048951052, "percent_above_0.1m": 92.682926829268297, "low_level_<0.5": 0.0, "mid_level_0.5-2": 19.512195121951219, "tall_2+": 73.170731707317074 }, "geometry": { "type": "Point", "coordinates": [ -0.060560447047776, 51.435345889262855 ] } },
{ "type": "Feature", "properties": { "max_height": 9.8625030517578125, "mean_height": 1.8142693042755127, "std_height": 2.6444363594055176, "count_pixels": 41, "percent_cover": 0.44798951048951052, "percent_above_0.1m": 63.414634146341463, "low_level_<0.5": 14.634146341463413, "mid_level_0.5-2": 19.512195121951219, "tall_2+": 29.268292682926827 }, "geometry": { "type": "Point", "coordinates": [ -0.06036122594897, 51.435342590888091 ] } },
{ "type": "Feature", "properties": { "max_height": 8.8525009155273438, "mean_height": 3.0100617408752441, "std_height": 2.4955239295959473, "count_pixels": 41, "percent_cover": 0.44798951048951052, "percent_above_0.1m": 87.804878048780495, "low_level_<0.5": 2.4390243902439024, "mid_level_0.5-2": 21.951219512195124, "tall_2+": 63.414634146341463 }, "geometry": { "type": "Point", "coordinates": [ -0.061850821362449, 51.435475159883801 ] } },
{ "type": "Feature", "properties": { "max_height": 4.3675003051757812, "mean_height": 0.44321423768997192, "std_height": 1.1046760082244873, "count_pixels": 42, "percent_cover": 0.45891608391608391, "percent_above_0.1m": 19.047619047619047, "low_level_<0.5": 2.3809523809523809, "mid_level_0.5-2": 9.5238095238095237, "tall_2+": 7.1428571428571423 }, "geometry": { "type": "Point", "coordinates": [ -0.061651599555974, 51.435471863688619 ] } },
{ "type": "Feature", "properties": { "max_height": 0.01250457763671875, "mean_height": -0.0040240404196083546, "std_height": 0.0057877348735928535, "count_pixels": 41, "percent_cover": 0.44798951048951052, "percent_above_0.1m": 0.0, "low_level_<0.5": 0.0, "mid_level_0.5-2": 0.0, "tall_2+": 0.0 }, "geometry": { "type": "Point", "coordinates": [ -0.061452377787016, 51.435468567155333 ] } },
{ "type": "Feature", "properties": { "max_height": 0.01999664306640625, "mean_height": -0.000244140625, "std_height": 0.0048073693178594112, "count_pixels": 41, "percent_cover": 0.44798951048951052, "percent_above_0.1m": 0.0, "low_level_<0.5": 0.0, "mid_level_0.5-2": 0.0, "tall_2+": 0.0 }, "geometry": { "type": "Point", "coordinates": [ -0.061253156055586, 51.435465270283956 ] } },
{ "type": "Feature", "properties": { "max_height": 0.00749969482421875, "mean_height": -0.0046345782466232777, "std_height": 0.0056989351287484169, "count_pixels": 41, "percent_cover": 0.44798951048951052, "percent_above_0.1m": 0.0, "low_level_<0.5": 0.0, "mid_level_0.5-2": 0.0, "tall_2+": 0.0 }, "geometry": { "type": "Point", "coordinates": [ -0.061053934361684, 51.435461973074467 ] } },
{ "type": "Feature", "properties": { "max_height": 8.9724960327148438, "mean_height": 2.5472023487091064, "std_height": 2.5542407035827637, "count_pixels": 42, "percent_cover": 0.45891608391608391, "percent_above_0.1m": 61.904761904761905, "low_level_<0.5": 0.0, "mid_level_0.5-2": 9.5238095238095237, "tall_2+": 52.380952380952387 }, "geometry": { "type": "Point", "coordinates": [ -0.060854712705314, 51.435458675526888 ] } },
{ "type": "Feature", "properties": { "max_height": 8.125, "mean_height": 2.9427897930145264, "std_height": 1.7596199512481689, "count_pixels": 43, "percent_cover": 0.46984265734265729, "percent_above_0.1m": 100.0, "low_level_<0.5": 2.3255813953488373, "mid_level_0.5-2": 27.906976744186046, "tall_2+": 69.767441860465112 }, "geometry": { "type": "Point", "coordinates": [ -0.060655491086485, 51.435455377641212 ] } },
{ "type": "Feature", "properties": { "max_height": 5.75250244140625, "mean_height": 1.763023853302002, "std_height": 1.8863614797592163, "count_pixels": 43, "percent_cover": 0.46984265734265729, "percent_above_0.1m": 81.395348837209298, "low_level_<0.5": 9.3023255813953494, "mid_level_0.5-2": 37.209302325581397, "tall_2+": 30.232558139534881 }, "geometry": { "type": "Point", "coordinates": [ -0.060456269505195, 51.435452079417438 ] } },
{ "type": "Feature", "properties": { "max_height": 3.532501220703125, "mean_height": 1.3564298152923584, "std_height": 1.20588219165802, "count_pixels": 42, "percent_cover": 0.45891608391608391, "percent_above_0.1m": 83.333333333333343, "low_level_<0.5": 16.666666666666664, "mid_level_0.5-2": 33.333333333333329, "tall_2+": 30.952380952380953 }, "geometry": { "type": "Point", "coordinates": [ -0.061746646452018, 51.435581351243087 ] } },
{ "type": "Feature", "properties": { "max_height": 2.5550003051757812, "mean_height": 0.21519851684570312, "std_height": 0.57833331823348999, "count_pixels": 38, "percent_cover": 0.41520979020979021, "percent_above_0.1m": 21.052631578947366, "low_level_<0.5": 7.8947368421052628, "mid_level_0.5-2": 7.8947368421052628, "tall_2+": 5.2631578947368416 }, "geometry": { "type": "Point", "coordinates": [ -0.061547424200585, 51.435578054860784 ] } },
{ "type": "Feature", "properties": { "max_height": 0.00749969482421875, "mean_height": -0.0019179943483322859, "std_height": 0.0049659083597362041, "count_pixels": 43, "percent_cover": 0.46984265734265729, "percent_above_0.1m": 0.0, "low_level_<0.5": 0.0, "mid_level_0.5-2": 0.0, "tall_2+": 0.0 }, "geometry": { "type": "Point", "coordinates": [ -0.061348201986674, 51.435574758140397 ] } },
{ "type": "Feature", "properties": { "max_height": 2.7150039672851562, "mean_height": 0.070407599210739136, "std_height": 0.41205999255180359, "count_pixels": 43, "percent_cover": 0.46984265734265729, "percent_above_0.1m": 4.6511627906976747, "low_level_<0.5": 2.3255813953488373, "mid_level_0.5-2": 0.0, "tall_2+": 2.3255813953488373 }, "geometry": { "type": "Point", "coordinates": [ -0.06114897981029, 51.435571461081885 ] } },
{ "type": "Feature", "properties": { "max_height": 9.4274978637695312, "mean_height": 3.683570384979248, "std_height": 3.0070555210113525, "count_pixels": 42, "percent_cover": 0.45891608391608391, "percent_above_0.1m": 73.80952380952381, "low_level_<0.5": 2.3809523809523809, "mid_level_0.5-2": 9.5238095238095237, "tall_2+": 61.904761904761905 }, "geometry": { "type": "Point", "coordinates": [ -0.060949757671441, 51.435568163685289 ] } },
{ "type": "Feature", "properties": { "max_height": 6.350006103515625, "mean_height": 3.1086592674255371, "std_height": 1.4414088726043701, "count_pixels": 41, "percent_cover": 0.44798951048951052, "percent_above_0.1m": 100.0, "low_level_<0.5": 0.0, "mid_level_0.5-2": 21.951219512195124, "tall_2+": 78.048780487804876 }, "geometry": { "type": "Point", "coordinates": [ -0.060750535570126, 51.435564865950603 ] } },
{ "type": "Feature", "properties": { "max_height": 10.447502136230469, "mean_height": 2.2868459224700928, "std_height": 2.5106537342071533, "count_pixels": 42, "percent_cover": 0.45891608391608391, "percent_above_0.1m": 85.714285714285708, "low_level_<0.5": 4.7619047619047619, "mid_level_0.5-2": 35.714285714285715, "tall_2+": 42.857142857142854 }, "geometry": { "type": "Point", "coordinates": [ -0.061642471059095, 51.435687542497249 ] } },
{ "type": "Feature", "properties": { "max_height": 11.097496032714844, "mean_height": 3.1632318496704102, "std_height": 3.8132815361022949, "count_pixels": 41, "percent_cover": 0.44798951048951052, "percent_above_0.1m": 56.09756097560976, "low_level_<0.5": 4.8780487804878048, "mid_level_0.5-2": 9.7560975609756095, "tall_2+": 41.463414634146339 }, "geometry": { "type": "Point", "coordinates": [ -0.061443248362702, 51.435684245927845 ] } },
{ "type": "Feature", "properties": { "max_height": 0.66750335693359375, "mean_height": 0.027074301615357399, "std_height": 0.13038471341133118, "count_pixels": 41, "percent_cover": 0.44798951048951052, "percent_above_0.1m": 4.8780487804878048, "low_level_<0.5": 0.0, "mid_level_0.5-2": 4.8780487804878048, "tall_2+": 0.0 }, "geometry": { "type": "Point", "coordinates": [ -0.061244025703839, 51.435680949020323 ] } },
{ "type": "Feature", "properties": { "max_height": 12.885002136230469, "mean_height": 5.8435983657836914, "std_height": 4.0260205268859863, "count_pixels": 41, "percent_cover": 0.44798951048951052, "percent_above_0.1m": 90.243902439024396, "low_level_<0.5": 7.3170731707317067, "mid_level_0.5-2": 9.7560975609756095, "tall_2+": 73.170731707317074 }, "geometry": { "type": "Point", "coordinates": [ -0.061044803082501, 51.435677651774711 ] } },
{ "type": "Feature", "properties": { "max_height": 10.290000915527344, "mean_height": 4.1746435165405273, "std_height": 2.2190608978271484, "count_pixels": 42, "percent_cover": 0.45891608391608391, "percent_above_0.1m": 100.0, "low_level_<0.5": 2.3809523809523809, "mid_level_0.5-2": 7.1428571428571423, "tall_2+": 90.476190476190482 }, "geometry": { "type": "Point", "coordinates": [ -0.060845580498698, 51.435674354190979 ] } },
{ "type": "Feature", "properties": { "max_height": 13.555000305175781, "mean_height": 5.878751277923584, "std_height": 3.9944682121276855, "count_pixels": 38, "percent_cover": 0.41520979020979021, "percent_above_0.1m": 94.73684210526315, "low_level_<0.5": 5.2631578947368416, "mid_level_0.5-2": 15.789473684210526, "tall_2+": 73.68421052631578 }, "geometry": { "type": "Point", "coordinates": [ -0.061538295183678, 51.435793733646307 ] } },
{ "type": "Feature", "properties": { "max_height": 13.317497253417969, "mean_height": 5.9138379096984863, "std_height": 4.5658178329467773, "count_pixels": 43, "percent_cover": 0.46984265734265729, "percent_above_0.1m": 76.744186046511629, "low_level_<0.5": 0.0, "mid_level_0.5-2": 4.6511627906976747, "tall_2+": 69.767441860465112 }, "geometry": { "type": "Point", "coordinates": [ -0.061339072042327, 51.435790436889775 ] } },
{ "type": "Feature", "properties": { "max_height": 13.25250244140625, "mean_height": 7.5634317398071289, "std_height": 2.7688226699829102, "count_pixels": 43, "percent_cover": 0.46984265734265729, "percent_above_0.1m": 100.0, "low_level_<0.5": 0.0, "mid_level_0.5-2": 4.6511627906976747, "tall_2+": 95.348837209302332 }, "geometry": { "type": "Point", "coordinates": [ -0.061139848938505, 51.435787139795139 ] } },
{ "type": "Feature", "properties": { "max_height": 11.142501831054688, "mean_height": 3.6006715297698975, "std_height": 3.2536139488220215, "count_pixels": 41, "percent_cover": 0.44798951048951052, "percent_above_0.1m": 78.048780487804876, "low_level_<0.5": 2.4390243902439024, "mid_level_0.5-2": 14.634146341463413, "tall_2+": 56.09756097560976 }, "geometry": { "type": "Point", "coordinates": [ -0.061434118825764, 51.435899924690233 ] } },
{ "type": "Feature", "properties": { "max_height": 13.572494506835938, "mean_height": 8.4142084121704102, "std_height": 3.0850157737731934, "count_pixels": 41, "percent_cover": 0.44798951048951052, "percent_above_0.1m": 100.0, "low_level_<0.5": 0.0, "mid_level_0.5-2": 4.8780487804878048, "tall_2+": 95.121951219512198 }, "geometry": { "type": "Point", "coordinates": [ -0.06123489523945, 51.435896627746573 ] } },
{ "type": "Feature", "properties": { "max_height": 10.297500610351562, "mean_height": 1.8332563638687134, "std_height": 2.2404806613922119, "count_pixels": 43, "percent_cover": 0.46984265734265729, "percent_above_0.1m": 88.372093023255815, "low_level_<0.5": 9.3023255813953494, "mid_level_0.5-2": 44.186046511627907, "tall_2+": 25.581395348837212 }, "geometry": { "type": "Point", "coordinates": [ -0.061329941985346, 51.436006115629027 ] } }
]
}
