{
"type": "FeatureCollection",
"name": "BEXLE_54_cycling",
"crs": { "type": "name", "properties": { "name": "urn:ogc:def:crs:OGC:1.3:CRS84" } },
"features": [
{"type":"Feature","properties":{"highway":"cycleway","name":null,"category":"Dedicated cycleway"},"geometry":{"type":"MultiLineString","coordinates":[[[0.1221316,51.4509478],[0.122226,51.4510767],[0.1222783,51.4511423],[0.1224755,51.4513968]]]}},
{"type":"Feature","properties":{"highway":"path","name":null,"category":"Shared path"},"geometry":{"type":"MultiLineString","coordinates":[[[0.1302989,51.4555781],[0.1302409,51.4555701],[0.1300455,51.4555863],[0.1299847,51.4553306],[0.1299851,51.4553033],[0.1299702,51.4553044],[0.129788,51.4553185],[0.1296747,51.4553285]]]}},
{"type":"Feature","properties":{"highway":"path","name":null,"category":"Shared path"},"geometry":{"type":"MultiLineString","coordinates":[[[0.1303394,51.4555743],[0.1303332,51.4555422]]]}},
{"type":"Feature","properties":{"highway":"cycleway","name":null,"category":"Dedicated cycleway"},"geometry":{"type":"MultiLineString","coordinates":[[[0.1227542,51.4517352],[0.122802,51.4517235],[0.1228558,51.4517104]]]}},
{"type":"Feature","properties":{"highway":"cycleway","name":null,"category":"Dedicated cycleway"},"geometry":{"type":"MultiLineString","coordinates":[[[0.1228558,51.4517104],[0.1228698,51.4517059],[0.1228331,51.4516534],[0.1228116,51.451614],[0.1228137,51.4515722],[0.1228005,51.4515554]]]}},
{"type":"Feature","properties":{"highway":"cycleway","name":null,"category":"Dedicated cycleway"},"geometry":{"type":"MultiLineString","coordinates":[[[0.1228514,51.4513365],[0.1228482,51.4513589],[0.1228334,51.451392],[0.1227882,51.4514252],[0.1227336,51.4514764]]]}},
{"type":"Feature","properties":{"highway":"cycleway","name":null,"category":"Dedicated cycleway"},"geometry":{"type":"MultiLineString","coordinates":[[[0.123804,51.4595906],[0.1237575,51.4595986]]]}},
{"type":"Feature","properties":{"highway":"cycleway","name":null,"category":"Dedicated cycleway"},"geometry":{"type":"MultiLineString","coordinates":[[[0.1237364,51.4596023],[0.1237216,51.4596413]]]}},
{"type":"Feature","properties":{"highway":"cycleway","name":null,"category":"Dedicated cycleway"},"geometry":{"type":"MultiLineString","coordinates":[[[0.1237575,51.4595986],[0.1237364,51.4596023],[0.1236739,51.4595765],[0.1236328,51.4595704],[0.1236001,51.4595908]]]}},
{"type":"Feature","properties":{"highway":"cycleway","name":null,"category":"Dedicated cycleway"},"geometry":{"type":"MultiLineString","coordinates":[[[0.1224755,51.4513968],[0.1227259,51.4517425],[0.1227542,51.4517352]]]}},
{"type":"Feature","properties":{"highway":"cycleway","name":null,"category":"Dedicated cycleway"},"geometry":{"type":"MultiLineString","coordinates":[[[0.1214693,51.4508018],[0.121515,51.4507777],[0.1215887,51.4507349],[0.1216393,51.45072],[0.1217018,51.4507115],[0.121738,51.4507093],[0.121794,51.4507166],[0.1218554,51.4507348],[0.121913,51.450762],[0.121999,51.4508288],[0.1220646,51.4508803]]]}},
{"type":"Feature","properties":{"highway":"cycleway","name":null,"category":"Dedicated cycleway"},"geometry":{"type":"MultiLineString","coordinates":[[[0.1220646,51.4508803],[0.1221004,51.4509164],[0.1221316,51.4509478]]]}},
{"type":"Feature","properties":{"highway":"cycleway","name":null,"category":"Dedicated cycleway"},"geometry":{"type":"MultiLineString","coordinates":[[[0.1228005,51.4515554],[0.1227699,51.4515181]]]}},
{"type":"Feature","properties":{"highway":"cycleway","name":null,"category":"Dedicated cycleway"},"geometry":{"type":"MultiLineString","coordinates":[[[0.1227699,51.4515181],[0.1227457,51.4514887]]]}},
{"type":"Feature","properties":{"highway":"cycleway","name":null,"category":"Dedicated cycleway"},"geometry":{"type":"MultiLineString","coordinates":[[[0.1227336,51.4514764],[0.1227457,51.4514887]]]}},
{"type":"Feature","properties":{"highway":"cycleway","name":"Robin Hood Lane","category":"Dedicated cycleway"},"geometry":{"type":"MultiLineString","coordinates":[[[0.1342698,51.4533875],[0.1342379,51.4533756],[0.1342047,51.4533634]]]}},
{"type":"Feature","properties":{"highway":"cycleway","name":"Albion Road","category":"Dedicated cycleway"},"geometry":{"type":"MultiLineString","coordinates":[[[0.142226,51.4557516],[0.142163,51.4557429],[0.142083,51.4557697],[0.1419206,51.455827],[0.1417635,51.4558886],[0.1417095,51.4559063],[0.1416229,51.45594],[0.1415924,51.4559512],[0.1413576,51.4560176],[0.1412521,51.4560446],[0.1410815,51.4560851],[0.1408894,51.4561289],[0.1407534,51.4561536],[0.1404509,51.4561913],[0.1400558,51.4562436],[0.1395361,51.4563212],[0.1393954,51.4563448],[0.1392682,51.4563751],[0.139122,51.4564156],[0.139011,51.4564645],[0.1389623,51.4564898],[0.1389478,51.4565346]]]}},
{"type":"Feature","properties":{"highway":"cycleway","name":"Albion Road","category":"Dedicated cycleway"},"geometry":{"type":"MultiLineString","coordinates":[[[0.1390568,51.4565639],[0.1391211,51.4565521],[0.1391791,51.456524],[0.1392595,51.4564939],[0.1393979,51.4564538],[0.1394913,51.4564317],[0.1396586,51.4564057],[0.1400191,51.4563555],[0.1401841,51.456329],[0.1409719,51.4562151],[0.1410942,51.4561951],[0.1412422,51.456163],[0.1413203,51.4561396],[0.1413838,51.4561209],[0.1415931,51.4560487],[0.1417379,51.4560046],[0.141828,51.4559805],[0.141902,51.4559564],[0.142034,51.4559143],[0.1421916,51.4558572],[0.1422527,51.4558351],[0.1422586,51.4558169]]]}},
{"type":"Feature","properties":{"highway":"track","name":null,"category":"Track"},"geometry":{"type":"MultiLineString","coordinates":[[[0.1244364,51.4532124],[0.1244086,51.4532736],[0.1244046,51.4533547],[0.1244412,51.4534257],[0.1245712,51.4536967],[0.1247054,51.4539881],[0.124864,51.4543554]]]}},
{"type":"Feature","properties":{"highway":"track","name":null,"category":"Track"},"geometry":{"type":"MultiLineString","coordinates":[[[0.124864,51.4543554],[0.1249209,51.454401],[0.1249778,51.4544213],[0.1250388,51.4544162],[0.125738,51.4543149],[0.1258031,51.4543047],[0.1258437,51.454287],[0.1258722,51.4542617],[0.1258844,51.4542237],[0.1257177,51.4538437],[0.1254996,51.453359],[0.1254738,51.4533015],[0.1254682,51.4532925],[0.1253327,51.4530727]]]}},
{"type":"Feature","properties":{"highway":"path","name":null,"category":"Shared path"},"geometry":{"type":"MultiLineString","coordinates":[[[0.1256658,51.4528015],[0.1256507,51.4528032],[0.1252751,51.4528461]]]}},
{"type":"Feature","properties":{"highway":"path","name":null,"category":"Shared path"},"geometry":{"type":"MultiLineString","coordinates":[[[0.1253246,51.4529774],[0.1249518,51.4530334],[0.124827,51.4530516],[0.1248039,51.4530521],[0.1247931,51.4530458],[0.1247708,51.452993],[0.1247461,51.4529234],[0.1247145,51.4528442],[0.125075,51.4527943],[0.1250897,51.4527857],[0.1251035,51.4527794],[0.1251243,51.4527727],[0.1252372,51.4527528]]]}},
{"type":"Feature","properties":{"highway":"path","name":null,"category":"Shared path"},"geometry":{"type":"MultiLineString","coordinates":[[[0.1247708,51.452993],[0.1252992,51.4529094]]]}},
{"type":"Feature","properties":{"highway":"path","name":null,"category":"Shared path"},"geometry":{"type":"MultiLineString","coordinates":[[[0.1257411,51.4528533],[0.1252992,51.4529094]]]}},
{"type":"Feature","properties":{"highway":"path","name":null,"category":"Shared path"},"geometry":{"type":"MultiLineString","coordinates":[[[0.126295,51.45284],[0.125596,51.4529376],[0.1253246,51.4529774]]]}},
{"type":"Feature","properties":{"highway":"path","name":null,"category":"Shared path"},"geometry":{"type":"MultiLineString","coordinates":[[[0.1264056,51.453172],[0.1261375,51.4532067],[0.1259778,51.4532272],[0.1254682,51.4532925]]]}},
{"type":"Feature","properties":{"highway":"path","name":null,"category":"Shared path"},"geometry":{"type":"MultiLineString","coordinates":[[[0.1259778,51.4532272],[0.1259977,51.4532872],[0.1255571,51.4533478],[0.1254996,51.453359]]]}},
{"type":"Feature","properties":{"highway":"path","name":null,"category":"Shared path"},"geometry":{"type":"MultiLineString","coordinates":[[[0.1307086,51.455853],[0.1308431,51.4558805]]]}},
{"type":"Feature","properties":{"highway":"path","name":null,"category":"Shared path"},"geometry":{"type":"MultiLineString","coordinates":[[[0.1302409,51.4555701],[0.1302327,51.4555357],[0.1302059,51.4555157],[0.1302032,51.4554856],[0.1301979,51.4554555],[0.1302032,51.4554405],[0.1302084,51.4554223],[0.1302042,51.4554092],[0.1302036,51.4553439],[0.1301917,51.4553151],[0.1300902,51.4553226],[0.1299847,51.4553306]]]}},
{"type":"Feature","properties":{"highway":"path","name":null,"category":"Shared path"},"geometry":{"type":"MultiLineString","coordinates":[[[0.129788,51.4553185],[0.1297778,51.4552713],[0.1297623,51.4551996]]]}},
{"type":"Feature","properties":{"highway":"path","name":null,"category":"Shared path"},"geometry":{"type":"MultiLineString","coordinates":[[[0.1299702,51.4553044],[0.1299596,51.4552551],[0.1299444,51.4551843]]]}},
{"type":"Feature","properties":{"highway":"path","name":null,"category":"Shared path"},"geometry":{"type":"MultiLineString","coordinates":[[[0.1297778,51.4552713],[0.1299596,51.4552551]]]}},
{"type":"Feature","properties":{"highway":"path","name":null,"category":"Shared path"},"geometry":{"type":"MultiLineString","coordinates":[[[0.1297623,51.4551996],[0.1299444,51.4551843]]]}},
{"type":"Feature","properties":{"highway":"path","name":null,"category":"Shared path"},"geometry":{"type":"MultiLineString","coordinates":[[[0.1297778,51.4552713],[0.1296619,51.4552781],[0.1296373,51.4552047],[0.1297623,51.4551996]]]}},
{"type":"Feature","properties":{"highway":"path","name":null,"category":"Shared path"},"geometry":{"type":"MultiLineString","coordinates":[[[0.1296619,51.4552781],[0.1296747,51.4553285]]]}},
{"type":"Feature","properties":{"highway":"path","name":null,"category":"Shared path"},"geometry":{"type":"MultiLineString","coordinates":[[[0.1299596,51.4552551],[0.1300787,51.455244],[0.1300902,51.4553226]]]}},
{"type":"Feature","properties":{"highway":"path","name":null,"category":"Shared path"},"geometry":{"type":"MultiLineString","coordinates":[[[0.1308431,51.4558805],[0.1308401,51.4558707],[0.130836,51.4558114],[0.1308132,51.4557186],[0.1308042,51.455686],[0.1307818,51.455597],[0.130765,51.4555297],[0.1304411,51.4555647]]]}},
{"type":"Feature","properties":{"highway":"path","name":null,"category":"Shared path"},"geometry":{"type":"MultiLineString","coordinates":[[[0.1308042,51.455686],[0.1306335,51.4556994]]]}},
{"type":"Feature","properties":{"highway":"path","name":null,"category":"Shared path"},"geometry":{"type":"MultiLineString","coordinates":[[[0.1306456,51.4551503],[0.130659,51.455203],[0.1306805,51.4552531],[0.1307046,51.4553091],[0.1307247,51.455396],[0.1307435,51.455437],[0.130765,51.4555297]]]}},
{"type":"Feature","properties":{"highway":"path","name":null,"category":"Shared path"},"geometry":{"type":"MultiLineString","coordinates":[[[0.1300354,51.4551871],[0.1300797,51.4551654],[0.1301521,51.4551495],[0.1302433,51.4551328],[0.1303895,51.4551136],[0.1305008,51.4551061],[0.1306094,51.4551069],[0.1306952,51.4551253],[0.1307395,51.4551478],[0.1307542,51.455203],[0.1307676,51.4552866],[0.1307985,51.4553793],[0.1308226,51.4554746],[0.1308562,51.455559],[0.1308508,51.455579],[0.1308213,51.4555799],[0.1308025,51.4555958],[0.1307818,51.455597]]]}},
{"type":"Feature","properties":{"highway":"path","name":null,"category":"Shared path"},"geometry":{"type":"MultiLineString","coordinates":[[[0.126408,51.4524383],[0.1264691,51.4525963]]]}},
{"type":"Feature","properties":{"highway":"cycleway","name":null,"category":"Dedicated cycleway"},"geometry":{"type":"MultiLineString","coordinates":[[[0.1232313,51.4554693],[0.1231492,51.4554937],[0.1230581,51.4555268]]]}},
{"type":"Feature","properties":{"highway":"cycleway","name":null,"category":"Dedicated cycleway"},"geometry":{"type":"MultiLineString","coordinates":[[[0.1230438,51.4555901],[0.1231116,51.4556254]]]}},
{"type":"Feature","properties":{"highway":"cycleway","name":null,"category":"Dedicated cycleway"},"geometry":{"type":"MultiLineString","coordinates":[[[0.1230133,51.4555796],[0.123033,51.4555864],[0.1230438,51.4555901]]]}},
{"type":"Feature","properties":{"highway":"cycleway","name":null,"category":"Dedicated cycleway"},"geometry":{"type":"MultiLineString","coordinates":[[[0.1230581,51.4555268],[0.1230214,51.4555461],[0.1230133,51.4555796]]]}},
{"type":"Feature","properties":{"highway":"cycleway","name":null,"category":"Dedicated cycleway"},"geometry":{"type":"MultiLineString","coordinates":[[[0.1230133,51.4555796],[0.1229726,51.455582]]]}},
{"type":"Feature","properties":{"highway":"path","name":null,"category":"Shared path"},"geometry":{"type":"MultiLineString","coordinates":[[[0.120043,51.45631],[0.1203724,51.4562833],[0.1206449,51.4561803],[0.12077,51.4561943],[0.1211408,51.4561024],[0.1213686,51.4560078],[0.1215741,51.4559883],[0.1217484,51.4559326],[0.122271,51.4556236],[0.1222849,51.4555269]]]}},
{"type":"Feature","properties":{"highway":"cycleway","name":null,"category":"Dedicated cycleway"},"geometry":{"type":"MultiLineString","coordinates":[[[0.1412671,51.4558992],[0.1412436,51.4559018],[0.1411345,51.4558687]]]}}
]
}
