{
"type": "FeatureCollection",
"name": "KINU5_33",
"crs": { "type": "name", "properties": { "name": "urn:ogc:def:crs:OGC:1.3:CRS84" } },
"features": [
{ "type": "Feature", "properties": { "osm_id": 4972221423, "name": null, "amenity": "bench", "man_made": null, "leisure": null, "playground": null, "memorial": null }, "geometry": { "type": "Point", "coordinates": [ -0.2866517, 51.4214852 ] } },
{ "type": "Feature", "properties": { "osm_id": 5339048803, "name": null, "amenity": "bench", "man_made": null, "leisure": null, "playground": null, "memorial": null }, "geometry": { "type": "Point", "coordinates": [ -0.284084, 51.4226376 ] } },
{ "type": "Feature", "properties": { "osm_id": 2320536111, "name": null, "amenity": "bench", "man_made": null, "leisure": null, "playground": null, "memorial": null }, "geometry": { "type": "Point", "coordinates": [ -0.2862493, 51.4281977 ] } },
{ "type": "Feature", "properties": { "osm_id": 2320536114, "name": null, "amenity": "bench", "man_made": null, "leisure": null, "playground": null, "memorial": null }, "geometry": { "type": "Point", "coordinates": [ -0.2864224, 51.4285247 ] } },
{ "type": "Feature", "properties": { "osm_id": 13515564096, "name": null, "amenity": "bench", "man_made": null, "leisure": null, "playground": null, "memorial": null }, "geometry": { "type": "Point", "coordinates": [ -0.2742422, 51.4321725 ] } },
{ "type": "Feature", "properties": { "osm_id": 9108165494, "name": null, "amenity": "bench", "man_made": null, "leisure": null, "playground": null, "memorial": null }, "geometry": { "type": "Point", "coordinates": [ -0.2734144, 51.4321801 ] } },
{ "type": "Feature", "properties": { "osm_id": 9108165477, "name": null, "amenity": "bench", "man_made": null, "leisure": null, "playground": null, "memorial": null }, "geometry": { "type": "Point", "coordinates": [ -0.2672007, 51.4322793 ] } },
{ "type": "Feature", "properties": { "osm_id": 12731368020, "name": null, "amenity": "bench", "man_made": null, "leisure": null, "playground": null, "memorial": null }, "geometry": { "type": "Point", "coordinates": [ -0.27593, 51.4313277 ] } },
{ "type": "Feature", "properties": { "osm_id": 13515570110, "name": null, "amenity": "bench", "man_made": null, "leisure": null, "playground": null, "memorial": null }, "geometry": { "type": "Point", "coordinates": [ -0.2763511, 51.4314191 ] } },
{ "type": "Feature", "properties": { "osm_id": 12570989101, "name": null, "amenity": "bench", "man_made": null, "leisure": null, "playground": null, "memorial": null }, "geometry": { "type": "Point", "coordinates": [ -0.2771175, 51.4315699 ] } },
{ "type": "Feature", "properties": { "osm_id": 13515564097, "name": null, "amenity": "bench", "man_made": null, "leisure": null, "playground": null, "memorial": null }, "geometry": { "type": "Point", "coordinates": [ -0.2753901, 51.4331249 ] } },
{ "type": "Feature", "properties": { "osm_id": 13515570104, "name": null, "amenity": "bench", "man_made": null, "leisure": null, "playground": null, "memorial": null }, "geometry": { "type": "Point", "coordinates": [ -0.2790228, 51.4334267 ] } },
{ "type": "Feature", "properties": { "osm_id": 13515564098, "name": null, "amenity": "bench", "man_made": null, "leisure": null, "playground": null, "memorial": null }, "geometry": { "type": "Point", "coordinates": [ -0.2767319, 51.4334661 ] } },
{ "type": "Feature", "properties": { "osm_id": 13515564099, "name": null, "amenity": "bench", "man_made": null, "leisure": null, "playground": null, "memorial": null }, "geometry": { "type": "Point", "coordinates": [ -0.2770285, 51.4335032 ] } },
{ "type": "Feature", "properties": { "osm_id": 9926301442, "name": null, "amenity": "bench", "man_made": null, "leisure": null, "playground": null, "memorial": null }, "geometry": { "type": "Point", "coordinates": [ -0.2758867, 51.4335578 ] } },
{ "type": "Feature", "properties": { "osm_id": 13515564100, "name": null, "amenity": "bench", "man_made": null, "leisure": null, "playground": null, "memorial": null }, "geometry": { "type": "Point", "coordinates": [ -0.2771324, 51.4336046 ] } },
{ "type": "Feature", "properties": { "osm_id": 9926301440, "name": null, "amenity": "bench", "man_made": null, "leisure": null, "playground": null, "memorial": null }, "geometry": { "type": "Point", "coordinates": [ -0.277091, 51.4337685 ] } },
{ "type": "Feature", "properties": { "osm_id": 9926301438, "name": null, "amenity": "bench", "man_made": null, "leisure": null, "playground": null, "memorial": null }, "geometry": { "type": "Point", "coordinates": [ -0.2797621, 51.4337733 ] } },
{ "type": "Feature", "properties": { "osm_id": 13515570101, "name": null, "amenity": "bench", "man_made": null, "leisure": null, "playground": null, "memorial": null }, "geometry": { "type": "Point", "coordinates": [ -0.2770103, 51.4337869 ] } },
{ "type": "Feature", "properties": { "osm_id": 9926301441, "name": null, "amenity": "bench", "man_made": null, "leisure": null, "playground": null, "memorial": null }, "geometry": { "type": "Point", "coordinates": [ -0.2757338, 51.4337952 ] } },
{ "type": "Feature", "properties": { "osm_id": 9926301439, "name": null, "amenity": "bench", "man_made": null, "leisure": null, "playground": null, "memorial": null }, "geometry": { "type": "Point", "coordinates": [ -0.2782416, 51.433837 ] } },
{ "type": "Feature", "properties": { "osm_id": 9926320869, "name": null, "amenity": "bench", "man_made": null, "leisure": null, "playground": null, "memorial": null }, "geometry": { "type": "Point", "coordinates": [ -0.2808581, 51.433911 ] } },
{ "type": "Feature", "properties": { "osm_id": 9926320870, "name": null, "amenity": "bench", "man_made": null, "leisure": null, "playground": null, "memorial": null }, "geometry": { "type": "Point", "coordinates": [ -0.281001, 51.4339248 ] } },
{ "type": "Feature", "properties": { "osm_id": 13515570108, "name": null, "amenity": "bench", "man_made": null, "leisure": null, "playground": null, "memorial": null }, "geometry": { "type": "Point", "coordinates": [ -0.2793657, 51.4339543 ] } },
{ "type": "Feature", "properties": { "osm_id": 13515570102, "name": null, "amenity": "bench", "man_made": null, "leisure": null, "playground": null, "memorial": null }, "geometry": { "type": "Point", "coordinates": [ -0.2783824, 51.4339918 ] } },
{ "type": "Feature", "properties": { "osm_id": 9926320867, "name": null, "amenity": "bench", "man_made": null, "leisure": null, "playground": null, "memorial": null }, "geometry": { "type": "Point", "coordinates": [ -0.2812511, 51.4340527 ] } },
{ "type": "Feature", "properties": { "osm_id": 13515570109, "name": null, "amenity": "bench", "man_made": null, "leisure": null, "playground": null, "memorial": null }, "geometry": { "type": "Point", "coordinates": [ -0.2790558, 51.4340732 ] } },
{ "type": "Feature", "properties": { "osm_id": 3416263167, "name": null, "amenity": "bench", "man_made": null, "leisure": null, "playground": null, "memorial": null }, "geometry": { "type": "Point", "coordinates": [ -0.273175, 51.4323254 ] } },
{ "type": "Feature", "properties": { "osm_id": 9108165493, "name": null, "amenity": "bench", "man_made": null, "leisure": null, "playground": null, "memorial": null }, "geometry": { "type": "Point", "coordinates": [ -0.2725208, 51.4323563 ] } },
{ "type": "Feature", "properties": { "osm_id": 9108165492, "name": null, "amenity": "bench", "man_made": null, "leisure": null, "playground": null, "memorial": null }, "geometry": { "type": "Point", "coordinates": [ -0.2714325, 51.4324921 ] } },
{ "type": "Feature", "properties": { "osm_id": 9108165491, "name": null, "amenity": "bench", "man_made": null, "leisure": null, "playground": null, "memorial": null }, "geometry": { "type": "Point", "coordinates": [ -0.2706147, 51.4325077 ] } },
{ "type": "Feature", "properties": { "osm_id": 12731369050, "name": null, "amenity": "bench", "man_made": null, "leisure": null, "playground": null, "memorial": null }, "geometry": { "type": "Point", "coordinates": [ -0.259394, 51.4357639 ] } },
{ "type": "Feature", "properties": { "osm_id": 12731346024, "name": null, "amenity": "bench", "man_made": null, "leisure": null, "playground": null, "memorial": null }, "geometry": { "type": "Point", "coordinates": [ -0.2566801, 51.436226 ] } },
{ "type": "Feature", "properties": { "osm_id": 13515570103, "name": null, "amenity": "bench", "man_made": null, "leisure": null, "playground": null, "memorial": null }, "geometry": { "type": "Point", "coordinates": [ -0.2782927, 51.4341501 ] } },
{ "type": "Feature", "properties": { "osm_id": 13515570107, "name": null, "amenity": "bench", "man_made": null, "leisure": null, "playground": null, "memorial": null }, "geometry": { "type": "Point", "coordinates": [ -0.2803776, 51.4341623 ] } },
{ "type": "Feature", "properties": { "osm_id": 3688620054, "name": null, "amenity": "bench", "man_made": null, "leisure": null, "playground": null, "memorial": null }, "geometry": { "type": "Point", "coordinates": [ -0.2811589, 51.4342294 ] } },
{ "type": "Feature", "properties": { "osm_id": 13515570106, "name": null, "amenity": "bench", "man_made": null, "leisure": null, "playground": null, "memorial": null }, "geometry": { "type": "Point", "coordinates": [ -0.2803491, 51.4342376 ] } },
{ "type": "Feature", "properties": { "osm_id": 13515570105, "name": null, "amenity": "bench", "man_made": null, "leisure": null, "playground": null, "memorial": null }, "geometry": { "type": "Point", "coordinates": [ -0.2803574, 51.4343951 ] } },
{ "type": "Feature", "properties": { "osm_id": 12731326699, "name": null, "amenity": "bench", "man_made": null, "leisure": null, "playground": null, "memorial": null }, "geometry": { "type": "Point", "coordinates": [ -0.2777455, 51.4358436 ] } },
{ "type": "Feature", "properties": { "osm_id": 2823639604, "name": null, "amenity": "bench", "man_made": null, "leisure": null, "playground": null, "memorial": null }, "geometry": { "type": "Point", "coordinates": [ -0.2780846, 51.437539 ] } },
{ "type": "Feature", "properties": { "osm_id": 13936447001, "name": null, "amenity": "bench", "man_made": null, "leisure": null, "playground": null, "memorial": null }, "geometry": { "type": "Point", "coordinates": [ -0.2881914, 51.4390476 ] } },
{ "type": "Feature", "properties": { "osm_id": 3416271110, "name": null, "amenity": "bench", "man_made": null, "leisure": null, "playground": null, "memorial": null }, "geometry": { "type": "Point", "coordinates": [ -0.2883396, 51.4394596 ] } },
{ "type": "Feature", "properties": { "osm_id": 13761405173, "name": null, "amenity": "bench", "man_made": null, "leisure": null, "playground": null, "memorial": null }, "geometry": { "type": "Point", "coordinates": [ -0.2941323, 51.4406662 ] } },
{ "type": "Feature", "properties": { "osm_id": 11518843334, "name": null, "amenity": "bench", "man_made": null, "leisure": null, "playground": null, "memorial": null }, "geometry": { "type": "Point", "coordinates": [ -0.2684981, 51.4394628 ] } },
{ "type": "Feature", "properties": { "osm_id": 11518843332, "name": null, "amenity": "bench", "man_made": null, "leisure": null, "playground": null, "memorial": null }, "geometry": { "type": "Point", "coordinates": [ -0.2683927, 51.4394885 ] } },
{ "type": "Feature", "properties": { "osm_id": 11518843333, "name": null, "amenity": "bench", "man_made": null, "leisure": null, "playground": null, "memorial": null }, "geometry": { "type": "Point", "coordinates": [ -0.2685285, 51.4394986 ] } },
{ "type": "Feature", "properties": { "osm_id": 11518843331, "name": null, "amenity": "bench", "man_made": null, "leisure": null, "playground": null, "memorial": null }, "geometry": { "type": "Point", "coordinates": [ -0.2684234, 51.439528 ] } },
{ "type": "Feature", "properties": { "osm_id": 11518843329, "name": null, "amenity": "bench", "man_made": null, "leisure": null, "playground": null, "memorial": null }, "geometry": { "type": "Point", "coordinates": [ -0.2685224, 51.4395456 ] } },
{ "type": "Feature", "properties": { "osm_id": 11518843330, "name": null, "amenity": "bench", "man_made": null, "leisure": null, "playground": null, "memorial": null }, "geometry": { "type": "Point", "coordinates": [ -0.2684539, 51.4395661 ] } },
{ "type": "Feature", "properties": { "osm_id": 9269926198, "name": null, "amenity": "bench", "man_made": null, "leisure": null, "playground": null, "memorial": null }, "geometry": { "type": "Point", "coordinates": [ -0.2617868, 51.4404877 ] } },
{ "type": "Feature", "properties": { "osm_id": 2807450427, "name": null, "amenity": "bench", "man_made": null, "leisure": null, "playground": null, "memorial": null }, "geometry": { "type": "Point", "coordinates": [ -0.2701576, 51.4411917 ] } },
{ "type": "Feature", "properties": { "osm_id": 12987932920, "name": null, "amenity": "bench", "man_made": null, "leisure": null, "playground": null, "memorial": null }, "geometry": { "type": "Point", "coordinates": [ -0.2678888, 51.4412084 ] } },
{ "type": "Feature", "properties": { "osm_id": 2823639602, "name": null, "amenity": "bench", "man_made": null, "leisure": null, "playground": null, "memorial": null }, "geometry": { "type": "Point", "coordinates": [ -0.2746031, 51.4412398 ] } },
{ "type": "Feature", "properties": { "osm_id": 13761405172, "name": null, "amenity": "bench", "man_made": null, "leisure": null, "playground": null, "memorial": null }, "geometry": { "type": "Point", "coordinates": [ -0.2929469, 51.4406805 ] } },
{ "type": "Feature", "properties": { "osm_id": 13761405169, "name": null, "amenity": "bench", "man_made": null, "leisure": null, "playground": null, "memorial": null }, "geometry": { "type": "Point", "coordinates": [ -0.2930131, 51.4407959 ] } },
{ "type": "Feature", "properties": { "osm_id": 9652125217, "name": null, "amenity": "bench", "man_made": null, "leisure": null, "playground": null, "memorial": null }, "geometry": { "type": "Point", "coordinates": [ -0.2948549, 51.4412487 ] } },
{ "type": "Feature", "properties": { "osm_id": 13761405174, "name": null, "amenity": "bench", "man_made": null, "leisure": null, "playground": null, "memorial": null }, "geometry": { "type": "Point", "coordinates": [ -0.2836858, 51.4414928 ] } },
{ "type": "Feature", "properties": { "osm_id": 11264936340, "name": null, "amenity": "bench", "man_made": null, "leisure": null, "playground": null, "memorial": null }, "geometry": { "type": "Point", "coordinates": [ -0.2935581, 51.4424636 ] } },
{ "type": "Feature", "properties": { "osm_id": 11264936339, "name": null, "amenity": "bench", "man_made": null, "leisure": null, "playground": null, "memorial": null }, "geometry": { "type": "Point", "coordinates": [ -0.2935089, 51.4424718 ] } },
{ "type": "Feature", "properties": { "osm_id": 11264936338, "name": null, "amenity": "bench", "man_made": null, "leisure": null, "playground": null, "memorial": null }, "geometry": { "type": "Point", "coordinates": [ -0.2934559, 51.4424808 ] } },
{ "type": "Feature", "properties": { "osm_id": 11264604447, "name": null, "amenity": "bench", "man_made": null, "leisure": null, "playground": null, "memorial": null }, "geometry": { "type": "Point", "coordinates": [ -0.2936291, 51.4426427 ] } },
{ "type": "Feature", "properties": { "osm_id": 11264604446, "name": null, "amenity": "bench", "man_made": null, "leisure": null, "playground": null, "memorial": null }, "geometry": { "type": "Point", "coordinates": [ -0.293579, 51.4426485 ] } },
{ "type": "Feature", "properties": { "osm_id": 11264604445, "name": null, "amenity": "bench", "man_made": null, "leisure": null, "playground": null, "memorial": null }, "geometry": { "type": "Point", "coordinates": [ -0.293525, 51.4426548 ] } },
{ "type": "Feature", "properties": { "osm_id": 2823639601, "name": null, "amenity": "bench", "man_made": null, "leisure": null, "playground": null, "memorial": null }, "geometry": { "type": "Point", "coordinates": [ -0.2746855, 51.4417339 ] } },
{ "type": "Feature", "properties": { "osm_id": 13761405171, "name": null, "amenity": "bench", "man_made": null, "leisure": null, "playground": null, "memorial": null }, "geometry": { "type": "Point", "coordinates": [ -0.2718845, 51.4419084 ] } },
{ "type": "Feature", "properties": { "osm_id": 12731394415, "name": null, "amenity": "bench", "man_made": null, "leisure": null, "playground": null, "memorial": null }, "geometry": { "type": "Point", "coordinates": [ -0.2738532, 51.4423505 ] } },
{ "type": "Feature", "properties": { "osm_id": 2823638199, "name": null, "amenity": "bench", "man_made": null, "leisure": null, "playground": null, "memorial": null }, "geometry": { "type": "Point", "coordinates": [ -0.2727531, 51.4423561 ] } },
{ "type": "Feature", "properties": { "osm_id": 2823639611, "name": null, "amenity": "bench", "man_made": null, "leisure": null, "playground": null, "memorial": null }, "geometry": { "type": "Point", "coordinates": [ -0.2736303, 51.4429722 ] } },
{ "type": "Feature", "properties": { "osm_id": 2823639610, "name": null, "amenity": "bench", "man_made": null, "leisure": null, "playground": null, "memorial": null }, "geometry": { "type": "Point", "coordinates": [ -0.2726935, 51.444027 ] } },
{ "type": "Feature", "properties": { "osm_id": 2823639607, "name": null, "amenity": "bench", "man_made": null, "leisure": null, "playground": null, "memorial": null }, "geometry": { "type": "Point", "coordinates": [ -0.2752206, 51.4440967 ] } },
{ "type": "Feature", "properties": { "osm_id": 9269926190, "name": null, "amenity": "bench", "man_made": null, "leisure": null, "playground": null, "memorial": null }, "geometry": { "type": "Point", "coordinates": [ -0.2628018, 51.444457 ] } },
{ "type": "Feature", "properties": { "osm_id": 12987932918, "name": null, "amenity": "bench", "man_made": null, "leisure": null, "playground": null, "memorial": null }, "geometry": { "type": "Point", "coordinates": [ -0.2720205, 51.4446169 ] } },
{ "type": "Feature", "properties": { "osm_id": 2823639608, "name": null, "amenity": "bench", "man_made": null, "leisure": null, "playground": null, "memorial": null }, "geometry": { "type": "Point", "coordinates": [ -0.2743965, 51.4447476 ] } },
{ "type": "Feature", "properties": { "osm_id": 11264604449, "name": null, "amenity": "bench", "man_made": null, "leisure": null, "playground": null, "memorial": null }, "geometry": { "type": "Point", "coordinates": [ -0.2936371, 51.4426694 ] } },
{ "type": "Feature", "properties": { "osm_id": 11264604448, "name": null, "amenity": "bench", "man_made": null, "leisure": null, "playground": null, "memorial": null }, "geometry": { "type": "Point", "coordinates": [ -0.293536, 51.4426789 ] } },
{ "type": "Feature", "properties": { "osm_id": 2823639605, "name": null, "amenity": "bench", "man_made": null, "leisure": null, "playground": null, "memorial": null }, "geometry": { "type": "Point", "coordinates": [ -0.2774731, 51.4430635 ] } },
{ "type": "Feature", "properties": { "osm_id": 2823639606, "name": null, "amenity": "bench", "man_made": null, "leisure": null, "playground": null, "memorial": null }, "geometry": { "type": "Point", "coordinates": [ -0.2757526, 51.4435097 ] } },
{ "type": "Feature", "properties": { "osm_id": 2894233286, "name": null, "amenity": "bench", "man_made": null, "leisure": null, "playground": null, "memorial": null }, "geometry": { "type": "Point", "coordinates": [ -0.2803076, 51.4436331 ] } },
{ "type": "Feature", "properties": { "osm_id": 12987932971, "name": null, "amenity": "bench", "man_made": null, "leisure": null, "playground": null, "memorial": null }, "geometry": { "type": "Point", "coordinates": [ -0.2943939, 51.4438099 ] } },
{ "type": "Feature", "properties": { "osm_id": 12987932969, "name": null, "amenity": "bench", "man_made": null, "leisure": null, "playground": null, "memorial": null }, "geometry": { "type": "Point", "coordinates": [ -0.2943296, 51.4439044 ] } },
{ "type": "Feature", "properties": { "osm_id": 12987932970, "name": null, "amenity": "bench", "man_made": null, "leisure": null, "playground": null, "memorial": null }, "geometry": { "type": "Point", "coordinates": [ -0.294224, 51.4439237 ] } },
{ "type": "Feature", "properties": { "osm_id": 4305980393, "name": null, "amenity": "bench", "man_made": null, "leisure": null, "playground": null, "memorial": null }, "geometry": { "type": "Point", "coordinates": [ -0.2952569, 51.4443011 ] } },
{ "type": "Feature", "properties": { "osm_id": 12731395733, "name": null, "amenity": "bench", "man_made": null, "leisure": null, "playground": null, "memorial": null }, "geometry": { "type": "Point", "coordinates": [ -0.2900406, 51.4446518 ] } },
{ "type": "Feature", "properties": { "osm_id": 4131244558, "name": null, "amenity": "bench", "man_made": null, "leisure": null, "playground": null, "memorial": null }, "geometry": { "type": "Point", "coordinates": [ -0.2834607, 51.4447406 ] } },
{ "type": "Feature", "properties": { "osm_id": 4305980803, "name": null, "amenity": "bench", "man_made": null, "leisure": null, "playground": null, "memorial": null }, "geometry": { "type": "Point", "coordinates": [ -0.2963566, 51.4448073 ] } },
{ "type": "Feature", "properties": { "osm_id": 9705439687, "name": null, "amenity": "bench", "man_made": null, "leisure": null, "playground": null, "memorial": null }, "geometry": { "type": "Point", "coordinates": [ -0.2953198, 51.4448574 ] } },
{ "type": "Feature", "properties": { "osm_id": 12731395732, "name": null, "amenity": "bench", "man_made": null, "leisure": null, "playground": null, "memorial": null }, "geometry": { "type": "Point", "coordinates": [ -0.2947578, 51.4448942 ] } },
{ "type": "Feature", "properties": { "osm_id": 12731399306, "name": null, "amenity": "bench", "man_made": null, "leisure": null, "playground": null, "memorial": null }, "geometry": { "type": "Point", "coordinates": [ -0.2947499, 51.4449094 ] } },
{ "type": "Feature", "properties": { "osm_id": 12731369049, "name": null, "amenity": "bench", "man_made": null, "leisure": null, "playground": null, "memorial": null }, "geometry": { "type": "Point", "coordinates": [ -0.294753, 51.4449538 ] } },
{ "type": "Feature", "properties": { "osm_id": 12731368018, "name": null, "amenity": "bench", "man_made": null, "leisure": null, "playground": null, "memorial": null }, "geometry": { "type": "Point", "coordinates": [ -0.2947608, 51.4449692 ] } },
{ "type": "Feature", "properties": { "osm_id": 4305980392, "name": null, "amenity": "bench", "man_made": null, "leisure": null, "playground": null, "memorial": null }, "geometry": { "type": "Point", "coordinates": [ -0.2972142, 51.4451241 ] } },
{ "type": "Feature", "properties": { "osm_id": 12731359893, "name": null, "amenity": "bench", "man_made": null, "leisure": null, "playground": null, "memorial": null }, "geometry": { "type": "Point", "coordinates": [ -0.2979551, 51.4456304 ] } },
{ "type": "Feature", "properties": { "osm_id": 12731401045, "name": null, "amenity": "bench", "man_made": null, "leisure": null, "playground": null, "memorial": null }, "geometry": { "type": "Point", "coordinates": [ -0.2991483, 51.4457631 ] } },
{ "type": "Feature", "properties": { "osm_id": 12731368017, "name": null, "amenity": null, "man_made": null, "leisure": "picnic_table", "playground": null, "memorial": null }, "geometry": { "type": "Point", "coordinates": [ -0.2998987, 51.4458488 ] } },
{ "type": "Feature", "properties": { "osm_id": 12731395731, "name": null, "amenity": null, "man_made": null, "leisure": "picnic_table", "playground": null, "memorial": null }, "geometry": { "type": "Point", "coordinates": [ -0.2999479, 51.4458581 ] } },
{ "type": "Feature", "properties": { "osm_id": 12468569531, "name": null, "amenity": "bench", "man_made": null, "leisure": null, "playground": null, "memorial": null }, "geometry": { "type": "Point", "coordinates": [ -0.2952039, 51.4464766 ] } },
{ "type": "Feature", "properties": { "osm_id": 9652211517, "name": null, "amenity": "bench", "man_made": null, "leisure": null, "playground": null, "memorial": null }, "geometry": { "type": "Point", "coordinates": [ -0.2830852, 51.4466236 ] } },
{ "type": "Feature", "properties": { "osm_id": 6477955793, "name": null, "amenity": "bench", "man_made": null, "leisure": null, "playground": null, "memorial": null }, "geometry": { "type": "Point", "coordinates": [ -0.2870554, 51.4488052 ] } },
{ "type": "Feature", "properties": { "osm_id": 9789965403, "name": null, "amenity": "bench", "man_made": null, "leisure": null, "playground": null, "memorial": null }, "geometry": { "type": "Point", "coordinates": [ -0.2947886, 51.4500043 ] } },
{ "type": "Feature", "properties": { "osm_id": 12987932919, "name": null, "amenity": "bench", "man_made": null, "leisure": null, "playground": null, "memorial": null }, "geometry": { "type": "Point", "coordinates": [ -0.2751407, 51.444942 ] } },
{ "type": "Feature", "properties": { "osm_id": 2823639609, "name": null, "amenity": "bench", "man_made": null, "leisure": null, "playground": null, "memorial": null }, "geometry": { "type": "Point", "coordinates": [ -0.2732387, 51.4449445 ] } },
{ "type": "Feature", "properties": { "osm_id": 9250698582, "name": null, "amenity": "bench", "man_made": null, "leisure": null, "playground": null, "memorial": null }, "geometry": { "type": "Point", "coordinates": [ -0.2547202, 51.4450163 ] } },
{ "type": "Feature", "properties": { "osm_id": 4916239665, "name": null, "amenity": "bench", "man_made": null, "leisure": null, "playground": null, "memorial": null }, "geometry": { "type": "Point", "coordinates": [ -0.2725511, 51.4478263 ] } },
{ "type": "Feature", "properties": { "osm_id": 9269964657, "name": null, "amenity": "bench", "man_made": null, "leisure": null, "playground": null, "memorial": null }, "geometry": { "type": "Point", "coordinates": [ -0.267413, 51.4496837 ] } },
{ "type": "Feature", "properties": { "osm_id": 8664000289, "name": null, "amenity": "bench", "man_made": null, "leisure": null, "playground": null, "memorial": null }, "geometry": { "type": "Point", "coordinates": [ -0.2696908, 51.4502311 ] } },
{ "type": "Feature", "properties": { "osm_id": 5613336454, "name": null, "amenity": null, "man_made": null, "leisure": "picnic_table", "playground": null, "memorial": null }, "geometry": { "type": "Point", "coordinates": [ -0.2550446, 51.452782 ] } },
{ "type": "Feature", "properties": { "osm_id": 13357545115, "name": null, "amenity": "bench", "man_made": null, "leisure": null, "playground": null, "memorial": null }, "geometry": { "type": "Point", "coordinates": [ -0.2566662, 51.4536783 ] } },
{ "type": "Feature", "properties": { "osm_id": 13357549706, "name": null, "amenity": "bench", "man_made": null, "leisure": null, "playground": null, "memorial": "bench" }, "geometry": { "type": "Point", "coordinates": [ -0.2567336, 51.4537571 ] } },
{ "type": "Feature", "properties": { "osm_id": 9789935401, "name": null, "amenity": "bench", "man_made": null, "leisure": null, "playground": null, "memorial": null }, "geometry": { "type": "Point", "coordinates": [ -0.2864129, 51.4511937 ] } },
{ "type": "Feature", "properties": { "osm_id": 9789953842, "name": null, "amenity": "bench", "man_made": null, "leisure": null, "playground": null, "memorial": null }, "geometry": { "type": "Point", "coordinates": [ -0.2926753, 51.4515311 ] } },
{ "type": "Feature", "properties": { "osm_id": 10937220090, "name": null, "amenity": "bench", "man_made": null, "leisure": null, "playground": null, "memorial": null }, "geometry": { "type": "Point", "coordinates": [ -0.2882403, 51.4523506 ] } },
{ "type": "Feature", "properties": { "osm_id": 10937220091, "name": null, "amenity": "bench", "man_made": null, "leisure": null, "playground": null, "memorial": null }, "geometry": { "type": "Point", "coordinates": [ -0.2869549, 51.4525296 ] } },
{ "type": "Feature", "properties": { "osm_id": 9789986928, "name": null, "amenity": "bench", "man_made": null, "leisure": null, "playground": null, "memorial": null }, "geometry": { "type": "Point", "coordinates": [ -0.2828288, 51.454138 ] } },
{ "type": "Feature", "properties": { "osm_id": 13357549873, "name": null, "amenity": "bench", "man_made": null, "leisure": null, "playground": null, "memorial": null }, "geometry": { "type": "Point", "coordinates": [ -0.2569817, 51.4538558 ] } },
{ "type": "Feature", "properties": { "osm_id": 9269964658, "name": null, "amenity": "bench", "man_made": null, "leisure": null, "playground": null, "memorial": null }, "geometry": { "type": "Point", "coordinates": [ -0.264915, 51.4540682 ] } },
{ "type": "Feature", "properties": { "osm_id": 9269964643, "name": null, "amenity": "bench", "man_made": null, "leisure": null, "playground": null, "memorial": null }, "geometry": { "type": "Point", "coordinates": [ -0.2694801, 51.4540738 ] } },
{ "type": "Feature", "properties": { "osm_id": 9269964693, "name": null, "amenity": "bench", "man_made": null, "leisure": null, "playground": null, "memorial": null }, "geometry": { "type": "Point", "coordinates": [ -0.2652859, 51.4558578 ] } },
{ "type": "Feature", "properties": { "osm_id": 13357564525, "name": null, "amenity": "bench", "man_made": null, "leisure": null, "playground": null, "memorial": null }, "geometry": { "type": "Point", "coordinates": [ -0.2807971, 51.456059 ] } },
{ "type": "Feature", "properties": { "osm_id": 13357587662, "name": null, "amenity": "bench", "man_made": null, "leisure": null, "playground": null, "memorial": null }, "geometry": { "type": "Point", "coordinates": [ -0.2772596, 51.4560988 ] } }
]
}
