{
"type": "FeatureCollection",
"name": "793d6a427829_foliage",
"crs": { "type": "name", "properties": { "name": "urn:ogc:def:crs:OGC:1.3:CRS84" } },
"features": [
{ "type": "Feature", "properties": { "max_height": 3.0219993591308594, "mean_height": 0.45994222164154053, "std_height": 0.68258839845657349, "count_pixels": 42, "percent_cover": 0.5223880597014926, "percent_above_0.1m": 61.904761904761905, "low_level_<0.5": 30.952380952380953, "mid_level_0.5-2": 21.428571428571427, "tall_2+": 4.7619047619047619 }, "geometry": { "type": "Point", "coordinates": [ -0.259076936875894, 51.545017164496137 ] } },
{ "type": "Feature", "properties": { "max_height": 0.5155029296875, "mean_height": 0.016038661822676659, "std_height": 0.080151528120040894, "count_pixels": 41, "percent_cover": 0.50995024875621886, "percent_above_0.1m": 2.4390243902439024, "low_level_<0.5": 0.0, "mid_level_0.5-2": 2.4390243902439024, "tall_2+": 0.0 }, "geometry": { "type": "Point", "coordinates": [ -0.258877209456429, 51.545014202727678 ] } },
{ "type": "Feature", "properties": { "max_height": 2.4752540588378906, "mean_height": 0.49780049920082092, "std_height": 0.67342680692672729, "count_pixels": 41, "percent_cover": 0.50995024875621886, "percent_above_0.1m": 51.219512195121951, "low_level_<0.5": 17.073170731707318, "mid_level_0.5-2": 26.829268292682929, "tall_2+": 4.8780487804878048 }, "geometry": { "type": "Point", "coordinates": [ -0.259172681822989, 51.545126494567896 ] } },
{ "type": "Feature", "properties": { "max_height": 1.5205039978027344, "mean_height": 0.20821043848991394, "std_height": 0.36972475051879883, "count_pixels": 42, "percent_cover": 0.5223880597014926, "percent_above_0.1m": 33.333333333333329, "low_level_<0.5": 11.904761904761903, "mid_level_0.5-2": 16.666666666666664, "tall_2+": 0.0 }, "geometry": { "type": "Point", "coordinates": [ -0.258972953904737, 51.545123532964816 ] } },
{ "type": "Feature", "properties": { "max_height": 1.3867530822753906, "mean_height": 0.084088526666164398, "std_height": 0.25704497098922729, "count_pixels": 43, "percent_cover": 0.53482587064676623, "percent_above_0.1m": 13.953488372093023, "low_level_<0.5": 6.9767441860465116, "mid_level_0.5-2": 4.6511627906976747, "tall_2+": 0.0 }, "geometry": { "type": "Point", "coordinates": [ -0.258773226021196, 51.545120571021492 ] } },
{ "type": "Feature", "properties": { "max_height": 2.6517524719238281, "mean_height": 0.62315070629119873, "std_height": 0.71536475419998169, "count_pixels": 42, "percent_cover": 0.5223880597014926, "percent_above_0.1m": 64.285714285714292, "low_level_<0.5": 19.047619047619047, "mid_level_0.5-2": 38.095238095238095, "tall_2+": 4.7619047619047619 }, "geometry": { "type": "Point", "coordinates": [ -0.259068698817106, 51.545232863119693 ] } },
{ "type": "Feature", "properties": { "max_height": 0.0982513427734375, "mean_height": 0.0090994490310549736, "std_height": 0.023923283442854881, "count_pixels": 41, "percent_cover": 0.50995024875621886, "percent_above_0.1m": 0.0, "low_level_<0.5": 0.0, "mid_level_0.5-2": 0.0, "tall_2+": 0.0 }, "geometry": { "type": "Point", "coordinates": [ -0.258868970434771, 51.545229901341749 ] } },
{ "type": "Feature", "properties": { "max_height": 0.29050064086914062, "mean_height": 0.028019417077302933, "std_height": 0.051113847643136978, "count_pixels": 41, "percent_cover": 0.50995024875621886, "percent_above_0.1m": 7.3170731707317067, "low_level_<0.5": 2.4390243902439024, "mid_level_0.5-2": 0.0, "tall_2+": 0.0 }, "geometry": { "type": "Point", "coordinates": [ -0.258669242087159, 51.545226939223589 ] } },
{ "type": "Feature", "properties": { "max_height": 1.3910026550292969, "mean_height": 0.11215092241764069, "std_height": 0.26194348931312561, "count_pixels": 42, "percent_cover": 0.5223880597014926, "percent_above_0.1m": 21.428571428571427, "low_level_<0.5": 9.5238095238095237, "mid_level_0.5-2": 7.1428571428571423, "tall_2+": 0.0 }, "geometry": { "type": "Point", "coordinates": [ -0.258469513774279, 51.545223976765193 ] } },
{ "type": "Feature", "properties": { "max_height": 3.4097518920898438, "mean_height": 0.6699712872505188, "std_height": 0.90490901470184326, "count_pixels": 41, "percent_cover": 0.50995024875621886, "percent_above_0.1m": 60.975609756097562, "low_level_<0.5": 21.951219512195124, "mid_level_0.5-2": 21.951219512195124, "tall_2+": 12.195121951219512 }, "geometry": { "type": "Point", "coordinates": [ -0.25916444419355, 51.545342193192305 ] } },
{ "type": "Feature", "properties": { "max_height": 1.4992523193359375, "mean_height": 0.15529333055019379, "std_height": 0.34047359228134155, "count_pixels": 42, "percent_cover": 0.5223880597014926, "percent_above_0.1m": 26.190476190476193, "low_level_<0.5": 16.666666666666664, "mid_level_0.5-2": 9.5238095238095237, "tall_2+": 0.0 }, "geometry": { "type": "Point", "coordinates": [ -0.258964715312418, 51.545339231579746 ] } },
{ "type": "Feature", "properties": { "max_height": 0.01525115966796875, "mean_height": 0.00016962095105554909, "std_height": 0.0060930028557777405, "count_pixels": 43, "percent_cover": 0.53482587064676623, "percent_above_0.1m": 0.0, "low_level_<0.5": 0.0, "mid_level_0.5-2": 0.0, "tall_2+": 0.0 }, "geometry": { "type": "Point", "coordinates": [ -0.258764986466001, 51.545336269626944 ] } },
{ "type": "Feature", "properties": { "max_height": 1.68475341796875, "mean_height": 0.10609108954668045, "std_height": 0.28830549120903015, "count_pixels": 42, "percent_cover": 0.5223880597014926, "percent_above_0.1m": 14.285714285714285, "low_level_<0.5": 4.7619047619047619, "mid_level_0.5-2": 7.1428571428571423, "tall_2+": 0.0 }, "geometry": { "type": "Point", "coordinates": [ -0.258565257654315, 51.545333307333927 ] } },
{ "type": "Feature", "properties": { "max_height": 0.14474868774414062, "mean_height": 0.0092314667999744415, "std_height": 0.023438366129994392, "count_pixels": 38, "percent_cover": 0.47263681592039797, "percent_above_0.1m": 2.6315789473684208, "low_level_<0.5": 0.0, "mid_level_0.5-2": 0.0, "tall_2+": 0.0 }, "geometry": { "type": "Point", "coordinates": [ -0.258365528877362, 51.545330344700666 ] } },
{ "type": "Feature", "properties": { "max_height": 10.948501586914062, "mean_height": 2.2735977172851562, "std_height": 2.3133053779602051, "count_pixels": 42, "percent_cover": 0.5223880597014926, "percent_above_0.1m": 90.476190476190482, "low_level_<0.5": 4.7619047619047619, "mid_level_0.5-2": 40.476190476190474, "tall_2+": 42.857142857142854 }, "geometry": { "type": "Point", "coordinates": [ -0.259060460654137, 51.545448561735469 ] } },
{ "type": "Feature", "properties": { "max_height": 0.013004302978515625, "mean_height": 0.0011298017343506217, "std_height": 0.0038803431671112776, "count_pixels": 41, "percent_cover": 0.50995024875621886, "percent_above_0.1m": 0.0, "low_level_<0.5": 0.0, "mid_level_0.5-2": 0.0, "tall_2+": 0.0 }, "geometry": { "type": "Point", "coordinates": [ -0.25886073130892, 51.545445599948046 ] } },
{ "type": "Feature", "properties": { "max_height": 0.43575286865234375, "mean_height": 0.012697266414761543, "std_height": 0.067346245050430298, "count_pixels": 41, "percent_cover": 0.50995024875621886, "percent_above_0.1m": 2.4390243902439024, "low_level_<0.5": 2.4390243902439024, "mid_level_0.5-2": 0.0, "tall_2+": 0.0 }, "geometry": { "type": "Point", "coordinates": [ -0.258661001998422, 51.545442637820408 ] } },
{ "type": "Feature", "properties": { "max_height": 1.8822517395019531, "mean_height": 0.41653150320053101, "std_height": 0.55362606048583984, "count_pixels": 42, "percent_cover": 0.5223880597014926, "percent_above_0.1m": 52.380952380952387, "low_level_<0.5": 19.047619047619047, "mid_level_0.5-2": 30.952380952380953, "tall_2+": 0.0 }, "geometry": { "type": "Point", "coordinates": [ -0.258461272722659, 51.545439675352519 ] } },
{ "type": "Feature", "properties": { "max_height": 6.79925537109375, "mean_height": 1.489782452583313, "std_height": 1.5617455244064331, "count_pixels": 41, "percent_cover": 0.50995024875621886, "percent_above_0.1m": 70.731707317073173, "low_level_<0.5": 12.195121951219512, "mid_level_0.5-2": 24.390243902439025, "tall_2+": 31.707317073170731 }, "geometry": { "type": "Point", "coordinates": [ -0.259156206459945, 51.545557891808933 ] } },
{ "type": "Feature", "properties": { "max_height": 3.1472511291503906, "mean_height": 0.51041239500045776, "std_height": 0.92668938636779785, "count_pixels": 42, "percent_cover": 0.5223880597014926, "percent_above_0.1m": 35.714285714285715, "low_level_<0.5": 2.3809523809523809, "mid_level_0.5-2": 19.047619047619047, "tall_2+": 9.5238095238095237 }, "geometry": { "type": "Point", "coordinates": [ -0.258956476615915, 51.545554930186888 ] } },
{ "type": "Feature", "properties": { "max_height": 0.008251190185546875, "mean_height": -0.00019011386029887944, "std_height": 0.0036578772123903036, "count_pixels": 43, "percent_cover": 0.53482587064676623, "percent_above_0.1m": 0.0, "low_level_<0.5": 0.0, "mid_level_0.5-2": 0.0, "tall_2+": 0.0 }, "geometry": { "type": "Point", "coordinates": [ -0.258756746806609, 51.545551968224601 ] } },
{ "type": "Feature", "properties": { "max_height": 0.23575210571289062, "mean_height": 0.023566745221614838, "std_height": 0.047509513795375824, "count_pixels": 42, "percent_cover": 0.5223880597014926, "percent_above_0.1m": 9.5238095238095237, "low_level_<0.5": 2.3809523809523809, "mid_level_0.5-2": 0.0, "tall_2+": 0.0 }, "geometry": { "type": "Point", "coordinates": [ -0.258557017032032, 51.545549005922084 ] } },
{ "type": "Feature", "properties": { "max_height": 2.3335037231445312, "mean_height": 0.23928502202033997, "std_height": 0.49871227145195007, "count_pixels": 38, "percent_cover": 0.47263681592039797, "percent_above_0.1m": 23.684210526315788, "low_level_<0.5": 5.2631578947368416, "mid_level_0.5-2": 15.789473684210526, "tall_2+": 2.6315789473684208 }, "geometry": { "type": "Point", "coordinates": [ -0.258357287292186, 51.545546043279337 ] } },
{ "type": "Feature", "properties": { "max_height": 2.9042510986328125, "mean_height": 1.0883885622024536, "std_height": 0.84547752141952515, "count_pixels": 42, "percent_cover": 0.5223880597014926, "percent_above_0.1m": 78.571428571428569, "low_level_<0.5": 9.5238095238095237, "mid_level_0.5-2": 52.380952380952387, "tall_2+": 16.666666666666664 }, "geometry": { "type": "Point", "coordinates": [ -0.259052222386992, 51.545664260343457 ] } },
{ "type": "Feature", "properties": { "max_height": 0.007251739501953125, "mean_height": -5.3219679102767259e-05, "std_height": 0.0024510957300662994, "count_pixels": 41, "percent_cover": 0.50995024875621886, "percent_above_0.1m": 0.0, "low_level_<0.5": 0.0, "mid_level_0.5-2": 0.0, "tall_2+": 0.0 }, "geometry": { "type": "Point", "coordinates": [ -0.258852492078876, 51.545661298546548 ] } },
{ "type": "Feature", "properties": { "max_height": 0.003753662109375, "mean_height": -0.001968104625120759, "std_height": 0.0041162525303661823, "count_pixels": 41, "percent_cover": 0.50995024875621886, "percent_above_0.1m": 0.0, "low_level_<0.5": 0.0, "mid_level_0.5-2": 0.0, "tall_2+": 0.0 }, "geometry": { "type": "Point", "coordinates": [ -0.258652761805484, 51.545658336409417 ] } },
{ "type": "Feature", "properties": { "max_height": 0.02700042724609375, "mean_height": 0.001674470491707325, "std_height": 0.0054216161370277405, "count_pixels": 42, "percent_cover": 0.5223880597014926, "percent_above_0.1m": 0.0, "low_level_<0.5": 0.0, "mid_level_0.5-2": 0.0, "tall_2+": 0.0 }, "geometry": { "type": "Point", "coordinates": [ -0.258453031566824, 51.545655373932036 ] } },
{ "type": "Feature", "properties": { "max_height": 1.4757537841796875, "mean_height": 0.16066214442253113, "std_height": 0.38144409656524658, "count_pixels": 42, "percent_cover": 0.5223880597014926, "percent_above_0.1m": 19.047619047619047, "low_level_<0.5": 2.3809523809523809, "mid_level_0.5-2": 14.285714285714285, "tall_2+": 0.0 }, "geometry": { "type": "Point", "coordinates": [ -0.258253301362894, 51.545652411114439 ] } },
{ "type": "Feature", "properties": { "max_height": 3.0880012512207031, "mean_height": 1.0969893932342529, "std_height": 1.0851695537567139, "count_pixels": 41, "percent_cover": 0.50995024875621886, "percent_above_0.1m": 63.414634146341463, "low_level_<0.5": 2.4390243902439024, "mid_level_0.5-2": 29.268292682926827, "tall_2+": 31.707317073170731 }, "geometry": { "type": "Point", "coordinates": [ -0.259147968622159, 51.54577359041776 ] } },
{ "type": "Feature", "properties": { "max_height": 2.1962509155273438, "mean_height": 0.27471631765365601, "std_height": 0.55307996273040771, "count_pixels": 42, "percent_cover": 0.5223880597014926, "percent_above_0.1m": 26.190476190476193, "low_level_<0.5": 7.1428571428571423, "mid_level_0.5-2": 16.666666666666664, "tall_2+": 2.3809523809523809 }, "geometry": { "type": "Point", "coordinates": [ -0.258948237815228, 51.545770628786237 ] } },
{ "type": "Feature", "properties": { "max_height": 0.001251220703125, "mean_height": -0.00051560514839366078, "std_height": 0.0018457070691511035, "count_pixels": 43, "percent_cover": 0.53482587064676623, "percent_above_0.1m": 0.0, "low_level_<0.5": 0.0, "mid_level_0.5-2": 0.0, "tall_2+": 0.0 }, "geometry": { "type": "Point", "coordinates": [ -0.258748507043021, 51.545767666814477 ] } },
{ "type": "Feature", "properties": { "max_height": 0.00275421142578125, "mean_height": -0.0011352357687428594, "std_height": 0.0023827110417187214, "count_pixels": 42, "percent_cover": 0.5223880597014926, "percent_above_0.1m": 0.0, "low_level_<0.5": 0.0, "mid_level_0.5-2": 0.0, "tall_2+": 0.0 }, "geometry": { "type": "Point", "coordinates": [ -0.258548776305538, 51.54576470450246 ] } },
{ "type": "Feature", "properties": { "max_height": 0.8977508544921875, "mean_height": 0.052929025143384933, "std_height": 0.17903716862201691, "count_pixels": 38, "percent_cover": 0.47263681592039797, "percent_above_0.1m": 10.526315789473683, "low_level_<0.5": 5.2631578947368416, "mid_level_0.5-2": 5.2631578947368416, "tall_2+": 0.0 }, "geometry": { "type": "Point", "coordinates": [ -0.258349045602792, 51.545761741850235 ] } },
{ "type": "Feature", "properties": { "max_height": 1.6937522888183594, "mean_height": 0.11359696090221405, "std_height": 0.33644917607307434, "count_pixels": 42, "percent_cover": 0.5223880597014926, "percent_above_0.1m": 14.285714285714285, "low_level_<0.5": 2.3809523809523809, "mid_level_0.5-2": 9.5238095238095237, "tall_2+": 0.0 }, "geometry": { "type": "Point", "coordinates": [ -0.258149314934783, 51.545758778857767 ] } },
{ "type": "Feature", "properties": { "max_height": 10.414249420166016, "mean_height": 3.1159894466400146, "std_height": 3.7295858860015869, "count_pixels": 43, "percent_cover": 0.53482587064676623, "percent_above_0.1m": 62.790697674418603, "low_level_<0.5": 4.6511627906976747, "mid_level_0.5-2": 16.279069767441861, "tall_2+": 39.534883720930232 }, "geometry": { "type": "Point", "coordinates": [ -0.259243715321417, 51.545882920409817 ] } },
{ "type": "Feature", "properties": { "max_height": 3.6910018920898438, "mean_height": 1.6062636375427246, "std_height": 1.283538818359375, "count_pixels": 42, "percent_cover": 0.5223880597014926, "percent_above_0.1m": 71.428571428571431, "low_level_<0.5": 4.7619047619047619, "mid_level_0.5-2": 21.428571428571427, "tall_2+": 45.238095238095241 }, "geometry": { "type": "Point", "coordinates": [ -0.259043984015665, 51.545879958943658 ] } },
{ "type": "Feature", "properties": { "max_height": 0.000751495361328125, "mean_height": -0.00023576690000481904, "std_height": 0.00059985002735629678, "count_pixels": 41, "percent_cover": 0.50995024875621886, "percent_above_0.1m": 0.0, "low_level_<0.5": 0.0, "mid_level_0.5-2": 0.0, "tall_2+": 0.0 }, "geometry": { "type": "Point", "coordinates": [ -0.258844252744645, 51.545876997137263 ] } },
{ "type": "Feature", "properties": { "max_height": 0.005001068115234375, "mean_height": -0.0010410401737317443, "std_height": 0.0029409201815724373, "count_pixels": 41, "percent_cover": 0.50995024875621886, "percent_above_0.1m": 0.0, "low_level_<0.5": 0.0, "mid_level_0.5-2": 0.0, "tall_2+": 0.0 }, "geometry": { "type": "Point", "coordinates": [ -0.25864452150834, 51.545874034990632 ] } },
{ "type": "Feature", "properties": { "max_height": 0.000751495361328125, "mean_height": -0.00059972488088533282, "std_height": 0.0015572255942970514, "count_pixels": 42, "percent_cover": 0.5223880597014926, "percent_above_0.1m": 0.0, "low_level_<0.5": 0.0, "mid_level_0.5-2": 0.0, "tall_2+": 0.0 }, "geometry": { "type": "Point", "coordinates": [ -0.258444790306772, 51.545871072503765 ] } },
{ "type": "Feature", "properties": { "max_height": 1.5655021667480469, "mean_height": 0.13260313868522644, "std_height": 0.3540683388710022, "count_pixels": 42, "percent_cover": 0.5223880597014926, "percent_above_0.1m": 16.666666666666664, "low_level_<0.5": 9.5238095238095237, "mid_level_0.5-2": 7.1428571428571423, "tall_2+": 0.0 }, "geometry": { "type": "Point", "coordinates": [ -0.258245059139933, 51.545868109676675 ] } },
{ "type": "Feature", "properties": { "max_height": 5.3535003662109375, "mean_height": 2.069465160369873, "std_height": 1.6901980638504028, "count_pixels": 41, "percent_cover": 0.50995024875621886, "percent_above_0.1m": 85.365853658536579, "low_level_<0.5": 9.7560975609756095, "mid_level_0.5-2": 26.829268292682929, "tall_2+": 46.341463414634148 }, "geometry": { "type": "Point", "coordinates": [ -0.2591397306802, 51.545989289018813 ] } },
{ "type": "Feature", "properties": { "max_height": 0.001255035400390625, "mean_height": -0.0001413254503859207, "std_height": 0.00093383347848430276, "count_pixels": 42, "percent_cover": 0.5223880597014926, "percent_above_0.1m": 0.0, "low_level_<0.5": 0.0, "mid_level_0.5-2": 0.0, "tall_2+": 0.0 }, "geometry": { "type": "Point", "coordinates": [ -0.258939998910353, 51.545986327377797 ] } },
{ "type": "Feature", "properties": { "max_height": 0.001003265380859375, "mean_height": -1.0202097655565012e-05, "std_height": 0.00063170556677505374, "count_pixels": 43, "percent_cover": 0.53482587064676623, "percent_above_0.1m": 0.0, "low_level_<0.5": 0.0, "mid_level_0.5-2": 0.0, "tall_2+": 0.0 }, "geometry": { "type": "Point", "coordinates": [ -0.258740267175232, 51.54598336539653 ] } },
{ "type": "Feature", "properties": { "max_height": 0.00299835205078125, "mean_height": -0.00099872401915490627, "std_height": 0.0023637095000594854, "count_pixels": 42, "percent_cover": 0.5223880597014926, "percent_above_0.1m": 0.0, "low_level_<0.5": 0.0, "mid_level_0.5-2": 0.0, "tall_2+": 0.0 }, "geometry": { "type": "Point", "coordinates": [ -0.258540535474836, 51.545980403075042 ] } },
{ "type": "Feature", "properties": { "max_height": 0.001003265380859375, "mean_height": -0.00019565381808206439, "std_height": 0.00090128334704786539, "count_pixels": 38, "percent_cover": 0.47263681592039797, "percent_above_0.1m": 0.0, "low_level_<0.5": 0.0, "mid_level_0.5-2": 0.0, "tall_2+": 0.0 }, "geometry": { "type": "Point", "coordinates": [ -0.258340803809175, 51.545977440413317 ] } },
{ "type": "Feature", "properties": { "max_height": 1.8902511596679688, "mean_height": 0.23383504152297974, "std_height": 0.47764143347740173, "count_pixels": 42, "percent_cover": 0.5223880597014926, "percent_above_0.1m": 26.190476190476193, "low_level_<0.5": 7.1428571428571423, "mid_level_0.5-2": 19.047619047619047, "tall_2+": 0.0 }, "geometry": { "type": "Point", "coordinates": [ -0.258141072178247, 51.545974477411349 ] } },
{ "type": "Feature", "properties": { "max_height": 10.048999786376953, "mean_height": 3.221966028213501, "std_height": 3.0392305850982666, "count_pixels": 42, "percent_cover": 0.5223880597014926, "percent_above_0.1m": 78.571428571428569, "low_level_<0.5": 0.0, "mid_level_0.5-2": 14.285714285714285, "tall_2+": 61.904761904761905 }, "geometry": { "type": "Point", "coordinates": [ -0.259035745540161, 51.546095657536064 ] } },
{ "type": "Feature", "properties": { "max_height": 0.12725067138671875, "mean_height": 0.011245448142290115, "std_height": 0.029019569978117943, "count_pixels": 41, "percent_cover": 0.50995024875621886, "percent_above_0.1m": 2.4390243902439024, "low_level_<0.5": 0.0, "mid_level_0.5-2": 0.0, "tall_2+": 0.0 }, "geometry": { "type": "Point", "coordinates": [ -0.258836013306211, 51.546092695720191 ] } },
{ "type": "Feature", "properties": { "max_height": 0.0052490234375, "mean_height": -0.0002606089401524514, "std_height": 0.0019921634811908007, "count_pixels": 41, "percent_cover": 0.50995024875621886, "percent_above_0.1m": 0.0, "low_level_<0.5": 0.0, "mid_level_0.5-2": 0.0, "tall_2+": 0.0 }, "geometry": { "type": "Point", "coordinates": [ -0.258636281106991, 51.546089733564067 ] } },
{ "type": "Feature", "properties": { "max_height": 0.00225067138671875, "mean_height": -0.00080789841013029218, "std_height": 0.0018348925514146686, "count_pixels": 42, "percent_cover": 0.5223880597014926, "percent_above_0.1m": 0.0, "low_level_<0.5": 0.0, "mid_level_0.5-2": 0.0, "tall_2+": 0.0 }, "geometry": { "type": "Point", "coordinates": [ -0.258436548942501, 51.546086771067706 ] } },
{ "type": "Feature", "properties": { "max_height": 0.15725326538085938, "mean_height": 0.0037399474531412125, "std_height": 0.023983221501111984, "count_pixels": 42, "percent_cover": 0.5223880597014926, "percent_above_0.1m": 2.3809523809523809, "low_level_<0.5": 2.3809523809523809, "mid_level_0.5-2": 0.0, "tall_2+": 0.0 }, "geometry": { "type": "Point", "coordinates": [ -0.258236816812744, 51.546083808231117 ] } },
{ "type": "Feature", "properties": { "max_height": 1.725250244140625, "mean_height": 0.18872646987438202, "std_height": 0.39891636371612549, "count_pixels": 41, "percent_cover": 0.50995024875621886, "percent_above_0.1m": 24.390243902439025, "low_level_<0.5": 12.195121951219512, "mid_level_0.5-2": 12.195121951219512, "tall_2+": 0.0 }, "geometry": { "type": "Point", "coordinates": [ -0.258037084717728, 51.546080845054284 ] } },
{ "type": "Feature", "properties": { "max_height": 8.6857528686523438, "mean_height": 0.72292035818099976, "std_height": 1.9688467979431152, "count_pixels": 43, "percent_cover": 0.53482587064676623, "percent_above_0.1m": 23.255813953488371, "low_level_<0.5": 4.6511627906976747, "mid_level_0.5-2": 4.6511627906976747, "tall_2+": 11.627906976744185 }, "geometry": { "type": "Point", "coordinates": [ -0.25873202720324, 51.546199063970825 ] } },
{ "type": "Feature", "properties": { "max_height": 0.71625137329101562, "mean_height": 0.035668328404426575, "std_height": 0.13684609532356262, "count_pixels": 42, "percent_cover": 0.5223880597014926, "percent_above_0.1m": 7.1428571428571423, "low_level_<0.5": 4.7619047619047619, "mid_level_0.5-2": 2.3809523809523809, "tall_2+": 0.0 }, "geometry": { "type": "Point", "coordinates": [ -0.258532294539921, 51.54619610163985 ] } },
{ "type": "Feature", "properties": { "max_height": 0.82625198364257812, "mean_height": 0.070534653961658478, "std_height": 0.20084728300571442, "count_pixels": 38, "percent_cover": 0.47263681592039797, "percent_above_0.1m": 10.526315789473683, "low_level_<0.5": 2.6315789473684208, "mid_level_0.5-2": 7.8947368421052628, "tall_2+": 0.0 }, "geometry": { "type": "Point", "coordinates": [ -0.25833256191133, 51.546193138968619 ] } },
{ "type": "Feature", "properties": { "max_height": 6.4287490844726562, "mean_height": 1.2474062442779541, "std_height": 1.5913615226745605, "count_pixels": 42, "percent_cover": 0.5223880597014926, "percent_above_0.1m": 78.571428571428569, "low_level_<0.5": 14.285714285714285, "mid_level_0.5-2": 47.619047619047613, "tall_2+": 14.285714285714285 }, "geometry": { "type": "Point", "coordinates": [ -0.25813282931748, 51.546190175957157 ] } },
{ "type": "Feature", "properties": { "max_height": 0.89075088500976562, "mean_height": 0.056013859808444977, "std_height": 0.15449798107147217, "count_pixels": 43, "percent_cover": 0.53482587064676623, "percent_above_0.1m": 16.279069767441861, "low_level_<0.5": 9.3023255813953494, "mid_level_0.5-2": 2.3255813953488373, "tall_2+": 0.0 }, "geometry": { "type": "Point", "coordinates": [ -0.25793309675837, 51.546187212605467 ] } },
{ "type": "Feature", "properties": { "max_height": 0.7962493896484375, "mean_height": 0.046440497040748596, "std_height": 0.13833126425743103, "count_pixels": 41, "percent_cover": 0.50995024875621886, "percent_above_0.1m": 14.634146341463413, "low_level_<0.5": 7.3170731707317067, "mid_level_0.5-2": 2.4390243902439024, "tall_2+": 0.0 }, "geometry": { "type": "Point", "coordinates": [ -0.258628040601431, 51.546305432129721 ] } },
{ "type": "Feature", "properties": { "max_height": 0.004001617431640625, "mean_height": -0.00098646257538348436, "std_height": 0.0023795682936906815, "count_pixels": 42, "percent_cover": 0.5223880597014926, "percent_above_0.1m": 0.0, "low_level_<0.5": 0.0, "mid_level_0.5-2": 0.0, "tall_2+": 0.0 }, "geometry": { "type": "Point", "coordinates": [ -0.258428307474011, 51.546302469623861 ] } },
{ "type": "Feature", "properties": { "max_height": 1.1402511596679688, "mean_height": 0.10317448526620865, "std_height": 0.26687043905258179, "count_pixels": 42, "percent_cover": 0.5223880597014926, "percent_above_0.1m": 19.047619047619047, "low_level_<0.5": 7.1428571428571423, "mid_level_0.5-2": 7.1428571428571423, "tall_2+": 0.0 }, "geometry": { "type": "Point", "coordinates": [ -0.258228574381326, 51.546299506777778 ] } },
{ "type": "Feature", "properties": { "max_height": 2.5092506408691406, "mean_height": 0.78021502494812012, "std_height": 0.57517439126968384, "count_pixels": 41, "percent_cover": 0.50995024875621886, "percent_above_0.1m": 90.243902439024396, "low_level_<0.5": 24.390243902439025, "mid_level_0.5-2": 60.975609756097562, "tall_2+": 2.4390243902439024 }, "geometry": { "type": "Point", "coordinates": [ -0.258028841323374, 51.546296543591438 ] } },
{ "type": "Feature", "properties": { "max_height": 3.6202507019042969, "mean_height": 1.4794902801513672, "std_height": 1.3243931531906128, "count_pixels": 43, "percent_cover": 0.53482587064676623, "percent_above_0.1m": 74.418604651162795, "low_level_<0.5": 11.627906976744185, "mid_level_0.5-2": 25.581395348837212, "tall_2+": 37.209302325581397 }, "geometry": { "type": "Point", "coordinates": [ -0.258723787127049, 51.546414762537303 ] } },
{ "type": "Feature", "properties": { "max_height": 0.00775146484375, "mean_height": -0.00024877276155166328, "std_height": 0.002377351513132453, "count_pixels": 42, "percent_cover": 0.5223880597014926, "percent_above_0.1m": 0.0, "low_level_<0.5": 0.0, "mid_level_0.5-2": 0.0, "tall_2+": 0.0 }, "geometry": { "type": "Point", "coordinates": [ -0.258524053500785, 51.546411800196843 ] } },
{ "type": "Feature", "properties": { "max_height": 0.004001617431640625, "mean_height": -0.00011072660709032789, "std_height": 0.0016771239461377263, "count_pixels": 38, "percent_cover": 0.47263681592039797, "percent_above_0.1m": 0.0, "low_level_<0.5": 0.0, "mid_level_0.5-2": 0.0, "tall_2+": 0.0 }, "geometry": { "type": "Point", "coordinates": [ -0.258324319909263, 51.546408837516125 ] } },
{ "type": "Feature", "properties": { "max_height": 0.72375106811523438, "mean_height": 0.089960187673568726, "std_height": 0.18603438138961792, "count_pixels": 42, "percent_cover": 0.5223880597014926, "percent_above_0.1m": 23.809523809523807, "low_level_<0.5": 9.5238095238095237, "mid_level_0.5-2": 9.5238095238095237, "tall_2+": 0.0 }, "geometry": { "type": "Point", "coordinates": [ -0.258124586352474, 51.546405874495179 ] } },
{ "type": "Feature", "properties": { "max_height": 1.9940032958984375, "mean_height": 0.40271705389022827, "std_height": 0.49551013112068176, "count_pixels": 43, "percent_cover": 0.53482587064676623, "percent_above_0.1m": 62.790697674418603, "low_level_<0.5": 34.883720930232556, "mid_level_0.5-2": 25.581395348837212, "tall_2+": 0.0 }, "geometry": { "type": "Point", "coordinates": [ -0.257924852830427, 51.546402911133974 ] } },
{ "type": "Feature", "properties": { "max_height": 3.2542495727539062, "mean_height": 1.0173490047454834, "std_height": 0.96813774108886719, "count_pixels": 41, "percent_cover": 0.50995024875621886, "percent_above_0.1m": 75.609756097560975, "low_level_<0.5": 9.7560975609756095, "mid_level_0.5-2": 48.780487804878049, "tall_2+": 14.634146341463413 }, "geometry": { "type": "Point", "coordinates": [ -0.258619799991664, 51.546521130687559 ] } },
{ "type": "Feature", "properties": { "max_height": 0.003002166748046875, "mean_height": -0.0012125287903472781, "std_height": 0.0030595120042562485, "count_pixels": 42, "percent_cover": 0.5223880597014926, "percent_above_0.1m": 0.0, "low_level_<0.5": 0.0, "mid_level_0.5-2": 0.0, "tall_2+": 0.0 }, "geometry": { "type": "Point", "coordinates": [ -0.258420065901299, 51.546518168172227 ] } },
{ "type": "Feature", "properties": { "max_height": 0.001003265380859375, "mean_height": -6.3669111113995314e-05, "std_height": 0.00053476332686841488, "count_pixels": 42, "percent_cover": 0.5223880597014926, "percent_above_0.1m": 0.0, "low_level_<0.5": 0.0, "mid_level_0.5-2": 0.0, "tall_2+": 0.0 }, "geometry": { "type": "Point", "coordinates": [ -0.258220331845669, 51.546515205316638 ] } },
{ "type": "Feature", "properties": { "max_height": 1.1092491149902344, "mean_height": 0.14169107377529144, "std_height": 0.22632218897342682, "count_pixels": 41, "percent_cover": 0.50995024875621886, "percent_above_0.1m": 41.463414634146339, "low_level_<0.5": 29.268292682926827, "mid_level_0.5-2": 7.3170731707317067, "tall_2+": 0.0 }, "geometry": { "type": "Point", "coordinates": [ -0.258020597824775, 51.546512242120819 ] } },
{ "type": "Feature", "properties": { "max_height": 1.4290008544921875, "mean_height": 0.085684798657894135, "std_height": 0.25323450565338135, "count_pixels": 41, "percent_cover": 0.50995024875621886, "percent_above_0.1m": 12.195121951219512, "low_level_<0.5": 7.3170731707317067, "mid_level_0.5-2": 4.8780487804878048, "tall_2+": 0.0 }, "geometry": { "type": "Point", "coordinates": [ -0.257820863838633, 51.546509278584757 ] } },
{ "type": "Feature", "properties": { "max_height": 5.8929996490478516, "mean_height": 2.262728214263916, "std_height": 2.2599058151245117, "count_pixels": 43, "percent_cover": 0.53482587064676623, "percent_above_0.1m": 79.069767441860463, "low_level_<0.5": 6.9767441860465116, "mid_level_0.5-2": 25.581395348837212, "tall_2+": 41.860465116279073 }, "geometry": { "type": "Point", "coordinates": [ -0.258715546946649, 51.546630461096008 ] } },
{ "type": "Feature", "properties": { "max_height": 1.2987518310546875, "mean_height": 0.03329940140247345, "std_height": 0.19798442721366882, "count_pixels": 42, "percent_cover": 0.5223880597014926, "percent_above_0.1m": 2.3809523809523809, "low_level_<0.5": 0.0, "mid_level_0.5-2": 2.3809523809523809, "tall_2+": 0.0 }, "geometry": { "type": "Point", "coordinates": [ -0.25851581235744, 51.546627498746055 ] } },
{ "type": "Feature", "properties": { "max_height": 2.1475028991699219, "mean_height": 0.096120335161685944, "std_height": 0.41705188155174255, "count_pixels": 38, "percent_cover": 0.47263681592039797, "percent_above_0.1m": 5.2631578947368416, "low_level_<0.5": 0.0, "mid_level_0.5-2": 2.6315789473684208, "tall_2+": 2.6315789473684208 }, "geometry": { "type": "Point", "coordinates": [ -0.258316077802963, 51.546624536055837 ] } },
{ "type": "Feature", "properties": { "max_height": 0.002750396728515625, "mean_height": 0.00022116160835139453, "std_height": 0.00067991670221090317, "count_pixels": 42, "percent_cover": 0.5223880597014926, "percent_above_0.1m": 0.0, "low_level_<0.5": 0.0, "mid_level_0.5-2": 0.0, "tall_2+": 0.0 }, "geometry": { "type": "Point", "coordinates": [ -0.258116343283228, 51.546621573025398 ] } },
{ "type": "Feature", "properties": { "max_height": 1.4027519226074219, "mean_height": 0.1597980260848999, "std_height": 0.3130355179309845, "count_pixels": 43, "percent_cover": 0.53482587064676623, "percent_above_0.1m": 27.906976744186046, "low_level_<0.5": 13.953488372093023, "mid_level_0.5-2": 11.627906976744185, "tall_2+": 0.0 }, "geometry": { "type": "Point", "coordinates": [ -0.257916608798231, 51.546618609654701 ] } },
{ "type": "Feature", "properties": { "max_height": 6.0710029602050781, "mean_height": 3.1724646091461182, "std_height": 2.471764087677002, "count_pixels": 41, "percent_cover": 0.50995024875621886, "percent_above_0.1m": 90.243902439024396, "low_level_<0.5": 14.634146341463413, "mid_level_0.5-2": 19.512195121951219, "tall_2+": 56.09756097560976 }, "geometry": { "type": "Point", "coordinates": [ -0.258811294365741, 51.546739791422205 ] } },
{ "type": "Feature", "properties": { "max_height": 5.378753662109375, "mean_height": 0.30489176511764526, "std_height": 0.98130655288696289, "count_pixels": 41, "percent_cover": 0.50995024875621886, "percent_above_0.1m": 14.634146341463413, "low_level_<0.5": 2.4390243902439024, "mid_level_0.5-2": 4.8780487804878048, "tall_2+": 7.3170731707317067 }, "geometry": { "type": "Point", "coordinates": [ -0.258611559277683, 51.546736829237609 ] } },
{ "type": "Feature", "properties": { "max_height": 3.2114982604980469, "mean_height": 0.43560263514518738, "std_height": 0.79308140277862549, "count_pixels": 42, "percent_cover": 0.5223880597014926, "percent_above_0.1m": 30.952380952380953, "low_level_<0.5": 9.5238095238095237, "mid_level_0.5-2": 14.285714285714285, "tall_2+": 7.1428571428571423 }, "geometry": { "type": "Point", "coordinates": [ -0.258411824224364, 51.546733866712792 ] } },
{ "type": "Feature", "properties": { "max_height": 2.2555027008056641, "mean_height": 0.12592419981956482, "std_height": 0.42714127898216248, "count_pixels": 42, "percent_cover": 0.5223880597014926, "percent_above_0.1m": 9.5238095238095237, "low_level_<0.5": 0.0, "mid_level_0.5-2": 7.1428571428571423, "tall_2+": 2.3809523809523809 }, "geometry": { "type": "Point", "coordinates": [ -0.258212089205778, 51.54673090384771 ] } },
{ "type": "Feature", "properties": { "max_height": 0.996002197265625, "mean_height": 0.07841607928276062, "std_height": 0.20478321611881256, "count_pixels": 41, "percent_cover": 0.50995024875621886, "percent_above_0.1m": 14.634146341463413, "low_level_<0.5": 7.3170731707317067, "mid_level_0.5-2": 7.3170731707317067, "tall_2+": 0.0 }, "geometry": { "type": "Point", "coordinates": [ -0.258012354221933, 51.546727940642391 ] } },
{ "type": "Feature", "properties": { "max_height": 1.9332504272460938, "mean_height": 0.45230650901794434, "std_height": 0.58007758855819702, "count_pixels": 41, "percent_cover": 0.50995024875621886, "percent_above_0.1m": 56.09756097560976, "low_level_<0.5": 17.073170731707318, "mid_level_0.5-2": 31.707317073170731, "tall_2+": 0.0 }, "geometry": { "type": "Point", "coordinates": [ -0.257812619272832, 51.546724977096851 ] } }
]
}
