{
"type": "FeatureCollection",
"name": "8d1a8332f42e_foliage",
"crs": { "type": "name", "properties": { "name": "urn:ogc:def:crs:OGC:1.3:CRS84" } },
"features": [
{ "type": "Feature", "properties": { "max_height": 7.3342514038085938, "mean_height": 1.6171647310256958, "std_height": 2.1110467910766602, "count_pixels": 43, "percent_cover": 0.2073288331726133, "percent_above_0.1m": 60.465116279069761, "low_level_<0.5": 4.6511627906976747, "mid_level_0.5-2": 20.930232558139537, "tall_2+": 32.558139534883722 }, "geometry": { "type": "Point", "coordinates": [ -0.265678778051517, 51.562094617143856 ] } },
{ "type": "Feature", "properties": { "max_height": 4.0812530517578125, "mean_height": 0.64051926136016846, "std_height": 0.96898889541625977, "count_pixels": 43, "percent_cover": 0.2073288331726133, "percent_above_0.1m": 55.813953488372093, "low_level_<0.5": 16.279069767441861, "mid_level_0.5-2": 23.255813953488371, "tall_2+": 11.627906976744185 }, "geometry": { "type": "Point", "coordinates": [ -0.265478971735675, 51.56209166757715 ] } },
{ "type": "Feature", "properties": { "max_height": 8.8269996643066406, "mean_height": 2.5548133850097656, "std_height": 2.9423234462738037, "count_pixels": 41, "percent_cover": 0.19768563162970107, "percent_above_0.1m": 73.170731707317074, "low_level_<0.5": 17.073170731707318, "mid_level_0.5-2": 12.195121951219512, "tall_2+": 41.463414634146339 }, "geometry": { "type": "Point", "coordinates": [ -0.265774575103117, 51.562203939660776 ] } },
{ "type": "Feature", "properties": { "max_height": 4.433502197265625, "mean_height": 0.71819090843200684, "std_height": 1.2417908906936646, "count_pixels": 41, "percent_cover": 0.19768563162970107, "percent_above_0.1m": 41.463414634146339, "low_level_<0.5": 4.8780487804878048, "mid_level_0.5-2": 19.512195121951219, "tall_2+": 14.634146341463413 }, "geometry": { "type": "Point", "coordinates": [ -0.265574768289426, 51.562200990279671 ] } },
{ "type": "Feature", "properties": { "max_height": 5.6150016784667969, "mean_height": 1.3973374366760254, "std_height": 1.8282676935195923, "count_pixels": 41, "percent_cover": 0.19768563162970107, "percent_above_0.1m": 56.09756097560976, "low_level_<0.5": 4.8780487804878048, "mid_level_0.5-2": 19.512195121951219, "tall_2+": 26.829268292682929 }, "geometry": { "type": "Point", "coordinates": [ -0.265374961510283, 51.562198040557078 ] } },
{ "type": "Feature", "properties": { "max_height": 2.9287528991699219, "mean_height": 0.25142660737037659, "std_height": 0.57412099838256836, "count_pixels": 43, "percent_cover": 0.2073288331726133, "percent_above_0.1m": 27.906976744186046, "low_level_<0.5": 11.627906976744185, "mid_level_0.5-2": 11.627906976744185, "tall_2+": 2.3255813953488373 }, "geometry": { "type": "Point", "coordinates": [ -0.265870372618022, 51.562313262076295 ] } },
{ "type": "Feature", "properties": { "max_height": 9.7227554321289062, "mean_height": 2.8283798694610596, "std_height": 3.8279905319213867, "count_pixels": 43, "percent_cover": 0.2073288331726133, "percent_above_0.1m": 46.511627906976742, "low_level_<0.5": 2.3255813953488373, "mid_level_0.5-2": 4.6511627906976747, "tall_2+": 39.534883720930232 }, "geometry": { "type": "Point", "coordinates": [ -0.265670565306474, 51.562310312880811 ] } },
{ "type": "Feature", "properties": { "max_height": 9.9850006103515625, "mean_height": 2.921903133392334, "std_height": 3.8769557476043701, "count_pixels": 43, "percent_cover": 0.2073288331726133, "percent_above_0.1m": 65.116279069767444, "low_level_<0.5": 13.953488372093023, "mid_level_0.5-2": 13.953488372093023, "tall_2+": 34.883720930232556 }, "geometry": { "type": "Point", "coordinates": [ -0.265470758029474, 51.562307363343805 ] } },
{ "type": "Feature", "properties": { "max_height": 9.1785049438476562, "mean_height": 4.3143472671508789, "std_height": 2.64837646484375, "count_pixels": 37, "percent_cover": 0.17839922854387655, "percent_above_0.1m": 97.297297297297305, "low_level_<0.5": 8.1081081081081088, "mid_level_0.5-2": 16.216216216216218, "tall_2+": 72.972972972972968 }, "geometry": { "type": "Point", "coordinates": [ -0.265966170596231, 51.562422584390468 ] } },
{ "type": "Feature", "properties": { "max_height": 10.166000366210938, "mean_height": 7.9538440704345703, "std_height": 2.9853072166442871, "count_pixels": 41, "percent_cover": 0.19768563162970107, "percent_above_0.1m": 95.121951219512198, "low_level_<0.5": 0.0, "mid_level_0.5-2": 7.3170731707317067, "tall_2+": 87.804878048780495 }, "geometry": { "type": "Point", "coordinates": [ -0.265766362786826, 51.562419635380571 ] } },
{ "type": "Feature", "properties": { "max_height": 3.6060028076171875, "mean_height": 0.32410922646522522, "std_height": 0.7176823616027832, "count_pixels": 42, "percent_cover": 0.20250723240115717, "percent_above_0.1m": 30.952380952380953, "low_level_<0.5": 9.5238095238095237, "mid_level_0.5-2": 14.285714285714285, "tall_2+": 2.3809523809523809 }, "geometry": { "type": "Point", "coordinates": [ -0.266061969037756, 51.56253190660324 ] } },
{ "type": "Feature", "properties": { "max_height": 9.9937515258789062, "mean_height": 4.3972287178039551, "std_height": 4.3040409088134766, "count_pixels": 43, "percent_cover": 0.2073288331726133, "percent_above_0.1m": 60.465116279069761, "low_level_<0.5": 2.3255813953488373, "mid_level_0.5-2": 6.9767441860465116, "tall_2+": 51.162790697674424 }, "geometry": { "type": "Point", "coordinates": [ -0.265862160730484, 51.562528957778966 ] } },
{ "type": "Feature", "properties": { "max_height": 2.5159988403320312, "mean_height": 0.42716625332832336, "std_height": 0.80333590507507324, "count_pixels": 41, "percent_cover": 0.19768563162970107, "percent_above_0.1m": 31.707317073170731, "low_level_<0.5": 4.8780487804878048, "mid_level_0.5-2": 12.195121951219512, "tall_2+": 12.195121951219512 }, "geometry": { "type": "Point", "coordinates": [ -0.266157767942587, 51.562641228714661 ] } },
{ "type": "Feature", "properties": { "max_height": 0.6699981689453125, "mean_height": 0.090285636484622955, "std_height": 0.19000537693500519, "count_pixels": 37, "percent_cover": 0.17839922854387655, "percent_above_0.1m": 21.621621621621621, "low_level_<0.5": 10.810810810810811, "mid_level_0.5-2": 8.1081081081081088, "tall_2+": 0.0 }, "geometry": { "type": "Point", "coordinates": [ -0.265957959137464, 51.56263828007598 ] } },
{ "type": "Feature", "properties": { "max_height": 9.7462539672851562, "mean_height": 3.3927273750305176, "std_height": 4.0390481948852539, "count_pixels": 41, "percent_cover": 0.19768563162970107, "percent_above_0.1m": 51.219512195121951, "low_level_<0.5": 2.4390243902439024, "mid_level_0.5-2": 4.8780487804878048, "tall_2+": 43.902439024390247 }, "geometry": { "type": "Point", "coordinates": [ -0.265758150366882, 51.562635331095812 ] } },
{ "type": "Feature", "properties": { "max_height": 5.5562515258789062, "mean_height": 1.0352351665496826, "std_height": 1.3197276592254639, "count_pixels": 43, "percent_cover": 0.2073288331726133, "percent_above_0.1m": 67.441860465116278, "low_level_<0.5": 23.255813953488371, "mid_level_0.5-2": 25.581395348837212, "tall_2+": 18.604651162790699 }, "geometry": { "type": "Point", "coordinates": [ -0.266253567310739, 51.562750550724701 ] } },
{ "type": "Feature", "properties": { "max_height": 5.964752197265625, "mean_height": 4.1926279067993164, "std_height": 2.2373766899108887, "count_pixels": 42, "percent_cover": 0.20250723240115717, "percent_above_0.1m": 95.238095238095227, "low_level_<0.5": 4.7619047619047619, "mid_level_0.5-2": 16.666666666666664, "tall_2+": 73.80952380952381 }, "geometry": { "type": "Point", "coordinates": [ -0.266053758007754, 51.562747602271635 ] } },
{ "type": "Feature", "properties": { "max_height": 2.7584991455078125, "mean_height": 0.29037421941757202, "std_height": 0.61430644989013672, "count_pixels": 43, "percent_cover": 0.2073288331726133, "percent_above_0.1m": 27.906976744186046, "low_level_<0.5": 11.627906976744185, "mid_level_0.5-2": 13.953488372093023, "tall_2+": 2.3255813953488373 }, "geometry": { "type": "Point", "coordinates": [ -0.265853948739306, 51.562744653477075 ] } },
{ "type": "Feature", "properties": { "max_height": 10.032249450683594, "mean_height": 3.1964261531829834, "std_height": 3.9485025405883789, "count_pixels": 43, "percent_cover": 0.2073288331726133, "percent_above_0.1m": 51.162790697674424, "low_level_<0.5": 2.3255813953488373, "mid_level_0.5-2": 4.6511627906976747, "tall_2+": 41.860465116279073 }, "geometry": { "type": "Point", "coordinates": [ -0.265654139505408, 51.562741704340979 ] } },
{ "type": "Feature", "properties": { "max_height": 9.8707504272460938, "mean_height": 4.9005508422851562, "std_height": 3.4309659004211426, "count_pixels": 41, "percent_cover": 0.19768563162970107, "percent_above_0.1m": 97.560975609756099, "low_level_<0.5": 2.4390243902439024, "mid_level_0.5-2": 14.634146341463413, "tall_2+": 80.487804878048792 }, "geometry": { "type": "Point", "coordinates": [ -0.265054712011028, 51.562732854883706 ] } },
{ "type": "Feature", "properties": { "max_height": 9.4497528076171875, "mean_height": 1.6001911163330078, "std_height": 2.7731435298919678, "count_pixels": 41, "percent_cover": 0.19768563162970107, "percent_above_0.1m": 48.780487804878049, "low_level_<0.5": 9.7560975609756095, "mid_level_0.5-2": 7.3170731707317067, "tall_2+": 26.829268292682929 }, "geometry": { "type": "Point", "coordinates": [ -0.264854902915354, 51.562729904381577 ] } },
{ "type": "Feature", "properties": { "max_height": 0.5565032958984375, "mean_height": 0.017355477437376976, "std_height": 0.085522659122943878, "count_pixels": 41, "percent_cover": 0.19768563162970107, "percent_above_0.1m": 2.4390243902439024, "low_level_<0.5": 0.0, "mid_level_0.5-2": 2.4390243902439024, "tall_2+": 0.0 }, "geometry": { "type": "Point", "coordinates": [ -0.265749937843281, 51.562851026806484 ] } },
{ "type": "Feature", "properties": { "max_height": 9.4285011291503906, "mean_height": 1.935233473777771, "std_height": 3.2151827812194824, "count_pixels": 41, "percent_cover": 0.19768563162970107, "percent_above_0.1m": 41.463414634146339, "low_level_<0.5": 2.4390243902439024, "mid_level_0.5-2": 7.3170731707317067, "tall_2+": 29.268292682926827 }, "geometry": { "type": "Point", "coordinates": [ -0.265550128146063, 51.562848077514502 ] } },
{ "type": "Feature", "properties": { "max_height": 10.136505126953125, "mean_height": 8.5966072082519531, "std_height": 2.1492161750793457, "count_pixels": 41, "percent_cover": 0.19768563162970107, "percent_above_0.1m": 100.0, "low_level_<0.5": 2.4390243902439024, "mid_level_0.5-2": 0.0, "tall_2+": 97.560975609756099 }, "geometry": { "type": "Point", "coordinates": [ -0.265350318483392, 51.562845127881019 ] } },
{ "type": "Feature", "properties": { "max_height": 10.167003631591797, "mean_height": 5.1361069679260254, "std_height": 4.1104121208190918, "count_pixels": 43, "percent_cover": 0.2073288331726133, "percent_above_0.1m": 76.744186046511629, "low_level_<0.5": 2.3255813953488373, "mid_level_0.5-2": 11.627906976744185, "tall_2+": 62.790697674418603 }, "geometry": { "type": "Point", "coordinates": [ -0.265150508855286, 51.562842177906013 ] } },
{ "type": "Feature", "properties": { "max_height": 9.9497528076171875, "mean_height": 3.8069496154785156, "std_height": 4.0113959312438965, "count_pixels": 43, "percent_cover": 0.2073288331726133, "percent_above_0.1m": 67.441860465116278, "low_level_<0.5": 6.9767441860465116, "mid_level_0.5-2": 9.3023255813953494, "tall_2+": 48.837209302325576 }, "geometry": { "type": "Point", "coordinates": [ -0.264950699261734, 51.5628392275895 ] } },
{ "type": "Feature", "properties": { "max_height": 2.1162528991699219, "mean_height": 0.17689177393913269, "std_height": 0.41415750980377197, "count_pixels": 43, "percent_cover": 0.2073288331726133, "percent_above_0.1m": 23.255813953488371, "low_level_<0.5": 6.9767441860465116, "mid_level_0.5-2": 11.627906976744185, "tall_2+": 2.3255813953488373 }, "geometry": { "type": "Point", "coordinates": [ -0.265645926449379, 51.562957400064235 ] } },
{ "type": "Feature", "properties": { "max_height": 9.3685035705566406, "mean_height": 2.0298507213592529, "std_height": 3.1512079238891602, "count_pixels": 43, "percent_cover": 0.2073288331726133, "percent_above_0.1m": 46.511627906976742, "low_level_<0.5": 2.3255813953488373, "mid_level_0.5-2": 16.279069767441861, "tall_2+": 25.581395348837212 }, "geometry": { "type": "Point", "coordinates": [ -0.265446116288839, 51.562954450616367 ] } },
{ "type": "Feature", "properties": { "max_height": 9.8022499084472656, "mean_height": 4.0425815582275391, "std_height": 4.1428666114807129, "count_pixels": 41, "percent_cover": 0.19768563162970107, "percent_above_0.1m": 58.536585365853654, "low_level_<0.5": 2.4390243902439024, "mid_level_0.5-2": 4.8780487804878048, "tall_2+": 51.219512195121951 }, "geometry": { "type": "Point", "coordinates": [ -0.265246306162849, 51.562951500826976 ] } },
{ "type": "Feature", "properties": { "max_height": 5.0905036926269531, "mean_height": 1.2555259466171265, "std_height": 1.2623107433319092, "count_pixels": 41, "percent_cover": 0.19768563162970107, "percent_above_0.1m": 68.292682926829272, "low_level_<0.5": 7.3170731707317067, "mid_level_0.5-2": 29.268292682926827, "tall_2+": 31.707317073170731 }, "geometry": { "type": "Point", "coordinates": [ -0.265046496071424, 51.562948550696056 ] } },
{ "type": "Feature", "properties": { "max_height": 9.9695014953613281, "mean_height": 3.9105567932128906, "std_height": 4.2980709075927734, "count_pixels": 41, "percent_cover": 0.19768563162970107, "percent_above_0.1m": 53.658536585365859, "low_level_<0.5": 0.0, "mid_level_0.5-2": 0.0, "tall_2+": 48.780487804878049 }, "geometry": { "type": "Point", "coordinates": [ -0.264846686014558, 51.562945600223628 ] } },
{ "type": "Feature", "properties": { "max_height": 2.5367507934570312, "mean_height": 0.38227620720863342, "std_height": 0.66552543640136719, "count_pixels": 41, "percent_cover": 0.19768563162970107, "percent_above_0.1m": 36.585365853658537, "low_level_<0.5": 9.7560975609756095, "mid_level_0.5-2": 21.951219512195124, "tall_2+": 4.8780487804878048 }, "geometry": { "type": "Point", "coordinates": [ -0.265541914557604, 51.56306377325032 ] } },
{ "type": "Feature", "properties": { "max_height": 3.6035003662109375, "mean_height": 0.21217243373394012, "std_height": 0.65981549024581909, "count_pixels": 41, "percent_cover": 0.19768563162970107, "percent_above_0.1m": 12.195121951219512, "low_level_<0.5": 0.0, "mid_level_0.5-2": 9.7560975609756095, "tall_2+": 2.4390243902439024 }, "geometry": { "type": "Point", "coordinates": [ -0.265342103933738, 51.563060823646524 ] } },
{ "type": "Feature", "properties": { "max_height": 7.6217536926269531, "mean_height": 1.1781762838363647, "std_height": 1.9175843000411987, "count_pixels": 43, "percent_cover": 0.2073288331726133, "percent_above_0.1m": 44.186046511627907, "low_level_<0.5": 6.9767441860465116, "mid_level_0.5-2": 13.953488372093023, "tall_2+": 23.255813953488371 }, "geometry": { "type": "Point", "coordinates": [ -0.265142293344426, 51.563057873701226 ] } },
{ "type": "Feature", "properties": { "max_height": 3.4350051879882812, "mean_height": 0.23775731027126312, "std_height": 0.67733973264694214, "count_pixels": 43, "percent_cover": 0.2073288331726133, "percent_above_0.1m": 13.953488372093023, "low_level_<0.5": 0.0, "mid_level_0.5-2": 9.3023255813953494, "tall_2+": 4.6511627906976747 }, "geometry": { "type": "Point", "coordinates": [ -0.264942482789681, 51.563054923414427 ] } },
{ "type": "Feature", "properties": { "max_height": 9.9255027770996094, "mean_height": 3.0220658779144287, "std_height": 3.9780004024505615, "count_pixels": 43, "percent_cover": 0.2073288331726133, "percent_above_0.1m": 44.186046511627907, "low_level_<0.5": 2.3255813953488373, "mid_level_0.5-2": 2.3255813953488373, "tall_2+": 39.534883720930232 }, "geometry": { "type": "Point", "coordinates": [ -0.264742672269496, 51.563051972786091 ] } },
{ "type": "Feature", "properties": { "max_height": 6.0315017700195312, "mean_height": 0.31497874855995178, "std_height": 1.1072063446044922, "count_pixels": 43, "percent_cover": 0.2073288331726133, "percent_above_0.1m": 16.279069767441861, "low_level_<0.5": 4.6511627906976747, "mid_level_0.5-2": 6.9767441860465116, "tall_2+": 4.6511627906976747 }, "geometry": { "type": "Point", "coordinates": [ -0.26543790216794, 51.56317014636474 ] } },
{ "type": "Feature", "properties": { "max_height": 0.00749969482421875, "mean_height": 0.00079494569217786193, "std_height": 0.0027647658716887236, "count_pixels": 41, "percent_cover": 0.19768563162970107, "percent_above_0.1m": 0.0, "low_level_<0.5": 0.0, "mid_level_0.5-2": 0.0, "tall_2+": 0.0 }, "geometry": { "type": "Point", "coordinates": [ -0.265238091080749, 51.563167196605029 ] } },
{ "type": "Feature", "properties": { "max_height": 1.3285026550292969, "mean_height": 0.10104453563690186, "std_height": 0.27945855259895325, "count_pixels": 41, "percent_cover": 0.19768563162970107, "percent_above_0.1m": 12.195121951219512, "low_level_<0.5": 2.4390243902439024, "mid_level_0.5-2": 9.7560975609756095, "tall_2+": 0.0 }, "geometry": { "type": "Point", "coordinates": [ -0.265038280028117, 51.563164246503824 ] } },
{ "type": "Feature", "properties": { "max_height": 8.7927513122558594, "mean_height": 1.034342885017395, "std_height": 2.3206450939178467, "count_pixels": 41, "percent_cover": 0.19768563162970107, "percent_above_0.1m": 21.951219512195124, "low_level_<0.5": 0.0, "mid_level_0.5-2": 4.8780487804878048, "tall_2+": 17.073170731707318 }, "geometry": { "type": "Point", "coordinates": [ -0.26483846901005, 51.563161296061118 ] } },
{ "type": "Feature", "properties": { "max_height": 9.9102516174316406, "mean_height": 6.6667590141296387, "std_height": 3.4986748695373535, "count_pixels": 36, "percent_cover": 0.17357762777242045, "percent_above_0.1m": 88.888888888888886, "low_level_<0.5": 0.0, "mid_level_0.5-2": 2.7777777777777777, "tall_2+": 86.111111111111114 }, "geometry": { "type": "Point", "coordinates": [ -0.264638658026545, 51.563158345276868 ] } },
{ "type": "Feature", "properties": { "max_height": 6.170501708984375, "mean_height": 0.33234870433807373, "std_height": 1.1446763277053833, "count_pixels": 41, "percent_cover": 0.19768563162970107, "percent_above_0.1m": 14.634146341463413, "low_level_<0.5": 0.0, "mid_level_0.5-2": 2.4390243902439024, "tall_2+": 7.3170731707317067 }, "geometry": { "type": "Point", "coordinates": [ -0.265333889280393, 51.563276519407474 ] } },
{ "type": "Feature", "properties": { "max_height": 0.11200332641601562, "mean_height": 0.011764171533286572, "std_height": 0.024908913299441338, "count_pixels": 43, "percent_cover": 0.2073288331726133, "percent_above_0.1m": 4.6511627906976747, "low_level_<0.5": 0.0, "mid_level_0.5-2": 0.0, "tall_2+": 0.0 }, "geometry": { "type": "Point", "coordinates": [ -0.265134077729875, 51.563273569491891 ] } },
{ "type": "Feature", "properties": { "max_height": 9.8252525329589844, "mean_height": 7.0224323272705078, "std_height": 3.0052766799926758, "count_pixels": 43, "percent_cover": 0.2073288331726133, "percent_above_0.1m": 93.023255813953483, "low_level_<0.5": 0.0, "mid_level_0.5-2": 6.9767441860465116, "tall_2+": 86.04651162790698 }, "geometry": { "type": "Point", "coordinates": [ -0.264934266213918, 51.563270619234771 ] } },
{ "type": "Feature", "properties": { "max_height": 6.3207511901855469, "mean_height": 3.5214152336120605, "std_height": 2.6288614273071289, "count_pixels": 43, "percent_cover": 0.2073288331726133, "percent_above_0.1m": 79.069767441860463, "low_level_<0.5": 9.3023255813953494, "mid_level_0.5-2": 6.9767441860465116, "tall_2+": 62.790697674418603 }, "geometry": { "type": "Point", "coordinates": [ -0.265429687943365, 51.563385842108538 ] } },
{ "type": "Feature", "properties": { "max_height": 2.4160041809082031, "mean_height": 0.50033706426620483, "std_height": 0.71062535047531128, "count_pixels": 41, "percent_cover": 0.19768563162970107, "percent_above_0.1m": 46.341463414634148, "low_level_<0.5": 14.634146341463413, "mid_level_0.5-2": 24.390243902439025, "tall_2+": 7.3170731707317067 }, "geometry": { "type": "Point", "coordinates": [ -0.265229875894957, 51.563382892378556 ] } },
{ "type": "Feature", "properties": { "max_height": 7.675750732421875, "mean_height": 0.54847186803817749, "std_height": 1.4060385227203369, "count_pixels": 41, "percent_cover": 0.19768563162970107, "percent_above_0.1m": 31.707317073170731, "low_level_<0.5": 7.3170731707317067, "mid_level_0.5-2": 17.073170731707318, "tall_2+": 4.8780487804878048 }, "geometry": { "type": "Point", "coordinates": [ -0.265030063881111, 51.563379942307073 ] } },
{ "type": "Feature", "properties": { "max_height": 10.211250305175781, "mean_height": 8.1500625610351562, "std_height": 2.6567833423614502, "count_pixels": 41, "percent_cover": 0.19768563162970107, "percent_above_0.1m": 95.121951219512198, "low_level_<0.5": 0.0, "mid_level_0.5-2": 2.4390243902439024, "tall_2+": 92.682926829268297 }, "geometry": { "type": "Point", "coordinates": [ -0.264830251901824, 51.563376991894032 ] } },
{ "type": "Feature", "properties": { "max_height": 2.8185005187988281, "mean_height": 0.35110539197921753, "std_height": 0.68525689840316772, "count_pixels": 41, "percent_cover": 0.19768563162970107, "percent_above_0.1m": 34.146341463414636, "low_level_<0.5": 12.195121951219512, "mid_level_0.5-2": 12.195121951219512, "tall_2+": 7.3170731707317067 }, "geometry": { "type": "Point", "coordinates": [ -0.265325674523367, 51.563492215163862 ] } },
{ "type": "Feature", "properties": { "max_height": 6.9932518005371094, "mean_height": 0.82933896780014038, "std_height": 1.5418965816497803, "count_pixels": 43, "percent_cover": 0.2073288331726133, "percent_above_0.1m": 39.534883720930232, "low_level_<0.5": 6.9767441860465116, "mid_level_0.5-2": 16.279069767441861, "tall_2+": 16.279069767441861 }, "geometry": { "type": "Point", "coordinates": [ -0.265125862011628, 51.563489265277966 ] } },
{ "type": "Feature", "properties": { "max_height": 2.2730026245117188, "mean_height": 0.30609440803527832, "std_height": 0.61487793922424316, "count_pixels": 43, "percent_cover": 0.2073288331726133, "percent_above_0.1m": 25.581395348837212, "low_level_<0.5": 4.6511627906976747, "mid_level_0.5-2": 16.279069767441861, "tall_2+": 4.6511627906976747 }, "geometry": { "type": "Point", "coordinates": [ -0.264926049534447, 51.563486315050554 ] } },
{ "type": "Feature", "properties": { "max_height": 9.9010009765625, "mean_height": 7.7187809944152832, "std_height": 2.888901948928833, "count_pixels": 43, "percent_cover": 0.2073288331726133, "percent_above_0.1m": 97.674418604651152, "low_level_<0.5": 4.6511627906976747, "mid_level_0.5-2": 2.3255813953488373, "tall_2+": 90.697674418604649 }, "geometry": { "type": "Point", "coordinates": [ -0.264726237091834, 51.563483364481634 ] } },
{ "type": "Feature", "properties": { "max_height": 1.1442527770996094, "mean_height": 0.33144667744636536, "std_height": 0.32993718981742859, "count_pixels": 41, "percent_cover": 0.19768563162970107, "percent_above_0.1m": 65.853658536585371, "low_level_<0.5": 26.829268292682929, "mid_level_0.5-2": 29.268292682926827, "tall_2+": 0.0 }, "geometry": { "type": "Point", "coordinates": [ -0.263926987667129, 51.563471558790702 ] } },
{ "type": "Feature", "properties": { "max_height": 5.5627517700195312, "mean_height": 2.8899493217468262, "std_height": 2.4320347309112549, "count_pixels": 43, "percent_cover": 0.2073288331726133, "percent_above_0.1m": 79.069767441860463, "low_level_<0.5": 6.9767441860465116, "mid_level_0.5-2": 16.279069767441861, "tall_2+": 53.488372093023251 }, "geometry": { "type": "Point", "coordinates": [ -0.266420539181566, 51.563616281226402 ] } },
{ "type": "Feature", "properties": { "max_height": 6.022003173828125, "mean_height": 1.1534552574157715, "std_height": 2.023798942565918, "count_pixels": 43, "percent_cover": 0.2073288331726133, "percent_above_0.1m": 44.186046511627907, "low_level_<0.5": 11.627906976744185, "mid_level_0.5-2": 13.953488372093023, "tall_2+": 18.604651162790699 }, "geometry": { "type": "Point", "coordinates": [ -0.265421473615109, 51.563601537847781 ] } },
{ "type": "Feature", "properties": { "max_height": 0.91225051879882812, "mean_height": 0.14465360343456268, "std_height": 0.26165297627449036, "count_pixels": 41, "percent_cover": 0.19768563162970107, "percent_above_0.1m": 26.829268292682929, "low_level_<0.5": 9.7560975609756095, "mid_level_0.5-2": 14.634146341463413, "tall_2+": 0.0 }, "geometry": { "type": "Point", "coordinates": [ -0.265221660605474, 51.563598588147499 ] } },
{ "type": "Feature", "properties": { "max_height": 3.2917518615722656, "mean_height": 0.50441658496856689, "std_height": 0.70869719982147217, "count_pixels": 41, "percent_cover": 0.19768563162970107, "percent_above_0.1m": 53.658536585365859, "low_level_<0.5": 19.512195121951219, "mid_level_0.5-2": 29.268292682926827, "tall_2+": 4.8780487804878048 }, "geometry": { "type": "Point", "coordinates": [ -0.265021847630398, 51.563595638105703 ] } },
{ "type": "Feature", "properties": { "max_height": 4.8782501220703125, "mean_height": 0.96812921762466431, "std_height": 1.3609182834625244, "count_pixels": 41, "percent_cover": 0.19768563162970107, "percent_above_0.1m": 43.902439024390247, "low_level_<0.5": 2.4390243902439024, "mid_level_0.5-2": 17.073170731707318, "tall_2+": 24.390243902439025 }, "geometry": { "type": "Point", "coordinates": [ -0.264822034689885, 51.563592687722384 ] } },
{ "type": "Feature", "properties": { "max_height": 9.8837509155273438, "mean_height": 7.5170507431030273, "std_height": 3.0232036113739014, "count_pixels": 36, "percent_cover": 0.17357762777242045, "percent_above_0.1m": 94.444444444444443, "low_level_<0.5": 0.0, "mid_level_0.5-2": 2.7777777777777777, "tall_2+": 91.666666666666657 }, "geometry": { "type": "Point", "coordinates": [ -0.264622221783944, 51.563589736997535 ] } },
{ "type": "Feature", "properties": { "max_height": 10.133255004882812, "mean_height": 7.0680141448974609, "std_height": 3.5552310943603516, "count_pixels": 41, "percent_cover": 0.19768563162970107, "percent_above_0.1m": 87.804878048780495, "low_level_<0.5": 2.4390243902439024, "mid_level_0.5-2": 2.4390243902439024, "tall_2+": 82.926829268292678 }, "geometry": { "type": "Point", "coordinates": [ -0.264222596075779, 51.5635838345233 ] } },
{ "type": "Feature", "properties": { "max_height": 9.5802497863769531, "mean_height": 3.6237211227416992, "std_height": 3.7262506484985352, "count_pixels": 41, "percent_cover": 0.19768563162970107, "percent_above_0.1m": 75.609756097560975, "low_level_<0.5": 2.4390243902439024, "mid_level_0.5-2": 24.390243902439025, "tall_2+": 46.341463414634148 }, "geometry": { "type": "Point", "coordinates": [ -0.264022783273567, 51.563580882773884 ] } },
{ "type": "Feature", "properties": { "max_height": 3.4707527160644531, "mean_height": 0.56739097833633423, "std_height": 0.95054388046264648, "count_pixels": 43, "percent_cover": 0.2073288331726133, "percent_above_0.1m": 53.488372093023251, "low_level_<0.5": 13.953488372093023, "mid_level_0.5-2": 13.953488372093023, "tall_2+": 13.953488372093023 }, "geometry": { "type": "Point", "coordinates": [ -0.263822970505939, 51.563577930682946 ] } },
{ "type": "Feature", "properties": { "max_height": 4.3400039672851562, "mean_height": 0.82762962579727173, "std_height": 1.1226484775543213, "count_pixels": 41, "percent_cover": 0.19768563162970107, "percent_above_0.1m": 63.414634146341463, "low_level_<0.5": 19.512195121951219, "mid_level_0.5-2": 24.390243902439025, "tall_2+": 14.634146341463413 }, "geometry": { "type": "Point", "coordinates": [ -0.266516341226108, 51.563725602880865 ] } },
{ "type": "Feature", "properties": { "max_height": 3.4307518005371094, "mean_height": 0.64952617883682251, "std_height": 0.94733041524887085, "count_pixels": 41, "percent_cover": 0.19768563162970107, "percent_above_0.1m": 51.219512195121951, "low_level_<0.5": 14.634146341463413, "mid_level_0.5-2": 21.951219512195124, "tall_2+": 12.195121951219512 }, "geometry": { "type": "Point", "coordinates": [ -0.266316527545836, 51.563722655073775 ] } },
{ "type": "Feature", "properties": { "max_height": 4.740753173828125, "mean_height": 0.27234303951263428, "std_height": 0.88837975263595581, "count_pixels": 41, "percent_cover": 0.19768563162970107, "percent_above_0.1m": 21.951219512195124, "low_level_<0.5": 4.8780487804878048, "mid_level_0.5-2": 4.8780487804878048, "tall_2+": 4.8780487804878048 }, "geometry": { "type": "Point", "coordinates": [ -0.266116713900107, 51.563719706925205 ] } },
{ "type": "Feature", "properties": { "max_height": 5.7822494506835938, "mean_height": 1.5030760765075684, "std_height": 2.2065303325653076, "count_pixels": 37, "percent_cover": 0.17839922854387655, "percent_above_0.1m": 51.351351351351347, "low_level_<0.5": 8.1081081081081088, "mid_level_0.5-2": 16.216216216216218, "tall_2+": 24.324324324324326 }, "geometry": { "type": "Point", "coordinates": [ -0.265916900288919, 51.563716758435113 ] } },
{ "type": "Feature", "properties": { "max_height": 5.542755126953125, "mean_height": 2.7265386581420898, "std_height": 2.4219799041748047, "count_pixels": 41, "percent_cover": 0.19768563162970107, "percent_above_0.1m": 73.170731707317074, "low_level_<0.5": 7.3170731707317067, "mid_level_0.5-2": 9.7560975609756095, "tall_2+": 53.658536585365859 }, "geometry": { "type": "Point", "coordinates": [ -0.265717086712279, 51.563713809603485 ] } },
{ "type": "Feature", "properties": { "max_height": 5.7030029296875, "mean_height": 2.281959056854248, "std_height": 2.4593451023101807, "count_pixels": 41, "percent_cover": 0.19768563162970107, "percent_above_0.1m": 58.536585365853654, "low_level_<0.5": 4.8780487804878048, "mid_level_0.5-2": 12.195121951219512, "tall_2+": 41.463414634146339 }, "geometry": { "type": "Point", "coordinates": [ -0.265517273170189, 51.563710860430348 ] } },
{ "type": "Feature", "properties": { "max_height": 4.7605056762695312, "mean_height": 0.40733104944229126, "std_height": 0.95978498458862305, "count_pixels": 41, "percent_cover": 0.19768563162970107, "percent_above_0.1m": 31.707317073170731, "low_level_<0.5": 4.8780487804878048, "mid_level_0.5-2": 17.073170731707318, "tall_2+": 7.3170731707317067 }, "geometry": { "type": "Point", "coordinates": [ -0.265317459662655, 51.563707910915674 ] } },
{ "type": "Feature", "properties": { "max_height": 4.7092514038085938, "mean_height": 0.39723995327949524, "std_height": 0.9331093430519104, "count_pixels": 43, "percent_cover": 0.2073288331726133, "percent_above_0.1m": 32.558139534883722, "low_level_<0.5": 9.3023255813953494, "mid_level_0.5-2": 13.953488372093023, "tall_2+": 6.9767441860465116 }, "geometry": { "type": "Point", "coordinates": [ -0.265117646189678, 51.563704961059472 ] } },
{ "type": "Feature", "properties": { "max_height": 2.5275039672851562, "mean_height": 0.58872836828231812, "std_height": 0.85253119468688965, "count_pixels": 43, "percent_cover": 0.2073288331726133, "percent_above_0.1m": 41.860465116279073, "low_level_<0.5": 9.3023255813953494, "mid_level_0.5-2": 18.604651162790699, "tall_2+": 13.953488372093023 }, "geometry": { "type": "Point", "coordinates": [ -0.264917832751268, 51.563702010861768 ] } },
{ "type": "Feature", "properties": { "max_height": 1.1237525939941406, "mean_height": 0.050227854400873184, "std_height": 0.17965732514858246, "count_pixels": 43, "percent_cover": 0.2073288331726133, "percent_above_0.1m": 11.627906976744185, "low_level_<0.5": 6.9767441860465116, "mid_level_0.5-2": 2.3255813953488373, "tall_2+": 0.0 }, "geometry": { "type": "Point", "coordinates": [ -0.264718019347418, 51.563699060322541 ] } },
{ "type": "Feature", "properties": { "max_height": 9.8597488403320312, "mean_height": 6.6027917861938477, "std_height": 3.6547012329101562, "count_pixels": 43, "percent_cover": 0.2073288331726133, "percent_above_0.1m": 90.697674418604649, "low_level_<0.5": 0.0, "mid_level_0.5-2": 11.627906976744185, "tall_2+": 79.069767441860463 }, "geometry": { "type": "Point", "coordinates": [ -0.26451820597815, 51.563696109441786 ] } },
{ "type": "Feature", "properties": { "max_height": 10.039005279541016, "mean_height": 5.6338386535644531, "std_height": 3.8863561153411865, "count_pixels": 43, "percent_cover": 0.2073288331726133, "percent_above_0.1m": 81.395348837209298, "low_level_<0.5": 2.3255813953488373, "mid_level_0.5-2": 4.6511627906976747, "tall_2+": 72.093023255813947 }, "geometry": { "type": "Point", "coordinates": [ -0.264318392643443, 51.563693158219507 ] } },
{ "type": "Feature", "properties": { "max_height": 8.0592498779296875, "mean_height": 1.1014493703842163, "std_height": 1.9703843593597412, "count_pixels": 43, "percent_cover": 0.2073288331726133, "percent_above_0.1m": 41.860465116279073, "low_level_<0.5": 4.6511627906976747, "mid_level_0.5-2": 11.627906976744185, "tall_2+": 23.255813953488371 }, "geometry": { "type": "Point", "coordinates": [ -0.264118579343329, 51.563690206655693 ] } },
{ "type": "Feature", "properties": { "max_height": 6.2912521362304688, "mean_height": 2.659024715423584, "std_height": 2.4023473262786865, "count_pixels": 43, "percent_cover": 0.2073288331726133, "percent_above_0.1m": 74.418604651162795, "low_level_<0.5": 4.6511627906976747, "mid_level_0.5-2": 20.930232558139537, "tall_2+": 48.837209302325576 }, "geometry": { "type": "Point", "coordinates": [ -0.266212515412213, 51.563829028849526 ] } },
{ "type": "Feature", "properties": { "max_height": 5.9560050964355469, "mean_height": 0.84226959943771362, "std_height": 1.865906834602356, "count_pixels": 42, "percent_cover": 0.20250723240115717, "percent_above_0.1m": 26.190476190476193, "low_level_<0.5": 4.7619047619047619, "mid_level_0.5-2": 0.0, "tall_2+": 16.666666666666664 }, "geometry": { "type": "Point", "coordinates": [ -0.266012701303132, 51.563826080545049 ] } },
{ "type": "Feature", "properties": { "max_height": 1.1377525329589844, "mean_height": 0.1455715149641037, "std_height": 0.2691328227519989, "count_pixels": 43, "percent_cover": 0.2073288331726133, "percent_above_0.1m": 23.255813953488371, "low_level_<0.5": 9.3023255813953494, "mid_level_0.5-2": 11.627906976744185, "tall_2+": 0.0 }, "geometry": { "type": "Point", "coordinates": [ -0.265812887228594, 51.563823131899042 ] } },
{ "type": "Feature", "properties": { "max_height": 1.0545005798339844, "mean_height": 0.11519374698400497, "std_height": 0.27089968323707581, "count_pixels": 43, "percent_cover": 0.2073288331726133, "percent_above_0.1m": 16.279069767441861, "low_level_<0.5": 4.6511627906976747, "mid_level_0.5-2": 11.627906976744185, "tall_2+": 0.0 }, "geometry": { "type": "Point", "coordinates": [ -0.265613073188607, 51.563820182911527 ] } },
{ "type": "Feature", "properties": { "max_height": 6.2180023193359375, "mean_height": 0.51169949769973755, "std_height": 1.2917529344558716, "count_pixels": 43, "percent_cover": 0.2073288331726133, "percent_above_0.1m": 23.255813953488371, "low_level_<0.5": 4.6511627906976747, "mid_level_0.5-2": 6.9767441860465116, "tall_2+": 11.627906976744185 }, "geometry": { "type": "Point", "coordinates": [ -0.265413259183172, 51.563817233582455 ] } },
{ "type": "Feature", "properties": { "max_height": 7.7587547302246094, "mean_height": 1.3930990695953369, "std_height": 2.0623476505279541, "count_pixels": 41, "percent_cover": 0.19768563162970107, "percent_above_0.1m": 53.658536585365859, "low_level_<0.5": 7.3170731707317067, "mid_level_0.5-2": 14.634146341463413, "tall_2+": 29.268292682926827 }, "geometry": { "type": "Point", "coordinates": [ -0.265213445212296, 51.563814283911888 ] } },
{ "type": "Feature", "properties": { "max_height": 3.3637542724609375, "mean_height": 0.49002039432525635, "std_height": 0.90309178829193115, "count_pixels": 41, "percent_cover": 0.19768563162970107, "percent_above_0.1m": 36.585365853658537, "low_level_<0.5": 7.3170731707317067, "mid_level_0.5-2": 19.512195121951219, "tall_2+": 9.7560975609756095 }, "geometry": { "type": "Point", "coordinates": [ -0.26501363127598, 51.563811333899785 ] } },
{ "type": "Feature", "properties": { "max_height": 4.0657539367675781, "mean_height": 0.48125198483467102, "std_height": 1.0252969264984131, "count_pixels": 41, "percent_cover": 0.19768563162970107, "percent_above_0.1m": 29.268292682926827, "low_level_<0.5": 2.4390243902439024, "mid_level_0.5-2": 17.073170731707318, "tall_2+": 9.7560975609756095 }, "geometry": { "type": "Point", "coordinates": [ -0.264813817374232, 51.56380838354616 ] } },
{ "type": "Feature", "properties": { "max_height": 0.01525115966796875, "mean_height": 0.0023701984900981188, "std_height": 0.0045674224384129047, "count_pixels": 36, "percent_cover": 0.17357762777242045, "percent_above_0.1m": 0.0, "low_level_<0.5": 0.0, "mid_level_0.5-2": 0.0, "tall_2+": 0.0 }, "geometry": { "type": "Point", "coordinates": [ -0.264614003507046, 51.563805432851034 ] } },
{ "type": "Feature", "properties": { "max_height": 9.5470046997070312, "mean_height": 1.7951239347457886, "std_height": 3.1430821418762207, "count_pixels": 41, "percent_cover": 0.19768563162970107, "percent_above_0.1m": 34.146341463414636, "low_level_<0.5": 0.0, "mid_level_0.5-2": 9.7560975609756095, "tall_2+": 24.390243902439025 }, "geometry": { "type": "Point", "coordinates": [ -0.26441418967444, 51.563802481814342 ] } },
{ "type": "Feature", "properties": { "max_height": 0.01650238037109375, "mean_height": 0.001770298695191741, "std_height": 0.003457359503954649, "count_pixels": 41, "percent_cover": 0.19768563162970107, "percent_above_0.1m": 0.0, "low_level_<0.5": 0.0, "mid_level_0.5-2": 0.0, "tall_2+": 0.0 }, "geometry": { "type": "Point", "coordinates": [ -0.264214375876407, 51.563799530436157 ] } },
{ "type": "Feature", "properties": { "max_height": 2.8210029602050781, "mean_height": 0.10516645759344101, "std_height": 0.46447929739952087, "count_pixels": 41, "percent_cover": 0.19768563162970107, "percent_above_0.1m": 7.3170731707317067, "low_level_<0.5": 2.4390243902439024, "mid_level_0.5-2": 2.4390243902439024, "tall_2+": 2.4390243902439024 }, "geometry": { "type": "Point", "coordinates": [ -0.264014562112962, 51.563796578716442 ] } },
{ "type": "Feature", "properties": { "max_height": 6.1205024719238281, "mean_height": 2.7489964962005615, "std_height": 2.5339465141296387, "count_pixels": 41, "percent_cover": 0.19768563162970107, "percent_above_0.1m": 78.048780487804876, "low_level_<0.5": 7.3170731707317067, "mid_level_0.5-2": 21.951219512195124, "tall_2+": 46.341463414634148 }, "geometry": { "type": "Point", "coordinates": [ -0.26570887367037, 51.56392950529132 ] } },
{ "type": "Feature", "properties": { "max_height": 0.14825057983398438, "mean_height": 0.004562936257570982, "std_height": 0.023141993209719658, "count_pixels": 41, "percent_cover": 0.19768563162970107, "percent_above_0.1m": 2.4390243902439024, "low_level_<0.5": 0.0, "mid_level_0.5-2": 0.0, "tall_2+": 0.0 }, "geometry": { "type": "Point", "coordinates": [ -0.265509059167034, 51.563926556147884 ] } },
{ "type": "Feature", "properties": { "max_height": 2.6425018310546875, "mean_height": 0.20583733916282654, "std_height": 0.60526049137115479, "count_pixels": 41, "percent_cover": 0.19768563162970107, "percent_above_0.1m": 12.195121951219512, "low_level_<0.5": 0.0, "mid_level_0.5-2": 7.3170731707317067, "tall_2+": 4.8780487804878048 }, "geometry": { "type": "Point", "coordinates": [ -0.265309244698253, 51.563923606662918 ] } },
{ "type": "Feature", "properties": { "max_height": 1.4962539672851562, "mean_height": 0.060298386961221695, "std_height": 0.2381366640329361, "count_pixels": 43, "percent_cover": 0.2073288331726133, "percent_above_0.1m": 11.627906976744185, "low_level_<0.5": 6.9767441860465116, "mid_level_0.5-2": 4.6511627906976747, "tall_2+": 0.0 }, "geometry": { "type": "Point", "coordinates": [ -0.265109430264032, 51.563920656836437 ] } },
{ "type": "Feature", "properties": { "max_height": 6.4872512817382812, "mean_height": 2.3482985496520996, "std_height": 2.7079510688781738, "count_pixels": 43, "percent_cover": 0.2073288331726133, "percent_above_0.1m": 62.790697674418603, "low_level_<0.5": 9.3023255813953494, "mid_level_0.5-2": 9.3023255813953494, "tall_2+": 39.534883720930232 }, "geometry": { "type": "Point", "coordinates": [ -0.264909615864371, 51.56391770666842 ] } },
{ "type": "Feature", "properties": { "max_height": 6.722503662109375, "mean_height": 1.9445427656173706, "std_height": 2.7846121788024902, "count_pixels": 43, "percent_cover": 0.2073288331726133, "percent_above_0.1m": 51.162790697674424, "low_level_<0.5": 11.627906976744185, "mid_level_0.5-2": 4.6511627906976747, "tall_2+": 32.558139534883722 }, "geometry": { "type": "Point", "coordinates": [ -0.264709801499283, 51.56391475615888 ] } },
{ "type": "Feature", "properties": { "max_height": 1.5882492065429688, "mean_height": 0.10229802876710892, "std_height": 0.35825517773628235, "count_pixels": 43, "percent_cover": 0.2073288331726133, "percent_above_0.1m": 9.3023255813953494, "low_level_<0.5": 2.3255813953488373, "mid_level_0.5-2": 6.9767441860465116, "tall_2+": 0.0 }, "geometry": { "type": "Point", "coordinates": [ -0.26450998716876, 51.563911805307832 ] } },
{ "type": "Feature", "properties": { "max_height": 0.018749237060546875, "mean_height": 0.0033214481081813574, "std_height": 0.0051736547611653805, "count_pixels": 43, "percent_cover": 0.2073288331726133, "percent_above_0.1m": 0.0, "low_level_<0.5": 0.0, "mid_level_0.5-2": 0.0, "tall_2+": 0.0 }, "geometry": { "type": "Point", "coordinates": [ -0.264310172872822, 51.563908854115226 ] } },
{ "type": "Feature", "properties": { "max_height": 4.7717552185058594, "mean_height": 0.39728030562400818, "std_height": 1.0605994462966919, "count_pixels": 43, "percent_cover": 0.2073288331726133, "percent_above_0.1m": 16.279069767441861, "low_level_<0.5": 0.0, "mid_level_0.5-2": 6.9767441860465116, "tall_2+": 9.3023255813953494 }, "geometry": { "type": "Point", "coordinates": [ -0.264110358611458, 51.563905902581126 ] } },
{ "type": "Feature", "properties": { "max_height": 1.9027557373046875, "mean_height": 0.12010565400123596, "std_height": 0.34936681389808655, "count_pixels": 41, "percent_cover": 0.19768563162970107, "percent_above_0.1m": 17.073170731707318, "low_level_<0.5": 4.8780487804878048, "mid_level_0.5-2": 7.3170731707317067, "tall_2+": 0.0 }, "geometry": { "type": "Point", "coordinates": [ -0.263910544384675, 51.563902950705483 ] } },
{ "type": "Feature", "properties": { "max_height": 5.8120040893554688, "mean_height": 1.8980088233947754, "std_height": 2.4445891380310059, "count_pixels": 43, "percent_cover": 0.2073288331726133, "percent_above_0.1m": 48.837209302325576, "low_level_<0.5": 4.6511627906976747, "mid_level_0.5-2": 4.6511627906976747, "tall_2+": 37.209302325581397 }, "geometry": { "type": "Point", "coordinates": [ -0.265604859614238, 51.564035878611918 ] } },
{ "type": "Feature", "properties": { "max_height": 3.2855072021484375, "mean_height": 0.28960675001144409, "std_height": 0.70038443803787231, "count_pixels": 43, "percent_cover": 0.2073288331726133, "percent_above_0.1m": 30.232558139534881, "low_level_<0.5": 11.627906976744185, "mid_level_0.5-2": 9.3023255813953494, "tall_2+": 4.6511627906976747 }, "geometry": { "type": "Point", "coordinates": [ -0.26540504464755, 51.564032929312582 ] } },
{ "type": "Feature", "properties": { "max_height": 6.097503662109375, "mean_height": 1.7284352779388428, "std_height": 2.3505034446716309, "count_pixels": 41, "percent_cover": 0.19768563162970107, "percent_above_0.1m": 43.902439024390247, "low_level_<0.5": 2.4390243902439024, "mid_level_0.5-2": 4.8780487804878048, "tall_2+": 36.585365853658537 }, "geometry": { "type": "Point", "coordinates": [ -0.265205229715423, 51.564029979671702 ] } },
{ "type": "Feature", "properties": { "max_height": 6.2647514343261719, "mean_height": 2.17002272605896, "std_height": 2.4776010513305664, "count_pixels": 36, "percent_cover": 0.17357762777242045, "percent_above_0.1m": 66.666666666666657, "low_level_<0.5": 8.3333333333333321, "mid_level_0.5-2": 13.888888888888889, "tall_2+": 38.888888888888893 }, "geometry": { "type": "Point", "coordinates": [ -0.264605785126421, 51.564021128699935 ] } },
{ "type": "Feature", "properties": { "max_height": 2.8942527770996094, "mean_height": 0.29688587784767151, "std_height": 0.69996148347854614, "count_pixels": 41, "percent_cover": 0.19768563162970107, "percent_above_0.1m": 19.512195121951219, "low_level_<0.5": 2.4390243902439024, "mid_level_0.5-2": 12.195121951219512, "tall_2+": 4.8780487804878048 }, "geometry": { "type": "Point", "coordinates": [ -0.264405970332561, 51.564018177692972 ] } },
{ "type": "Feature", "properties": { "max_height": 1.7932510375976562, "mean_height": 0.11733162403106689, "std_height": 0.37508741021156311, "count_pixels": 41, "percent_cover": 0.19768563162970107, "percent_above_0.1m": 9.7560975609756095, "low_level_<0.5": 0.0, "mid_level_0.5-2": 9.7560975609756095, "tall_2+": 0.0 }, "geometry": { "type": "Point", "coordinates": [ -0.264206155573284, 51.564015226344459 ] } },
{ "type": "Feature", "properties": { "max_height": 7.8960037231445312, "mean_height": 0.68585556745529175, "std_height": 1.8052202463150024, "count_pixels": 41, "percent_cover": 0.19768563162970107, "percent_above_0.1m": 17.073170731707318, "low_level_<0.5": 2.4390243902439024, "mid_level_0.5-2": 2.4390243902439024, "tall_2+": 12.195121951219512 }, "geometry": { "type": "Point", "coordinates": [ -0.264006340848585, 51.564012274654417 ] } },
{ "type": "Feature", "properties": { "max_height": 9.9067535400390625, "mean_height": 3.0410830974578857, "std_height": 4.0676765441894531, "count_pixels": 43, "percent_cover": 0.2073288331726133, "percent_above_0.1m": 46.511627906976742, "low_level_<0.5": 6.9767441860465116, "mid_level_0.5-2": 2.3255813953488373, "tall_2+": 37.209302325581397 }, "geometry": { "type": "Point", "coordinates": [ -0.263806526158469, 51.564009322622866 ] } },
{ "type": "Feature", "properties": { "max_height": 0.35875320434570312, "mean_height": 0.036239344626665115, "std_height": 0.082875832915306091, "count_pixels": 41, "percent_cover": 0.19768563162970107, "percent_above_0.1m": 17.073170731707318, "low_level_<0.5": 12.195121951219512, "mid_level_0.5-2": 0.0, "tall_2+": 0.0 }, "geometry": { "type": "Point", "coordinates": [ -0.265500845060199, 51.564142251860851 ] } },
{ "type": "Feature", "properties": { "max_height": 6.579254150390625, "mean_height": 4.6583437919616699, "std_height": 1.3855686187744141, "count_pixels": 41, "percent_cover": 0.19768563162970107, "percent_above_0.1m": 100.0, "low_level_<0.5": 0.0, "mid_level_0.5-2": 7.3170731707317067, "tall_2+": 92.682926829268297 }, "geometry": { "type": "Point", "coordinates": [ -0.265301029630158, 51.564139302405593 ] } },
{ "type": "Feature", "properties": { "max_height": 6.3035011291503906, "mean_height": 2.7117342948913574, "std_height": 2.8502888679504395, "count_pixels": 43, "percent_cover": 0.2073288331726133, "percent_above_0.1m": 62.790697674418603, "low_level_<0.5": 9.3023255813953494, "mid_level_0.5-2": 6.9767441860465116, "tall_2+": 44.186046511627907 }, "geometry": { "type": "Point", "coordinates": [ -0.264501768255642, 51.564127501169295 ] } },
{ "type": "Feature", "properties": { "max_height": 2.615997314453125, "mean_height": 0.22733910381793976, "std_height": 0.59673810005187988, "count_pixels": 43, "percent_cover": 0.2073288331726133, "percent_above_0.1m": 20.930232558139537, "low_level_<0.5": 6.9767441860465116, "mid_level_0.5-2": 6.9767441860465116, "tall_2+": 4.6511627906976747 }, "geometry": { "type": "Point", "coordinates": [ -0.264301952998445, 51.564124550006419 ] } },
{ "type": "Feature", "properties": { "max_height": 10.639247894287109, "mean_height": 5.7073798179626465, "std_height": 4.1913151741027832, "count_pixels": 43, "percent_cover": 0.2073288331726133, "percent_above_0.1m": 81.395348837209298, "low_level_<0.5": 2.3255813953488373, "mid_level_0.5-2": 4.6511627906976747, "tall_2+": 72.093023255813947 }, "geometry": { "type": "Point", "coordinates": [ -0.264102137775824, 51.564121598501991 ] } },
{ "type": "Feature", "properties": { "max_height": 9.9589996337890625, "mean_height": 6.8293857574462891, "std_height": 3.4486196041107178, "count_pixels": 41, "percent_cover": 0.19768563162970107, "percent_above_0.1m": 95.121951219512198, "low_level_<0.5": 0.0, "mid_level_0.5-2": 9.7560975609756095, "tall_2+": 85.365853658536579 }, "geometry": { "type": "Point", "coordinates": [ -0.263902322587791, 51.564118646656034 ] } },
{ "type": "Feature", "properties": { "max_height": 5.9362564086914062, "mean_height": 0.29317224025726318, "std_height": 1.127039909362793, "count_pixels": 41, "percent_cover": 0.19768563162970107, "percent_above_0.1m": 7.3170731707317067, "low_level_<0.5": 0.0, "mid_level_0.5-2": 2.4390243902439024, "tall_2+": 4.8780487804878048 }, "geometry": { "type": "Point", "coordinates": [ -0.263702507434341, 51.564115694468569 ] } },
{ "type": "Feature", "properties": { "max_height": 4.506500244140625, "mean_height": 0.48625218868255615, "std_height": 0.95457327365875244, "count_pixels": 43, "percent_cover": 0.2073288331726133, "percent_above_0.1m": 32.558139534883722, "low_level_<0.5": 9.3023255813953494, "mid_level_0.5-2": 16.279069767441861, "tall_2+": 6.9767441860465116 }, "geometry": { "type": "Point", "coordinates": [ -0.265596645936197, 51.564251574307747 ] } },
{ "type": "Feature", "properties": { "max_height": 10.449005126953125, "mean_height": 4.8637409210205078, "std_height": 2.6459088325500488, "count_pixels": 43, "percent_cover": 0.2073288331726133, "percent_above_0.1m": 97.674418604651152, "low_level_<0.5": 2.3255813953488373, "mid_level_0.5-2": 13.953488372093023, "tall_2+": 81.395348837209298 }, "geometry": { "type": "Point", "coordinates": [ -0.265396830008243, 51.564248625038104 ] } },
{ "type": "Feature", "properties": { "max_height": 6.4407539367675781, "mean_height": 3.3550207614898682, "std_height": 2.7424182891845703, "count_pixels": 41, "percent_cover": 0.19768563162970107, "percent_above_0.1m": 80.487804878048792, "low_level_<0.5": 4.8780487804878048, "mid_level_0.5-2": 21.951219512195124, "tall_2+": 53.658536585365859 }, "geometry": { "type": "Point", "coordinates": [ -0.264397750886938, 51.564233873566998 ] } },
{ "type": "Feature", "properties": { "max_height": 9.8745040893554688, "mean_height": 4.7495388984680176, "std_height": 4.1290693283081055, "count_pixels": 41, "percent_cover": 0.19768563162970107, "percent_above_0.1m": 73.170731707317074, "low_level_<0.5": 2.4390243902439024, "mid_level_0.5-2": 9.7560975609756095, "tall_2+": 58.536585365853654 }, "geometry": { "type": "Point", "coordinates": [ -0.2641979351664, 51.564230922248193 ] } },
{ "type": "Feature", "properties": { "max_height": 9.5677528381347656, "mean_height": 2.0678067207336426, "std_height": 2.9886529445648193, "count_pixels": 41, "percent_cover": 0.19768563162970107, "percent_above_0.1m": 56.09756097560976, "low_level_<0.5": 4.8780487804878048, "mid_level_0.5-2": 17.073170731707318, "tall_2+": 31.707317073170731 }, "geometry": { "type": "Point", "coordinates": [ -0.26399811948044, 51.564227970587851 ] } },
{ "type": "Feature", "properties": { "max_height": 1.7115020751953125, "mean_height": 0.1407865434885025, "std_height": 0.33052703738212585, "count_pixels": 43, "percent_cover": 0.2073288331726133, "percent_above_0.1m": 20.930232558139537, "low_level_<0.5": 6.9767441860465116, "mid_level_0.5-2": 11.627906976744185, "tall_2+": 0.0 }, "geometry": { "type": "Point", "coordinates": [ -0.263798303829069, 51.564225018585972 ] } },
{ "type": "Feature", "properties": { "max_height": 6.0862541198730469, "mean_height": 2.4036972522735596, "std_height": 2.5535309314727783, "count_pixels": 41, "percent_cover": 0.19768563162970107, "percent_above_0.1m": 65.853658536585371, "low_level_<0.5": 7.3170731707317067, "mid_level_0.5-2": 14.634146341463413, "tall_2+": 41.463414634146339 }, "geometry": { "type": "Point", "coordinates": [ -0.265692447275549, 51.564360896653263 ] } },
{ "type": "Feature", "properties": { "max_height": 7.71075439453125, "mean_height": 0.97293484210968018, "std_height": 1.7734911441802979, "count_pixels": 41, "percent_cover": 0.19768563162970107, "percent_above_0.1m": 39.024390243902438, "low_level_<0.5": 7.3170731707317067, "mid_level_0.5-2": 12.195121951219512, "tall_2+": 19.512195121951219 }, "geometry": { "type": "Point", "coordinates": [ -0.265492630849684, 51.564357947569249 ] } },
{ "type": "Feature", "properties": { "max_height": 6.1492538452148438, "mean_height": 3.2579619884490967, "std_height": 2.6239042282104492, "count_pixels": 43, "percent_cover": 0.2073288331726133, "percent_above_0.1m": 79.069767441860463, "low_level_<0.5": 2.3255813953488373, "mid_level_0.5-2": 20.930232558139537, "tall_2+": 55.813953488372093 }, "geometry": { "type": "Point", "coordinates": [ -0.264293733020317, 51.564340245893021 ] } },
{ "type": "Feature", "properties": { "max_height": 0.53549957275390625, "mean_height": 0.046292860060930252, "std_height": 0.1369607001543045, "count_pixels": 43, "percent_cover": 0.2073288331726133, "percent_above_0.1m": 9.3023255813953494, "low_level_<0.5": 4.6511627906976747, "mid_level_0.5-2": 4.6511627906976747, "tall_2+": 0.0 }, "geometry": { "type": "Point", "coordinates": [ -0.264093916836427, 51.564337294418294 ] } },
{ "type": "Feature", "properties": { "max_height": 3.167755126953125, "mean_height": 0.23094139993190765, "std_height": 0.54807883501052856, "count_pixels": 41, "percent_cover": 0.19768563162970107, "percent_above_0.1m": 36.585365853658537, "low_level_<0.5": 9.7560975609756095, "mid_level_0.5-2": 12.195121951219512, "tall_2+": 2.4390243902439024 }, "geometry": { "type": "Point", "coordinates": [ -0.26389410068713, 51.564334342602024 ] } },
{ "type": "Feature", "properties": { "max_height": 5.3107528686523438, "mean_height": 1.0562160015106201, "std_height": 1.165358304977417, "count_pixels": 42, "percent_cover": 0.20250723240115717, "percent_above_0.1m": 71.428571428571431, "low_level_<0.5": 9.5238095238095237, "mid_level_0.5-2": 35.714285714285715, "tall_2+": 23.809523809523807 }, "geometry": { "type": "Point", "coordinates": [ -0.265988066036597, 51.564473167454274 ] } },
{ "type": "Feature", "properties": { "max_height": 5.9534988403320312, "mean_height": 3.8828394412994385, "std_height": 2.4047927856445312, "count_pixels": 43, "percent_cover": 0.2073288331726133, "percent_above_0.1m": 83.720930232558146, "low_level_<0.5": 0.0, "mid_level_0.5-2": 11.627906976744185, "tall_2+": 69.767441860465112 }, "geometry": { "type": "Point", "coordinates": [ -0.265788249078265, 51.564470218897412 ] } },
{ "type": "Feature", "properties": { "max_height": 0.34450149536132812, "mean_height": 0.010525104589760303, "std_height": 0.058234065771102905, "count_pixels": 43, "percent_cover": 0.2073288331726133, "percent_above_0.1m": 4.6511627906976747, "low_level_<0.5": 4.6511627906976747, "mid_level_0.5-2": 0.0, "tall_2+": 0.0 }, "geometry": { "type": "Point", "coordinates": [ -0.265588432154478, 51.564467269999007 ] } },
{ "type": "Feature", "properties": { "max_height": 6.0072517395019531, "mean_height": 4.6056246757507324, "std_height": 1.7666640281677246, "count_pixels": 43, "percent_cover": 0.2073288331726133, "percent_above_0.1m": 95.348837209302332, "low_level_<0.5": 2.3255813953488373, "mid_level_0.5-2": 6.9767441860465116, "tall_2+": 86.04651162790698 }, "geometry": { "type": "Point", "coordinates": [ -0.26538861526525, 51.564464320759079 ] } },
{ "type": "Feature", "properties": { "max_height": 5.6845016479492188, "mean_height": 0.47280707955360413, "std_height": 1.283165454864502, "count_pixels": 41, "percent_cover": 0.19768563162970107, "percent_above_0.1m": 19.512195121951219, "low_level_<0.5": 2.4390243902439024, "mid_level_0.5-2": 7.3170731707317067, "tall_2+": 9.7560975609756095 }, "geometry": { "type": "Point", "coordinates": [ -0.264189714655758, 51.56444661814735 ] } },
{ "type": "Feature", "properties": { "max_height": 0.77099990844726562, "mean_height": 0.16760560870170593, "std_height": 0.23846741020679474, "count_pixels": 41, "percent_cover": 0.19768563162970107, "percent_above_0.1m": 43.902439024390247, "low_level_<0.5": 21.951219512195124, "mid_level_0.5-2": 12.195121951219512, "tall_2+": 0.0 }, "geometry": { "type": "Point", "coordinates": [ -0.266083868800591, 51.564582489411421 ] } },
{ "type": "Feature", "properties": { "max_height": 5.4265060424804688, "mean_height": 0.56317126750946045, "std_height": 1.3936325311660767, "count_pixels": 37, "percent_cover": 0.17839922854387655, "percent_above_0.1m": 18.918918918918919, "low_level_<0.5": 2.7027027027027026, "mid_level_0.5-2": 2.7027027027027026, "tall_2+": 13.513513513513514 }, "geometry": { "type": "Point", "coordinates": [ -0.265884051344341, 51.564579541040167 ] } },
{ "type": "Feature", "properties": { "max_height": 1.9092521667480469, "mean_height": 0.30529496073722839, "std_height": 0.51137202978134155, "count_pixels": 41, "percent_cover": 0.19768563162970107, "percent_above_0.1m": 31.707317073170731, "low_level_<0.5": 4.8780487804878048, "mid_level_0.5-2": 24.390243902439025, "tall_2+": 0.0 }, "geometry": { "type": "Point", "coordinates": [ -0.265684233922637, 51.564576592327377 ] } },
{ "type": "Feature", "properties": { "max_height": 5.274749755859375, "mean_height": 0.53739827871322632, "std_height": 1.4316892623901367, "count_pixels": 41, "percent_cover": 0.19768563162970107, "percent_above_0.1m": 26.829268292682929, "low_level_<0.5": 7.3170731707317067, "mid_level_0.5-2": 4.8780487804878048, "tall_2+": 9.7560975609756095 }, "geometry": { "type": "Point", "coordinates": [ -0.265484416535487, 51.564573643273093 ] } },
{ "type": "Feature", "properties": { "max_height": 5.4392509460449219, "mean_height": 1.0008864402770996, "std_height": 1.601233959197998, "count_pixels": 41, "percent_cover": 0.19768563162970107, "percent_above_0.1m": 46.341463414634148, "low_level_<0.5": 9.7560975609756095, "mid_level_0.5-2": 12.195121951219512, "tall_2+": 24.390243902439025 }, "geometry": { "type": "Point", "coordinates": [ -0.265284599182897, 51.564570693877236 ] } },
{ "type": "Feature", "properties": { "max_height": 0.0187530517578125, "mean_height": 0.00021131648099981248, "std_height": 0.0066779782064259052, "count_pixels": 43, "percent_cover": 0.2073288331726133, "percent_above_0.1m": 0.0, "low_level_<0.5": 0.0, "mid_level_0.5-2": 0.0, "tall_2+": 0.0 }, "geometry": { "type": "Point", "coordinates": [ -0.265780036154158, 51.564685914554389 ] } },
{ "type": "Feature", "properties": { "max_height": 0.00250244140625, "mean_height": -0.00055588124087080359, "std_height": 0.0024214151781052351, "count_pixels": 43, "percent_cover": 0.2073288331726133, "percent_above_0.1m": 0.0, "low_level_<0.5": 0.0, "mid_level_0.5-2": 0.0, "tall_2+": 0.0 }, "geometry": { "type": "Point", "coordinates": [ -0.265580218269085, 51.564682965685712 ] } },
{ "type": "Feature", "properties": { "max_height": 0.01125335693359375, "mean_height": -0.00077118986519053578, "std_height": 0.0057850158773362637, "count_pixels": 43, "percent_cover": 0.2073288331726133, "percent_above_0.1m": 0.0, "low_level_<0.5": 0.0, "mid_level_0.5-2": 0.0, "tall_2+": 0.0 }, "geometry": { "type": "Point", "coordinates": [ -0.265380400418567, 51.564680016475492 ] } },
{ "type": "Feature", "properties": { "max_height": 0.017253875732421875, "mean_height": 1.4328375073091593e-05, "std_height": 0.0051970342174172401, "count_pixels": 41, "percent_cover": 0.19768563162970107, "percent_above_0.1m": 0.0, "low_level_<0.5": 0.0, "mid_level_0.5-2": 0.0, "tall_2+": 0.0 }, "geometry": { "type": "Point", "coordinates": [ -0.265676020466051, 51.564792287996937 ] } }
]
}
