{
"type": "FeatureCollection",
"name": "0bd063ec0b39_foliage",
"crs": { "type": "name", "properties": { "name": "urn:ogc:def:crs:OGC:1.3:CRS84" } },
"features": [
{ "type": "Feature", "properties": { "max_height": 6.7952508926391602, "mean_height": 1.838732123374939, "std_height": 1.5238685607910156, "count_pixels": 41, "percent_cover": 1.1045258620689655, "percent_above_0.1m": 90.243902439024396, "low_level_<0.5": 2.4390243902439024, "mid_level_0.5-2": 58.536585365853654, "tall_2+": 29.268292682926827 }, "geometry": { "type": "Point", "coordinates": [ -0.229980617472014, 51.502444822921944 ] } },
{ "type": "Feature", "properties": { "max_height": 1.2897505760192871, "mean_height": 0.067851409316062927, "std_height": 0.24971491098403931, "count_pixels": 42, "percent_cover": 1.1314655172413792, "percent_above_0.1m": 9.5238095238095237, "low_level_<0.5": 4.7619047619047619, "mid_level_0.5-2": 4.7619047619047619, "tall_2+": 0.0 }, "geometry": { "type": "Point", "coordinates": [ -0.229781080958261, 51.502441812073229 ] } },
{ "type": "Feature", "properties": { "max_height": 8.3287506103515625, "mean_height": 2.7245757579803467, "std_height": 3.1794228553771973, "count_pixels": 43, "percent_cover": 1.1584051724137931, "percent_above_0.1m": 86.04651162790698, "low_level_<0.5": 20.930232558139537, "mid_level_0.5-2": 23.255813953488371, "tall_2+": 37.209302325581397 }, "geometry": { "type": "Point", "coordinates": [ -0.230076205074558, 51.502554176455163 ] } },
{ "type": "Feature", "properties": { "max_height": 3.4600005149841309, "mean_height": 0.57718479633331299, "std_height": 0.97911828756332397, "count_pixels": 42, "percent_cover": 1.1314655172413792, "percent_above_0.1m": 38.095238095238095, "low_level_<0.5": 7.1428571428571423, "mid_level_0.5-2": 16.666666666666664, "tall_2+": 11.904761904761903 }, "geometry": { "type": "Point", "coordinates": [ -0.229876668070325, 51.50255116576718 ] } },
{ "type": "Feature", "properties": { "max_height": 30.94200325012207, "mean_height": 11.914994239807129, "std_height": 13.543777465820312, "count_pixels": 41, "percent_cover": 1.1045258620689655, "percent_above_0.1m": 56.09756097560976, "low_level_<0.5": 0.0, "mid_level_0.5-2": 7.3170731707317067, "tall_2+": 48.780487804878049 }, "geometry": { "type": "Point", "coordinates": [ -0.229677131100916, 51.502548154739728 ] } },
{ "type": "Feature", "properties": { "max_height": 1.9235005378723145, "mean_height": 0.1001150831580162, "std_height": 0.33497479557991028, "count_pixels": 37, "percent_cover": 0.99676724137931039, "percent_above_0.1m": 13.513513513513514, "low_level_<0.5": 8.1081081081081088, "mid_level_0.5-2": 5.4054054054054053, "tall_2+": 0.0 }, "geometry": { "type": "Point", "coordinates": [ -0.229278057266561, 51.502542131666409 ] } },
{ "type": "Feature", "properties": { "max_height": 30.201751708984375, "mean_height": 2.8565187454223633, "std_height": 7.8507609367370605, "count_pixels": 41, "percent_cover": 1.1045258620689655, "percent_above_0.1m": 34.146341463414636, "low_level_<0.5": 7.3170731707317067, "mid_level_0.5-2": 7.3170731707317067, "tall_2+": 14.634146341463413 }, "geometry": { "type": "Point", "coordinates": [ -0.229078520401625, 51.502539119620515 ] } },
{ "type": "Feature", "properties": { "max_height": 3.413750171661377, "mean_height": 0.96159166097640991, "std_height": 1.080604076385498, "count_pixels": 41, "percent_cover": 1.1045258620689655, "percent_above_0.1m": 60.975609756097562, "low_level_<0.5": 12.195121951219512, "mid_level_0.5-2": 29.268292682926827, "tall_2+": 19.512195121951219 }, "geometry": { "type": "Point", "coordinates": [ -0.229972255638047, 51.502660519383134 ] } },
{ "type": "Feature", "properties": { "max_height": 0.0097503662109375, "mean_height": -0.0031426635105162859, "std_height": 0.0054484177380800247, "count_pixels": 42, "percent_cover": 1.1314655172413792, "percent_above_0.1m": 0.0, "low_level_<0.5": 0.0, "mid_level_0.5-2": 0.0, "tall_2+": 0.0 }, "geometry": { "type": "Point", "coordinates": [ -0.229772718178151, 51.502657508516414 ] } },
{ "type": "Feature", "properties": { "max_height": 27.643503189086914, "mean_height": 2.4379653930664062, "std_height": 6.1991991996765137, "count_pixels": 43, "percent_cover": 1.1584051724137931, "percent_above_0.1m": 25.581395348837212, "low_level_<0.5": 4.6511627906976747, "mid_level_0.5-2": 4.6511627906976747, "tall_2+": 16.279069767441861 }, "geometry": { "type": "Point", "coordinates": [ -0.229573180753085, 51.502654497310246 ] } },
{ "type": "Feature", "properties": { "max_height": 1.0980000495910645, "mean_height": 0.12885484099388123, "std_height": 0.26437723636627197, "count_pixels": 43, "percent_cover": 1.1584051724137931, "percent_above_0.1m": 25.581395348837212, "low_level_<0.5": 16.279069767441861, "mid_level_0.5-2": 6.9767441860465116, "tall_2+": 0.0 }, "geometry": { "type": "Point", "coordinates": [ -0.229373643362834, 51.502651485764581 ] } },
{ "type": "Feature", "properties": { "max_height": 0.47825050354003906, "mean_height": 0.02478589303791523, "std_height": 0.097434356808662415, "count_pixels": 42, "percent_cover": 1.1314655172413792, "percent_above_0.1m": 4.7619047619047619, "low_level_<0.5": 4.7619047619047619, "mid_level_0.5-2": 0.0, "tall_2+": 0.0 }, "geometry": { "type": "Point", "coordinates": [ -0.229174106007413, 51.502648473879461 ] } },
{ "type": "Feature", "properties": { "max_height": 10.359250068664551, "mean_height": 2.1462912559509277, "std_height": 2.6076109409332275, "count_pixels": 43, "percent_cover": 1.1584051724137931, "percent_above_0.1m": 93.023255813953483, "low_level_<0.5": 25.581395348837212, "mid_level_0.5-2": 32.558139534883722, "tall_2+": 32.558139534883722 }, "geometry": { "type": "Point", "coordinates": [ -0.230067843661429, 51.502769872921078 ] } },
{ "type": "Feature", "properties": { "max_height": 4.6452512741088867, "mean_height": 1.2756966352462769, "std_height": 1.4774762392044067, "count_pixels": 42, "percent_cover": 1.1314655172413792, "percent_above_0.1m": 57.142857142857139, "low_level_<0.5": 0.0, "mid_level_0.5-2": 28.571428571428569, "tall_2+": 28.571428571428569 }, "geometry": { "type": "Point", "coordinates": [ -0.229868305711054, 51.502766862215104 ] } },
{ "type": "Feature", "properties": { "max_height": 3.1332502365112305, "mean_height": 0.6359209418296814, "std_height": 0.99882179498672485, "count_pixels": 41, "percent_cover": 1.1045258620689655, "percent_above_0.1m": 36.585365853658537, "low_level_<0.5": 4.8780487804878048, "mid_level_0.5-2": 12.195121951219512, "tall_2+": 17.073170731707318 }, "geometry": { "type": "Point", "coordinates": [ -0.229668767795495, 51.502763851169668 ] } },
{ "type": "Feature", "properties": { "max_height": 2.9165005683898926, "mean_height": 0.61382335424423218, "std_height": 0.90754455327987671, "count_pixels": 41, "percent_cover": 1.1045258620689655, "percent_above_0.1m": 41.463414634146339, "low_level_<0.5": 4.8780487804878048, "mid_level_0.5-2": 24.390243902439025, "tall_2+": 12.195121951219512 }, "geometry": { "type": "Point", "coordinates": [ -0.229469229914762, 51.502760839784763 ] } },
{ "type": "Feature", "properties": { "max_height": 2.7537503242492676, "mean_height": 0.38897988200187683, "std_height": 0.7558249831199646, "count_pixels": 37, "percent_cover": 0.99676724137931039, "percent_above_0.1m": 24.324324324324326, "low_level_<0.5": 2.7027027027027026, "mid_level_0.5-2": 13.513513513513514, "tall_2+": 8.1081081081081088 }, "geometry": { "type": "Point", "coordinates": [ -0.229269692068851, 51.502757828060354 ] } },
{ "type": "Feature", "properties": { "max_height": 30.440000534057617, "mean_height": 4.3722867965698242, "std_height": 9.0455894470214844, "count_pixels": 41, "percent_cover": 1.1045258620689655, "percent_above_0.1m": 21.951219512195124, "low_level_<0.5": 0.0, "mid_level_0.5-2": 0.0, "tall_2+": 21.951219512195124 }, "geometry": { "type": "Point", "coordinates": [ -0.22907015425777, 51.502754815996518 ] } },
{ "type": "Feature", "properties": { "max_height": 30.746252059936523, "mean_height": 16.508031845092773, "std_height": 13.257377624511719, "count_pixels": 41, "percent_cover": 1.1045258620689655, "percent_above_0.1m": 85.365853658536579, "low_level_<0.5": 7.3170731707317067, "mid_level_0.5-2": 14.634146341463413, "tall_2+": 63.414634146341463 }, "geometry": { "type": "Point", "coordinates": [ -0.228870616481529, 51.502751803593156 ] } },
{ "type": "Feature", "properties": { "max_height": 6.4500007629394531, "mean_height": 1.4437320232391357, "std_height": 2.002286434173584, "count_pixels": 41, "percent_cover": 1.1045258620689655, "percent_above_0.1m": 70.731707317073173, "low_level_<0.5": 17.073170731707318, "mid_level_0.5-2": 31.707317073170731, "tall_2+": 21.951219512195124 }, "geometry": { "type": "Point", "coordinates": [ -0.229963893699613, 51.502876215835812 ] } },
{ "type": "Feature", "properties": { "max_height": 8.5435009002685547, "mean_height": 3.9792861938476562, "std_height": 3.3256905078887939, "count_pixels": 42, "percent_cover": 1.1314655172413792, "percent_above_0.1m": 88.095238095238088, "low_level_<0.5": 11.904761904761903, "mid_level_0.5-2": 19.047619047619047, "tall_2+": 57.142857142857139 }, "geometry": { "type": "Point", "coordinates": [ -0.22976435529357, 51.502873204951122 ] } },
{ "type": "Feature", "properties": { "max_height": 1.5310001373291016, "mean_height": 0.14040717482566833, "std_height": 0.2865232527256012, "count_pixels": 43, "percent_cover": 1.1584051724137931, "percent_above_0.1m": 30.232558139534881, "low_level_<0.5": 18.604651162790699, "mid_level_0.5-2": 6.9767441860465116, "tall_2+": 0.0 }, "geometry": { "type": "Point", "coordinates": [ -0.229564816922346, 51.502870193726963 ] } },
{ "type": "Feature", "properties": { "max_height": 8.1122512817382812, "mean_height": 5.1380701065063477, "std_height": 2.6273343563079834, "count_pixels": 43, "percent_cover": 1.1584051724137931, "percent_above_0.1m": 95.348837209302332, "low_level_<0.5": 2.3255813953488373, "mid_level_0.5-2": 11.627906976744185, "tall_2+": 81.395348837209298 }, "geometry": { "type": "Point", "coordinates": [ -0.229365278585941, 51.502867182163314 ] } },
{ "type": "Feature", "properties": { "max_height": 12.0572509765625, "mean_height": 2.3460719585418701, "std_height": 3.1349587440490723, "count_pixels": 42, "percent_cover": 1.1314655172413792, "percent_above_0.1m": 59.523809523809526, "low_level_<0.5": 7.1428571428571423, "mid_level_0.5-2": 11.904761904761903, "tall_2+": 40.476190476190474 }, "geometry": { "type": "Point", "coordinates": [ -0.229165740284374, 51.502864170260189 ] } },
{ "type": "Feature", "properties": { "max_height": 1.063499927520752, "mean_height": 0.050046820193529129, "std_height": 0.16218268871307373, "count_pixels": 43, "percent_cover": 1.1584051724137931, "percent_above_0.1m": 6.9767441860465116, "low_level_<0.5": 2.3255813953488373, "mid_level_0.5-2": 2.3255813953488373, "tall_2+": 0.0 }, "geometry": { "type": "Point", "coordinates": [ -0.228966202017634, 51.502861158017588 ] } },
{ "type": "Feature", "properties": { "max_height": 3.5930004119873047, "mean_height": 0.53703516721725464, "std_height": 0.91651761531829834, "count_pixels": 43, "percent_cover": 1.1584051724137931, "percent_above_0.1m": 44.186046511627907, "low_level_<0.5": 11.627906976744185, "mid_level_0.5-2": 20.930232558139537, "tall_2+": 9.3023255813953494 }, "geometry": { "type": "Point", "coordinates": [ -0.228766663785729, 51.502858145435489 ] } },
{ "type": "Feature", "properties": { "max_height": 6.3227500915527344, "mean_height": 0.78607451915740967, "std_height": 1.240487813949585, "count_pixels": 37, "percent_cover": 0.99676724137931039, "percent_above_0.1m": 72.972972972972968, "low_level_<0.5": 24.324324324324326, "mid_level_0.5-2": 29.72972972972973, "tall_2+": 10.810810810810811 }, "geometry": { "type": "Point", "coordinates": [ -0.229261326766632, 51.502973524445849 ] } },
{ "type": "Feature", "properties": { "max_height": 7.678250789642334, "mean_height": 2.2905676364898682, "std_height": 2.2704741954803467, "count_pixels": 41, "percent_cover": 1.1045258620689655, "percent_above_0.1m": 82.926829268292678, "low_level_<0.5": 12.195121951219512, "mid_level_0.5-2": 26.829268292682929, "tall_2+": 43.902439024390247 }, "geometry": { "type": "Point", "coordinates": [ -0.229061788009396, 51.502970512363994 ] } },
{ "type": "Feature", "properties": { "max_height": 1.386500358581543, "mean_height": 0.16536608338356018, "std_height": 0.34163805842399597, "count_pixels": 41, "percent_cover": 1.1045258620689655, "percent_above_0.1m": 19.512195121951219, "low_level_<0.5": 4.8780487804878048, "mid_level_0.5-2": 14.634146341463413, "tall_2+": 0.0 }, "geometry": { "type": "Point", "coordinates": [ -0.228862249286995, 51.502967499942656 ] } },
{ "type": "Feature", "properties": { "max_height": 15.894250869750977, "mean_height": 5.7299480438232422, "std_height": 4.5492634773254395, "count_pixels": 43, "percent_cover": 1.1584051724137931, "percent_above_0.1m": 93.023255813953483, "low_level_<0.5": 11.627906976744185, "mid_level_0.5-2": 16.279069767441861, "tall_2+": 65.116279069767444 }, "geometry": { "type": "Point", "coordinates": [ -0.228957835243919, 51.503076854371834 ] } }
]
}
