{
"type": "FeatureCollection",
"name": "3aebfbe7b003_visibility",
"crs": { "type": "name", "properties": { "name": "urn:ogc:def:crs:OGC:1.3:CRS84" } },
"features": [
{ "type": "Feature", "properties": { "visible_points": 0, "total_points": 41, "visibility_pct": 0.0 }, "geometry": { "type": "Point", "coordinates": [ -0.216844321022264, 51.495049170638914 ] } },
{ "type": "Feature", "properties": { "visible_points": 0, "total_points": 37, "visibility_pct": 0.0 }, "geometry": { "type": "Point", "coordinates": [ -0.216644818817955, 51.495046137302595 ] } },
{ "type": "Feature", "properties": { "visible_points": 0, "total_points": 52, "visibility_pct": 0.0 }, "geometry": { "type": "Point", "coordinates": [ -0.217139364102847, 51.495161567898968 ] } },
{ "type": "Feature", "properties": { "visible_points": 0, "total_points": 47, "visibility_pct": 0.0 }, "geometry": { "type": "Point", "coordinates": [ -0.216939861378084, 51.495158535058174 ] } },
{ "type": "Feature", "properties": { "visible_points": 1, "total_points": 42, "visibility_pct": 2.3809523809523809 }, "geometry": { "type": "Point", "coordinates": [ -0.216740358688121, 51.495155501878216 ] } },
{ "type": "Feature", "properties": { "visible_points": 0, "total_points": 61, "visibility_pct": 0.0 }, "geometry": { "type": "Point", "coordinates": [ -0.217434408640378, 51.495273964433238 ] } },
{ "type": "Feature", "properties": { "visible_points": 2, "total_points": 57, "visibility_pct": 3.5087719298245612 }, "geometry": { "type": "Point", "coordinates": [ -0.217234905395171, 51.495270932087962 ] } },
{ "type": "Feature", "properties": { "visible_points": 1, "total_points": 51, "visibility_pct": 1.9607843137254901 }, "geometry": { "type": "Point", "coordinates": [ -0.217035402184752, 51.49526789940353 ] } },
{ "type": "Feature", "properties": { "visible_points": 3, "total_points": 64, "visibility_pct": 4.6875 }, "geometry": { "type": "Point", "coordinates": [ -0.217928958435307, 51.49538939175229 ] } },
{ "type": "Feature", "properties": { "visible_points": 1, "total_points": 63, "visibility_pct": 1.5873015873015872 }, "geometry": { "type": "Point", "coordinates": [ -0.217729454634867, 51.495386360241696 ] } },
{ "type": "Feature", "properties": { "visible_points": 0, "total_points": 62, "visibility_pct": 0.0 }, "geometry": { "type": "Point", "coordinates": [ -0.217529950869219, 51.495383328391959 ] } },
{ "type": "Feature", "properties": { "visible_points": 1, "total_points": 60, "visibility_pct": 1.6666666666666667 }, "geometry": { "type": "Point", "coordinates": [ -0.217330447138351, 51.495380296203059 ] } },
{ "type": "Feature", "properties": { "visible_points": 3, "total_points": 56, "visibility_pct": 5.3571428571428568 }, "geometry": { "type": "Point", "coordinates": [ -0.21713094344228, 51.495377263675017 ] } },
{ "type": "Feature", "properties": { "visible_points": 0, "total_points": 67, "visibility_pct": 0.0 }, "geometry": { "type": "Point", "coordinates": [ -0.21862301579131, 51.495507846808806 ] } },
{ "type": "Feature", "properties": { "visible_points": 0, "total_points": 67, "visibility_pct": 0.0 }, "geometry": { "type": "Point", "coordinates": [ -0.218423511069059, 51.495504816754497 ] } },
{ "type": "Feature", "properties": { "visible_points": 0, "total_points": 66, "visibility_pct": 0.0 }, "geometry": { "type": "Point", "coordinates": [ -0.21822400646918, 51.495501786313064 ] } },
{ "type": "Feature", "properties": { "visible_points": 2, "total_points": 65, "visibility_pct": 3.0769230769230771 }, "geometry": { "type": "Point", "coordinates": [ -0.218024502086317, 51.495498755324348 ] } },
{ "type": "Feature", "properties": { "visible_points": 3, "total_points": 64, "visibility_pct": 4.6875 }, "geometry": { "type": "Point", "coordinates": [ -0.217824997800227, 51.495495723970151 ] } },
{ "type": "Feature", "properties": { "visible_points": 0, "total_points": 62, "visibility_pct": 0.0 }, "geometry": { "type": "Point", "coordinates": [ -0.217625493548917, 51.495492692276798 ] } },
{ "type": "Feature", "properties": { "visible_points": 2, "total_points": 60, "visibility_pct": 3.3333333333333335 }, "geometry": { "type": "Point", "coordinates": [ -0.217425989332395, 51.495489660244274 ] } },
{ "type": "Feature", "properties": { "visible_points": 0, "total_points": 72, "visibility_pct": 0.0 }, "geometry": { "type": "Point", "coordinates": [ -0.218918066775819, 51.495620239246946 ] } },
{ "type": "Feature", "properties": { "visible_points": 0, "total_points": 71, "visibility_pct": 0.0 }, "geometry": { "type": "Point", "coordinates": [ -0.218718561525716, 51.495617209692625 ] } },
{ "type": "Feature", "properties": { "visible_points": 0, "total_points": 70, "visibility_pct": 0.0 }, "geometry": { "type": "Point", "coordinates": [ -0.218519056310761, 51.495614179798906 ] } },
{ "type": "Feature", "properties": { "visible_points": 0, "total_points": 68, "visibility_pct": 0.0 }, "geometry": { "type": "Point", "coordinates": [ -0.218319551145831, 51.495611149559522 ] } },
{ "type": "Feature", "properties": { "visible_points": 0, "total_points": 67, "visibility_pct": 0.0 }, "geometry": { "type": "Point", "coordinates": [ -0.218120046188203, 51.495608118822524 ] } },
{ "type": "Feature", "properties": { "visible_points": 2, "total_points": 64, "visibility_pct": 3.125 }, "geometry": { "type": "Point", "coordinates": [ -0.217920541416452, 51.495605087624696 ] } },
{ "type": "Feature", "properties": { "visible_points": 2, "total_points": 61, "visibility_pct": 3.278688524590164 }, "geometry": { "type": "Point", "coordinates": [ -0.217721036679488, 51.495602056087726 ] } },
{ "type": "Feature", "properties": { "visible_points": 0, "total_points": 76, "visibility_pct": 0.0 }, "geometry": { "type": "Point", "coordinates": [ -0.219213119238434, 51.49573263094662 ] } },
{ "type": "Feature", "properties": { "visible_points": 1, "total_points": 76, "visibility_pct": 1.3157894736842104 }, "geometry": { "type": "Point", "coordinates": [ -0.219013613460477, 51.495729601892272 ] } },
{ "type": "Feature", "properties": { "visible_points": 1, "total_points": 74, "visibility_pct": 1.3513513513513513 }, "geometry": { "type": "Point", "coordinates": [ -0.218814107717671, 51.495726572498555 ] } },
{ "type": "Feature", "properties": { "visible_points": 0, "total_points": 72, "visibility_pct": 0.0 }, "geometry": { "type": "Point", "coordinates": [ -0.218614602010007, 51.49572354276544 ] } },
{ "type": "Feature", "properties": { "visible_points": 0, "total_points": 71, "visibility_pct": 0.0 }, "geometry": { "type": "Point", "coordinates": [ -0.218415096337503, 51.495720512692948 ] } },
{ "type": "Feature", "properties": { "visible_points": 0, "total_points": 68, "visibility_pct": 0.0 }, "geometry": { "type": "Point", "coordinates": [ -0.218215590799187, 51.495717482222361 ] } },
{ "type": "Feature", "properties": { "visible_points": 0, "total_points": 81, "visibility_pct": 0.0 }, "geometry": { "type": "Point", "coordinates": [ -0.219707679520093, 51.495848050122788 ] } },
{ "type": "Feature", "properties": { "visible_points": 2, "total_points": 81, "visibility_pct": 2.4691358024691357 }, "geometry": { "type": "Point", "coordinates": [ -0.219508173179153, 51.49584502190784 ] } },
{ "type": "Feature", "properties": { "visible_points": 0, "total_points": 80, "visibility_pct": 0.0 }, "geometry": { "type": "Point", "coordinates": [ -0.219308666873354, 51.49584199335348 ] } },
{ "type": "Feature", "properties": { "visible_points": 1, "total_points": 79, "visibility_pct": 1.2658227848101267 }, "geometry": { "type": "Point", "coordinates": [ -0.219109160602693, 51.495838964459729 ] } },
{ "type": "Feature", "properties": { "visible_points": 2, "total_points": 78, "visibility_pct": 2.5641025641025639 }, "geometry": { "type": "Point", "coordinates": [ -0.218909654367176, 51.495835935226623 ] } },
{ "type": "Feature", "properties": { "visible_points": 0, "total_points": 75, "visibility_pct": 0.0 }, "geometry": { "type": "Point", "coordinates": [ -0.218710148166807, 51.495832905654112 ] } },
{ "type": "Feature", "properties": { "visible_points": 1, "total_points": 72, "visibility_pct": 1.3888888888888888 }, "geometry": { "type": "Point", "coordinates": [ -0.218510642001591, 51.495829875742217 ] } },
{ "type": "Feature", "properties": { "visible_points": 0, "total_points": 79, "visibility_pct": 0.0 }, "geometry": { "type": "Point", "coordinates": [ -0.220202242370654, 51.495963467221102 ] } },
{ "type": "Feature", "properties": { "visible_points": 0, "total_points": 84, "visibility_pct": 0.0 }, "geometry": { "type": "Point", "coordinates": [ -0.220002735466756, 51.495960439845518 ] } },
{ "type": "Feature", "properties": { "visible_points": 6, "total_points": 86, "visibility_pct": 6.9767441860465116 }, "geometry": { "type": "Point", "coordinates": [ -0.21980322859798, 51.495957412130558 ] } },
{ "type": "Feature", "properties": { "visible_points": 11, "total_points": 85, "visibility_pct": 12.941176470588237 }, "geometry": { "type": "Point", "coordinates": [ -0.219603721764341, 51.495954384076214 ] } },
{ "type": "Feature", "properties": { "visible_points": 12, "total_points": 84, "visibility_pct": 14.285714285714285 }, "geometry": { "type": "Point", "coordinates": [ -0.219404214965836, 51.495951355682465 ] } },
{ "type": "Feature", "properties": { "visible_points": 1, "total_points": 82, "visibility_pct": 1.2195121951219512 }, "geometry": { "type": "Point", "coordinates": [ -0.219204708202468, 51.495948326949332 ] } },
{ "type": "Feature", "properties": { "visible_points": 3, "total_points": 79, "visibility_pct": 3.79746835443038 }, "geometry": { "type": "Point", "coordinates": [ -0.219005201474239, 51.495945297876794 ] } },
{ "type": "Feature", "properties": { "visible_points": 0, "total_points": 76, "visibility_pct": 0.0 }, "geometry": { "type": "Point", "coordinates": [ -0.218805694781161, 51.495942268464887 ] } },
{ "type": "Feature", "properties": { "visible_points": 0, "total_points": 76, "visibility_pct": 0.0 }, "geometry": { "type": "Point", "coordinates": [ -0.220696807790088, 51.496078882241534 ] } },
{ "type": "Feature", "properties": { "visible_points": 0, "total_points": 82, "visibility_pct": 0.0 }, "geometry": { "type": "Point", "coordinates": [ -0.220497300323246, 51.49607585570535 ] } },
{ "type": "Feature", "properties": { "visible_points": 1, "total_points": 87, "visibility_pct": 1.1494252873563218 }, "geometry": { "type": "Point", "coordinates": [ -0.220297792891527, 51.496072828829774 ] } },
{ "type": "Feature", "properties": { "visible_points": 11, "total_points": 89, "visibility_pct": 12.359550561797752 }, "geometry": { "type": "Point", "coordinates": [ -0.220098285494923, 51.496069801614809 ] } },
{ "type": "Feature", "properties": { "visible_points": 15, "total_points": 90, "visibility_pct": 16.666666666666664 }, "geometry": { "type": "Point", "coordinates": [ -0.219898778133446, 51.496066774060452 ] } },
{ "type": "Feature", "properties": { "visible_points": 18, "total_points": 89, "visibility_pct": 20.224719101123593 }, "geometry": { "type": "Point", "coordinates": [ -0.219699270807099, 51.496063746166691 ] } },
{ "type": "Feature", "properties": { "visible_points": 14, "total_points": 86, "visibility_pct": 16.279069767441861 }, "geometry": { "type": "Point", "coordinates": [ -0.219499763515882, 51.49606071793356 ] } },
{ "type": "Feature", "properties": { "visible_points": 10, "total_points": 83, "visibility_pct": 12.048192771084338 }, "geometry": { "type": "Point", "coordinates": [ -0.219300256259802, 51.496057689361017 ] } },
{ "type": "Feature", "properties": { "visible_points": 1, "total_points": 80, "visibility_pct": 1.25 }, "geometry": { "type": "Point", "coordinates": [ -0.219100749038865, 51.496054660449104 ] } },
{ "type": "Feature", "properties": { "visible_points": 1, "total_points": 84, "visibility_pct": 1.1904761904761905 }, "geometry": { "type": "Point", "coordinates": [ -0.220792359753943, 51.496188243451101 ] } },
{ "type": "Feature", "properties": { "visible_points": 4, "total_points": 88, "visibility_pct": 4.5454545454545459 }, "geometry": { "type": "Point", "coordinates": [ -0.220592851794398, 51.496185217075521 ] } },
{ "type": "Feature", "properties": { "visible_points": 16, "total_points": 91, "visibility_pct": 17.582417582417584 }, "geometry": { "type": "Point", "coordinates": [ -0.220393343869973, 51.496182190360557 ] } },
{ "type": "Feature", "properties": { "visible_points": 16, "total_points": 93, "visibility_pct": 17.20430107526882 }, "geometry": { "type": "Point", "coordinates": [ -0.220193835980665, 51.496179163306188 ] } },
{ "type": "Feature", "properties": { "visible_points": 15, "total_points": 92, "visibility_pct": 16.304347826086957 }, "geometry": { "type": "Point", "coordinates": [ -0.219994328126481, 51.496176135912457 ] } },
{ "type": "Feature", "properties": { "visible_points": 18, "total_points": 90, "visibility_pct": 20.0 }, "geometry": { "type": "Point", "coordinates": [ -0.219794820307425, 51.496173108179313 ] } },
{ "type": "Feature", "properties": { "visible_points": 15, "total_points": 87, "visibility_pct": 17.241379310344829 }, "geometry": { "type": "Point", "coordinates": [ -0.219595312523497, 51.496170080106765 ] } },
{ "type": "Feature", "properties": { "visible_points": 0, "total_points": 83, "visibility_pct": 0.0 }, "geometry": { "type": "Point", "coordinates": [ -0.219395804774707, 51.496167051694847 ] } },
{ "type": "Feature", "properties": { "visible_points": 3, "total_points": 79, "visibility_pct": 3.79746835443038 }, "geometry": { "type": "Point", "coordinates": [ -0.219196297061055, 51.496164022943532 ] } },
{ "type": "Feature", "properties": { "visible_points": 4, "total_points": 42, "visibility_pct": 9.5238095238095237 }, "geometry": { "type": "Point", "coordinates": [ -0.223880543170043, 51.49634295707979 ] } },
{ "type": "Feature", "properties": { "visible_points": 3, "total_points": 82, "visibility_pct": 3.6585365853658534 }, "geometry": { "type": "Point", "coordinates": [ -0.221286929185204, 51.496303655994495 ] } },
{ "type": "Feature", "properties": { "visible_points": 15, "total_points": 87, "visibility_pct": 17.241379310344829 }, "geometry": { "type": "Point", "coordinates": [ -0.221087420662739, 51.496300630458308 ] } },
{ "type": "Feature", "properties": { "visible_points": 17, "total_points": 89, "visibility_pct": 19.101123595505616 }, "geometry": { "type": "Point", "coordinates": [ -0.220887912175382, 51.496297604582757 ] } },
{ "type": "Feature", "properties": { "visible_points": 21, "total_points": 92, "visibility_pct": 22.826086956521738 }, "geometry": { "type": "Point", "coordinates": [ -0.220688403723137, 51.496294578367802 ] } },
{ "type": "Feature", "properties": { "visible_points": 21, "total_points": 94, "visibility_pct": 22.340425531914892 }, "geometry": { "type": "Point", "coordinates": [ -0.220488895306004, 51.496291551813449 ] } },
{ "type": "Feature", "properties": { "visible_points": 10, "total_points": 94, "visibility_pct": 10.638297872340425 }, "geometry": { "type": "Point", "coordinates": [ -0.220289386923989, 51.496288524919706 ] } },
{ "type": "Feature", "properties": { "visible_points": 16, "total_points": 92, "visibility_pct": 17.391304347826086 }, "geometry": { "type": "Point", "coordinates": [ -0.220089878577094, 51.496285497686564 ] } },
{ "type": "Feature", "properties": { "visible_points": 17, "total_points": 91, "visibility_pct": 18.681318681318682 }, "geometry": { "type": "Point", "coordinates": [ -0.219890370265326, 51.496282470114025 ] } },
{ "type": "Feature", "properties": { "visible_points": 16, "total_points": 87, "visibility_pct": 18.390804597701148 }, "geometry": { "type": "Point", "coordinates": [ -0.219690861988687, 51.496279442202102 ] } },
{ "type": "Feature", "properties": { "visible_points": 6, "total_points": 81, "visibility_pct": 7.4074074074074066 }, "geometry": { "type": "Point", "coordinates": [ -0.219491353747181, 51.496276413950774 ] } },
{ "type": "Feature", "properties": { "visible_points": 5, "total_points": 52, "visibility_pct": 9.6153846153846168 }, "geometry": { "type": "Point", "coordinates": [ -0.223776593968312, 51.496449294760758 ] } },
{ "type": "Feature", "properties": { "visible_points": 10, "total_points": 79, "visibility_pct": 12.658227848101266 }, "geometry": { "type": "Point", "coordinates": [ -0.221781501185269, 51.49641906645995 ] } },
{ "type": "Feature", "properties": { "visible_points": 14, "total_points": 84, "visibility_pct": 16.666666666666664 }, "geometry": { "type": "Point", "coordinates": [ -0.221581992099907, 51.496416041763169 ] } },
{ "type": "Feature", "properties": { "visible_points": 24, "total_points": 88, "visibility_pct": 27.27272727272727 }, "geometry": { "type": "Point", "coordinates": [ -0.221382483049641, 51.496413016727033 ] } },
{ "type": "Feature", "properties": { "visible_points": 23, "total_points": 91, "visibility_pct": 25.274725274725274 }, "geometry": { "type": "Point", "coordinates": [ -0.221182974034476, 51.496409991351463 ] } },
{ "type": "Feature", "properties": { "visible_points": 23, "total_points": 93, "visibility_pct": 24.731182795698924 }, "geometry": { "type": "Point", "coordinates": [ -0.220983465054416, 51.496406965636538 ] } },
{ "type": "Feature", "properties": { "visible_points": 20, "total_points": 94, "visibility_pct": 21.276595744680851 }, "geometry": { "type": "Point", "coordinates": [ -0.220783956109459, 51.496403939582194 ] } },
{ "type": "Feature", "properties": { "visible_points": 20, "total_points": 94, "visibility_pct": 21.276595744680851 }, "geometry": { "type": "Point", "coordinates": [ -0.220584447199621, 51.496400913188452 ] } },
{ "type": "Feature", "properties": { "visible_points": 15, "total_points": 94, "visibility_pct": 15.957446808510639 }, "geometry": { "type": "Point", "coordinates": [ -0.220384938324894, 51.49639788645532 ] } },
{ "type": "Feature", "properties": { "visible_points": 10, "total_points": 92, "visibility_pct": 10.869565217391305 }, "geometry": { "type": "Point", "coordinates": [ -0.22018542948529, 51.496394859382789 ] } },
{ "type": "Feature", "properties": { "visible_points": 17, "total_points": 89, "visibility_pct": 19.101123595505616 }, "geometry": { "type": "Point", "coordinates": [ -0.219985920680804, 51.496391831970861 ] } },
{ "type": "Feature", "properties": { "visible_points": 15, "total_points": 84, "visibility_pct": 17.857142857142858 }, "geometry": { "type": "Point", "coordinates": [ -0.219786411911452, 51.496388804219549 ] } },
{ "type": "Feature", "properties": { "visible_points": 11, "total_points": 78, "visibility_pct": 14.102564102564102 }, "geometry": { "type": "Point", "coordinates": [ -0.219586903177229, 51.496385776128832 ] } },
{ "type": "Feature", "properties": { "visible_points": 4, "total_points": 56, "visibility_pct": 7.1428571428571423 }, "geometry": { "type": "Point", "coordinates": [ -0.223872154202688, 51.496558653487853 ] } },
{ "type": "Feature", "properties": { "visible_points": 7, "total_points": 63, "visibility_pct": 11.111111111111111 }, "geometry": { "type": "Point", "coordinates": [ -0.223672644273894, 51.496555632345704 ] } },
{ "type": "Feature", "properties": { "visible_points": 0, "total_points": 82, "visibility_pct": 0.0 }, "geometry": { "type": "Point", "coordinates": [ -0.222076566105868, 51.496531450990076 ] } },
{ "type": "Feature", "properties": { "visible_points": 0, "total_points": 87, "visibility_pct": 0.0 }, "geometry": { "type": "Point", "coordinates": [ -0.221877056492714, 51.49652842679334 ] } },
{ "type": "Feature", "properties": { "visible_points": 24, "total_points": 89, "visibility_pct": 26.966292134831459 }, "geometry": { "type": "Point", "coordinates": [ -0.221677546914651, 51.496525402257198 ] } },
{ "type": "Feature", "properties": { "visible_points": 18, "total_points": 92, "visibility_pct": 19.565217391304348 }, "geometry": { "type": "Point", "coordinates": [ -0.221478037371682, 51.49652237738168 ] } },
{ "type": "Feature", "properties": { "visible_points": 27, "total_points": 94, "visibility_pct": 28.723404255319153 }, "geometry": { "type": "Point", "coordinates": [ -0.221278527863809, 51.496519352166743 ] } },
{ "type": "Feature", "properties": { "visible_points": 26, "total_points": 94, "visibility_pct": 27.659574468085108 }, "geometry": { "type": "Point", "coordinates": [ -0.221079018391041, 51.496516326612408 ] } },
{ "type": "Feature", "properties": { "visible_points": 22, "total_points": 94, "visibility_pct": 23.404255319148938 }, "geometry": { "type": "Point", "coordinates": [ -0.220879508953379, 51.496513300718689 ] } },
{ "type": "Feature", "properties": { "visible_points": 19, "total_points": 94, "visibility_pct": 20.212765957446805 }, "geometry": { "type": "Point", "coordinates": [ -0.220679999550826, 51.496510274485566 ] } },
{ "type": "Feature", "properties": { "visible_points": 16, "total_points": 92, "visibility_pct": 17.391304347826086 }, "geometry": { "type": "Point", "coordinates": [ -0.220480490183388, 51.496507247913044 ] } },
{ "type": "Feature", "properties": { "visible_points": 3, "total_points": 89, "visibility_pct": 3.3707865168539324 }, "geometry": { "type": "Point", "coordinates": [ -0.220280980851067, 51.496504221001125 ] } },
{ "type": "Feature", "properties": { "visible_points": 12, "total_points": 85, "visibility_pct": 14.117647058823529 }, "geometry": { "type": "Point", "coordinates": [ -0.220081471553872, 51.496501193749815 ] } },
{ "type": "Feature", "properties": { "visible_points": 12, "total_points": 79, "visibility_pct": 15.18987341772152 }, "geometry": { "type": "Point", "coordinates": [ -0.219881962291801, 51.496498166159114 ] } },
{ "type": "Feature", "properties": { "visible_points": 0, "total_points": 67, "visibility_pct": 0.0 }, "geometry": { "type": "Point", "coordinates": [ -0.223768204473213, 51.496664991155519 ] } },
{ "type": "Feature", "properties": { "visible_points": 0, "total_points": 75, "visibility_pct": 0.0 }, "geometry": { "type": "Point", "coordinates": [ -0.223568694086785, 51.496661969834605 ] } },
{ "type": "Feature", "properties": { "visible_points": 12, "total_points": 87, "visibility_pct": 13.793103448275861 }, "geometry": { "type": "Point", "coordinates": [ -0.222571142680589, 51.496646858138995 ] } },
{ "type": "Feature", "properties": { "visible_points": 17, "total_points": 88, "visibility_pct": 19.318181818181817 }, "geometry": { "type": "Point", "coordinates": [ -0.222371632504566, 51.496643834781679 ] } },
{ "type": "Feature", "properties": { "visible_points": 15, "total_points": 89, "visibility_pct": 16.853932584269664 }, "geometry": { "type": "Point", "coordinates": [ -0.222172122363622, 51.496640811084951 ] } },
{ "type": "Feature", "properties": { "visible_points": 21, "total_points": 91, "visibility_pct": 23.076923076923077 }, "geometry": { "type": "Point", "coordinates": [ -0.221972612257768, 51.496637787048854 ] } },
{ "type": "Feature", "properties": { "visible_points": 24, "total_points": 93, "visibility_pct": 25.806451612903224 }, "geometry": { "type": "Point", "coordinates": [ -0.221773102186997, 51.496634762673331 ] } },
{ "type": "Feature", "properties": { "visible_points": 27, "total_points": 94, "visibility_pct": 28.723404255319153 }, "geometry": { "type": "Point", "coordinates": [ -0.221573592151322, 51.496631737958424 ] } },
{ "type": "Feature", "properties": { "visible_points": 31, "total_points": 94, "visibility_pct": 32.978723404255319 }, "geometry": { "type": "Point", "coordinates": [ -0.221374082150743, 51.496628712904105 ] } },
{ "type": "Feature", "properties": { "visible_points": 28, "total_points": 94, "visibility_pct": 29.787234042553191 }, "geometry": { "type": "Point", "coordinates": [ -0.221174572185261, 51.496625687510388 ] } },
{ "type": "Feature", "properties": { "visible_points": 22, "total_points": 93, "visibility_pct": 23.655913978494624 }, "geometry": { "type": "Point", "coordinates": [ -0.220975062254893, 51.496622661777288 ] } },
{ "type": "Feature", "properties": { "visible_points": 11, "total_points": 91, "visibility_pct": 12.087912087912088 }, "geometry": { "type": "Point", "coordinates": [ -0.220775552359628, 51.496619635704782 ] } },
{ "type": "Feature", "properties": { "visible_points": 10, "total_points": 88, "visibility_pct": 11.363636363636363 }, "geometry": { "type": "Point", "coordinates": [ -0.220576042499471, 51.496616609292872 ] } },
{ "type": "Feature", "properties": { "visible_points": 10, "total_points": 84, "visibility_pct": 11.904761904761903 }, "geometry": { "type": "Point", "coordinates": [ -0.220376532674439, 51.496613582541585 ] } },
{ "type": "Feature", "properties": { "visible_points": 0, "total_points": 78, "visibility_pct": 0.0 }, "geometry": { "type": "Point", "coordinates": [ -0.220177022884521, 51.496610555450879 ] } },
{ "type": "Feature", "properties": { "visible_points": 0, "total_points": 66, "visibility_pct": 0.0 }, "geometry": { "type": "Point", "coordinates": [ -0.223863765130162, 51.496774349887431 ] } },
{ "type": "Feature", "properties": { "visible_points": 4, "total_points": 74, "visibility_pct": 5.4054054054054053 }, "geometry": { "type": "Point", "coordinates": [ -0.223664254251045, 51.496771328727149 ] } },
{ "type": "Feature", "properties": { "visible_points": 9, "total_points": 82, "visibility_pct": 10.975609756097562 }, "geometry": { "type": "Point", "coordinates": [ -0.223464743406978, 51.496768307227462 ] } },
{ "type": "Feature", "properties": { "visible_points": 11, "total_points": 92, "visibility_pct": 11.956521739130435 }, "geometry": { "type": "Point", "coordinates": [ -0.222866211085165, 51.496759240692008 ] } },
{ "type": "Feature", "properties": { "visible_points": 16, "total_points": 91, "visibility_pct": 17.582417582417584 }, "geometry": { "type": "Point", "coordinates": [ -0.222666700381365, 51.496756217834715 ] } },
{ "type": "Feature", "properties": { "visible_points": 20, "total_points": 90, "visibility_pct": 22.222222222222221 }, "geometry": { "type": "Point", "coordinates": [ -0.22246718971264, 51.496753194638018 ] } },
{ "type": "Feature", "properties": { "visible_points": 25, "total_points": 91, "visibility_pct": 27.472527472527474 }, "geometry": { "type": "Point", "coordinates": [ -0.222267679078993, 51.496750171101922 ] } },
{ "type": "Feature", "properties": { "visible_points": 27, "total_points": 92, "visibility_pct": 29.347826086956523 }, "geometry": { "type": "Point", "coordinates": [ -0.22206816848043, 51.496747147226436 ] } },
{ "type": "Feature", "properties": { "visible_points": 25, "total_points": 93, "visibility_pct": 26.881720430107524 }, "geometry": { "type": "Point", "coordinates": [ -0.221868657916953, 51.496744123011545 ] } },
{ "type": "Feature", "properties": { "visible_points": 27, "total_points": 94, "visibility_pct": 28.723404255319153 }, "geometry": { "type": "Point", "coordinates": [ -0.221669147388572, 51.496741098457264 ] } },
{ "type": "Feature", "properties": { "visible_points": 26, "total_points": 94, "visibility_pct": 27.659574468085108 }, "geometry": { "type": "Point", "coordinates": [ -0.221469636895283, 51.496738073563563 ] } },
{ "type": "Feature", "properties": { "visible_points": 19, "total_points": 92, "visibility_pct": 20.652173913043477 }, "geometry": { "type": "Point", "coordinates": [ -0.221270126437087, 51.496735048330486 ] } },
{ "type": "Feature", "properties": { "visible_points": 18, "total_points": 89, "visibility_pct": 20.224719101123593 }, "geometry": { "type": "Point", "coordinates": [ -0.221070616014005, 51.496732022758003 ] } },
{ "type": "Feature", "properties": { "visible_points": 8, "total_points": 87, "visibility_pct": 9.1954022988505741 }, "geometry": { "type": "Point", "coordinates": [ -0.220871105626026, 51.496728996846095 ] } },
{ "type": "Feature", "properties": { "visible_points": 4, "total_points": 82, "visibility_pct": 4.8780487804878048 }, "geometry": { "type": "Point", "coordinates": [ -0.220671595273152, 51.496725970594824 ] } },
{ "type": "Feature", "properties": { "visible_points": 1, "total_points": 69, "visibility_pct": 1.4492753623188406 }, "geometry": { "type": "Point", "coordinates": [ -0.22375981487293, 51.496880687541783 ] } },
{ "type": "Feature", "properties": { "visible_points": 8, "total_points": 76, "visibility_pct": 10.526315789473683 }, "geometry": { "type": "Point", "coordinates": [ -0.223560303536176, 51.496877666202742 ] } },
{ "type": "Feature", "properties": { "visible_points": 11, "total_points": 83, "visibility_pct": 13.253012048192772 }, "geometry": { "type": "Point", "coordinates": [ -0.223360792234475, 51.496874644524276 ] } },
{ "type": "Feature", "properties": { "visible_points": 12, "total_points": 89, "visibility_pct": 13.48314606741573 }, "geometry": { "type": "Point", "coordinates": [ -0.223161280967837, 51.49687162250644 ] } },
{ "type": "Feature", "properties": { "visible_points": 0, "total_points": 91, "visibility_pct": 0.0 }, "geometry": { "type": "Point", "coordinates": [ -0.222961769736263, 51.496868600149156 ] } },
{ "type": "Feature", "properties": { "visible_points": 10, "total_points": 91, "visibility_pct": 10.989010989010989 }, "geometry": { "type": "Point", "coordinates": [ -0.222762258539758, 51.49686557745251 ] } },
{ "type": "Feature", "properties": { "visible_points": 21, "total_points": 90, "visibility_pct": 23.333333333333332 }, "geometry": { "type": "Point", "coordinates": [ -0.222562747378332, 51.49686255441646 ] } },
{ "type": "Feature", "properties": { "visible_points": 26, "total_points": 90, "visibility_pct": 28.888888888888886 }, "geometry": { "type": "Point", "coordinates": [ -0.222363236251979, 51.496859531041004 ] } },
{ "type": "Feature", "properties": { "visible_points": 31, "total_points": 90, "visibility_pct": 34.444444444444443 }, "geometry": { "type": "Point", "coordinates": [ -0.222163725160706, 51.496856507326136 ] } },
{ "type": "Feature", "properties": { "visible_points": 29, "total_points": 91, "visibility_pct": 31.868131868131865 }, "geometry": { "type": "Point", "coordinates": [ -0.221964214104526, 51.49685348327187 ] } },
{ "type": "Feature", "properties": { "visible_points": 29, "total_points": 91, "visibility_pct": 31.868131868131865 }, "geometry": { "type": "Point", "coordinates": [ -0.221764703083429, 51.496850458878207 ] } },
{ "type": "Feature", "properties": { "visible_points": 25, "total_points": 90, "visibility_pct": 27.777777777777779 }, "geometry": { "type": "Point", "coordinates": [ -0.221565192097429, 51.496847434145145 ] } },
{ "type": "Feature", "properties": { "visible_points": 13, "total_points": 88, "visibility_pct": 14.772727272727273 }, "geometry": { "type": "Point", "coordinates": [ -0.221365681146523, 51.496844409072672 ] } },
{ "type": "Feature", "properties": { "visible_points": 1, "total_points": 84, "visibility_pct": 1.1904761904761905 }, "geometry": { "type": "Point", "coordinates": [ -0.22116617023072, 51.496841383660815 ] } },
{ "type": "Feature", "properties": { "visible_points": 3, "total_points": 79, "visibility_pct": 3.79746835443038 }, "geometry": { "type": "Point", "coordinates": [ -0.220966659350021, 51.496838357909539 ] } },
{ "type": "Feature", "properties": { "visible_points": 0, "total_points": 69, "visibility_pct": 0.0 }, "geometry": { "type": "Point", "coordinates": [ -0.223655864123005, 51.49698702510009 ] } },
{ "type": "Feature", "properties": { "visible_points": 10, "total_points": 76, "visibility_pct": 13.157894736842104 }, "geometry": { "type": "Point", "coordinates": [ -0.223456352328605, 51.496984003582277 ] } },
{ "type": "Feature", "properties": { "visible_points": 8, "total_points": 82, "visibility_pct": 9.7560975609756095 }, "geometry": { "type": "Point", "coordinates": [ -0.223256840569264, 51.496980981725052 ] } },
{ "type": "Feature", "properties": { "visible_points": 15, "total_points": 87, "visibility_pct": 17.241379310344829 }, "geometry": { "type": "Point", "coordinates": [ -0.223057328844989, 51.496977959528429 ] } },
{ "type": "Feature", "properties": { "visible_points": 0, "total_points": 88, "visibility_pct": 0.0 }, "geometry": { "type": "Point", "coordinates": [ -0.22285781715578, 51.496974936992409 ] } },
{ "type": "Feature", "properties": { "visible_points": 11, "total_points": 87, "visibility_pct": 12.643678160919542 }, "geometry": { "type": "Point", "coordinates": [ -0.222658305501648, 51.496971914116983 ] } },
{ "type": "Feature", "properties": { "visible_points": 21, "total_points": 87, "visibility_pct": 24.137931034482758 }, "geometry": { "type": "Point", "coordinates": [ -0.222458793882585, 51.496968890902153 ] } },
{ "type": "Feature", "properties": { "visible_points": 27, "total_points": 87, "visibility_pct": 31.03448275862069 }, "geometry": { "type": "Point", "coordinates": [ -0.222259282298608, 51.496965867347917 ] } },
{ "type": "Feature", "properties": { "visible_points": 26, "total_points": 87, "visibility_pct": 29.885057471264371 }, "geometry": { "type": "Point", "coordinates": [ -0.222059770749712, 51.496962843454291 ] } },
{ "type": "Feature", "properties": { "visible_points": 26, "total_points": 86, "visibility_pct": 30.232558139534881 }, "geometry": { "type": "Point", "coordinates": [ -0.221860259235902, 51.496959819221253 ] } },
{ "type": "Feature", "properties": { "visible_points": 10, "total_points": 85, "visibility_pct": 11.76470588235294 }, "geometry": { "type": "Point", "coordinates": [ -0.221660747757189, 51.496956794648817 ] } },
{ "type": "Feature", "properties": { "visible_points": 17, "total_points": 81, "visibility_pct": 20.987654320987652 }, "geometry": { "type": "Point", "coordinates": [ -0.221461236313565, 51.496953769736962 ] } },
{ "type": "Feature", "properties": { "visible_points": 6, "total_points": 60, "visibility_pct": 10.0 }, "geometry": { "type": "Point", "coordinates": [ -0.223751425167471, 51.497096383919541 ] } },
{ "type": "Feature", "properties": { "visible_points": 11, "total_points": 67, "visibility_pct": 16.417910447761194 }, "geometry": { "type": "Point", "coordinates": [ -0.223551912880372, 51.49709336256236 ] } },
{ "type": "Feature", "properties": { "visible_points": 13, "total_points": 74, "visibility_pct": 17.567567567567568 }, "geometry": { "type": "Point", "coordinates": [ -0.223352400628327, 51.497090340865789 ] } },
{ "type": "Feature", "properties": { "visible_points": 7, "total_points": 79, "visibility_pct": 8.8607594936708853 }, "geometry": { "type": "Point", "coordinates": [ -0.223152888411347, 51.497087318829813 ] } },
{ "type": "Feature", "properties": { "visible_points": 5, "total_points": 83, "visibility_pct": 6.024096385542169 }, "geometry": { "type": "Point", "coordinates": [ -0.222953376229431, 51.497084296454403 ] } },
{ "type": "Feature", "properties": { "visible_points": 0, "total_points": 82, "visibility_pct": 0.0 }, "geometry": { "type": "Point", "coordinates": [ -0.22275386408259, 51.497081273739617 ] } },
{ "type": "Feature", "properties": { "visible_points": 11, "total_points": 82, "visibility_pct": 13.414634146341465 }, "geometry": { "type": "Point", "coordinates": [ -0.222554351970817, 51.497078250685419 ] } },
{ "type": "Feature", "properties": { "visible_points": 20, "total_points": 81, "visibility_pct": 24.691358024691358 }, "geometry": { "type": "Point", "coordinates": [ -0.222354839894126, 51.497075227291816 ] } },
{ "type": "Feature", "properties": { "visible_points": 20, "total_points": 81, "visibility_pct": 24.691358024691358 }, "geometry": { "type": "Point", "coordinates": [ -0.22215532785252, 51.497072203558808 ] } },
{ "type": "Feature", "properties": { "visible_points": 16, "total_points": 79, "visibility_pct": 20.253164556962027 }, "geometry": { "type": "Point", "coordinates": [ -0.221955815845992, 51.497069179486395 ] } },
{ "type": "Feature", "properties": { "visible_points": 12, "total_points": 57, "visibility_pct": 21.052631578947366 }, "geometry": { "type": "Point", "coordinates": [ -0.223647473889778, 51.497202721464546 ] } },
{ "type": "Feature", "properties": { "visible_points": 12, "total_points": 63, "visibility_pct": 19.047619047619047 }, "geometry": { "type": "Point", "coordinates": [ -0.223447961145031, 51.497199699928601 ] } },
{ "type": "Feature", "properties": { "visible_points": 10, "total_points": 69, "visibility_pct": 14.492753623188406 }, "geometry": { "type": "Point", "coordinates": [ -0.22324844843534, 51.49719667805325 ] } },
{ "type": "Feature", "properties": { "visible_points": 6, "total_points": 74, "visibility_pct": 8.1081081081081088 }, "geometry": { "type": "Point", "coordinates": [ -0.223048935760718, 51.497193655838508 ] } },
{ "type": "Feature", "properties": { "visible_points": 0, "total_points": 74, "visibility_pct": 0.0 }, "geometry": { "type": "Point", "coordinates": [ -0.22264991051668, 51.497187610390775 ] } },
{ "type": "Feature", "properties": { "visible_points": 9, "total_points": 74, "visibility_pct": 12.162162162162163 }, "geometry": { "type": "Point", "coordinates": [ -0.222450397947274, 51.497184587157804 ] } },
{ "type": "Feature", "properties": { "visible_points": 11, "total_points": 72, "visibility_pct": 15.277777777777779 }, "geometry": { "type": "Point", "coordinates": [ -0.222250885412951, 51.497181563585421 ] } }
]
}
