{
"type": "FeatureCollection",
"name": "43d467214e79_foliage",
"crs": { "type": "name", "properties": { "name": "urn:ogc:def:crs:OGC:1.3:CRS84" } },
"features": [
{ "type": "Feature", "properties": { "max_height": 7.1262502670288086, "mean_height": 0.37205603718757629, "std_height": 1.3434790372848511, "count_pixels": 36, "percent_cover": 1.0084033613445378, "percent_above_0.1m": 11.111111111111111, "low_level_<0.5": 0.0, "mid_level_0.5-2": 5.5555555555555554, "tall_2+": 5.5555555555555554 }, "geometry": { "type": "Point", "coordinates": [ -0.227941212966982, 51.519176310111568 ] } },
{ "type": "Feature", "properties": { "max_height": 8.3082513809204102, "mean_height": 0.90847617387771606, "std_height": 1.9828708171844482, "count_pixels": 41, "percent_cover": 1.1484593837535015, "percent_above_0.1m": 29.268292682926827, "low_level_<0.5": 2.4390243902439024, "mid_level_0.5-2": 7.3170731707317067, "tall_2+": 17.073170731707318 }, "geometry": { "type": "Point", "coordinates": [ -0.227741603362031, 51.519173295100259 ] } },
{ "type": "Feature", "properties": { "max_height": 9.922001838684082, "mean_height": 2.5484018325805664, "std_height": 2.9370682239532471, "count_pixels": 43, "percent_cover": 1.204481792717087, "percent_above_0.1m": 67.441860465116278, "low_level_<0.5": 6.9767441860465116, "mid_level_0.5-2": 13.953488372093023, "tall_2+": 44.186046511627907 }, "geometry": { "type": "Point", "coordinates": [ -0.228036829271951, 51.519285665480915 ] } },
{ "type": "Feature", "properties": { "max_height": 0.006500244140625, "mean_height": 0.0004365388595033437, "std_height": 0.0011689669918268919, "count_pixels": 43, "percent_cover": 1.204481792717087, "percent_above_0.1m": 0.0, "low_level_<0.5": 0.0, "mid_level_0.5-2": 0.0, "tall_2+": 0.0 }, "geometry": { "type": "Point", "coordinates": [ -0.227837219185183, 51.519282650626295 ] } },
{ "type": "Feature", "properties": { "max_height": 5.1082515716552734, "mean_height": 1.3970065116882324, "std_height": 1.5770112276077271, "count_pixels": 43, "percent_cover": 1.204481792717087, "percent_above_0.1m": 58.139534883720934, "low_level_<0.5": 4.6511627906976747, "mid_level_0.5-2": 23.255813953488371, "tall_2+": 30.232558139534881 }, "geometry": { "type": "Point", "coordinates": [ -0.227637609132804, 51.519279635432227 ] } },
{ "type": "Feature", "properties": { "max_height": 1.8784999847412109, "mean_height": 0.10050635784864426, "std_height": 0.35055959224700928, "count_pixels": 43, "percent_cover": 1.204481792717087, "percent_above_0.1m": 9.3023255813953494, "low_level_<0.5": 2.3255813953488373, "mid_level_0.5-2": 6.9767441860465116, "tall_2+": 0.0 }, "geometry": { "type": "Point", "coordinates": [ -0.227437999114831, 51.519276619898712 ] } },
{ "type": "Feature", "properties": { "max_height": 11.262750625610352, "mean_height": 1.7917646169662476, "std_height": 3.1734769344329834, "count_pixels": 36, "percent_cover": 1.0084033613445378, "percent_above_0.1m": 36.111111111111107, "low_level_<0.5": 2.7777777777777777, "mid_level_0.5-2": 5.5555555555555554, "tall_2+": 27.777777777777779 }, "geometry": { "type": "Point", "coordinates": [ -0.227932835455757, 51.519392006078213 ] } },
{ "type": "Feature", "properties": { "max_height": 5.8805007934570312, "mean_height": 0.28601261973381042, "std_height": 1.0314592123031616, "count_pixels": 41, "percent_cover": 1.1484593837535015, "percent_above_0.1m": 9.7560975609756095, "low_level_<0.5": 0.0, "mid_level_0.5-2": 4.8780487804878048, "tall_2+": 4.8780487804878048 }, "geometry": { "type": "Point", "coordinates": [ -0.227733224921555, 51.519388991040813 ] } },
{ "type": "Feature", "properties": { "max_height": 12.572750091552734, "mean_height": 1.226561427116394, "std_height": 3.3045320510864258, "count_pixels": 41, "percent_cover": 1.1484593837535015, "percent_above_0.1m": 19.512195121951219, "low_level_<0.5": 0.0, "mid_level_0.5-2": 7.3170731707317067, "tall_2+": 12.195121951219512 }, "geometry": { "type": "Point", "coordinates": [ -0.22753361442175, 51.519385975663987 ] } },
{ "type": "Feature", "properties": { "max_height": 9.3540000915527344, "mean_height": 0.54764074087142944, "std_height": 1.6757373809814453, "count_pixels": 41, "percent_cover": 1.1484593837535015, "percent_above_0.1m": 19.512195121951219, "low_level_<0.5": 2.4390243902439024, "mid_level_0.5-2": 9.7560975609756095, "tall_2+": 7.3170731707317067 }, "geometry": { "type": "Point", "coordinates": [ -0.227334003956346, 51.51938295994767 ] } },
{ "type": "Feature", "properties": { "max_height": 11.747251510620117, "mean_height": 0.81979227066040039, "std_height": 2.4255101680755615, "count_pixels": 42, "percent_cover": 1.1764705882352942, "percent_above_0.1m": 19.047619047619047, "low_level_<0.5": 0.0, "mid_level_0.5-2": 2.3809523809523809, "tall_2+": 11.904761904761903 }, "geometry": { "type": "Point", "coordinates": [ -0.22713439352534, 51.519379943891934 ] } },
{ "type": "Feature", "properties": { "max_height": 12.009001731872559, "mean_height": 2.0780646800994873, "std_height": 3.3739664554595947, "count_pixels": 43, "percent_cover": 1.204481792717087, "percent_above_0.1m": 37.209302325581397, "low_level_<0.5": 0.0, "mid_level_0.5-2": 6.9767441860465116, "tall_2+": 30.232558139534881 }, "geometry": { "type": "Point", "coordinates": [ -0.228028452173758, 51.51950136145603 ] } },
{ "type": "Feature", "properties": { "max_height": 6.5372514724731445, "mean_height": 0.58822739124298096, "std_height": 1.3993731737136841, "count_pixels": 43, "percent_cover": 1.204481792717087, "percent_above_0.1m": 20.930232558139537, "low_level_<0.5": 0.0, "mid_level_0.5-2": 6.9767441860465116, "tall_2+": 13.953488372093023 }, "geometry": { "type": "Point", "coordinates": [ -0.227828841157733, 51.519498346575311 ] } },
{ "type": "Feature", "properties": { "max_height": 10.717000961303711, "mean_height": 1.2626341581344604, "std_height": 2.6201107501983643, "count_pixels": 43, "percent_cover": 1.204481792717087, "percent_above_0.1m": 27.906976744186046, "low_level_<0.5": 0.0, "mid_level_0.5-2": 6.9767441860465116, "tall_2+": 20.930232558139537 }, "geometry": { "type": "Point", "coordinates": [ -0.227629230176102, 51.519495331355145 ] } },
{ "type": "Feature", "properties": { "max_height": 0.37700080871582031, "mean_height": 0.015163333155214787, "std_height": 0.065911523997783661, "count_pixels": 43, "percent_cover": 1.204481792717087, "percent_above_0.1m": 4.6511627906976747, "low_level_<0.5": 4.6511627906976747, "mid_level_0.5-2": 0.0, "tall_2+": 0.0 }, "geometry": { "type": "Point", "coordinates": [ -0.227429619228863, 51.51949231579551 ] } },
{ "type": "Feature", "properties": { "max_height": 9.5415010452270508, "mean_height": 0.96470898389816284, "std_height": 2.2479922771453857, "count_pixels": 42, "percent_cover": 1.1764705882352942, "percent_above_0.1m": 26.190476190476193, "low_level_<0.5": 2.3809523809523809, "mid_level_0.5-2": 9.5238095238095237, "tall_2+": 14.285714285714285 }, "geometry": { "type": "Point", "coordinates": [ -0.227230008316029, 51.519489299896421 ] } },
{ "type": "Feature", "properties": { "max_height": 1.8490009307861328, "mean_height": 0.15179231762886047, "std_height": 0.42769628763198853, "count_pixels": 36, "percent_cover": 1.0084033613445378, "percent_above_0.1m": 19.444444444444446, "low_level_<0.5": 8.3333333333333321, "mid_level_0.5-2": 8.3333333333333321, "tall_2+": 0.0 }, "geometry": { "type": "Point", "coordinates": [ -0.227924457841342, 51.5196077020357 ] } },
{ "type": "Feature", "properties": { "max_height": 11.376750946044922, "mean_height": 2.4111835956573486, "std_height": 3.2375268936157227, "count_pixels": 41, "percent_cover": 1.1484593837535015, "percent_above_0.1m": 63.414634146341463, "low_level_<0.5": 9.7560975609756095, "mid_level_0.5-2": 17.073170731707318, "tall_2+": 36.585365853658537 }, "geometry": { "type": "Point", "coordinates": [ -0.227724846377878, 51.519604686972208 ] } },
{ "type": "Feature", "properties": { "max_height": 0.89725017547607422, "mean_height": 0.11965914815664291, "std_height": 0.22930148243904114, "count_pixels": 41, "percent_cover": 1.1484593837535015, "percent_above_0.1m": 26.829268292682929, "low_level_<0.5": 9.7560975609756095, "mid_level_0.5-2": 12.195121951219512, "tall_2+": 0.0 }, "geometry": { "type": "Point", "coordinates": [ -0.227525234948808, 51.519601671569255 ] } },
{ "type": "Feature", "properties": { "max_height": 10.760251045227051, "mean_height": 6.5858540534973145, "std_height": 4.1498003005981445, "count_pixels": 41, "percent_cover": 1.1484593837535015, "percent_above_0.1m": 78.048780487804876, "low_level_<0.5": 2.4390243902439024, "mid_level_0.5-2": 2.4390243902439024, "tall_2+": 73.170731707317074 }, "geometry": { "type": "Point", "coordinates": [ -0.227325623554142, 51.519598655826826 ] } },
{ "type": "Feature", "properties": { "max_height": 0.015250205993652344, "mean_height": 0.00038419768679887056, "std_height": 0.0023373092990368605, "count_pixels": 43, "percent_cover": 1.204481792717087, "percent_above_0.1m": 0.0, "low_level_<0.5": 0.0, "mid_level_0.5-2": 0.0, "tall_2+": 0.0 }, "geometry": { "type": "Point", "coordinates": [ -0.228020074972385, 51.519717057421985 ] } },
{ "type": "Feature", "properties": { "max_height": 0.18100070953369141, "mean_height": 0.0086402008309960365, "std_height": 0.03097330778837204, "count_pixels": 43, "percent_cover": 1.204481792717087, "percent_above_0.1m": 2.3255813953488373, "low_level_<0.5": 2.3255813953488373, "mid_level_0.5-2": 0.0, "tall_2+": 0.0 }, "geometry": { "type": "Point", "coordinates": [ -0.22782046302709, 51.519714042515169 ] } },
{ "type": "Feature", "properties": { "max_height": 7.1065006256103516, "mean_height": 0.60543084144592285, "std_height": 1.5207154750823975, "count_pixels": 43, "percent_cover": 1.204481792717087, "percent_above_0.1m": 27.906976744186046, "low_level_<0.5": 4.6511627906976747, "mid_level_0.5-2": 16.279069767441861, "tall_2+": 6.9767441860465116 }, "geometry": { "type": "Point", "coordinates": [ -0.227620851116188, 51.519711027268883 ] } },
{ "type": "Feature", "properties": { "max_height": 11.21550178527832, "mean_height": 8.7311868667602539, "std_height": 3.1103446483612061, "count_pixels": 43, "percent_cover": 1.204481792717087, "percent_above_0.1m": 95.348837209302332, "low_level_<0.5": 0.0, "mid_level_0.5-2": 0.0, "tall_2+": 95.348837209302332 }, "geometry": { "type": "Point", "coordinates": [ -0.227421239239682, 51.519708011683143 ] } },
{ "type": "Feature", "properties": { "max_height": 7.5657510757446289, "mean_height": 0.92933410406112671, "std_height": 1.8839719295501709, "count_pixels": 36, "percent_cover": 1.0084033613445378, "percent_above_0.1m": 33.333333333333329, "low_level_<0.5": 2.7777777777777777, "mid_level_0.5-2": 11.111111111111111, "tall_2+": 16.666666666666664 }, "geometry": { "type": "Point", "coordinates": [ -0.227916080123739, 51.519823397984027 ] } },
{ "type": "Feature", "properties": { "max_height": 9.6379995346069336, "mean_height": 1.8660861253738403, "std_height": 3.4225859642028809, "count_pixels": 41, "percent_cover": 1.1484593837535015, "percent_above_0.1m": 36.585365853658537, "low_level_<0.5": 2.4390243902439024, "mid_level_0.5-2": 7.3170731707317067, "tall_2+": 24.390243902439025 }, "geometry": { "type": "Point", "coordinates": [ -0.227716467731, 51.519820382894423 ] } },
{ "type": "Feature", "properties": { "max_height": 1.3660011291503906, "mean_height": 0.072959743440151215, "std_height": 0.25534537434577942, "count_pixels": 43, "percent_cover": 1.204481792717087, "percent_above_0.1m": 9.3023255813953494, "low_level_<0.5": 4.6511627906976747, "mid_level_0.5-2": 4.6511627906976747, "tall_2+": 0.0 }, "geometry": { "type": "Point", "coordinates": [ -0.228011697667829, 51.519932753378782 ] } },
{ "type": "Feature", "properties": { "max_height": 10.631002426147461, "mean_height": 3.87569260597229, "std_height": 4.4364776611328125, "count_pixels": 43, "percent_cover": 1.204481792717087, "percent_above_0.1m": 51.162790697674424, "low_level_<0.5": 0.0, "mid_level_0.5-2": 6.9767441860465116, "tall_2+": 44.186046511627907 }, "geometry": { "type": "Point", "coordinates": [ -0.227812084793253, 51.519929738445846 ] } },
{ "type": "Feature", "properties": { "max_height": 10.815502166748047, "mean_height": 6.4481186866760254, "std_height": 4.265953540802002, "count_pixels": 36, "percent_cover": 1.0084033613445378, "percent_above_0.1m": 83.333333333333343, "low_level_<0.5": 2.7777777777777777, "mid_level_0.5-2": 5.5555555555555554, "tall_2+": 75.0 }, "geometry": { "type": "Point", "coordinates": [ -0.227907702302946, 51.520039093923174 ] } }
]
}
