{
"type": "FeatureCollection",
"name": "4b58a777cd97_foliage",
"crs": { "type": "name", "properties": { "name": "urn:ogc:def:crs:OGC:1.3:CRS84" } },
"features": [
{ "type": "Feature", "properties": { "max_height": 17.745000839233398, "mean_height": 10.708307266235352, "std_height": 6.4686799049377441, "count_pixels": 44, "percent_cover": 1.6176470588235297, "percent_above_0.1m": 93.181818181818173, "low_level_<0.5": 4.5454545454545459, "mid_level_0.5-2": 11.363636363636363, "tall_2+": 77.272727272727266 }, "geometry": { "type": "Point", "coordinates": [ -0.231406207919042, 51.512725755862093 ] } },
{ "type": "Feature", "properties": { "max_height": 6.3997511863708496, "mean_height": 0.26440739631652832, "std_height": 1.0073361396789551, "count_pixels": 43, "percent_cover": 1.5808823529411764, "percent_above_0.1m": 18.604651162790699, "low_level_<0.5": 0.0, "mid_level_0.5-2": 9.3023255813953494, "tall_2+": 2.3255813953488373 }, "geometry": { "type": "Point", "coordinates": [ -0.231206626109567, 51.512722747104014 ] } },
{ "type": "Feature", "properties": { "max_height": 15.179751396179199, "mean_height": 1.3473492860794067, "std_height": 3.4668545722961426, "count_pixels": 43, "percent_cover": 1.5808823529411764, "percent_above_0.1m": 37.209302325581397, "low_level_<0.5": 2.3255813953488373, "mid_level_0.5-2": 20.930232558139537, "tall_2+": 11.627906976744185 }, "geometry": { "type": "Point", "coordinates": [ -0.231007044334904, 51.512719738006588 ] } },
{ "type": "Feature", "properties": { "max_height": 17.77650260925293, "mean_height": 6.2023191452026367, "std_height": 7.649590015411377, "count_pixels": 40, "percent_cover": 1.4705882352941175, "percent_above_0.1m": 50.0, "low_level_<0.5": 2.5, "mid_level_0.5-2": 5.0, "tall_2+": 42.5 }, "geometry": { "type": "Point", "coordinates": [ -0.231302237400783, 51.512832099877173 ] } },
{ "type": "Feature", "properties": { "max_height": 0.10000038146972656, "mean_height": 0.014585692435503006, "std_height": 0.029472352936863899, "count_pixels": 41, "percent_cover": 1.5073529411764706, "percent_above_0.1m": 2.4390243902439024, "low_level_<0.5": 0.0, "mid_level_0.5-2": 0.0, "tall_2+": 0.0 }, "geometry": { "type": "Point", "coordinates": [ -0.23110265513544, 51.512829090936272 ] } },
{ "type": "Feature", "properties": { "max_height": 17.857749938964844, "mean_height": 11.278403282165527, "std_height": 6.671722412109375, "count_pixels": 41, "percent_cover": 1.5073529411764706, "percent_above_0.1m": 78.048780487804876, "low_level_<0.5": 0.0, "mid_level_0.5-2": 0.0, "tall_2+": 78.048780487804876 }, "geometry": { "type": "Point", "coordinates": [ -0.230903072904914, 51.512826081656016 ] } },
{ "type": "Feature", "properties": { "max_height": 18.031002044677734, "mean_height": 10.61894416809082, "std_height": 7.1802716255187988, "count_pixels": 44, "percent_cover": 1.6176470588235297, "percent_above_0.1m": 77.272727272727266, "low_level_<0.5": 2.2727272727272729, "mid_level_0.5-2": 2.2727272727272729, "tall_2+": 72.727272727272734 }, "geometry": { "type": "Point", "coordinates": [ -0.231397849147857, 51.5129414525763 ] } },
{ "type": "Feature", "properties": { "max_height": 2.5705008506774902, "mean_height": 0.13834919035434723, "std_height": 0.47856643795967102, "count_pixels": 43, "percent_cover": 1.5808823529411764, "percent_above_0.1m": 11.627906976744185, "low_level_<0.5": 2.3255813953488373, "mid_level_0.5-2": 6.9767441860465116, "tall_2+": 2.3255813953488373 }, "geometry": { "type": "Point", "coordinates": [ -0.231198266391843, 51.512938443791953 ] } },
{ "type": "Feature", "properties": { "max_height": 17.099250793457031, "mean_height": 4.0150356292724609, "std_height": 6.5411853790283203, "count_pixels": 43, "percent_cover": 1.5808823529411764, "percent_above_0.1m": 34.883720930232556, "low_level_<0.5": 0.0, "mid_level_0.5-2": 2.3255813953488373, "tall_2+": 32.558139534883722 }, "geometry": { "type": "Point", "coordinates": [ -0.230998683670638, 51.512935434668243 ] } },
{ "type": "Feature", "properties": { "max_height": 17.632499694824219, "mean_height": 11.090195655822754, "std_height": 6.8286018371582031, "count_pixels": 36, "percent_cover": 1.3235294117647058, "percent_above_0.1m": 91.666666666666657, "low_level_<0.5": 5.5555555555555554, "mid_level_0.5-2": 8.3333333333333321, "tall_2+": 77.777777777777786 }, "geometry": { "type": "Point", "coordinates": [ -0.231493461350803, 51.513050805201445 ] } },
{ "type": "Feature", "properties": { "max_height": 14.963251113891602, "mean_height": 1.6627629995346069, "std_height": 3.9527034759521484, "count_pixels": 40, "percent_cover": 1.4705882352941175, "percent_above_0.1m": 30.0, "low_level_<0.5": 0.0, "mid_level_0.5-2": 10.0, "tall_2+": 17.5 }, "geometry": { "type": "Point", "coordinates": [ -0.231293878104108, 51.51304779657363 ] } },
{ "type": "Feature", "properties": { "max_height": 0.018000125885009766, "mean_height": 0.0033784029074013233, "std_height": 0.0054555200040340424, "count_pixels": 41, "percent_cover": 1.5073529411764706, "percent_above_0.1m": 0.0, "low_level_<0.5": 0.0, "mid_level_0.5-2": 0.0, "tall_2+": 0.0 }, "geometry": { "type": "Point", "coordinates": [ -0.231094294892224, 51.513044787606454 ] } },
{ "type": "Feature", "properties": { "max_height": 17.885250091552734, "mean_height": 6.6032681465148926, "std_height": 7.4736313819885254, "count_pixels": 44, "percent_cover": 1.6176470588235297, "percent_above_0.1m": 52.272727272727273, "low_level_<0.5": 0.0, "mid_level_0.5-2": 4.5454545454545459, "tall_2+": 47.727272727272727 }, "geometry": { "type": "Point", "coordinates": [ -0.231389490272247, 51.513157149281319 ] } },
{ "type": "Feature", "properties": { "max_height": 0.035000324249267578, "mean_height": 0.0045177438296377659, "std_height": 0.0084546329453587532, "count_pixels": 43, "percent_cover": 1.5808823529411764, "percent_above_0.1m": 0.0, "low_level_<0.5": 0.0, "mid_level_0.5-2": 0.0, "tall_2+": 0.0 }, "geometry": { "type": "Point", "coordinates": [ -0.231189906569676, 51.513154140470704 ] } },
{ "type": "Feature", "properties": { "max_height": 18.015501022338867, "mean_height": 8.5974655151367188, "std_height": 7.4052977561950684, "count_pixels": 43, "percent_cover": 1.5808823529411764, "percent_above_0.1m": 69.767441860465112, "low_level_<0.5": 2.3255813953488373, "mid_level_0.5-2": 6.9767441860465116, "tall_2+": 60.465116279069761 }, "geometry": { "type": "Point", "coordinates": [ -0.230990322901916, 51.513151131320697 ] } },
{ "type": "Feature", "properties": { "max_height": 18.137752532958984, "mean_height": 13.018168449401855, "std_height": 5.3289322853088379, "count_pixels": 36, "percent_cover": 1.3235294117647058, "percent_above_0.1m": 94.444444444444443, "low_level_<0.5": 0.0, "mid_level_0.5-2": 2.7777777777777777, "tall_2+": 91.666666666666657 }, "geometry": { "type": "Point", "coordinates": [ -0.231485102896256, 51.51326650191502 ] } },
{ "type": "Feature", "properties": { "max_height": 0.32450056076049805, "mean_height": 0.010356592945754528, "std_height": 0.05113515630364418, "count_pixels": 40, "percent_cover": 1.4705882352941175, "percent_above_0.1m": 2.5, "low_level_<0.5": 2.5, "mid_level_0.5-2": 0.0, "tall_2+": 0.0 }, "geometry": { "type": "Point", "coordinates": [ -0.231285518703001, 51.513263493260915 ] } },
{ "type": "Feature", "properties": { "max_height": 7.425750732421875, "mean_height": 0.81100648641586304, "std_height": 2.1834790706634521, "count_pixels": 41, "percent_cover": 1.5073529411764706, "percent_above_0.1m": 12.195121951219512, "low_level_<0.5": 0.0, "mid_level_0.5-2": 0.0, "tall_2+": 12.195121951219512 }, "geometry": { "type": "Point", "coordinates": [ -0.231085934544557, 51.513260484267477 ] } },
{ "type": "Feature", "properties": { "max_height": 17.532751083374023, "mean_height": 7.7886862754821777, "std_height": 7.123176097869873, "count_pixels": 43, "percent_cover": 1.5808823529411764, "percent_above_0.1m": 83.720930232558146, "low_level_<0.5": 4.6511627906976747, "mid_level_0.5-2": 18.604651162790699, "tall_2+": 60.465116279069761 }, "geometry": { "type": "Point", "coordinates": [ -0.231580715976142, 51.513375854474724 ] } },
{ "type": "Feature", "properties": { "max_height": 16.439001083374023, "mean_height": 2.8758187294006348, "std_height": 5.4342226982116699, "count_pixels": 44, "percent_cover": 1.6176470588235297, "percent_above_0.1m": 25.0, "low_level_<0.5": 0.0, "mid_level_0.5-2": 0.0, "tall_2+": 25.0 }, "geometry": { "type": "Point", "coordinates": [ -0.2313811312922, 51.513372845977173 ] } },
{ "type": "Feature", "properties": { "max_height": 0.010750770568847656, "mean_height": 0.00087825639639049768, "std_height": 0.0045642848126590252, "count_pixels": 43, "percent_cover": 1.5808823529411764, "percent_above_0.1m": 0.0, "low_level_<0.5": 0.0, "mid_level_0.5-2": 0.0, "tall_2+": 0.0 }, "geometry": { "type": "Point", "coordinates": [ -0.23118154664307, 51.513369837140239 ] } },
{ "type": "Feature", "properties": { "max_height": 17.489751815795898, "mean_height": 12.512499809265137, "std_height": 5.5766081809997559, "count_pixels": 43, "percent_cover": 1.5808823529411764, "percent_above_0.1m": 90.697674418604649, "low_level_<0.5": 0.0, "mid_level_0.5-2": 2.3255813953488373, "tall_2+": 88.372093023255815 }, "geometry": { "type": "Point", "coordinates": [ -0.230981962028743, 51.513366827963964 ] } },
{ "type": "Feature", "properties": { "max_height": 18.137500762939453, "mean_height": 13.896785736083984, "std_height": 5.2485346794128418, "count_pixels": 36, "percent_cover": 1.3235294117647058, "percent_above_0.1m": 94.444444444444443, "low_level_<0.5": 0.0, "mid_level_0.5-2": 0.0, "tall_2+": 91.666666666666657 }, "geometry": { "type": "Point", "coordinates": [ -0.231476744337281, 51.5134821986194 ] } },
{ "type": "Feature", "properties": { "max_height": 17.319999694824219, "mean_height": 5.7008943557739258, "std_height": 7.0578837394714355, "count_pixels": 40, "percent_cover": 1.4705882352941175, "percent_above_0.1m": 47.5, "low_level_<0.5": 2.5, "mid_level_0.5-2": 2.5, "tall_2+": 42.5 }, "geometry": { "type": "Point", "coordinates": [ -0.231277159197456, 51.513479189939055 ] } },
{ "type": "Feature", "properties": { "max_height": 17.688751220703125, "mean_height": 8.0885429382324219, "std_height": 7.2754077911376953, "count_pixels": 41, "percent_cover": 1.5073529411764706, "percent_above_0.1m": 63.414634146341463, "low_level_<0.5": 0.0, "mid_level_0.5-2": 2.4390243902439024, "tall_2+": 60.975609756097562 }, "geometry": { "type": "Point", "coordinates": [ -0.231077574092438, 51.513476180919298 ] } },
{ "type": "Feature", "properties": { "max_height": 17.46875, "mean_height": 9.1316404342651367, "std_height": 7.1520915031433105, "count_pixels": 43, "percent_cover": 1.5808823529411764, "percent_above_0.1m": 88.372093023255815, "low_level_<0.5": 2.3255813953488373, "mid_level_0.5-2": 13.953488372093023, "tall_2+": 69.767441860465112 }, "geometry": { "type": "Point", "coordinates": [ -0.231173186612014, 51.513585533800629 ] } }
]
}
