{
"type": "FeatureCollection",
"name": "BEXLE_37_walking",
"crs": { "type": "name", "properties": { "name": "urn:ogc:def:crs:OGC:1.3:CRS84" } },
"features": [
{"type":"Feature","properties":{"highway":"footway","name":null,"category":"Footpath (pedestrian only)"},"geometry":{"type":"MultiLineString","coordinates":[[[0.1292168,51.4627651],[0.129025,51.46276],[0.1283464,51.4628143],[0.1282547,51.4628221]]]}},
{"type":"Feature","properties":{"highway":"footway","name":null,"category":"Footpath (pedestrian only)"},"geometry":{"type":"MultiLineString","coordinates":[[[0.1295815,51.4627398],[0.1295909,51.4627834],[0.1296712,51.4631769],[0.1298209,51.4632225],[0.130458,51.4631741],[0.1311742,51.4631199],[0.1316066,51.4630859]]]}},
{"type":"Feature","properties":{"highway":"footway","name":null,"category":"Footpath (pedestrian only)"},"geometry":{"type":"MultiLineString","coordinates":[[[0.1336583,51.4636703],[0.1338885,51.4636666],[0.1339408,51.4636394],[0.1345262,51.4636382],[0.1346368,51.4636515],[0.1349211,51.4636515],[0.135188,51.4636349]]]}},
{"type":"Feature","properties":{"highway":"footway","name":null,"category":"Footpath (pedestrian only)"},"geometry":{"type":"MultiLineString","coordinates":[[[0.1373909,51.4637413],[0.138068,51.4638003],[0.1384382,51.4638504],[0.1399617,51.4639991],[0.1401203,51.4639976]]]}},
{"type":"Feature","properties":{"highway":"footway","name":"Sherbrooke Close","category":"Footpath (pedestrian only)"},"geometry":{"type":"MultiLineString","coordinates":[[[0.1432663,51.4580031],[0.1433137,51.4579958],[0.1439532,51.4578974],[0.1439381,51.4578303],[0.1442077,51.457787]]]}},
{"type":"Feature","properties":{"highway":"footway","name":"FP82","category":"Footpath (pedestrian only)"},"geometry":{"type":"MultiLineString","coordinates":[[[0.1436082,51.464091],[0.143908,51.4637896],[0.1439193,51.4637622],[0.1430991,51.4634271],[0.1430992,51.4634232],[0.1431018,51.4633705]]]}},
{"type":"Feature","properties":{"highway":"footway","name":null,"category":"Footpath (pedestrian only)"},"geometry":{"type":"MultiLineString","coordinates":[[[0.1487055,51.4617476],[0.1485904,51.4617599],[0.148534,51.4617599],[0.1484884,51.4617536],[0.148418,51.4617369],[0.1483516,51.4617365],[0.1482658,51.4617515],[0.1482028,51.4617686],[0.1481532,51.4617674],[0.1481076,51.461754],[0.1480767,51.4617356],[0.1480646,51.4617031],[0.148041,51.4616775],[0.1477602,51.4616228],[0.1477024,51.4616084],[0.1476464,51.4615944],[0.1474744,51.4616409],[0.1474003,51.4616678]]]}},
{"type":"Feature","properties":{"highway":"footway","name":null,"category":"Footpath (pedestrian only)"},"geometry":{"type":"MultiLineString","coordinates":[[[0.1359288,51.4609255],[0.1361914,51.4609213],[0.1364359,51.4609477],[0.136684,51.4608641],[0.1368293,51.4608453],[0.1372355,51.4608276],[0.137538,51.4608438],[0.13802,51.4608607]]]}},
{"type":"Feature","properties":{"highway":"footway","name":null,"category":"Footpath (pedestrian only)"},"geometry":{"type":"MultiLineString","coordinates":[[[0.1410262,51.4581734],[0.1410627,51.4582136],[0.141178,51.458219],[0.1413064,51.458155],[0.141462,51.4579996],[0.1422586,51.4578491],[0.1419368,51.4570623],[0.1419278,51.4570402]]]}},
{"type":"Feature","properties":{"highway":"footway","name":null,"category":"Footpath (pedestrian only)"},"geometry":{"type":"MultiLineString","coordinates":[[[0.141178,51.458219],[0.1412449,51.4583809],[0.1413506,51.4584584],[0.1415374,51.4585215],[0.1416473,51.4586029],[0.1417439,51.4588671],[0.1420092,51.4588962]]]}},
{"type":"Feature","properties":{"highway":"footway","name":null,"category":"Footpath (pedestrian only)"},"geometry":{"type":"MultiLineString","coordinates":[[[0.1420092,51.4588962],[0.1435193,51.4586631]]]}},
{"type":"Feature","properties":{"highway":"footway","name":null,"category":"Footpath (pedestrian only)"},"geometry":{"type":"MultiLineString","coordinates":[[[0.1388449,51.457577],[0.1388293,51.4575293]]]}},
{"type":"Feature","properties":{"highway":"footway","name":null,"category":"Footpath (pedestrian only)"},"geometry":{"type":"MultiLineString","coordinates":[[[0.1344116,51.4634674],[0.1344117,51.4635999]]]}},
{"type":"Feature","properties":{"highway":"footway","name":null,"category":"Footpath (pedestrian only)"},"geometry":{"type":"MultiLineString","coordinates":[[[0.1387204,51.4573126],[0.1386908,51.4573152]]]}},
{"type":"Feature","properties":{"highway":"footway","name":null,"category":"Footpath (pedestrian only)"},"geometry":{"type":"MultiLineString","coordinates":[[[0.1384186,51.4575227],[0.1384289,51.457549],[0.1384354,51.4575695]]]}},
{"type":"Feature","properties":{"highway":"footway","name":null,"category":"Footpath (pedestrian only)"},"geometry":{"type":"MultiLineString","coordinates":[[[0.1389909,51.457452],[0.1389957,51.4574665],[0.1390021,51.4574854]]]}},
{"type":"Feature","properties":{"highway":"footway","name":"FP226","category":"Footpath (pedestrian only)"},"geometry":{"type":"MultiLineString","coordinates":[[[0.1412688,51.4636451],[0.1411155,51.4638686]]]}},
{"type":"Feature","properties":{"highway":"footway","name":null,"category":"Footpath (pedestrian only)"},"geometry":{"type":"MultiLineString","coordinates":[[[0.1430991,51.4634271],[0.1430864,51.4634532],[0.1427068,51.4640193]]]}},
{"type":"Feature","properties":{"highway":"footway","name":null,"category":"Footpath (pedestrian only)"},"geometry":{"type":"MultiLineString","coordinates":[[[0.1494996,51.4629733],[0.1487645,51.4632009],[0.1487004,51.4632229],[0.1486133,51.4632519]]]}},
{"type":"Feature","properties":{"highway":"footway","name":null,"category":"Footpath (pedestrian only)"},"geometry":{"type":"MultiLineString","coordinates":[[[0.1507884,51.4623614],[0.1507066,51.4624408],[0.1506195,51.4625493],[0.1504331,51.4627939],[0.1504254,51.4628032],[0.1500696,51.463237]]]}},
{"type":"Feature","properties":{"highway":"track","name":null,"category":"Track"},"geometry":{"type":"MultiLineString","coordinates":[[[0.1468699,51.4595239],[0.1469234,51.4591612],[0.1469931,51.4591278],[0.1471943,51.4591345]]]}},
{"type":"Feature","properties":{"highway":"footway","name":null,"category":"Footpath (pedestrian only)"},"geometry":{"type":"MultiLineString","coordinates":[[[0.1501122,51.4607205],[0.1488995,51.4607557]]]}},
{"type":"Feature","properties":{"highway":"track","name":null,"category":"Track"},"geometry":{"type":"MultiLineString","coordinates":[[[0.1487151,51.4600352],[0.1475403,51.4599751],[0.1474813,51.45994],[0.1475285,51.4595616]]]}},
{"type":"Feature","properties":{"highway":"track","name":null,"category":"Track"},"geometry":{"type":"MultiLineString","coordinates":[[[0.1479386,51.4603022],[0.1479037,51.4602178],[0.1478816,51.460156],[0.1479131,51.4600925],[0.1479936,51.4600641],[0.1481565,51.4600499],[0.1484395,51.4600958],[0.1487184,51.4602145],[0.1487533,51.4602592]]]}},
{"type":"Feature","properties":{"highway":"footway","name":null,"category":"Footpath (pedestrian only)"},"geometry":{"type":"MultiLineString","coordinates":[[[0.1418664,51.4570491],[0.141851,51.4570028],[0.1418454,51.4569825],[0.1417822,51.4567896],[0.1417387,51.4566385],[0.1417077,51.4564833],[0.1416655,51.4564871]]]}},
{"type":"Feature","properties":{"highway":"footway","name":null,"category":"Footpath (pedestrian only)"},"geometry":{"type":"MultiLineString","coordinates":[[[0.1481511,51.464802],[0.1485977,51.4645815]]]}},
{"type":"Feature","properties":{"highway":"footway","name":null,"category":"Footpath (pedestrian only)"},"geometry":{"type":"MultiLineString","coordinates":[[[0.1485977,51.4645815],[0.1486447,51.4645718],[0.148707,51.4645974]]]}},
{"type":"Feature","properties":{"highway":"footway","name":null,"category":"Footpath (pedestrian only)"},"geometry":{"type":"MultiLineString","coordinates":[[[0.1481252,51.4648884],[0.1480888,51.4648296],[0.1481511,51.464802]]]}},
{"type":"Feature","properties":{"highway":"footway","name":null,"category":"Footpath (pedestrian only)"},"geometry":{"type":"MultiLineString","coordinates":[[[0.1371025,51.4580788],[0.137357,51.4580519],[0.1373958,51.458196]]]}},
{"type":"Feature","properties":{"highway":"footway","name":null,"category":"Footpath (pedestrian only)"},"geometry":{"type":"MultiLineString","coordinates":[[[0.1310482,51.4626992],[0.1311238,51.4630525],[0.1311681,51.4631093],[0.1311742,51.4631199]]]}},
{"type":"Feature","properties":{"highway":"footway","name":null,"category":"Footpath (pedestrian only)"},"geometry":{"type":"MultiLineString","coordinates":[[[0.1303267,51.4626816],[0.130413,51.4631314],[0.130458,51.4631741]]]}},
{"type":"Feature","properties":{"highway":"track","name":null,"category":"Track"},"geometry":{"type":"MultiLineString","coordinates":[[[0.1385419,51.4646581],[0.1386619,51.4649037]]]}},
{"type":"Feature","properties":{"highway":"track","name":null,"category":"Track"},"geometry":{"type":"MultiLineString","coordinates":[[[0.1385419,51.4646581],[0.1382686,51.4640697],[0.1382342,51.4639955],[0.138182,51.4639774]]]}},
{"type":"Feature","properties":{"highway":"footway","name":null,"category":"Footpath (pedestrian only)"},"geometry":{"type":"MultiLineString","coordinates":[[[0.1417077,51.4564833],[0.1417195,51.4564492]]]}},
{"type":"Feature","properties":{"highway":"footway","name":"FP82","category":"Footpath (pedestrian only)"},"geometry":{"type":"MultiLineString","coordinates":[[[0.143908,51.4637896],[0.1439432,51.4637934],[0.1440467,51.4637853]]]}},
{"type":"Feature","properties":{"highway":"footway","name":null,"category":"Footpath (pedestrian only)"},"geometry":{"type":"MultiLineString","coordinates":[[[0.1384061,51.4568232],[0.138391,51.4567581],[0.1383902,51.4566903],[0.1385654,51.4564916],[0.1386558,51.4563225],[0.1388302,51.4561827]]]}},
{"type":"Feature","properties":{"highway":"footway","name":null,"category":"Footpath (pedestrian only)"},"geometry":{"type":"MultiLineString","coordinates":[[[0.1385654,51.4564916],[0.1386193,51.4565167],[0.1386948,51.4565604],[0.1387295,51.4565881],[0.1387667,51.4566067]]]}},
{"type":"Feature","properties":{"highway":"footway","name":null,"category":"Footpath (pedestrian only)"},"geometry":{"type":"MultiLineString","coordinates":[[[0.1384061,51.4568232],[0.1384516,51.4570078]]]}},
{"type":"Feature","properties":{"highway":"track","name":null,"category":"Track"},"geometry":{"type":"MultiLineString","coordinates":[[[0.138182,51.4639774],[0.1382115,51.4639523],[0.1381686,51.4638621]]]}},
{"type":"Feature","properties":{"highway":"footway","name":null,"category":"Footpath (pedestrian only)"},"geometry":{"type":"MultiLineString","coordinates":[[[0.1477024,51.4616084],[0.1482309,51.462638],[0.1487645,51.4632009]]]}},
{"type":"Feature","properties":{"highway":"footway","name":null,"category":"Footpath (pedestrian only)"},"geometry":{"type":"MultiLineString","coordinates":[[[0.1482028,51.4617686],[0.1482779,51.4617845],[0.1483442,51.4618037],[0.1483604,51.4618192],[0.1483791,51.4618238],[0.148414,51.4618259],[0.1484321,51.4618388],[0.1484321,51.4618622],[0.1484247,51.4618798]]]}},
{"type":"Feature","properties":{"highway":"footway","name":null,"category":"Footpath (pedestrian only)"},"geometry":{"type":"MultiLineString","coordinates":[[[0.1500696,51.463237],[0.1500133,51.4632621],[0.149957,51.4632437],[0.1494996,51.4629733]]]}},
{"type":"Feature","properties":{"highway":"footway","name":null,"category":"Footpath (pedestrian only)"},"geometry":{"type":"MultiLineString","coordinates":[[[0.1504254,51.4628032],[0.1502803,51.4627526]]]}},
{"type":"Feature","properties":{"highway":"footway","name":null,"category":"Footpath (pedestrian only)"},"geometry":{"type":"MultiLineString","coordinates":[[[0.1507482,51.462933],[0.1504331,51.4627939]]]}},
{"type":"Feature","properties":{"highway":"footway","name":null,"category":"Footpath (pedestrian only)"},"geometry":{"type":"MultiLineString","coordinates":[[[0.1500133,51.4632621],[0.1501983,51.4634142],[0.1503217,51.4634594]]]}},
{"type":"Feature","properties":{"highway":"footway","name":null,"category":"Footpath (pedestrian only)"},"geometry":{"type":"MultiLineString","coordinates":[[[0.1503217,51.4634594],[0.1504505,51.4634343],[0.150606,51.4632806],[0.1506972,51.4631151],[0.1507723,51.4629915],[0.1507482,51.462933]]]}},
{"type":"Feature","properties":{"highway":"footway","name":null,"category":"Footpath (pedestrian only)"},"geometry":{"type":"MultiLineString","coordinates":[[[0.1416124,51.4568831],[0.1415737,51.4567625]]]}},
{"type":"Feature","properties":{"highway":"footway","name":null,"category":"Footpath (pedestrian only)"},"geometry":{"type":"MultiLineString","coordinates":[[[0.1416353,51.4569505],[0.1416124,51.4568831]]]}},
{"type":"Feature","properties":{"highway":"footway","name":null,"category":"Footpath (pedestrian only)"},"geometry":{"type":"MultiLineString","coordinates":[[[0.1416625,51.4570291],[0.1416555,51.4570098],[0.1416353,51.4569505]]]}},
{"type":"Feature","properties":{"highway":"footway","name":null,"category":"Footpath (pedestrian only)"},"geometry":{"type":"MultiLineString","coordinates":[[[0.133774,51.4634468],[0.1337755,51.4634729]]]}},
{"type":"Feature","properties":{"highway":"footway","name":null,"category":"Footpath (pedestrian only)"},"geometry":{"type":"MultiLineString","coordinates":[[[0.1337705,51.4634009],[0.1337717,51.4634095]]]}},
{"type":"Feature","properties":{"highway":"footway","name":null,"category":"Footpath (pedestrian only)"},"geometry":{"type":"MultiLineString","coordinates":[[[0.1334436,51.4634096],[0.133455,51.4634282],[0.1334566,51.463436]]]}},
{"type":"Feature","properties":{"highway":"footway","name":null,"category":"Footpath (pedestrian only)"},"geometry":{"type":"MultiLineString","coordinates":[[[0.1337717,51.4634095],[0.133774,51.4634468]]]}},
{"type":"Feature","properties":{"highway":"footway","name":null,"category":"Footpath (pedestrian only)"},"geometry":{"type":"MultiLineString","coordinates":[[[0.1337061,51.4634021],[0.1337055,51.4633868],[0.1337047,51.4633678]]]}},
{"type":"Feature","properties":{"highway":"footway","name":null,"category":"Footpath (pedestrian only)"},"geometry":{"type":"MultiLineString","coordinates":[[[0.1333909,51.4634291],[0.1334161,51.4634262],[0.1334436,51.4634096],[0.1334637,51.4634063],[0.1337061,51.4634021],[0.1337705,51.4634009],[0.1338181,51.4634007],[0.1338399,51.4634046],[0.1338627,51.4634111],[0.1341215,51.4634088]]]}},
{"type":"Feature","properties":{"highway":"footway","name":null,"category":"Footpath (pedestrian only)"},"geometry":{"type":"MultiLineString","coordinates":[[[0.1344315,51.4634675],[0.1344116,51.4634674]]]}},
{"type":"Feature","properties":{"highway":"footway","name":null,"category":"Footpath (pedestrian only)"},"geometry":{"type":"MultiLineString","coordinates":[[[0.134432,51.4635999],[0.1344117,51.4635999]]]}},
{"type":"Feature","properties":{"highway":"footway","name":null,"category":"Footpath (pedestrian only)"},"geometry":{"type":"MultiLineString","coordinates":[[[0.1388472,51.4566431],[0.1388085,51.4566256],[0.1387667,51.4566067]]]}},
{"type":"Feature","properties":{"highway":"footway","name":null,"category":"Footpath (pedestrian only)"},"geometry":{"type":"MultiLineString","coordinates":[[[0.1388759,51.4566561],[0.1388472,51.4566431]]]}},
{"type":"Feature","properties":{"highway":"footway","name":null,"category":"Footpath (pedestrian only)"},"geometry":{"type":"MultiLineString","coordinates":[[[0.1389041,51.4566689],[0.1388759,51.4566561]]]}},
{"type":"Feature","properties":{"highway":"footway","name":null,"category":"Footpath (pedestrian only)"},"geometry":{"type":"MultiLineString","coordinates":[[[0.1427068,51.4640193],[0.1426984,51.4640334],[0.1411155,51.4638686],[0.1400799,51.4637819]]]}},
{"type":"Feature","properties":{"highway":"footway","name":"FP82","category":"Footpath (pedestrian only)"},"geometry":{"type":"MultiLineString","coordinates":[[[0.1427068,51.4640193],[0.1435616,51.4641025],[0.1436082,51.464091]]]}},
{"type":"Feature","properties":{"highway":"footway","name":null,"category":"Footpath (pedestrian only)"},"geometry":{"type":"MultiLineString","coordinates":[[[0.1375989,51.4617792],[0.1375848,51.4617766],[0.1374236,51.4617444]]]}},
{"type":"Feature","properties":{"highway":"track","name":null,"category":"Track"},"geometry":{"type":"MultiLineString","coordinates":[[[0.138182,51.4639774],[0.1375539,51.4640899]]]}},
{"type":"Feature","properties":{"highway":"footway","name":null,"category":"Footpath (pedestrian only)"},"geometry":{"type":"MultiLineString","coordinates":[[[0.1382686,51.4640697],[0.1383091,51.4640638],[0.138351,51.4640584]]]}},
{"type":"Feature","properties":{"highway":"footway","name":null,"category":"Footpath (pedestrian only)"},"geometry":{"type":"MultiLineString","coordinates":[[[0.1396289,51.4613911],[0.1396955,51.4614008],[0.1408401,51.4611342],[0.1419505,51.4608612],[0.1432474,51.4606812]]]}},
{"type":"Feature","properties":{"highway":"footway","name":null,"category":"Footpath (pedestrian only)"},"geometry":{"type":"MultiLineString","coordinates":[[[0.1403234,51.4603083],[0.1406368,51.4603096]]]}},
{"type":"Feature","properties":{"highway":"footway","name":null,"category":"Footpath (pedestrian only)"},"geometry":{"type":"MultiLineString","coordinates":[[[0.1406873,51.4572156],[0.1407148,51.4572395],[0.1407328,51.457256],[0.1408562,51.4575919],[0.1408517,51.4576802]]]}},
{"type":"Feature","properties":{"highway":"footway","name":null,"category":"Footpath (pedestrian only)"},"geometry":{"type":"MultiLineString","coordinates":[[[0.1394501,51.4584563],[0.1394353,51.4584079],[0.139389,51.4582821]]]}},
{"type":"Feature","properties":{"highway":"track","name":null,"category":"Track"},"geometry":{"type":"MultiLineString","coordinates":[[[0.1498915,51.4597114],[0.1496056,51.4600022],[0.1495653,51.4600169],[0.1487151,51.4600352]]]}},
{"type":"Feature","properties":{"highway":"track","name":null,"category":"Track"},"geometry":{"type":"MultiLineString","coordinates":[[[0.1488995,51.4607557],[0.148939,51.4608107],[0.1491389,51.4614925]]]}},
{"type":"Feature","properties":{"highway":"footway","name":null,"category":"Footpath (pedestrian only)"},"geometry":{"type":"MultiLineString","coordinates":[[[0.1464836,51.4610407],[0.1465639,51.4610095],[0.1474705,51.4609536]]]}},
{"type":"Feature","properties":{"highway":"footway","name":null,"category":"Footpath (pedestrian only)"},"geometry":{"type":"MultiLineString","coordinates":[[[0.1435513,51.4585664],[0.1436173,51.4587347],[0.1437555,51.4587181],[0.1438351,51.4588839],[0.1439133,51.4590529],[0.1433228,51.4591465],[0.1429126,51.4592092],[0.1428645,51.4592977],[0.1427413,51.4595056],[0.1428119,51.4596998],[0.1428787,51.4598824]]]}},
{"type":"Feature","properties":{"highway":"footway","name":null,"category":"Footpath (pedestrian only)"},"geometry":{"type":"MultiLineString","coordinates":[[[0.1440034,51.4575617],[0.1441677,51.4575251],[0.1446111,51.4574539],[0.1452723,51.4573504],[0.1456586,51.457297]]]}},
{"type":"Feature","properties":{"highway":"footway","name":null,"category":"Footpath (pedestrian only)"},"geometry":{"type":"MultiLineString","coordinates":[[[0.1432399,51.4577976],[0.1432937,51.4577229],[0.1433765,51.4576658],[0.1434241,51.4576329],[0.1434517,51.457627],[0.1435871,51.4575981],[0.1440034,51.4575617]]]}},
{"type":"Feature","properties":{"highway":"footway","name":null,"category":"Footpath (pedestrian only)"},"geometry":{"type":"MultiLineString","coordinates":[[[0.1433137,51.4579958],[0.1432399,51.4577976]]]}},
{"type":"Feature","properties":{"highway":"footway","name":null,"category":"Footpath (pedestrian only)"},"geometry":{"type":"MultiLineString","coordinates":[[[0.1432399,51.4577976],[0.1433572,51.45777],[0.1434608,51.4577358],[0.1435269,51.4577117],[0.143831,51.4576001],[0.1440034,51.4575617]]]}},
{"type":"Feature","properties":{"highway":"footway","name":null,"category":"Footpath (pedestrian only)"},"geometry":{"type":"MultiLineString","coordinates":[[[0.1433841,51.4583795],[0.1438439,51.4583099],[0.1437233,51.4579729]]]}},
{"type":"Feature","properties":{"highway":"footway","name":null,"category":"Footpath (pedestrian only)"},"geometry":{"type":"MultiLineString","coordinates":[[[0.1435269,51.4577117],[0.1434517,51.457627]]]}},
{"type":"Feature","properties":{"highway":"footway","name":null,"category":"Footpath (pedestrian only)"},"geometry":{"type":"MultiLineString","coordinates":[[[0.1434608,51.4577358],[0.1433765,51.4576658]]]}},
{"type":"Feature","properties":{"highway":"footway","name":null,"category":"Footpath (pedestrian only)"},"geometry":{"type":"MultiLineString","coordinates":[[[0.1376706,51.4616395],[0.1375989,51.4617792],[0.1375269,51.4619218]]]}},
{"type":"Feature","properties":{"highway":"footway","name":null,"category":"Footpath (pedestrian only)"},"geometry":{"type":"MultiLineString","coordinates":[[[0.1339133,51.4637354],[0.133915,51.4637523]]]}},
{"type":"Feature","properties":{"highway":"footway","name":null,"category":"Footpath (pedestrian only)"},"geometry":{"type":"MultiLineString","coordinates":[[[0.1339093,51.463682],[0.1338885,51.4636666]]]}},
{"type":"Feature","properties":{"highway":"footway","name":null,"category":"Footpath (pedestrian only)"},"geometry":{"type":"MultiLineString","coordinates":[[[0.1306918,51.4588075],[0.1306761,51.458767],[0.1306811,51.4587391],[0.1306989,51.4587176],[0.1307313,51.4586974],[0.1310033,51.4586502],[0.1317473,51.4585223]]]}},
{"type":"Feature","properties":{"highway":"footway","name":null,"category":"Footpath (pedestrian only)"},"geometry":{"type":"MultiLineString","coordinates":[[[0.1317438,51.4585138],[0.1317265,51.4584726],[0.13171,51.4584335]]]}},
{"type":"Feature","properties":{"highway":"footway","name":null,"category":"Footpath (pedestrian only)"},"geometry":{"type":"MultiLineString","coordinates":[[[0.1317438,51.4585138],[0.1317473,51.4585223]]]}},
{"type":"Feature","properties":{"highway":"footway","name":null,"category":"Footpath (pedestrian only)"},"geometry":{"type":"MultiLineString","coordinates":[[[0.1335996,51.463672],[0.1336592,51.4636244],[0.1337383,51.4636231],[0.1337738,51.4636353],[0.1338087,51.4636348],[0.1338595,51.463634]]]}},
{"type":"Feature","properties":{"highway":"track","name":null,"category":"Track"},"geometry":{"type":"MultiLineString","coordinates":[[[0.1487533,51.4602592],[0.14887,51.4607234],[0.1488995,51.4607557]]]}},
{"type":"Feature","properties":{"highway":"track","name":null,"category":"Track"},"geometry":{"type":"MultiLineString","coordinates":[[[0.1474705,51.4609536],[0.1476784,51.4609389],[0.1475926,51.4605232],[0.1476274,51.4604205],[0.1477059,51.460372],[0.1479077,51.4603503],[0.1479386,51.4603022]]]}},
{"type":"Feature","properties":{"highway":"footway","name":null,"category":"Footpath (pedestrian only)"},"geometry":{"type":"MultiLineString","coordinates":[[[0.1386566,51.4573182],[0.1386108,51.4573222]]]}},
{"type":"Feature","properties":{"highway":"footway","name":null,"category":"Footpath (pedestrian only)"},"geometry":{"type":"MultiLineString","coordinates":[[[0.1386908,51.4573152],[0.1386566,51.4573182]]]}},
{"type":"Feature","properties":{"highway":"footway","name":null,"category":"Footpath (pedestrian only)"},"geometry":{"type":"MultiLineString","coordinates":[[[0.1389844,51.457432],[0.1389909,51.457452]]]}},
{"type":"Feature","properties":{"highway":"footway","name":null,"category":"Footpath (pedestrian only)"},"geometry":{"type":"MultiLineString","coordinates":[[[0.1389778,51.4574117],[0.1389844,51.457432]]]}},
{"type":"Feature","properties":{"highway":"footway","name":null,"category":"Footpath (pedestrian only)"},"geometry":{"type":"MultiLineString","coordinates":[[[0.1384105,51.4575016],[0.1384186,51.4575227]]]}},
{"type":"Feature","properties":{"highway":"footway","name":null,"category":"Footpath (pedestrian only)"},"geometry":{"type":"MultiLineString","coordinates":[[[0.1384003,51.4574755],[0.1384105,51.4575016]]]}},
{"type":"Feature","properties":{"highway":"footway","name":null,"category":"Footpath (pedestrian only)"},"geometry":{"type":"MultiLineString","coordinates":[[[0.1390021,51.4574854],[0.1390067,51.4575027]]]}},
{"type":"Feature","properties":{"highway":"footway","name":null,"category":"Footpath (pedestrian only)"},"geometry":{"type":"MultiLineString","coordinates":[[[0.1384354,51.4575695],[0.1384434,51.4575863]]]}},
{"type":"Feature","properties":{"highway":"footway","name":"Broadway","category":"Footpath (pedestrian only)"},"geometry":{"type":"MultiLineString","coordinates":[[[0.1384434,51.4575863],[0.1388293,51.4575293],[0.1390067,51.4575027]]]}},
{"type":"Feature","properties":{"highway":"footway","name":null,"category":"Footpath (pedestrian only)"},"geometry":{"type":"MultiLineString","coordinates":[[[0.1410908,51.4577035],[0.1410882,51.4576945],[0.140868,51.4577251]]]}},
{"type":"Feature","properties":{"highway":"footway","name":null,"category":"Footpath (pedestrian only)"},"geometry":{"type":"MultiLineString","coordinates":[[[0.140932,51.457907],[0.141081,51.4578865]]]}},
{"type":"Feature","properties":{"highway":"footway","name":null,"category":"Footpath (pedestrian only)"},"geometry":{"type":"MultiLineString","coordinates":[[[0.1417393,51.4573696],[0.1416631,51.4571384],[0.1416514,51.4571032],[0.1416438,51.4570809]]]}},
{"type":"Feature","properties":{"highway":"footway","name":null,"category":"Footpath (pedestrian only)"},"geometry":{"type":"MultiLineString","coordinates":[[[0.1416799,51.4570756],[0.1416874,51.4570981],[0.1417749,51.4573467],[0.1417393,51.4573696],[0.1417688,51.4574553],[0.1415938,51.457482],[0.1415006,51.457612]]]}},
{"type":"Feature","properties":{"highway":"pedestrian","name":"Broadway","category":"Pedestrian area/street"},"geometry":{"type":"MultiLineString","coordinates":[[[0.1443521,51.4565961],[0.1443118,51.4566149],[0.1443063,51.4566461],[0.1443365,51.4566691],[0.144384,51.4566723],[0.1444215,51.456654],[0.1444278,51.4566245],[0.1443993,51.4566007],[0.1443521,51.4565961]]]}},
{"type":"Feature","properties":{"highway":"pedestrian","name":null,"category":"Pedestrian area/street"},"geometry":{"type":"MultiLineString","coordinates":[[[0.1428226,51.4567995],[0.1427752,51.4566587]]]}},
{"type":"Feature","properties":{"highway":"pedestrian","name":"Broadway","category":"Pedestrian area/street"},"geometry":{"type":"MultiLineString","coordinates":[[[0.1443063,51.4566461],[0.1437298,51.456728],[0.1433574,51.456791],[0.1429374,51.4568509],[0.1428753,51.4568641],[0.1428497,51.4568734]]]}},
{"type":"Feature","properties":{"highway":"pedestrian","name":"Broadway","category":"Pedestrian area/street"},"geometry":{"type":"MultiLineString","coordinates":[[[0.1428497,51.4568734],[0.1428209,51.4568839],[0.1427665,51.4569152],[0.1427176,51.456951]]]}},
{"type":"Feature","properties":{"highway":"pedestrian","name":null,"category":"Pedestrian area/street"},"geometry":{"type":"MultiLineString","coordinates":[[[0.1428497,51.4568734],[0.1428226,51.4567995]]]}}
]
}
