{
"type": "FeatureCollection",
"name": "BEXLE_12_walking",
"crs": { "type": "name", "properties": { "name": "urn:ogc:def:crs:OGC:1.3:CRS84" } },
"features": [
{"type":"Feature","properties":{"highway":"footway","name":null,"category":"Footpath (pedestrian only)"},"geometry":{"type":"MultiLineString","coordinates":[[[0.0914399,51.4307743],[0.091574,51.4307397],[0.0930368,51.4307008],[0.0940444,51.4306578],[0.0945099,51.4306672],[0.0945468,51.4306899],[0.0946007,51.430723]]]}},
{"type":"Feature","properties":{"highway":"path","name":null,"category":"Shared path"},"geometry":{"type":"MultiLineString","coordinates":[[[0.079955,51.4313093],[0.079905,51.4312798],[0.0798946,51.4312641],[0.0798938,51.4312299],[0.0798753,51.431193],[0.0798392,51.4311732],[0.07978,51.431159],[0.079706,51.4311586],[0.0795518,51.4311725]]]}},
{"type":"Feature","properties":{"highway":"footway","name":null,"category":"Footpath (pedestrian only)"},"geometry":{"type":"MultiLineString","coordinates":[[[0.0929801,51.4325123],[0.0930584,51.4323965]]]}},
{"type":"Feature","properties":{"highway":"footway","name":"Tyron Way","category":"Footpath (pedestrian only)"},"geometry":{"type":"MultiLineString","coordinates":[[[0.0921262,51.4234062],[0.0923204,51.4235194],[0.0923847,51.4235362],[0.0924626,51.4235344],[0.0925134,51.4235219],[0.0926058,51.4234893],[0.0926813,51.4234537]]]}},
{"type":"Feature","properties":{"highway":"footway","name":null,"category":"Footpath (pedestrian only)"},"geometry":{"type":"MultiLineString","coordinates":[[[0.0902832,51.4257616],[0.0908557,51.4256231]]]}},
{"type":"Feature","properties":{"highway":"footway","name":null,"category":"Footpath (pedestrian only)"},"geometry":{"type":"MultiLineString","coordinates":[[[0.1011828,51.4257898],[0.1012371,51.4258285],[0.1013741,51.4258705],[0.1014621,51.4258908],[0.1016655,51.4259377],[0.1018422,51.4259666],[0.1018644,51.4259739],[0.1018885,51.4259818],[0.1022115,51.4259707]]]}},
{"type":"Feature","properties":{"highway":"footway","name":null,"category":"Footpath (pedestrian only)"},"geometry":{"type":"MultiLineString","coordinates":[[[0.101817,51.4216849],[0.1019484,51.4219268],[0.1020024,51.4219886],[0.1020507,51.4220344],[0.1020263,51.4220826]]]}},
{"type":"Feature","properties":{"highway":"footway","name":null,"category":"Footpath (pedestrian only)"},"geometry":{"type":"MultiLineString","coordinates":[[[0.091139,51.4295084],[0.0911172,51.4298602],[0.0912147,51.4300502],[0.0914132,51.4303713],[0.091574,51.4307397]]]}},
{"type":"Feature","properties":{"highway":"path","name":null,"category":"Shared path"},"geometry":{"type":"MultiLineString","coordinates":[[[0.08454,51.427632],[0.0845461,51.4276805],[0.0845379,51.4277304],[0.0845082,51.4278037],[0.0844632,51.4278416],[0.0843935,51.427885],[0.0843329,51.4279121],[0.0842718,51.4279295],[0.084226,51.4279412],[0.0841586,51.4279474],[0.0840827,51.4279461],[0.084017,51.4279385],[0.0839543,51.4279228],[0.0838942,51.4279003],[0.0838484,51.4278815],[0.083804,51.4278518],[0.0837903,51.4278218],[0.0838018,51.4277946],[0.0838329,51.4277367],[0.0838969,51.4276542],[0.0839048,51.4276242],[0.0838633,51.4276004],[0.0838184,51.4276037],[0.0837884,51.4275766]]]}},
{"type":"Feature","properties":{"highway":"path","name":null,"category":"Shared path"},"geometry":{"type":"MultiLineString","coordinates":[[[0.0847405,51.4272162],[0.084854,51.4272081],[0.0849642,51.4272142],[0.0850614,51.4272344],[0.0851425,51.4272668],[0.0852105,51.4273052],[0.0852786,51.4273658],[0.0852948,51.4274507],[0.0852851,51.4275174],[0.0852402,51.4275963],[0.0851832,51.4276397],[0.0851036,51.4276879],[0.0850201,51.4277146],[0.0849516,51.4277242],[0.0849033,51.4277294],[0.0848446,51.4277344],[0.0847899,51.4277336],[0.0847177,51.4277137],[0.0846548,51.4276877],[0.08454,51.427632],[0.0844888,51.4275759],[0.0844361,51.4275056]]]}},
{"type":"Feature","properties":{"highway":"footway","name":null,"category":"Footpath (pedestrian only)"},"geometry":{"type":"MultiLineString","coordinates":[[[0.0996625,51.4215123],[0.0997814,51.4215072]]]}},
{"type":"Feature","properties":{"highway":"footway","name":null,"category":"Footpath (pedestrian only)"},"geometry":{"type":"MultiLineString","coordinates":[[[0.1011808,51.4218527],[0.1011636,51.4218367],[0.1011379,51.421826],[0.1011077,51.4218222],[0.1010774,51.421826],[0.1010517,51.4218367],[0.1010346,51.4218527],[0.1010303,51.4218711],[0.1010346,51.4218905],[0.1010391,51.4218947],[0.1010517,51.4219065],[0.1010774,51.4219172],[0.1010909,51.4219188],[0.1011077,51.4219209],[0.1011379,51.4219172],[0.1011636,51.4219065],[0.1011753,51.4218957],[0.1011808,51.4218905],[0.1011868,51.4218716],[0.1011808,51.4218527]]]}},
{"type":"Feature","properties":{"highway":"footway","name":null,"category":"Footpath (pedestrian only)"},"geometry":{"type":"MultiLineString","coordinates":[[[0.100804,51.4215632],[0.1007455,51.4214345]]]}},
{"type":"Feature","properties":{"highway":"footway","name":null,"category":"Footpath (pedestrian only)"},"geometry":{"type":"MultiLineString","coordinates":[[[0.1009012,51.421776],[0.1008431,51.4216431]]]}},
{"type":"Feature","properties":{"highway":"footway","name":null,"category":"Footpath (pedestrian only)"},"geometry":{"type":"MultiLineString","coordinates":[[[0.1008882,51.4215884],[0.1008742,51.4215754],[0.1008502,51.4215661],[0.1008279,51.4215625],[0.100804,51.4215632],[0.1007791,51.4215729],[0.1007651,51.4215849],[0.1007568,51.4215992],[0.1007571,51.4216174],[0.100773,51.4216303],[0.1007954,51.4216396],[0.1008208,51.4216442],[0.1008431,51.4216431],[0.1008635,51.4216359],[0.1008803,51.4216256],[0.100888,51.4216134],[0.1008907,51.4215998],[0.1008882,51.4215884]]]}},
{"type":"Feature","properties":{"highway":"footway","name":null,"category":"Footpath (pedestrian only)"},"geometry":{"type":"MultiLineString","coordinates":[[[0.1013104,51.4215096],[0.10107,51.4215551],[0.1008882,51.4215884]]]}},
{"type":"Feature","properties":{"highway":"footway","name":null,"category":"Footpath (pedestrian only)"},"geometry":{"type":"MultiLineString","coordinates":[[[0.1007571,51.4216174],[0.1005777,51.4216521],[0.1005314,51.4216605]]]}},
{"type":"Feature","properties":{"highway":"footway","name":null,"category":"Footpath (pedestrian only)"},"geometry":{"type":"MultiLineString","coordinates":[[[0.1011266,51.422032],[0.1010834,51.4219698],[0.1010801,51.4219629],[0.1010797,51.4219557],[0.1010823,51.4219475],[0.1010909,51.4219188]]]}},
{"type":"Feature","properties":{"highway":"footway","name":null,"category":"Footpath (pedestrian only)"},"geometry":{"type":"MultiLineString","coordinates":[[[0.1013987,51.4217064],[0.1011663,51.421766],[0.1011817,51.4218056],[0.1011745,51.4218238],[0.1011636,51.4218367],[0.1011104,51.4218729],[0.1010909,51.4219188]]]}},
{"type":"Feature","properties":{"highway":"footway","name":null,"category":"Footpath (pedestrian only)"},"geometry":{"type":"MultiLineString","coordinates":[[[0.1006615,51.4218183],[0.1009012,51.421776],[0.1011402,51.4217282],[0.10107,51.4215551],[0.1009943,51.4213865],[0.1007455,51.4214345],[0.1004927,51.4214861],[0.1005777,51.4216521],[0.1006615,51.4218183]]]}},
{"type":"Feature","properties":{"highway":"footway","name":null,"category":"Footpath (pedestrian only)"},"geometry":{"type":"MultiLineString","coordinates":[[[0.0878486,51.4262984],[0.0876146,51.4263314],[0.0872844,51.4263938],[0.087263,51.426464],[0.0872833,51.4266045],[0.0872874,51.4267829],[0.0872069,51.4269],[0.0871425,51.4269903],[0.0871704,51.4270893]]]}},
{"type":"Feature","properties":{"highway":"footway","name":null,"category":"Footpath (pedestrian only)"},"geometry":{"type":"MultiLineString","coordinates":[[[0.101127,51.4252864],[0.1009394,51.4252818]]]}},
{"type":"Feature","properties":{"highway":"footway","name":null,"category":"Footpath (pedestrian only)"},"geometry":{"type":"MultiLineString","coordinates":[[[0.1009167,51.4254207],[0.1010069,51.4254211],[0.1013161,51.4254231],[0.1013379,51.4254513],[0.1015249,51.4254532],[0.1015463,51.425481],[0.1015493,51.4255064],[0.1015412,51.4255298],[0.1015229,51.425552],[0.1015213,51.4255685]]]}},
{"type":"Feature","properties":{"highway":"footway","name":null,"category":"Footpath (pedestrian only)"},"geometry":{"type":"MultiLineString","coordinates":[[[0.0971889,51.4265616],[0.0971383,51.426383],[0.0971131,51.4263805],[0.097092,51.4263741],[0.0970754,51.4263637],[0.0970651,51.4263505],[0.0970622,51.4263359],[0.097067,51.4263216],[0.0970791,51.426309],[0.097097,51.4262995],[0.0971189,51.4262941],[0.0971424,51.4262935],[0.0971651,51.4262976],[0.0971843,51.4263062],[0.0971981,51.4263181],[0.0972048,51.4263323],[0.0972038,51.426347],[0.0971952,51.4263607],[0.0971799,51.4263719],[0.0971596,51.4263794],[0.0971383,51.426383]]]}},
{"type":"Feature","properties":{"highway":"footway","name":null,"category":"Footpath (pedestrian only)"},"geometry":{"type":"MultiLineString","coordinates":[[[0.0971958,51.4265876],[0.0972033,51.4266293]]]}},
{"type":"Feature","properties":{"highway":"footway","name":null,"category":"Footpath (pedestrian only)"},"geometry":{"type":"MultiLineString","coordinates":[[[0.0948912,51.4260486],[0.0948898,51.4259508],[0.0948834,51.4255215]]]}},
{"type":"Feature","properties":{"highway":"footway","name":null,"category":"Footpath (pedestrian only)"},"geometry":{"type":"MultiLineString","coordinates":[[[0.0948898,51.4259508],[0.0950831,51.4259498],[0.0950842,51.4259072],[0.0950772,51.4257783],[0.0950776,51.4255031]]]}},
{"type":"Feature","properties":{"highway":"footway","name":null,"category":"Footpath (pedestrian only)"},"geometry":{"type":"MultiLineString","coordinates":[[[0.0957477,51.4256009],[0.0965327,51.4256016],[0.0965994,51.4256236],[0.0966798,51.4256371],[0.0967345,51.4256381],[0.0967367,51.4257031],[0.096719,51.4257349],[0.0966355,51.4258173]]]}},
{"type":"Feature","properties":{"highway":"footway","name":null,"category":"Footpath (pedestrian only)"},"geometry":{"type":"MultiLineString","coordinates":[[[0.0968961,51.4253162],[0.0966827,51.4253251],[0.0966855,51.4254055],[0.0956461,51.4254218],[0.0956461,51.4254897],[0.0956481,51.4255985]]]}},
{"type":"Feature","properties":{"highway":"footway","name":null,"category":"Footpath (pedestrian only)"},"geometry":{"type":"MultiLineString","coordinates":[[[0.0956654,51.4243116],[0.095543,51.4240348]]]}},
{"type":"Feature","properties":{"highway":"footway","name":null,"category":"Footpath (pedestrian only)"},"geometry":{"type":"MultiLineString","coordinates":[[[0.0956647,51.42339],[0.0957795,51.4236408],[0.0958289,51.4236305]]]}},
{"type":"Feature","properties":{"highway":"footway","name":null,"category":"Footpath (pedestrian only)"},"geometry":{"type":"MultiLineString","coordinates":[[[0.0964746,51.4248906],[0.0958796,51.4250261],[0.095753,51.4250374],[0.0956275,51.4250414],[0.0954068,51.4250333],[0.0951022,51.425001]]]}},
{"type":"Feature","properties":{"highway":"path","name":null,"category":"Shared path"},"geometry":{"type":"MultiLineString","coordinates":[[[0.090267,51.4246842],[0.090185,51.4246369],[0.0899892,51.4244168],[0.089743,51.4241285]]]}},
{"type":"Feature","properties":{"highway":"footway","name":null,"category":"Footpath (pedestrian only)"},"geometry":{"type":"MultiLineString","coordinates":[[[0.095828,51.4266401],[0.0959689,51.4266138]]]}},
{"type":"Feature","properties":{"highway":"footway","name":null,"category":"Footpath (pedestrian only)"},"geometry":{"type":"MultiLineString","coordinates":[[[0.0960013,51.4265946],[0.0960916,51.4265839],[0.0962261,51.426566],[0.0962444,51.4265692],[0.0962577,51.4265768],[0.0962777,51.4265796]]]}},
{"type":"Feature","properties":{"highway":"footway","name":null,"category":"Footpath (pedestrian only)"},"geometry":{"type":"MultiLineString","coordinates":[[[0.0953175,51.4270851],[0.0952912,51.4270936]]]}},
{"type":"Feature","properties":{"highway":"footway","name":null,"category":"Footpath (pedestrian only)"},"geometry":{"type":"MultiLineString","coordinates":[[[0.0911764,51.4282891],[0.091243,51.4284381],[0.0913434,51.4286609],[0.0913107,51.4286652],[0.0913784,51.4288661],[0.0911449,51.4288996],[0.091171,51.428972],[0.0911231,51.4289789],[0.0911339,51.429008]]]}},
{"type":"Feature","properties":{"highway":"footway","name":null,"category":"Footpath (pedestrian only)"},"geometry":{"type":"MultiLineString","coordinates":[[[0.0915057,51.428482],[0.0915812,51.4284711],[0.0917108,51.4285141],[0.0918092,51.4285267]]]}},
{"type":"Feature","properties":{"highway":"footway","name":null,"category":"Footpath (pedestrian only)"},"geometry":{"type":"MultiLineString","coordinates":[[[0.0982224,51.4264935],[0.0983025,51.4268648],[0.0982483,51.4269244],[0.0982232,51.4269447],[0.0982496,51.4270625],[0.0984083,51.4270495],[0.0984346,51.4270473]]]}},
{"type":"Feature","properties":{"highway":"footway","name":null,"category":"Footpath (pedestrian only)"},"geometry":{"type":"MultiLineString","coordinates":[[[0.0982496,51.4270625],[0.098209,51.4270663],[0.0979908,51.4270816],[0.0979732,51.4270828],[0.0977663,51.4271007]]]}},
{"type":"Feature","properties":{"highway":"footway","name":null,"category":"Footpath (pedestrian only)"},"geometry":{"type":"MultiLineString","coordinates":[[[0.0987042,51.4264505],[0.0987878,51.426798],[0.0987329,51.426889],[0.0987021,51.4269089],[0.0987078,51.426962],[0.0985825,51.4269957],[0.0984083,51.4270495]]]}},
{"type":"Feature","properties":{"highway":"footway","name":null,"category":"Footpath (pedestrian only)"},"geometry":{"type":"MultiLineString","coordinates":[[[0.0982483,51.4269244],[0.0985411,51.4269017],[0.0987329,51.426889]]]}},
{"type":"Feature","properties":{"highway":"footway","name":null,"category":"Footpath (pedestrian only)"},"geometry":{"type":"MultiLineString","coordinates":[[[0.0985411,51.4269017],[0.0984607,51.4264671]]]}},
{"type":"Feature","properties":{"highway":"footway","name":null,"category":"Footpath (pedestrian only)"},"geometry":{"type":"MultiLineString","coordinates":[[[0.0974518,51.4267992],[0.0974167,51.4266005]]]}},
{"type":"Feature","properties":{"highway":"footway","name":null,"category":"Footpath (pedestrian only)"},"geometry":{"type":"MultiLineString","coordinates":[[[0.0987078,51.426962],[0.0987558,51.4269515],[0.0988257,51.4269407],[0.099009,51.4269334]]]}},
{"type":"Feature","properties":{"highway":"footway","name":null,"category":"Footpath (pedestrian only)"},"geometry":{"type":"MultiLineString","coordinates":[[[0.0982232,51.4269447],[0.0981233,51.4269523],[0.0980614,51.4269407],[0.098045,51.4269425],[0.0978453,51.4269645],[0.0978151,51.4270018],[0.0977531,51.4270083],[0.097668,51.4270186],[0.0976248,51.4269989],[0.0975337,51.4270098],[0.0975077,51.4270562],[0.0973761,51.4270681],[0.0973434,51.4270506],[0.0970528,51.4270846]]]}},
{"type":"Feature","properties":{"highway":"footway","name":null,"category":"Footpath (pedestrian only)"},"geometry":{"type":"MultiLineString","coordinates":[[[0.0976248,51.4269989],[0.0975909,51.4268992],[0.0976049,51.4268715],[0.0975851,51.426782],[0.0974518,51.4267992]]]}},
{"type":"Feature","properties":{"highway":"footway","name":null,"category":"Footpath (pedestrian only)"},"geometry":{"type":"MultiLineString","coordinates":[[[0.0978453,51.4269645],[0.0978828,51.426913],[0.0978015,51.4265471]]]}},
{"type":"Feature","properties":{"highway":"footway","name":null,"category":"Footpath (pedestrian only)"},"geometry":{"type":"MultiLineString","coordinates":[[[0.0979748,51.4265237],[0.0980017,51.426644],[0.0979801,51.4266719],[0.098045,51.4269425]]]}},
{"type":"Feature","properties":{"highway":"footway","name":null,"category":"Footpath (pedestrian only)"},"geometry":{"type":"MultiLineString","coordinates":[[[0.0976774,51.4254951],[0.0977114,51.4254071],[0.0977257,51.4252929],[0.0979978,51.425288],[0.097998,51.4253339]]]}},
{"type":"Feature","properties":{"highway":"footway","name":null,"category":"Footpath (pedestrian only)"},"geometry":{"type":"MultiLineString","coordinates":[[[0.0983991,51.4253645],[0.0982915,51.4253437],[0.098055,51.425103],[0.0980479,51.4250534],[0.0983108,51.4249244],[0.0985946,51.4248604]]]}},
{"type":"Feature","properties":{"highway":"footway","name":null,"category":"Footpath (pedestrian only)"},"geometry":{"type":"MultiLineString","coordinates":[[[0.0979978,51.425288],[0.098055,51.425103]]]}},
{"type":"Feature","properties":{"highway":"footway","name":null,"category":"Footpath (pedestrian only)"},"geometry":{"type":"MultiLineString","coordinates":[[[0.097897,51.4256858],[0.0980724,51.4256845]]]}},
{"type":"Feature","properties":{"highway":"footway","name":null,"category":"Footpath (pedestrian only)"},"geometry":{"type":"MultiLineString","coordinates":[[[0.098141,51.4258372],[0.0981976,51.4258353],[0.0983764,51.4259589]]]}},
{"type":"Feature","properties":{"highway":"footway","name":null,"category":"Footpath (pedestrian only)"},"geometry":{"type":"MultiLineString","coordinates":[[[0.0996625,51.4215123],[0.0996408,51.4213583],[0.0995944,51.4210675],[0.0995593,51.4208924],[0.0994947,51.4205815],[0.0994751,51.4204501],[0.0995003,51.4204186]]]}},
{"type":"Feature","properties":{"highway":"footway","name":null,"category":"Footpath (pedestrian only)"},"geometry":{"type":"MultiLineString","coordinates":[[[0.0997814,51.4215072],[0.0997838,51.4215265],[0.0998005,51.421574],[0.0998274,51.4216469],[0.0999862,51.4216613]]]}},
{"type":"Feature","properties":{"highway":"path","name":null,"category":"Shared path"},"geometry":{"type":"MultiLineString","coordinates":[[[0.0997814,51.4215072],[0.1003758,51.4214209]]]}},
{"type":"Feature","properties":{"highway":"footway","name":null,"category":"Footpath (pedestrian only)"},"geometry":{"type":"MultiLineString","coordinates":[[[0.1003758,51.4214209],[0.1004163,51.421369],[0.1004002,51.4212531]]]}},
{"type":"Feature","properties":{"highway":"footway","name":null,"category":"Footpath (pedestrian only)"},"geometry":{"type":"MultiLineString","coordinates":[[[0.1012086,51.4212662],[0.1003758,51.4214209]]]}},
{"type":"Feature","properties":{"highway":"path","name":null,"category":"Shared path"},"geometry":{"type":"MultiLineString","coordinates":[[[0.1003758,51.4214209],[0.1003856,51.421443],[0.1003876,51.4214694],[0.1004872,51.4216691],[0.1005314,51.4216605]]]}},
{"type":"Feature","properties":{"highway":"footway","name":null,"category":"Footpath (pedestrian only)"},"geometry":{"type":"MultiLineString","coordinates":[[[0.1025422,51.4220235],[0.1024362,51.4219921],[0.1022826,51.422009],[0.1021925,51.4220418],[0.1020809,51.4220584],[0.1020263,51.4220826]]]}},
{"type":"Feature","properties":{"highway":"footway","name":"Knole Gate","category":"Footpath (pedestrian only)"},"geometry":{"type":"MultiLineString","coordinates":[[[0.089771,51.4315049],[0.0899379,51.4317598]]]}},
{"type":"Feature","properties":{"highway":"footway","name":null,"category":"Footpath (pedestrian only)"},"geometry":{"type":"MultiLineString","coordinates":[[[0.0882652,51.4300485],[0.0880757,51.4298454],[0.0879635,51.429895]]]}},
{"type":"Feature","properties":{"highway":"footway","name":null,"category":"Footpath (pedestrian only)"},"geometry":{"type":"MultiLineString","coordinates":[[[0.0892157,51.4291553],[0.0891787,51.4291832],[0.0892573,51.4292869]]]}},
{"type":"Feature","properties":{"highway":"footway","name":null,"category":"Footpath (pedestrian only)"},"geometry":{"type":"MultiLineString","coordinates":[[[0.0892564,51.4299165],[0.0896277,51.4298004],[0.0892892,51.4293796],[0.0893197,51.42937],[0.0892573,51.4292869]]]}},
{"type":"Feature","properties":{"highway":"footway","name":null,"category":"Footpath (pedestrian only)"},"geometry":{"type":"MultiLineString","coordinates":[[[0.084482,51.4299955],[0.0852827,51.4297562]]]}},
{"type":"Feature","properties":{"highway":"footway","name":null,"category":"Footpath (pedestrian only)"},"geometry":{"type":"MultiLineString","coordinates":[[[0.0889868,51.4305878],[0.089019,51.4306363],[0.0894773,51.4305306]]]}},
{"type":"Feature","properties":{"highway":"footway","name":null,"category":"Footpath (pedestrian only)"},"geometry":{"type":"MultiLineString","coordinates":[[[0.0895381,51.4306375],[0.0890962,51.4307423],[0.0891693,51.4308636]]]}},
{"type":"Feature","properties":{"highway":"footway","name":null,"category":"Footpath (pedestrian only)"},"geometry":{"type":"MultiLineString","coordinates":[[[0.0889856,51.4306161],[0.089048,51.4306963],[0.0885567,51.4308774]]]}},
{"type":"Feature","properties":{"highway":"footway","name":null,"category":"Footpath (pedestrian only)"},"geometry":{"type":"MultiLineString","coordinates":[[[0.0889313,51.4305358],[0.0888703,51.4304576],[0.0883417,51.4306529]]]}},
{"type":"Feature","properties":{"highway":"footway","name":null,"category":"Footpath (pedestrian only)"},"geometry":{"type":"MultiLineString","coordinates":[[[0.0906091,51.4316123],[0.0906611,51.4318571]]]}},
{"type":"Feature","properties":{"highway":"footway","name":null,"category":"Footpath (pedestrian only)"},"geometry":{"type":"MultiLineString","coordinates":[[[0.088281,51.4300428],[0.0884982,51.4302744],[0.0886881,51.4302067]]]}},
{"type":"Feature","properties":{"highway":"footway","name":null,"category":"Footpath (pedestrian only)"},"geometry":{"type":"MultiLineString","coordinates":[[[0.0885267,51.4303045],[0.0884266,51.4303396],[0.0883688,51.4303439],[0.0883218,51.4303574],[0.0881268,51.4304308]]]}},
{"type":"Feature","properties":{"highway":"footway","name":null,"category":"Footpath (pedestrian only)"},"geometry":{"type":"MultiLineString","coordinates":[[[0.0879573,51.4309345],[0.0883081,51.4308052],[0.0884415,51.430756]]]}},
{"type":"Feature","properties":{"highway":"footway","name":null,"category":"Footpath (pedestrian only)"},"geometry":{"type":"MultiLineString","coordinates":[[[0.0880894,51.4310461],[0.0885529,51.4308734]]]}},
{"type":"Feature","properties":{"highway":"footway","name":null,"category":"Footpath (pedestrian only)"},"geometry":{"type":"MultiLineString","coordinates":[[[0.0882342,51.4311504],[0.0886645,51.4309916]]]}},
{"type":"Feature","properties":{"highway":"footway","name":null,"category":"Footpath (pedestrian only)"},"geometry":{"type":"MultiLineString","coordinates":[[[0.0882236,51.4305308],[0.0884908,51.4304341],[0.0887912,51.4303363]]]}},
{"type":"Feature","properties":{"highway":"footway","name":null,"category":"Footpath (pedestrian only)"},"geometry":{"type":"MultiLineString","coordinates":[[[0.089263,51.4315865],[0.0892034,51.4316265],[0.0891246,51.4315716],[0.0891199,51.4315592],[0.0888998,51.431411]]]}},
{"type":"Feature","properties":{"highway":"footway","name":null,"category":"Footpath (pedestrian only)"},"geometry":{"type":"MultiLineString","coordinates":[[[0.0883989,51.4300015],[0.0882021,51.4297925],[0.08832,51.4297425]]]}},
{"type":"Feature","properties":{"highway":"footway","name":null,"category":"Footpath (pedestrian only)"},"geometry":{"type":"MultiLineString","coordinates":[[[0.0891279,51.428364],[0.0889829,51.4284089],[0.0885949,51.4285628]]]}},
{"type":"Feature","properties":{"highway":"footway","name":null,"category":"Footpath (pedestrian only)"},"geometry":{"type":"MultiLineString","coordinates":[[[0.0930456,51.4227257],[0.0929331,51.4227905],[0.0931068,51.4229041]]]}},
{"type":"Feature","properties":{"highway":"footway","name":null,"category":"Footpath (pedestrian only)"},"geometry":{"type":"MultiLineString","coordinates":[[[0.0932344,51.4226185],[0.0931022,51.422693]]]}},
{"type":"Feature","properties":{"highway":"footway","name":null,"category":"Footpath (pedestrian only)"},"geometry":{"type":"MultiLineString","coordinates":[[[0.0934124,51.4224589],[0.0937108,51.4226417],[0.093776,51.4226409]]]}},
{"type":"Feature","properties":{"highway":"footway","name":null,"category":"Footpath (pedestrian only)"},"geometry":{"type":"MultiLineString","coordinates":[[[0.0961615,51.4226953],[0.0962382,51.4227709],[0.0963482,51.4229297],[0.096451,51.4231386],[0.0952683,51.4233985]]]}},
{"type":"Feature","properties":{"highway":"footway","name":null,"category":"Footpath (pedestrian only)"},"geometry":{"type":"MultiLineString","coordinates":[[[0.0927362,51.4230019],[0.0928904,51.4231185],[0.0928582,51.4231356],[0.0929165,51.4232465]]]}},
{"type":"Feature","properties":{"highway":"footway","name":null,"category":"Footpath (pedestrian only)"},"geometry":{"type":"MultiLineString","coordinates":[[[0.0931227,51.4236182],[0.0929486,51.4233058]]]}},
{"type":"Feature","properties":{"highway":"footway","name":null,"category":"Footpath (pedestrian only)"},"geometry":{"type":"MultiLineString","coordinates":[[[0.0935952,51.4237072],[0.0939316,51.4236318],[0.0937795,51.4233594]]]}},
{"type":"Feature","properties":{"highway":"path","name":null,"category":"Shared path"},"geometry":{"type":"MultiLineString","coordinates":[[[0.1004872,51.4216691],[0.1005215,51.4217365],[0.1005071,51.42174],[0.1002862,51.4217846],[0.1002902,51.4217949],[0.1002944,51.4218024]]]}},
{"type":"Feature","properties":{"highway":"path","name":null,"category":"Shared path"},"geometry":{"type":"MultiLineString","coordinates":[[[0.1005215,51.4217365],[0.1006062,51.4219005]]]}},
{"type":"Feature","properties":{"highway":"footway","name":null,"category":"Footpath (pedestrian only)"},"geometry":{"type":"MultiLineString","coordinates":[[[0.1010054,51.4219046],[0.1010391,51.4218947]]]}},
{"type":"Feature","properties":{"highway":"footway","name":null,"category":"Footpath (pedestrian only)"},"geometry":{"type":"MultiLineString","coordinates":[[[0.1011694,51.4265243],[0.1011645,51.4264997],[0.1011536,51.4264454],[0.1011465,51.4264013],[0.101144,51.426386]]]}},
{"type":"Feature","properties":{"highway":"footway","name":null,"category":"Footpath (pedestrian only)"},"geometry":{"type":"MultiLineString","coordinates":[[[0.101144,51.426386],[0.1013535,51.4263658],[0.1015977,51.4263418],[0.1019312,51.4263082],[0.1020637,51.4262986],[0.1022428,51.4262963]]]}},
{"type":"Feature","properties":{"highway":"footway","name":null,"category":"Footpath (pedestrian only)"},"geometry":{"type":"MultiLineString","coordinates":[[[0.101144,51.426386],[0.1010932,51.4263826],[0.10105,51.4263668]]]}},
{"type":"Feature","properties":{"highway":"footway","name":null,"category":"Footpath (pedestrian only)"},"geometry":{"type":"MultiLineString","coordinates":[[[0.10105,51.4263668],[0.1010254,51.4263408],[0.1010123,51.4263091],[0.10102,51.4262107],[0.1010146,51.4259552],[0.1010122,51.4257879]]]}},
{"type":"Feature","properties":{"highway":"footway","name":null,"category":"Footpath (pedestrian only)"},"geometry":{"type":"MultiLineString","coordinates":[[[0.1010122,51.4257879],[0.1010115,51.4257371],[0.1010325,51.4257367],[0.1010916,51.4257357],[0.1010939,51.4257679],[0.1010954,51.425788]]]}},
{"type":"Feature","properties":{"highway":"footway","name":null,"category":"Footpath (pedestrian only)"},"geometry":{"type":"MultiLineString","coordinates":[[[0.1010115,51.4257371],[0.1010136,51.4256061],[0.1010138,51.4255954],[0.1010069,51.4254211]]]}},
{"type":"Feature","properties":{"highway":"footway","name":null,"category":"Footpath (pedestrian only)"},"geometry":{"type":"MultiLineString","coordinates":[[[0.1014416,51.4219124],[0.1015154,51.4219735],[0.1015814,51.4219563],[0.1015652,51.421931],[0.1016414,51.421912],[0.1016455,51.4219215],[0.1017057,51.4219094],[0.1016678,51.4218226],[0.1017136,51.4217478],[0.1017006,51.421714],[0.1016772,51.4216789],[0.1016305,51.4216605],[0.1016153,51.4216545]]]}},
{"type":"Feature","properties":{"highway":"footway","name":null,"category":"Footpath (pedestrian only)"},"geometry":{"type":"MultiLineString","coordinates":[[[0.1016232,51.4220139],[0.1015814,51.4219563]]]}},
{"type":"Feature","properties":{"highway":"footway","name":null,"category":"Footpath (pedestrian only)"},"geometry":{"type":"MultiLineString","coordinates":[[[0.1011753,51.4218957],[0.1012117,51.421903],[0.1012687,51.4218922],[0.1013129,51.4219619],[0.1013489,51.421986],[0.1012423,51.4220197]]]}},
{"type":"Feature","properties":{"highway":"footway","name":null,"category":"Footpath (pedestrian only)"},"geometry":{"type":"MultiLineString","coordinates":[[[0.1013489,51.421986],[0.1013866,51.4220063],[0.1015458,51.4222151]]]}},
{"type":"Feature","properties":{"highway":"footway","name":null,"category":"Footpath (pedestrian only)"},"geometry":{"type":"MultiLineString","coordinates":[[[0.1009297,51.4257896],[0.1009937,51.4257883],[0.1010122,51.4257879],[0.101036,51.4257875],[0.1010954,51.425788],[0.1011711,51.4257887]]]}},
{"type":"Feature","properties":{"highway":"footway","name":null,"category":"Footpath (pedestrian only)"},"geometry":{"type":"MultiLineString","coordinates":[[[0.0975721,51.43187],[0.0974172,51.431884],[0.0973864,51.4318811],[0.0973556,51.4318739],[0.0973294,51.4318633],[0.0973071,51.4318489],[0.0972655,51.4317971],[0.0972493,51.4317822],[0.0972224,51.4317702],[0.0971862,51.4317558],[0.0971384,51.4317481],[0.0967448,51.4317255],[0.0958405,51.4316693],[0.0957035,51.4316631],[0.0955108,51.4316463],[0.0954508,51.4316314],[0.0953938,51.4316126],[0.0953344,51.4315896],[0.095289,51.431567],[0.0952582,51.4315406],[0.0952343,51.4315128],[0.0952159,51.4314753],[0.095192,51.4314556],[0.0951611,51.4314446],[0.0951118,51.4314359],[0.0947814,51.4314311],[0.0947498,51.4314354],[0.0947275,51.4314499],[0.0947182,51.4314763],[0.0947182,51.4315089],[0.094708,51.4315184],[0.0946851,51.431519],[0.094558,51.4315161],[0.0945525,51.4315112],[0.0945565,51.4313725],[0.0945657,51.4313653],[0.0945873,51.4313639],[0.0947403,51.4313673],[0.094939,51.431372],[0.0950987,51.4313778],[0.0951234,51.4313725],[0.0951465,51.4313649],[0.0951688,51.4313514],[0.0951858,51.4313356],[0.0951997,51.4313168],[0.095205,51.4312947],[0.0952081,51.4312683],[0.0952112,51.4310469],[0.0952274,51.4307891],[0.0952258,51.4307809],[0.0952189,51.4307771],[0.0952058,51.4307747],[0.0951827,51.4307727],[0.094538,51.4307526],[0.0945468,51.4306899],[0.0946474,51.4306945],[0.0951315,51.4307074],[0.0951958,51.4307098],[0.0952205,51.4307084],[0.0952297,51.4307036],[0.0952343,51.4306959],[0.0952343,51.4306815],[0.0952397,51.4305665],[0.095232,51.4305349],[0.0952343,51.4304448],[0.0952428,51.4303042],[0.0952489,51.4302631],[0.0952613,51.4301595],[0.0952762,51.4301081],[0.0952628,51.4300514],[0.0952821,51.4299823],[0.0953201,51.4299161],[0.0953637,51.4298637],[0.0954537,51.4297566],[0.0955045,51.4297149],[0.0955771,51.42966],[0.0956364,51.4296346],[0.0956901,51.4296145],[0.0957299,51.4295965],[0.0957866,51.429563],[0.0958351,51.429516],[0.0958624,51.4294865],[0.0959068,51.4294271],[0.0959438,51.4293716],[0.0959907,51.4292797],[0.0960208,51.4292336],[0.0960177,51.4292249],[0.0960084,51.4292163],[0.0959909,51.4292032],[0.0959276,51.4291505],[0.0959091,51.4291265],[0.0958972,51.4290916],[0.0958851,51.429058],[0.0958844,51.4290295],[0.0958906,51.4290007],[0.0959029,51.4289771],[0.0959182,51.4289605],[0.095942,51.4289323],[0.0959738,51.4289085],[0.0960215,51.4288806],[0.0960639,51.428866],[0.0960895,51.4288591],[0.0961217,51.4288532],[0.0961563,51.4288479],[0.0961887,51.4288475],[0.0962249,51.4288489],[0.0962642,51.4288542],[0.0962867,51.4288601],[0.0963143,51.4288651],[0.0963859,51.4288873],[0.0964398,51.4289152],[0.096476,51.4289445],[0.0965099,51.4289757],[0.0965399,51.4289978],[0.0965838,51.4290285],[0.0966115,51.4290352],[0.0966439,51.4290391],[0.0967979,51.4290372],[0.0971022,51.4290285],[0.0973803,51.4290204],[0.0975351,51.4290194],[0.0975551,51.4290151],[0.0975759,51.4290064],[0.0975721,51.4289963],[0.0975612,51.4289684],[0.0975173,51.4288265],[0.0974788,51.4287215],[0.0974444,51.4285783],[0.0973956,51.4284468],[0.0973412,51.428273],[0.0973255,51.4282224],[0.0972569,51.4280171],[0.0972134,51.4278818],[0.0972019,51.4278444],[0.0971504,51.4276763],[0.0971163,51.4275658],[0.0971053,51.4275344],[0.0970751,51.4274361],[0.0970597,51.4273901],[0.0970327,51.4272905],[0.0970222,51.4272654],[0.096989,51.4271663],[0.0969397,51.4270178],[0.0969066,51.426913],[0.0968942,51.4268952],[0.0968804,51.4268866],[0.0968688,51.4268779],[0.0968434,51.4267675],[0.0968395,51.4267478],[0.0968272,51.4267382],[0.096808,51.4267372],[0.0967741,51.4267391],[0.0962588,51.4267896],[0.0961494,51.4268054],[0.0960696,51.4268218],[0.0959846,51.4268405],[0.0957874,51.4268919],[0.0956707,51.4269259],[0.0954708,51.4269826],[0.0952853,51.4270377],[0.0952497,51.4270484],[0.0947229,51.4271992],[0.094679,51.4272218],[0.0946659,51.4272396],[0.0946589,51.4272617],[0.094662,51.4272765]]]}},
{"type":"Feature","properties":{"highway":"path","name":null,"category":"Shared path"},"geometry":{"type":"MultiLineString","coordinates":[[[0.0967075,51.4236281],[0.0967967,51.4237987]]]}},
{"type":"Feature","properties":{"highway":"path","name":null,"category":"Shared path"},"geometry":{"type":"MultiLineString","coordinates":[[[0.0968692,51.4239514],[0.0969482,51.4241166],[0.096638,51.4241726]]]}},
{"type":"Feature","properties":{"highway":"footway","name":null,"category":"Footpath (pedestrian only)"},"geometry":{"type":"MultiLineString","coordinates":[[[0.0986389,51.4249037],[0.0984808,51.4251728]]]}},
{"type":"Feature","properties":{"highway":"footway","name":null,"category":"Footpath (pedestrian only)"},"geometry":{"type":"MultiLineString","coordinates":[[[0.0968187,51.4259805],[0.0969642,51.4259049],[0.0969642,51.4255834]]]}},
{"type":"Feature","properties":{"highway":"footway","name":null,"category":"Footpath (pedestrian only)"},"geometry":{"type":"MultiLineString","coordinates":[[[0.0969642,51.4255834],[0.0968994,51.4255838]]]}},
{"type":"Feature","properties":{"highway":"footway","name":null,"category":"Footpath (pedestrian only)"},"geometry":{"type":"MultiLineString","coordinates":[[[0.0967345,51.4256381],[0.0967343,51.4255843],[0.0968994,51.4255838]]]}},
{"type":"Feature","properties":{"highway":"path","name":null,"category":"Shared path"},"geometry":{"type":"MultiLineString","coordinates":[[[0.0847899,51.4277336],[0.0847068,51.4277451],[0.0846419,51.4277592],[0.084574,51.4277795],[0.0845082,51.4278037]]]}},
{"type":"Feature","properties":{"highway":"footway","name":null,"category":"Footpath (pedestrian only)"},"geometry":{"type":"MultiLineString","coordinates":[[[0.0893658,51.4244238],[0.0892736,51.4243761],[0.0892291,51.4243532],[0.0894157,51.4242074],[0.089322,51.424163],[0.0892865,51.4241462]]]}}
]
}
