{
"type": "FeatureCollection",
"name": "30a49511a195_foliage",
"crs": { "type": "name", "properties": { "name": "urn:ogc:def:crs:OGC:1.3:CRS84" } },
"features": [
{ "type": "Feature", "properties": { "max_height": 9.4349994659423828, "mean_height": 1.7253813743591309, "std_height": 2.58203125, "count_pixels": 44, "percent_cover": 1.4814814814814816, "percent_above_0.1m": 54.54545454545454, "low_level_<0.5": 11.363636363636363, "mid_level_0.5-2": 15.909090909090908, "tall_2+": 27.27272727272727 }, "geometry": { "type": "Point", "coordinates": [ -0.076983897191892, 51.615592581866373 ] } },
{ "type": "Feature", "properties": { "max_height": 12.252250671386719, "mean_height": 2.3494255542755127, "std_height": 4.0983676910400391, "count_pixels": 43, "percent_cover": 1.4478114478114479, "percent_above_0.1m": 37.209302325581397, "low_level_<0.5": 2.3255813953488373, "mid_level_0.5-2": 6.9767441860465116, "tall_2+": 27.906976744186046 }, "geometry": { "type": "Point", "coordinates": [ -0.076783885949054, 51.615589301869548 ] } },
{ "type": "Feature", "properties": { "max_height": 1.1909999847412109, "mean_height": 0.11849487572908401, "std_height": 0.26045790314674377, "count_pixels": 43, "percent_cover": 1.4478114478114479, "percent_above_0.1m": 25.581395348837212, "low_level_<0.5": 11.627906976744185, "mid_level_0.5-2": 9.3023255813953494, "tall_2+": 0.0 }, "geometry": { "type": "Point", "coordinates": [ -0.076583874743634, 51.615586021531684 ] } },
{ "type": "Feature", "properties": { "max_height": 0.00099945068359375, "mean_height": 7.8337536251638085e-05, "std_height": 0.00045153879909776151, "count_pixels": 42, "percent_cover": 1.4141414141414141, "percent_above_0.1m": 0.0, "low_level_<0.5": 0.0, "mid_level_0.5-2": 0.0, "tall_2+": 0.0 }, "geometry": { "type": "Point", "coordinates": [ -0.076383863575644, 51.615582740852766 ] } },
{ "type": "Feature", "properties": { "max_height": 4.7310028076171875, "mean_height": 0.86409813165664673, "std_height": 1.3414400815963745, "count_pixels": 41, "percent_cover": 1.3804713804713804, "percent_above_0.1m": 56.09756097560976, "low_level_<0.5": 21.951219512195124, "mid_level_0.5-2": 19.512195121951219, "tall_2+": 14.634146341463413 }, "geometry": { "type": "Point", "coordinates": [ -0.077279358060267, 51.615705337252621 ] } },
{ "type": "Feature", "properties": { "max_height": 5.4347515106201172, "mean_height": 0.80705708265304565, "std_height": 1.41167151927948, "count_pixels": 40, "percent_cover": 1.3468013468013467, "percent_above_0.1m": 45.0, "low_level_<0.5": 2.5, "mid_level_0.5-2": 17.5, "tall_2+": 17.5 }, "geometry": { "type": "Point", "coordinates": [ -0.077079346295469, 51.615702057762029 ] } },
{ "type": "Feature", "properties": { "max_height": 12.265751838684082, "mean_height": 2.4875214099884033, "std_height": 3.1809053421020508, "count_pixels": 36, "percent_cover": 1.2121212121212122, "percent_above_0.1m": 83.333333333333343, "low_level_<0.5": 8.3333333333333321, "mid_level_0.5-2": 27.777777777777779, "tall_2+": 33.333333333333329 }, "geometry": { "type": "Point", "coordinates": [ -0.07687933456809, 51.61569877793039 ] } },
{ "type": "Feature", "properties": { "max_height": 13.42125129699707, "mean_height": 4.5676531791687012, "std_height": 4.0111875534057617, "count_pixels": 41, "percent_cover": 1.3804713804713804, "percent_above_0.1m": 75.609756097560975, "low_level_<0.5": 4.8780487804878048, "mid_level_0.5-2": 2.4390243902439024, "tall_2+": 68.292682926829272 }, "geometry": { "type": "Point", "coordinates": [ -0.076679322878134, 51.615695497757692 ] } },
{ "type": "Feature", "properties": { "max_height": 5.3272514343261719, "mean_height": 1.2448422908782959, "std_height": 1.5276880264282227, "count_pixels": 41, "percent_cover": 1.3804713804713804, "percent_above_0.1m": 58.536585365853654, "low_level_<0.5": 7.3170731707317067, "mid_level_0.5-2": 24.390243902439025, "tall_2+": 26.829268292682929 }, "geometry": { "type": "Point", "coordinates": [ -0.076479311225604, 51.615692217243925 ] } },
{ "type": "Feature", "properties": { "max_height": 3.199249267578125, "mean_height": 0.28560808300971985, "std_height": 0.70400291681289673, "count_pixels": 42, "percent_cover": 1.4141414141414141, "percent_above_0.1m": 21.428571428571427, "low_level_<0.5": 2.3809523809523809, "mid_level_0.5-2": 9.5238095238095237, "tall_2+": 7.1428571428571423 }, "geometry": { "type": "Point", "coordinates": [ -0.076279299610505, 51.61568893638912 ] } },
{ "type": "Feature", "properties": { "max_height": 13.328750610351562, "mean_height": 1.9994888305664062, "std_height": 2.9849498271942139, "count_pixels": 42, "percent_cover": 1.4141414141414141, "percent_above_0.1m": 88.095238095238088, "low_level_<0.5": 19.047619047619047, "mid_level_0.5-2": 35.714285714285715, "tall_2+": 28.571428571428569 }, "geometry": { "type": "Point", "coordinates": [ -0.077374808095486, 51.615814812901256 ] } },
{ "type": "Feature", "properties": { "max_height": 11.930751800537109, "mean_height": 2.7725937366485596, "std_height": 2.8909893035888672, "count_pixels": 43, "percent_cover": 1.4478114478114479, "percent_above_0.1m": 81.395348837209298, "low_level_<0.5": 6.9767441860465116, "mid_level_0.5-2": 30.232558139534881, "tall_2+": 44.186046511627907 }, "geometry": { "type": "Point", "coordinates": [ -0.07717479584615, 51.615811533575837 ] } },
{ "type": "Feature", "properties": { "max_height": 11.178750991821289, "mean_height": 5.8434557914733887, "std_height": 3.6692392826080322, "count_pixels": 44, "percent_cover": 1.4814814814814816, "percent_above_0.1m": 97.727272727272734, "low_level_<0.5": 2.2727272727272729, "mid_level_0.5-2": 20.454545454545457, "tall_2+": 75.0 }, "geometry": { "type": "Point", "coordinates": [ -0.076974783634231, 51.615808253909378 ] } },
{ "type": "Feature", "properties": { "max_height": 14.05100154876709, "mean_height": 6.1329197883605957, "std_height": 3.1815967559814453, "count_pixels": 43, "percent_cover": 1.4478114478114479, "percent_above_0.1m": 97.674418604651152, "low_level_<0.5": 0.0, "mid_level_0.5-2": 2.3255813953488373, "tall_2+": 90.697674418604649 }, "geometry": { "type": "Point", "coordinates": [ -0.076774771459733, 51.615804973901838 ] } },
{ "type": "Feature", "properties": { "max_height": 7.614501953125, "mean_height": 1.6989601850509644, "std_height": 1.9641280174255371, "count_pixels": 43, "percent_cover": 1.4478114478114479, "percent_above_0.1m": 74.418604651162795, "low_level_<0.5": 13.953488372093023, "mid_level_0.5-2": 27.906976744186046, "tall_2+": 30.232558139534881 }, "geometry": { "type": "Point", "coordinates": [ -0.076574759322659, 51.615801693553259 ] } },
{ "type": "Feature", "properties": { "max_height": 5.6077508926391602, "mean_height": 0.95126879215240479, "std_height": 1.2792317867279053, "count_pixels": 42, "percent_cover": 1.4141414141414141, "percent_above_0.1m": 69.047619047619051, "low_level_<0.5": 14.285714285714285, "mid_level_0.5-2": 38.095238095238095, "tall_2+": 14.285714285714285 }, "geometry": { "type": "Point", "coordinates": [ -0.07637474722302, 51.615798412863604 ] } },
{ "type": "Feature", "properties": { "max_height": 4.769500732421875, "mean_height": 1.8289449214935303, "std_height": 1.0697736740112305, "count_pixels": 40, "percent_cover": 1.3468013468013467, "percent_above_0.1m": 95.0, "low_level_<0.5": 5.0, "mid_level_0.5-2": 50.0, "tall_2+": 40.0 }, "geometry": { "type": "Point", "coordinates": [ -0.07707023314748, 51.615917729806498 ] } },
{ "type": "Feature", "properties": { "max_height": 7.7022514343261719, "mean_height": 3.4108552932739258, "std_height": 2.1929798126220703, "count_pixels": 36, "percent_cover": 1.2121212121212122, "percent_above_0.1m": 97.222222222222214, "low_level_<0.5": 0.0, "mid_level_0.5-2": 36.111111111111107, "tall_2+": 61.111111111111114 }, "geometry": { "type": "Point", "coordinates": [ -0.076870220488435, 51.615914449964151 ] } },
{ "type": "Feature", "properties": { "max_height": 10.548000335693359, "mean_height": 3.7767996788024902, "std_height": 3.16084885597229, "count_pixels": 41, "percent_cover": 1.3804713804713804, "percent_above_0.1m": 90.243902439024396, "low_level_<0.5": 4.8780487804878048, "mid_level_0.5-2": 21.951219512195124, "tall_2+": 63.414634146341463 }, "geometry": { "type": "Point", "coordinates": [ -0.076670207866821, 51.615911169780709 ] } },
{ "type": "Feature", "properties": { "max_height": 10.746500015258789, "mean_height": 2.742933988571167, "std_height": 3.0551750659942627, "count_pixels": 41, "percent_cover": 1.3804713804713804, "percent_above_0.1m": 75.609756097560975, "low_level_<0.5": 4.8780487804878048, "mid_level_0.5-2": 19.512195121951219, "tall_2+": 46.341463414634148 }, "geometry": { "type": "Point", "coordinates": [ -0.076470195282631, 51.615907889256249 ] } },
{ "type": "Feature", "properties": { "max_height": 9.7785015106201172, "mean_height": 1.2889552116394043, "std_height": 2.1181116104125977, "count_pixels": 44, "percent_cover": 1.4814814814814816, "percent_above_0.1m": 50.0, "low_level_<0.5": 6.8181818181818175, "mid_level_0.5-2": 15.909090909090908, "tall_2+": 27.27272727272727 }, "geometry": { "type": "Point", "coordinates": [ -0.076965669964245, 51.616023925944596 ] } },
{ "type": "Feature", "properties": { "max_height": 2.3765010833740234, "mean_height": 0.074105195701122284, "std_height": 0.36763164401054382, "count_pixels": 43, "percent_cover": 1.4478114478114479, "percent_above_0.1m": 6.9767441860465116, "low_level_<0.5": 2.3255813953488373, "mid_level_0.5-2": 2.3255813953488373, "tall_2+": 2.3255813953488373 }, "geometry": { "type": "Point", "coordinates": [ -0.076765656858084, 51.616020645926362 ] } },
{ "type": "Feature", "properties": { "max_height": 0.18250274658203125, "mean_height": 0.0068263565190136433, "std_height": 0.029439482837915421, "count_pixels": 43, "percent_cover": 1.4478114478114479, "percent_above_0.1m": 2.3255813953488373, "low_level_<0.5": 2.3255813953488373, "mid_level_0.5-2": 0.0, "tall_2+": 0.0 }, "geometry": { "type": "Point", "coordinates": [ -0.076565643789347, 51.616017365567053 ] } },
{ "type": "Feature", "properties": { "max_height": 8.9415016174316406, "mean_height": 0.56101274490356445, "std_height": 1.662248969078064, "count_pixels": 42, "percent_cover": 1.4141414141414141, "percent_above_0.1m": 26.190476190476193, "low_level_<0.5": 4.7619047619047619, "mid_level_0.5-2": 9.5238095238095237, "tall_2+": 7.1428571428571423 }, "geometry": { "type": "Point", "coordinates": [ -0.076365630758036, 51.616014084866691 ] } },
{ "type": "Feature", "properties": { "max_height": 7.7467517852783203, "mean_height": 2.538257360458374, "std_height": 2.4530479907989502, "count_pixels": 40, "percent_cover": 1.3468013468013467, "percent_above_0.1m": 82.5, "low_level_<0.5": 2.5, "mid_level_0.5-2": 35.0, "tall_2+": 45.0 }, "geometry": { "type": "Point", "coordinates": [ -0.077061119887171, 51.6161334018432 ] } },
{ "type": "Feature", "properties": { "max_height": 0.70025062561035156, "mean_height": 0.091854944825172424, "std_height": 0.17626969516277313, "count_pixels": 36, "percent_cover": 1.2121212121212122, "percent_above_0.1m": 25.0, "low_level_<0.5": 16.666666666666664, "mid_level_0.5-2": 5.5555555555555554, "tall_2+": 0.0 }, "geometry": { "type": "Point", "coordinates": [ -0.076861106296458, 51.616130121990139 ] } },
{ "type": "Feature", "properties": { "max_height": 0.75775146484375, "mean_height": 0.11250672489404678, "std_height": 0.22092784941196442, "count_pixels": 41, "percent_cover": 1.3804713804713804, "percent_above_0.1m": 24.390243902439025, "low_level_<0.5": 9.7560975609756095, "mid_level_0.5-2": 12.195121951219512, "tall_2+": 0.0 }, "geometry": { "type": "Point", "coordinates": [ -0.076661092743168, 51.616126841796003 ] } },
{ "type": "Feature", "properties": { "max_height": 1.0480003356933594, "mean_height": 0.14043384790420532, "std_height": 0.29751372337341309, "count_pixels": 41, "percent_cover": 1.3804713804713804, "percent_above_0.1m": 19.512195121951219, "low_level_<0.5": 2.4390243902439024, "mid_level_0.5-2": 17.073170731707318, "tall_2+": 0.0 }, "geometry": { "type": "Point", "coordinates": [ -0.076461079227308, 51.6161235612608 ] } },
{ "type": "Feature", "properties": { "max_height": 1.0835018157958984, "mean_height": 0.03917139396071434, "std_height": 0.16621854901313782, "count_pixels": 44, "percent_cover": 1.4814814814814816, "percent_above_0.1m": 9.0909090909090917, "low_level_<0.5": 4.5454545454545459, "mid_level_0.5-2": 2.2727272727272729, "tall_2+": 0.0 }, "geometry": { "type": "Point", "coordinates": [ -0.076956556181946, 51.616239597972076 ] } }
]
}
