{
"type": "FeatureCollection",
"name": "8f6a1c8692f1_visibility",
"crs": { "type": "name", "properties": { "name": "urn:ogc:def:crs:OGC:1.3:CRS84" } },
"features": [
{ "type": "Feature", "properties": { "visible_points": 5, "total_points": 45, "visibility_pct": 11.111111111111111 }, "geometry": { "type": "Point", "coordinates": [ -0.04369565548303, 51.637840587319502 ] } },
{ "type": "Feature", "properties": { "visible_points": 12, "total_points": 47, "visibility_pct": 25.531914893617021 }, "geometry": { "type": "Point", "coordinates": [ -0.043495548870586, 51.637837244492488 ] } },
{ "type": "Feature", "properties": { "visible_points": 8, "total_points": 48, "visibility_pct": 16.666666666666664 }, "geometry": { "type": "Point", "coordinates": [ -0.043295442293758, 51.637833901324974 ] } },
{ "type": "Feature", "properties": { "visible_points": 10, "total_points": 48, "visibility_pct": 20.833333333333336 }, "geometry": { "type": "Point", "coordinates": [ -0.043590954106338, 51.637946750324183 ] } },
{ "type": "Feature", "properties": { "visible_points": 10, "total_points": 48, "visibility_pct": 20.833333333333336 }, "geometry": { "type": "Point", "coordinates": [ -0.043390847086182, 51.637943407308057 ] } },
{ "type": "Feature", "properties": { "visible_points": 4, "total_points": 48, "visibility_pct": 8.3333333333333321 }, "geometry": { "type": "Point", "coordinates": [ -0.043190740101643, 51.637940063951426 ] } },
{ "type": "Feature", "properties": { "visible_points": 8, "total_points": 48, "visibility_pct": 16.666666666666664 }, "geometry": { "type": "Point", "coordinates": [ -0.043486252286325, 51.638052913222332 ] } },
{ "type": "Feature", "properties": { "visible_points": 9, "total_points": 48, "visibility_pct": 18.75 }, "geometry": { "type": "Point", "coordinates": [ -0.043286144858459, 51.638049570017067 ] } },
{ "type": "Feature", "properties": { "visible_points": 0, "total_points": 48, "visibility_pct": 0.0 }, "geometry": { "type": "Point", "coordinates": [ -0.043086037466211, 51.63804622647131 ] } },
{ "type": "Feature", "properties": { "visible_points": 0, "total_points": 48, "visibility_pct": 0.0 }, "geometry": { "type": "Point", "coordinates": [ -0.043581657894191, 51.638162419067783 ] } },
{ "type": "Feature", "properties": { "visible_points": 9, "total_points": 48, "visibility_pct": 18.75 }, "geometry": { "type": "Point", "coordinates": [ -0.043381550022993, 51.638159076013892 ] } },
{ "type": "Feature", "properties": { "visible_points": 8, "total_points": 48, "visibility_pct": 16.666666666666664 }, "geometry": { "type": "Point", "coordinates": [ -0.043181442187412, 51.638155732619509 ] } },
{ "type": "Feature", "properties": { "visible_points": 0, "total_points": 48, "visibility_pct": 0.0 }, "geometry": { "type": "Point", "coordinates": [ -0.042981334387449, 51.638152388884599 ] } },
{ "type": "Feature", "properties": { "visible_points": 8, "total_points": 48, "visibility_pct": 16.666666666666664 }, "geometry": { "type": "Point", "coordinates": [ -0.043476955595253, 51.638268581941915 ] } },
{ "type": "Feature", "properties": { "visible_points": 9, "total_points": 48, "visibility_pct": 18.75 }, "geometry": { "type": "Point", "coordinates": [ -0.043276847316336, 51.638265238698885 ] } },
{ "type": "Feature", "properties": { "visible_points": 8, "total_points": 47, "visibility_pct": 17.021276595744681 }, "geometry": { "type": "Point", "coordinates": [ -0.043076739073037, 51.638261895115363 ] } },
{ "type": "Feature", "properties": { "visible_points": 0, "total_points": 43, "visibility_pct": 0.0 }, "geometry": { "type": "Point", "coordinates": [ -0.043572361575238, 51.638378087801115 ] } },
{ "type": "Feature", "properties": { "visible_points": 9, "total_points": 44, "visibility_pct": 20.454545454545457 }, "geometry": { "type": "Point", "coordinates": [ -0.043372252852987, 51.638374744709466 ] } },
{ "type": "Feature", "properties": { "visible_points": 0, "total_points": 43, "visibility_pct": 0.0 }, "geometry": { "type": "Point", "coordinates": [ -0.04317214416635, 51.638371401277318 ] } },
{ "type": "Feature", "properties": { "visible_points": 0, "total_points": 41, "visibility_pct": 0.0 }, "geometry": { "type": "Point", "coordinates": [ -0.042972035515336, 51.638368057504664 ] } }
]
}
