{
"type": "FeatureCollection",
"name": "ed3f26580695_visibility",
"crs": { "type": "name", "properties": { "name": "urn:ogc:def:crs:OGC:1.3:CRS84" } },
"features": [
{ "type": "Feature", "properties": { "visible_points": 14, "total_points": 57, "visibility_pct": 24.561403508771928 }, "geometry": { "type": "Point", "coordinates": [ -0.090299461153486, 51.63499795393259 ] } },
{ "type": "Feature", "properties": { "visible_points": 0, "total_points": 52, "visibility_pct": 0.0 }, "geometry": { "type": "Point", "coordinates": [ -0.090099364886397, 51.634994697071605 ] } },
{ "type": "Feature", "properties": { "visible_points": 21, "total_points": 69, "visibility_pct": 30.434782608695656 }, "geometry": { "type": "Point", "coordinates": [ -0.090595069475516, 51.635110675343988 ] } },
{ "type": "Feature", "properties": { "visible_points": 21, "total_points": 65, "visibility_pct": 32.307692307692307 }, "geometry": { "type": "Point", "coordinates": [ -0.090394972666064, 51.63510741899993 ] } },
{ "type": "Feature", "properties": { "visible_points": 19, "total_points": 59, "visibility_pct": 32.20338983050847 }, "geometry": { "type": "Point", "coordinates": [ -0.090194875894961, 51.635104162314036 ] } },
{ "type": "Feature", "properties": { "visible_points": 15, "total_points": 52, "visibility_pct": 28.846153846153843 }, "geometry": { "type": "Point", "coordinates": [ -0.0899947791622, 51.635100905286258 ] } },
{ "type": "Feature", "properties": { "visible_points": 15, "total_points": 64, "visibility_pct": 23.4375 }, "geometry": { "type": "Point", "coordinates": [ -0.090890679309612, 51.635223395972247 ] } },
{ "type": "Feature", "properties": { "visible_points": 22, "total_points": 70, "visibility_pct": 31.428571428571427 }, "geometry": { "type": "Point", "coordinates": [ -0.090690581957799, 51.635220140145137 ] } },
{ "type": "Feature", "properties": { "visible_points": 22, "total_points": 70, "visibility_pct": 31.428571428571427 }, "geometry": { "type": "Point", "coordinates": [ -0.090490484644329, 51.63521688397617 ] } },
{ "type": "Feature", "properties": { "visible_points": 22, "total_points": 65, "visibility_pct": 33.846153846153847 }, "geometry": { "type": "Point", "coordinates": [ -0.090290387369202, 51.635213627465333 ] } },
{ "type": "Feature", "properties": { "visible_points": 20, "total_points": 59, "visibility_pct": 33.898305084745758 }, "geometry": { "type": "Point", "coordinates": [ -0.090090290132416, 51.635210370612619 ] } },
{ "type": "Feature", "properties": { "visible_points": 0, "total_points": 52, "visibility_pct": 0.0 }, "geometry": { "type": "Point", "coordinates": [ -0.089890192933985, 51.635207113418055 ] } },
{ "type": "Feature", "properties": { "visible_points": 9, "total_points": 51, "visibility_pct": 17.647058823529413 }, "geometry": { "type": "Point", "coordinates": [ -0.091186290655772, 51.63533611581736 ] } },
{ "type": "Feature", "properties": { "visible_points": 19, "total_points": 59, "visibility_pct": 32.20338983050847 }, "geometry": { "type": "Point", "coordinates": [ -0.090986192761608, 51.635332860507205 ] } },
{ "type": "Feature", "properties": { "visible_points": 21, "total_points": 66, "visibility_pct": 31.818181818181817 }, "geometry": { "type": "Point", "coordinates": [ -0.090786094905773, 51.635329604855173 ] } },
{ "type": "Feature", "properties": { "visible_points": 22, "total_points": 70, "visibility_pct": 31.428571428571427 }, "geometry": { "type": "Point", "coordinates": [ -0.090585997088279, 51.635326348861291 ] } },
{ "type": "Feature", "properties": { "visible_points": 20, "total_points": 70, "visibility_pct": 28.571428571428569 }, "geometry": { "type": "Point", "coordinates": [ -0.090385899309124, 51.635323092525532 ] } },
{ "type": "Feature", "properties": { "visible_points": 21, "total_points": 64, "visibility_pct": 32.8125 }, "geometry": { "type": "Point", "coordinates": [ -0.09018580156832, 51.635319835847881 ] } },
{ "type": "Feature", "properties": { "visible_points": 16, "total_points": 57, "visibility_pct": 28.07017543859649 }, "geometry": { "type": "Point", "coordinates": [ -0.089985703865854, 51.635316578828387 ] } },
{ "type": "Feature", "properties": { "visible_points": 15, "total_points": 53, "visibility_pct": 28.30188679245283 }, "geometry": { "type": "Point", "coordinates": [ -0.091081706679297, 51.635442324951072 ] } },
{ "type": "Feature", "properties": { "visible_points": 19, "total_points": 59, "visibility_pct": 32.20338983050847 }, "geometry": { "type": "Point", "coordinates": [ -0.090881608319442, 51.635439069474103 ] } },
{ "type": "Feature", "properties": { "visible_points": 19, "total_points": 66, "visibility_pct": 28.787878787878789 }, "geometry": { "type": "Point", "coordinates": [ -0.090681509997922, 51.635435813655299 ] } },
{ "type": "Feature", "properties": { "visible_points": 19, "total_points": 70, "visibility_pct": 27.142857142857142 }, "geometry": { "type": "Point", "coordinates": [ -0.090481411714739, 51.635432557494596 ] } },
{ "type": "Feature", "properties": { "visible_points": 16, "total_points": 68, "visibility_pct": 23.52941176470588 }, "geometry": { "type": "Point", "coordinates": [ -0.0902813134699, 51.635429300992044 ] } },
{ "type": "Feature", "properties": { "visible_points": 18, "total_points": 53, "visibility_pct": 33.962264150943398 }, "geometry": { "type": "Point", "coordinates": [ -0.090977122198804, 51.635548534001913 ] } },
{ "type": "Feature", "properties": { "visible_points": 18, "total_points": 59, "visibility_pct": 30.508474576271187 }, "geometry": { "type": "Point", "coordinates": [ -0.090777023373257, 51.635545278358165 ] } },
{ "type": "Feature", "properties": { "visible_points": 17, "total_points": 64, "visibility_pct": 26.5625 }, "geometry": { "type": "Point", "coordinates": [ -0.090576924586048, 51.635542022372562 ] } },
{ "type": "Feature", "properties": { "visible_points": 0, "total_points": 51, "visibility_pct": 0.0 }, "geometry": { "type": "Point", "coordinates": [ -0.09087253721429, 51.635654742969933 ] } }
]
}
