{
"type": "FeatureCollection",
"name": "Westminster_national_cycle_network",
"crs": { "type": "name", "properties": { "name": "urn:ogc:def:crs:OGC:1.3:CRS84" } },
"features": [
{"type":"Feature","properties":{"Desc_":"TrafficFree","Greenway":"No","RouteType":"NCN","RouteNo":4,"LinkNo":0,"RouteCat":"Main Route","OpenStatus":"Open","Surface":"PavementSlabs","Quality":"Acceptable","Lighting":"FullLit","RoadClass":null,"GlobalID":"2ad368ee-64a4-4ecd-8d7f-24760f15c2aa","SegmentID":41924},"geometry":{"type":"LineString","coordinates":[[-0.150037113478248,51.485739479580957],[-0.150040040461868,51.485738999794656]]}},
{"type":"Feature","properties":{"Desc_":"TrafficFree","Greenway":"No","RouteType":"NCN","RouteNo":4,"LinkNo":0,"RouteCat":"Main Route","OpenStatus":"Open","Surface":"Asphalt","Quality":"Standard","Lighting":"FullLit","RoadClass":null,"GlobalID":"1d97068e-f2f9-4fe7-9c8b-266d1c0f7c50","SegmentID":6996},"geometry":{"type":"LineString","coordinates":[[-0.145613385168971,51.485705754016521],[-0.145635641134434,51.485641088619481],[-0.145967775317981,51.485666591386611],[-0.146476476026499,51.485700406341387],[-0.147128497304955,51.485690457912867],[-0.147682957365316,51.48568633090963],[-0.148753154360922,51.485688499035135],[-0.149093070572413,51.485703990885398],[-0.149612633917674,51.485737845848519]]}},
{"type":"Feature","properties":{"Desc_":"TrafficFree","Greenway":"No","RouteType":"NCN","RouteNo":4,"LinkNo":0,"RouteCat":"Main Route","OpenStatus":"Open","Surface":"Asphalt","Quality":"Standard","Lighting":"FullLit","RoadClass":null,"GlobalID":"77a6550d-e8f0-4bac-a2c2-991a92c9c544","SegmentID":6997},"geometry":{"type":"LineString","coordinates":[[-0.149612633917674,51.485737845848519],[-0.149747671660285,51.485739167036456],[-0.14982402684169,51.485735209831034],[-0.149918300872888,51.485734790613186],[-0.150037113475675,51.485739479572288]]}},
{"type":"Feature","properties":{"Desc_":"TrafficFree","Greenway":"No","RouteType":"NCN","RouteNo":4,"LinkNo":0,"RouteCat":"Main Route","OpenStatus":"Open","Surface":"Asphalt","Quality":"Standard","Lighting":"FullLit","RoadClass":null,"GlobalID":"26e7f163-fc44-4b12-ab58-5aad011eb5f6","SegmentID":7888},"geometry":{"type":"LineString","coordinates":[[-0.149612633917674,51.485737845848519],[-0.149548116125938,51.485800909926056],[-0.14952954254791,51.485872945226255],[-0.14923872981027,51.48585631501394],[-0.148803321417415,51.485832877524743],[-0.147732897411403,51.485836227805535],[-0.146977618005635,51.48584822525109],[-0.146281642260317,51.485851947578688],[-0.145771903409906,51.485806370887595],[-0.14559313603532,51.485794758441124]]}},
{"type":"Feature","properties":{"Desc_":"OnRoad","Greenway":"No","RouteType":"NCN","RouteNo":4,"LinkNo":0,"RouteCat":"Main Route","OpenStatus":"Open","Surface":"Asphalt","Quality":"Standard","Lighting":"FullLit","RoadClass":"Minor Road","GlobalID":"779741a7-ab3d-4129-8037-3a58d2963398","SegmentID":3402},"geometry":{"type":"LineString","coordinates":[[-0.145613385168971,51.485705754016521],[-0.14559313603532,51.485794758441124],[-0.145525730778259,51.486091054590538],[-0.145395621956038,51.486457698300967],[-0.145074534209062,51.487270956002718],[-0.144263153389244,51.487402182287184],[-0.143422936607244,51.487505609533997],[-0.142828907511788,51.48757300103582],[-0.142419448783993,51.48762487895825],[-0.141412588917257,51.487752539509621],[-0.140990704543376,51.487808801810367],[-0.140426009241963,51.487880782770858],[-0.140093095536206,51.487920467120844],[-0.139456056533383,51.488000289702427],[-0.139282218459352,51.488024509865731],[-0.138752102790871,51.488096132131417],[-0.138445024106603,51.488138020357958],[-0.138133186985371,51.488190623492365],[-0.135743805301331,51.488606796191071],[-0.13492548106849,51.488783350673835]]}},
{"type":"Feature","properties":{"Desc_":"OnRoad","Greenway":"No","RouteType":"NCN","RouteNo":4,"LinkNo":0,"RouteCat":"Main Route","OpenStatus":"Open","Surface":"Asphalt","Quality":"Standard","Lighting":"FullLit","RoadClass":"A Road","GlobalID":"8e416977-300e-4cba-951a-498e07777ab7","SegmentID":9103},"geometry":{"type":"LineString","coordinates":[[-0.13492548106849,51.488783350673835],[-0.134758787771936,51.488808846813228],[-0.134517965078628,51.488843595144189],[-0.134219469877317,51.488897299375125],[-0.133970997842221,51.488960611645993],[-0.133822096495711,51.488994842695789],[-0.133576398223446,51.489021956733517],[-0.13321753355831,51.488994842347502],[-0.132982140374997,51.488970682646368],[-0.132678604995939,51.488939681278509],[-0.132416390780044,51.488958527296255],[-0.132314153308663,51.488992870031261],[-0.132210815188797,51.489054173291116],[-0.132121857415529,51.489116065204911],[-0.131610755669757,51.489461877020133],[-0.131359468241217,51.489484671697738],[-0.131069934623017,51.489410635209104],[-0.130846629432515,51.489302221364113]]}},
{"type":"Feature","properties":{"Desc_":"OnRoad","Greenway":"No","RouteType":"NCN","RouteNo":4,"LinkNo":0,"RouteCat":"Main Route","OpenStatus":"Open","Surface":"Asphalt","Quality":"Standard","Lighting":"FullLit","RoadClass":"A Road","GlobalID":"35551927-52e2-4e8d-980a-2a53d98f6b6c","SegmentID":30383},"geometry":{"type":"LineString","coordinates":[[-0.132121857418577,51.489116065213871],[-0.131750108010304,51.489449888525073],[-0.131713868907189,51.489490677710506],[-0.131545938163963,51.489641418080865]]}},
{"type":"Feature","properties":{"Desc_":"TrafficFree","Greenway":"No","RouteType":"NCN","RouteNo":4,"LinkNo":0,"RouteCat":"Main Route","OpenStatus":"Open","Surface":"Asphalt","Quality":"Standard","Lighting":"FullLit","RoadClass":null,"GlobalID":"3df6ddce-ad4e-4e65-a122-106a34961b12","SegmentID":20486},"geometry":{"type":"LineString","coordinates":[[-0.131545938163963,51.489641418080865],[-0.13143465105828,51.48972373588483],[-0.131154079920353,51.489590067837185],[-0.130907664515382,51.489474352462665],[-0.130802518578201,51.489459691190788],[-0.130713237273032,51.489408286663327]]}},
{"type":"Feature","properties":{"Desc_":"OnRoad","Greenway":"No","RouteType":"NCN","RouteNo":4,"LinkNo":0,"RouteCat":"Main Route","OpenStatus":"Open","Surface":"Asphalt","Quality":"Standard","Lighting":"FullLit","RoadClass":"B Road","GlobalID":"cc003f54-6d8d-42f3-8837-c693ccf0e378","SegmentID":3622},"geometry":{"type":"LineString","coordinates":[[-0.130846629432515,51.489302221364113],[-0.130713237269984,51.489408286654367],[-0.130325507879627,51.489716572238436],[-0.130057563374465,51.489928125433309],[-0.129694413633108,51.490353985792915],[-0.129208730840754,51.490957743836994],[-0.128421131380932,51.491898405209177],[-0.127935789265388,51.492493169752088]]}},
{"type":"Feature","properties":{"Desc_":"OnRoad","Greenway":"No","RouteType":"NCN","RouteNo":4,"LinkNo":0,"RouteCat":"Alternative Route","OpenStatus":"Open","Surface":"Asphalt","Quality":"Standard","Lighting":"FullLit","RoadClass":"B Road","GlobalID":"a84f9da0-0621-48fb-b666-ea90b46b264e","SegmentID":27380},"geometry":{"type":"LineString","coordinates":[[-0.128421131384007,51.49189840521813],[-0.128867968508866,51.492050316940833],[-0.128970853745433,51.492545657362641],[-0.129000795340723,51.492869873539597],[-0.128993434105672,51.493049610320071],[-0.12901458624539,51.493940226971397],[-0.129063419146747,51.494858264463588],[-0.128055255651932,51.494851170835119],[-0.126888725077319,51.494841538418832]]}},
{"type":"Feature","properties":{"Desc_":"OnRoad","Greenway":"No","RouteType":"NCN","RouteNo":4,"LinkNo":0,"RouteCat":"Main Route","OpenStatus":"Open","Surface":"Asphalt","Quality":"Standard","Lighting":"FullLit","RoadClass":"Local Street","GlobalID":"86011892-2a5e-478e-a996-0dff16c5a14a","SegmentID":28882},"geometry":{"type":"LineString","coordinates":[[-0.126888725077319,51.494841538418832],[-0.126794902043824,51.493967744717686],[-0.127935789268477,51.492493169761048]]}},
{"type":"Feature","properties":{"Desc_":"OnRoad","Greenway":"No","RouteType":"NCN","RouteNo":4,"LinkNo":0,"RouteCat":"Main Route","OpenStatus":"Open","Surface":"Asphalt","Quality":"Standard","Lighting":"FullLit","RoadClass":"A Road","GlobalID":"42dc064c-4f76-4aa4-85e1-93c0f009dca7","SegmentID":29662},"geometry":{"type":"LineString","coordinates":[[-0.125393382048056,51.494770075624004],[-0.125262404726515,51.494767571036149],[-0.125109616741607,51.494759750034881],[-0.125036900766977,51.494751943699349],[-0.124962268421114,51.494743759560151],[-0.124660872210218,51.49471600992598],[-0.123213031388001,51.494572085937605],[-0.122810372332912,51.494532054869374]]}},
{"type":"Feature","properties":{"Desc_":"OnRoad","Greenway":"No","RouteType":"NCN","RouteNo":4,"LinkNo":0,"RouteCat":"Main Route","OpenStatus":"Open","Surface":"Asphalt","Quality":"Standard","Lighting":"FullLit","RoadClass":"B Road","GlobalID":"2a9f119b-369a-47b8-bf48-2c138ef763a0","SegmentID":35522},"geometry":{"type":"LineString","coordinates":[[-0.126888725077319,51.494841538418832],[-0.126184375635324,51.494803309611278],[-0.125784649620063,51.494794943990989],[-0.125393382048056,51.494770075624004]]}}
]
}
