{
"type": "FeatureCollection",
"name": "517ab176f433_foliage",
"crs": { "type": "name", "properties": { "name": "urn:ogc:def:crs:OGC:1.3:CRS84" } },
"features": [
{ "type": "Feature", "properties": { "max_height": 4.7057900428771973, "mean_height": 2.2577128410339355, "std_height": 1.2915171384811401, "count_pixels": 42, "percent_cover": 1.5350877192982455, "percent_above_0.1m": 100.0, "low_level_<0.5": 11.904761904761903, "mid_level_0.5-2": 26.190476190476193, "tall_2+": 61.904761904761905 }, "geometry": { "type": "Point", "coordinates": [ 0.162673820617939, 51.526039426188966 ] } },
{ "type": "Feature", "properties": { "max_height": 4.4108858108520508, "mean_height": 1.2081836462020874, "std_height": 1.3160701990127563, "count_pixels": 42, "percent_cover": 1.5350877192982455, "percent_above_0.1m": 88.095238095238088, "low_level_<0.5": 26.190476190476193, "mid_level_0.5-2": 26.190476190476193, "tall_2+": 26.190476190476193 }, "geometry": { "type": "Point", "coordinates": [ 0.1628734134387, 51.526035746709667 ] } },
{ "type": "Feature", "properties": { "max_height": 1.5788190364837646, "mean_height": 0.32391512393951416, "std_height": 0.42754065990447998, "count_pixels": 42, "percent_cover": 1.5350877192982455, "percent_above_0.1m": 50.0, "low_level_<0.5": 16.666666666666664, "mid_level_0.5-2": 26.190476190476193, "tall_2+": 0.0 }, "geometry": { "type": "Point", "coordinates": [ 0.163073006217031, 51.526032066890828 ] } },
{ "type": "Feature", "properties": { "max_height": 0.38524365425109863, "mean_height": 0.058197110891342163, "std_height": 0.091366171836853027, "count_pixels": 42, "percent_cover": 1.5350877192982455, "percent_above_0.1m": 14.285714285714285, "low_level_<0.5": 14.285714285714285, "mid_level_0.5-2": 0.0, "tall_2+": 0.0 }, "geometry": { "type": "Point", "coordinates": [ 0.16327259895292, 51.526028386732477 ] } },
{ "type": "Feature", "properties": { "max_height": 2.333310604095459, "mean_height": 0.71166998147964478, "std_height": 0.69697350263595581, "count_pixels": 41, "percent_cover": 1.4985380116959064, "percent_above_0.1m": 95.121951219512198, "low_level_<0.5": 58.536585365853654, "mid_level_0.5-2": 26.829268292682929, "tall_2+": 9.7560975609756095 }, "geometry": { "type": "Point", "coordinates": [ 0.162579130256734, 51.526149088643301 ] } },
{ "type": "Feature", "properties": { "max_height": 3.7457692623138428, "mean_height": 0.56134539842605591, "std_height": 0.67878580093383789, "count_pixels": 42, "percent_cover": 1.5350877192982455, "percent_above_0.1m": 95.238095238095227, "low_level_<0.5": 50.0, "mid_level_0.5-2": 28.571428571428569, "tall_2+": 4.7619047619047619 }, "geometry": { "type": "Point", "coordinates": [ 0.162778723570089, 51.526145409321366 ] } },
{ "type": "Feature", "properties": { "max_height": 0.7126927375793457, "mean_height": 0.11982408910989761, "std_height": 0.20670782029628754, "count_pixels": 42, "percent_cover": 1.5350877192982455, "percent_above_0.1m": 30.952380952380953, "low_level_<0.5": 16.666666666666664, "mid_level_0.5-2": 7.1428571428571423, "tall_2+": 0.0 }, "geometry": { "type": "Point", "coordinates": [ 0.16297831684101, 51.526141729659926 ] } },
{ "type": "Feature", "properties": { "max_height": 1.90761399269104, "mean_height": 0.50424253940582275, "std_height": 0.45003107190132141, "count_pixels": 41, "percent_cover": 1.4985380116959064, "percent_above_0.1m": 80.487804878048792, "low_level_<0.5": 39.024390243902438, "mid_level_0.5-2": 39.024390243902438, "tall_2+": 0.0 }, "geometry": { "type": "Point", "coordinates": [ 0.163177910069501, 51.526138049658989 ] } },
{ "type": "Feature", "properties": { "max_height": 0.90540981292724609, "mean_height": 0.15980851650238037, "std_height": 0.31915742158889771, "count_pixels": 42, "percent_cover": 1.5350877192982455, "percent_above_0.1m": 69.047619047619051, "low_level_<0.5": 54.761904761904766, "mid_level_0.5-2": 9.5238095238095237, "tall_2+": 0.0 }, "geometry": { "type": "Point", "coordinates": [ 0.162684033251334, 51.526255071858316 ] } },
{ "type": "Feature", "properties": { "max_height": 0.5585029125213623, "mean_height": -0.41833686828613281, "std_height": 0.4077771008014679, "count_pixels": 42, "percent_cover": 1.5350877192982455, "percent_above_0.1m": 19.047619047619047, "low_level_<0.5": 9.5238095238095237, "mid_level_0.5-2": 4.7619047619047619, "tall_2+": 0.0 }, "geometry": { "type": "Point", "coordinates": [ 0.162883627014852, 51.526251392354276 ] } },
{ "type": "Feature", "properties": { "max_height": 1.1137545108795166, "mean_height": 0.18135678768157959, "std_height": 0.4992828369140625, "count_pixels": 42, "percent_cover": 1.5350877192982455, "percent_above_0.1m": 61.904761904761905, "low_level_<0.5": 28.571428571428569, "mid_level_0.5-2": 28.571428571428569, "tall_2+": 0.0 }, "geometry": { "type": "Point", "coordinates": [ 0.163083220735937, 51.526247712510695 ] } },
{ "type": "Feature", "properties": { "max_height": 0.65981125831604004, "mean_height": 0.12049752473831177, "std_height": 0.22893042862415314, "count_pixels": 42, "percent_cover": 1.5350877192982455, "percent_above_0.1m": 35.714285714285715, "low_level_<0.5": 16.666666666666664, "mid_level_0.5-2": 11.904761904761903, "tall_2+": 0.0 }, "geometry": { "type": "Point", "coordinates": [ 0.163282814414588, 51.526244032327618 ] } },
{ "type": "Feature", "properties": { "max_height": 0.37770318984985352, "mean_height": -0.33328339457511902, "std_height": 0.18140073120594025, "count_pixels": 41, "percent_cover": 1.4985380116959064, "percent_above_0.1m": 2.4390243902439024, "low_level_<0.5": 2.4390243902439024, "mid_level_0.5-2": 0.0, "tall_2+": 0.0 }, "geometry": { "type": "Point", "coordinates": [ 0.162589342482428, 51.526364734320488 ] } },
{ "type": "Feature", "properties": { "max_height": -0.21172821521759033, "mean_height": -0.50357866287231445, "std_height": 0.12582451105117798, "count_pixels": 42, "percent_cover": 1.5350877192982455, "percent_above_0.1m": 0.0, "low_level_<0.5": 0.0, "mid_level_0.5-2": 0.0, "tall_2+": 0.0 }, "geometry": { "type": "Point", "coordinates": [ 0.162788936738546, 51.52636105497384 ] } },
{ "type": "Feature", "properties": { "max_height": -0.0026650428771972656, "mean_height": -0.30497446656227112, "std_height": 0.25256863236427307, "count_pixels": 42, "percent_cover": 1.5350877192982455, "percent_above_0.1m": 0.0, "low_level_<0.5": 0.0, "mid_level_0.5-2": 0.0, "tall_2+": 0.0 }, "geometry": { "type": "Point", "coordinates": [ 0.16298853095223, 51.526357375287667 ] } },
{ "type": "Feature", "properties": { "max_height": 1.3664963245391846, "mean_height": 0.17560182511806488, "std_height": 0.52218842506408691, "count_pixels": 41, "percent_cover": 1.4985380116959064, "percent_above_0.1m": 53.658536585365859, "low_level_<0.5": 21.951219512195124, "mid_level_0.5-2": 26.829268292682929, "tall_2+": 0.0 }, "geometry": { "type": "Point", "coordinates": [ 0.163188125123482, 51.52635369526196 ] } },
{ "type": "Feature", "properties": { "max_height": 0.54254651069641113, "mean_height": 0.051995798945426941, "std_height": 0.10621762275695801, "count_pixels": 42, "percent_cover": 1.5350877192982455, "percent_above_0.1m": 11.904761904761903, "low_level_<0.5": 4.7619047619047619, "mid_level_0.5-2": 2.3809523809523809, "tall_2+": 0.0 }, "geometry": { "type": "Point", "coordinates": [ 0.163387719252291, 51.526350014896749 ] } },
{ "type": "Feature", "properties": { "max_height": 0.31943345069885254, "mean_height": -0.29694792628288269, "std_height": 0.25476479530334473, "count_pixels": 42, "percent_cover": 1.5350877192982455, "percent_above_0.1m": 9.5238095238095237, "low_level_<0.5": 7.1428571428571423, "mid_level_0.5-2": 0.0, "tall_2+": 0.0 }, "geometry": { "type": "Point", "coordinates": [ 0.162694246012088, 51.526470717518627 ] } },
{ "type": "Feature", "properties": { "max_height": 0.27472090721130371, "mean_height": -0.4382627010345459, "std_height": 0.27967783808708191, "count_pixels": 42, "percent_cover": 1.5350877192982455, "percent_above_0.1m": 7.1428571428571423, "low_level_<0.5": 4.7619047619047619, "mid_level_0.5-2": 0.0, "tall_2+": 0.0 }, "geometry": { "type": "Point", "coordinates": [ 0.162893840718375, 51.526467037989853 ] } },
{ "type": "Feature", "properties": { "max_height": 2.723383903503418, "mean_height": -0.19766117632389069, "std_height": 0.71342694759368896, "count_pixels": 42, "percent_cover": 1.5350877192982455, "percent_above_0.1m": 21.428571428571427, "low_level_<0.5": 9.5238095238095237, "mid_level_0.5-2": 4.7619047619047619, "tall_2+": 4.7619047619047619 }, "geometry": { "type": "Point", "coordinates": [ 0.163093435382232, 51.526463358121539 ] } },
{ "type": "Feature", "properties": { "max_height": 4.1577997207641602, "mean_height": 0.53285962343215942, "std_height": 0.95657002925872803, "count_pixels": 42, "percent_cover": 1.5350877192982455, "percent_above_0.1m": 57.142857142857139, "low_level_<0.5": 19.047619047619047, "mid_level_0.5-2": 28.571428571428569, "tall_2+": 7.1428571428571423 }, "geometry": { "type": "Point", "coordinates": [ 0.163293030003647, 51.526459677913721 ] } },
{ "type": "Feature", "properties": { "max_height": 3.9469938278198242, "mean_height": 0.09010634571313858, "std_height": 0.82227921485900879, "count_pixels": 42, "percent_cover": 1.5350877192982455, "percent_above_0.1m": 38.095238095238095, "low_level_<0.5": 14.285714285714285, "mid_level_0.5-2": 19.047619047619047, "tall_2+": 2.3809523809523809 }, "geometry": { "type": "Point", "coordinates": [ 0.16279915003437, 51.526576700617262 ] } },
{ "type": "Feature", "properties": { "max_height": 3.4012613296508789, "mean_height": 0.52689242362976074, "std_height": 1.0227926969528198, "count_pixels": 42, "percent_cover": 1.5350877192982455, "percent_above_0.1m": 59.523809523809526, "low_level_<0.5": 23.809523809523807, "mid_level_0.5-2": 26.190476190476193, "tall_2+": 9.5238095238095237 }, "geometry": { "type": "Point", "coordinates": [ 0.162998745190826, 51.526573020906355 ] } },
{ "type": "Feature", "properties": { "max_height": 4.0039901733398438, "mean_height": 0.92969530820846558, "std_height": 0.93753588199615479, "count_pixels": 41, "percent_cover": 1.4985380116959064, "percent_above_0.1m": 82.926829268292678, "low_level_<0.5": 24.390243902439025, "mid_level_0.5-2": 36.585365853658537, "tall_2+": 19.512195121951219 }, "geometry": { "type": "Point", "coordinates": [ 0.163198340304854, 51.526569340855914 ] } },
{ "type": "Feature", "properties": { "max_height": 1.6936826705932617, "mean_height": 0.19766455888748169, "std_height": 0.38637223839759827, "count_pixels": 42, "percent_cover": 1.5350877192982455, "percent_above_0.1m": 21.428571428571427, "low_level_<0.5": 2.3809523809523809, "mid_level_0.5-2": 16.666666666666664, "tall_2+": 0.0 }, "geometry": { "type": "Point", "coordinates": [ 0.16339793537644, 51.52656566046597 ] } },
{ "type": "Feature", "properties": { "max_height": 2.3749909400939941, "mean_height": 0.46128681302070618, "std_height": 0.72633856534957886, "count_pixels": 42, "percent_cover": 1.5350877192982455, "percent_above_0.1m": 33.333333333333329, "low_level_<0.5": 2.3809523809523809, "mid_level_0.5-2": 26.190476190476193, "tall_2+": 4.7619047619047619 }, "geometry": { "type": "Point", "coordinates": [ 0.162904054549273, 51.526682683616379 ] } }
]
}
