{
"type": "FeatureCollection",
"name": "db97294d08fe_visibility",
"crs": { "type": "name", "properties": { "name": "urn:ogc:def:crs:OGC:1.3:CRS84" } },
"features": [
{ "type": "Feature", "properties": { "visible_points": 20, "total_points": 58, "visibility_pct": 34.482758620689658 }, "geometry": { "type": "Point", "coordinates": [ 0.151618511795561, 51.555505906691756 ] } },
{ "type": "Feature", "properties": { "visible_points": 16, "total_points": 67, "visibility_pct": 23.880597014925371 }, "geometry": { "type": "Point", "coordinates": [ 0.151818234651694, 51.555502246092246 ] } },
{ "type": "Feature", "properties": { "visible_points": 18, "total_points": 70, "visibility_pct": 25.714285714285712 }, "geometry": { "type": "Point", "coordinates": [ 0.152017957466078, 51.555498585151511 ] } },
{ "type": "Feature", "properties": { "visible_points": 9, "total_points": 70, "visibility_pct": 12.857142857142856 }, "geometry": { "type": "Point", "coordinates": [ 0.152217680238703, 51.555494923869588 ] } },
{ "type": "Feature", "properties": { "visible_points": 9, "total_points": 67, "visibility_pct": 13.432835820895523 }, "geometry": { "type": "Point", "coordinates": [ 0.152417402969571, 51.555491262246427 ] } },
{ "type": "Feature", "properties": { "visible_points": 13, "total_points": 59, "visibility_pct": 22.033898305084744 }, "geometry": { "type": "Point", "coordinates": [ 0.152617125658677, 51.555487600282035 ] } },
{ "type": "Feature", "properties": { "visible_points": 4, "total_points": 60, "visibility_pct": 6.666666666666667 }, "geometry": { "type": "Point", "coordinates": [ 0.151523736095585, 51.555615558857276 ] } },
{ "type": "Feature", "properties": { "visible_points": 19, "total_points": 70, "visibility_pct": 27.142857142857142 }, "geometry": { "type": "Point", "coordinates": [ 0.151723459436951, 51.555611898435792 ] } },
{ "type": "Feature", "properties": { "visible_points": 0, "total_points": 77, "visibility_pct": 0.0 }, "geometry": { "type": "Point", "coordinates": [ 0.151923182736573, 51.55560823767307 ] } },
{ "type": "Feature", "properties": { "visible_points": 13, "total_points": 79, "visibility_pct": 16.455696202531644 }, "geometry": { "type": "Point", "coordinates": [ 0.152122905994434, 51.555604576569131 ] } },
{ "type": "Feature", "properties": { "visible_points": 0, "total_points": 77, "visibility_pct": 0.0 }, "geometry": { "type": "Point", "coordinates": [ 0.15232262921054, 51.555600915123989 ] } },
{ "type": "Feature", "properties": { "visible_points": 0, "total_points": 70, "visibility_pct": 0.0 }, "geometry": { "type": "Point", "coordinates": [ 0.152522352384892, 51.555597253337623 ] } },
{ "type": "Feature", "properties": { "visible_points": 5, "total_points": 60, "visibility_pct": 8.3333333333333321 }, "geometry": { "type": "Point", "coordinates": [ 0.152722075517467, 51.555593591210041 ] } },
{ "type": "Feature", "properties": { "visible_points": 19, "total_points": 72, "visibility_pct": 26.388888888888889 }, "geometry": { "type": "Point", "coordinates": [ 0.151628683778745, 51.555721550685369 ] } },
{ "type": "Feature", "properties": { "visible_points": 20, "total_points": 82, "visibility_pct": 24.390243902439025 }, "geometry": { "type": "Point", "coordinates": [ 0.151828407563598, 51.555717890100659 ] } },
{ "type": "Feature", "properties": { "visible_points": 22, "total_points": 87, "visibility_pct": 25.287356321839084 }, "geometry": { "type": "Point", "coordinates": [ 0.152028131306703, 51.555714229174747 ] } },
{ "type": "Feature", "properties": { "visible_points": 14, "total_points": 86, "visibility_pct": 16.279069767441861 }, "geometry": { "type": "Point", "coordinates": [ 0.152227855008051, 51.555710567907617 ] } },
{ "type": "Feature", "properties": { "visible_points": 12, "total_points": 81, "visibility_pct": 14.814814814814813 }, "geometry": { "type": "Point", "coordinates": [ 0.152427578667639, 51.555706906299235 ] } },
{ "type": "Feature", "properties": { "visible_points": 7, "total_points": 70, "visibility_pct": 10.0 }, "geometry": { "type": "Point", "coordinates": [ 0.152627302285464, 51.555703244349651 ] } },
{ "type": "Feature", "properties": { "visible_points": 18, "total_points": 72, "visibility_pct": 25.0 }, "geometry": { "type": "Point", "coordinates": [ 0.151533907677062, 51.555831202840999 ] } },
{ "type": "Feature", "properties": { "visible_points": 25, "total_points": 84, "visibility_pct": 29.761904761904763 }, "geometry": { "type": "Point", "coordinates": [ 0.151733631947156, 51.555827542434308 ] } },
{ "type": "Feature", "properties": { "visible_points": 28, "total_points": 93, "visibility_pct": 30.107526881720432 }, "geometry": { "type": "Point", "coordinates": [ 0.151933356175503, 51.555823881686401 ] } },
{ "type": "Feature", "properties": { "visible_points": 20, "total_points": 94, "visibility_pct": 21.276595744680851 }, "geometry": { "type": "Point", "coordinates": [ 0.152133080362096, 51.555820220597269 ] } },
{ "type": "Feature", "properties": { "visible_points": 19, "total_points": 90, "visibility_pct": 21.111111111111111 }, "geometry": { "type": "Point", "coordinates": [ 0.152332804506927, 51.555816559166921 ] } },
{ "type": "Feature", "properties": { "visible_points": 0, "total_points": 80, "visibility_pct": 0.0 }, "geometry": { "type": "Point", "coordinates": [ 0.15253252861, 51.555812897395334 ] } },
{ "type": "Feature", "properties": { "visible_points": 8, "total_points": 68, "visibility_pct": 11.76470588235294 }, "geometry": { "type": "Point", "coordinates": [ 0.152732252671305, 51.555809235282545 ] } },
{ "type": "Feature", "properties": { "visible_points": 23, "total_points": 83, "visibility_pct": 27.710843373493976 }, "geometry": { "type": "Point", "coordinates": [ 0.151638855887241, 51.555937194673994 ] } },
{ "type": "Feature", "properties": { "visible_points": 30, "total_points": 95, "visibility_pct": 31.578947368421051 }, "geometry": { "type": "Point", "coordinates": [ 0.15183858060083, 51.555933534104092 ] } },
{ "type": "Feature", "properties": { "visible_points": 26, "total_points": 99, "visibility_pct": 26.262626262626267 }, "geometry": { "type": "Point", "coordinates": [ 0.152038305272669, 51.55592987319298 ] } },
{ "type": "Feature", "properties": { "visible_points": 21, "total_points": 97, "visibility_pct": 21.649484536082475 }, "geometry": { "type": "Point", "coordinates": [ 0.152238029902749, 51.555926211940637 ] } },
{ "type": "Feature", "properties": { "visible_points": 19, "total_points": 90, "visibility_pct": 21.111111111111111 }, "geometry": { "type": "Point", "coordinates": [ 0.152437754491068, 51.55592255034707 ] } },
{ "type": "Feature", "properties": { "visible_points": 11, "total_points": 77, "visibility_pct": 14.285714285714285 }, "geometry": { "type": "Point", "coordinates": [ 0.152637479037625, 51.555918888412279 ] } },
{ "type": "Feature", "properties": { "visible_points": 21, "total_points": 78, "visibility_pct": 26.923076923076923 }, "geometry": { "type": "Point", "coordinates": [ 0.151544079383847, 51.556046846819712 ] } },
{ "type": "Feature", "properties": { "visible_points": 25, "total_points": 91, "visibility_pct": 27.472527472527474 }, "geometry": { "type": "Point", "coordinates": [ 0.151743804582682, 51.556043186427836 ] } },
{ "type": "Feature", "properties": { "visible_points": 28, "total_points": 97, "visibility_pct": 28.865979381443296 }, "geometry": { "type": "Point", "coordinates": [ 0.151943529739769, 51.556039525694729 ] } },
{ "type": "Feature", "properties": { "visible_points": 24, "total_points": 98, "visibility_pct": 24.489795918367346 }, "geometry": { "type": "Point", "coordinates": [ 0.152143254855099, 51.556035864620398 ] } },
{ "type": "Feature", "properties": { "visible_points": 31, "total_points": 92, "visibility_pct": 33.695652173913047 }, "geometry": { "type": "Point", "coordinates": [ 0.152342979928671, 51.55603220320485 ] } },
{ "type": "Feature", "properties": { "visible_points": 13, "total_points": 82, "visibility_pct": 15.853658536585366 }, "geometry": { "type": "Point", "coordinates": [ 0.152542704960478, 51.556028541448079 ] } },
{ "type": "Feature", "properties": { "visible_points": 29, "total_points": 85, "visibility_pct": 34.117647058823529 }, "geometry": { "type": "Point", "coordinates": [ 0.151649028121055, 51.55615283865761 ] } },
{ "type": "Feature", "properties": { "visible_points": 25, "total_points": 94, "visibility_pct": 26.595744680851062 }, "geometry": { "type": "Point", "coordinates": [ 0.151848753763391, 51.55614917810253 ] } },
{ "type": "Feature", "properties": { "visible_points": 28, "total_points": 97, "visibility_pct": 28.865979381443296 }, "geometry": { "type": "Point", "coordinates": [ 0.152048479363974, 51.556145517206211 ] } },
{ "type": "Feature", "properties": { "visible_points": 33, "total_points": 94, "visibility_pct": 35.106382978723403 }, "geometry": { "type": "Point", "coordinates": [ 0.152248204922799, 51.556141855968669 ] } },
{ "type": "Feature", "properties": { "visible_points": 10, "total_points": 86, "visibility_pct": 11.627906976744185 }, "geometry": { "type": "Point", "coordinates": [ 0.15244793043986, 51.556138194389902 ] } },
{ "type": "Feature", "properties": { "visible_points": 20, "total_points": 79, "visibility_pct": 25.316455696202532 }, "geometry": { "type": "Point", "coordinates": [ 0.151554251215945, 51.556262490793443 ] } },
{ "type": "Feature", "properties": { "visible_points": 24, "total_points": 90, "visibility_pct": 26.666666666666668 }, "geometry": { "type": "Point", "coordinates": [ 0.151753977343531, 51.556258830416368 ] } },
{ "type": "Feature", "properties": { "visible_points": 28, "total_points": 94, "visibility_pct": 29.787234042553191 }, "geometry": { "type": "Point", "coordinates": [ 0.151953703429369, 51.556255169698062 ] } },
{ "type": "Feature", "properties": { "visible_points": 33, "total_points": 95, "visibility_pct": 34.736842105263158 }, "geometry": { "type": "Point", "coordinates": [ 0.152153429473449, 51.556251508638539 ] } },
{ "type": "Feature", "properties": { "visible_points": 15, "total_points": 89, "visibility_pct": 16.853932584269664 }, "geometry": { "type": "Point", "coordinates": [ 0.152353155475771, 51.556247847237785 ] } },
{ "type": "Feature", "properties": { "visible_points": 23, "total_points": 85, "visibility_pct": 27.058823529411764 }, "geometry": { "type": "Point", "coordinates": [ 0.151659200480193, 51.556368482636252 ] } },
{ "type": "Feature", "properties": { "visible_points": 25, "total_points": 91, "visibility_pct": 27.472527472527474 }, "geometry": { "type": "Point", "coordinates": [ 0.151858927051281, 51.556364822095958 ] } },
{ "type": "Feature", "properties": { "visible_points": 26, "total_points": 94, "visibility_pct": 27.659574468085108 }, "geometry": { "type": "Point", "coordinates": [ 0.152058653580618, 51.556361161214454 ] } },
{ "type": "Feature", "properties": { "visible_points": 22, "total_points": 91, "visibility_pct": 24.175824175824175 }, "geometry": { "type": "Point", "coordinates": [ 0.152258380068205, 51.556357499991734 ] } },
{ "type": "Feature", "properties": { "visible_points": 19, "total_points": 80, "visibility_pct": 23.75 }, "geometry": { "type": "Point", "coordinates": [ 0.151564423173358, 51.556478134762166 ] } },
{ "type": "Feature", "properties": { "visible_points": 27, "total_points": 88, "visibility_pct": 30.681818181818183 }, "geometry": { "type": "Point", "coordinates": [ 0.151764150229709, 51.556474474399906 ] } },
{ "type": "Feature", "properties": { "visible_points": 32, "total_points": 91, "visibility_pct": 35.164835164835168 }, "geometry": { "type": "Point", "coordinates": [ 0.151963877244306, 51.556470813696407 ] } },
{ "type": "Feature", "properties": { "visible_points": 27, "total_points": 92, "visibility_pct": 29.347826086956523 }, "geometry": { "type": "Point", "coordinates": [ 0.152163604217149, 51.556467152651685 ] } },
{ "type": "Feature", "properties": { "visible_points": 9, "total_points": 86, "visibility_pct": 10.465116279069768 }, "geometry": { "type": "Point", "coordinates": [ 0.152363331148233, 51.556463491265752 ] } },
{ "type": "Feature", "properties": { "visible_points": 26, "total_points": 84, "visibility_pct": 30.952380952380953 }, "geometry": { "type": "Point", "coordinates": [ 0.151669372964645, 51.556584126609877 ] } },
{ "type": "Feature", "properties": { "visible_points": 39, "total_points": 89, "visibility_pct": 43.820224719101127 }, "geometry": { "type": "Point", "coordinates": [ 0.151869100464507, 51.556580466084412 ] } },
{ "type": "Feature", "properties": { "visible_points": 34, "total_points": 91, "visibility_pct": 37.362637362637365 }, "geometry": { "type": "Point", "coordinates": [ 0.152068827922611, 51.556576805217695 ] } },
{ "type": "Feature", "properties": { "visible_points": 16, "total_points": 88, "visibility_pct": 18.181818181818183 }, "geometry": { "type": "Point", "coordinates": [ 0.152268555338964, 51.556573144009775 ] } },
{ "type": "Feature", "properties": { "visible_points": 22, "total_points": 80, "visibility_pct": 27.5 }, "geometry": { "type": "Point", "coordinates": [ 0.151574595256088, 51.556693778725908 ] } },
{ "type": "Feature", "properties": { "visible_points": 33, "total_points": 87, "visibility_pct": 37.931034482758619 }, "geometry": { "type": "Point", "coordinates": [ 0.151774323241211, 51.556690118378455 ] } },
{ "type": "Feature", "properties": { "visible_points": 39, "total_points": 89, "visibility_pct": 43.820224719101127 }, "geometry": { "type": "Point", "coordinates": [ 0.151974051184587, 51.556686457689757 ] } },
{ "type": "Feature", "properties": { "visible_points": 29, "total_points": 89, "visibility_pct": 32.584269662921351 }, "geometry": { "type": "Point", "coordinates": [ 0.152173779086201, 51.556682796659835 ] } },
{ "type": "Feature", "properties": { "visible_points": 11, "total_points": 82, "visibility_pct": 13.414634146341465 }, "geometry": { "type": "Point", "coordinates": [ 0.152373506946055, 51.556679135288682 ] } },
{ "type": "Feature", "properties": { "visible_points": 26, "total_points": 84, "visibility_pct": 30.952380952380953 }, "geometry": { "type": "Point", "coordinates": [ 0.151679545574422, 51.556799770578522 ] } },
{ "type": "Feature", "properties": { "visible_points": 39, "total_points": 88, "visibility_pct": 44.31818181818182 }, "geometry": { "type": "Point", "coordinates": [ 0.151879274003064, 51.556796110067872 ] } },
{ "type": "Feature", "properties": { "visible_points": 37, "total_points": 89, "visibility_pct": 41.573033707865171 }, "geometry": { "type": "Point", "coordinates": [ 0.152079002389952, 51.556792449215962 ] } },
{ "type": "Feature", "properties": { "visible_points": 15, "total_points": 84, "visibility_pct": 17.857142857142858 }, "geometry": { "type": "Point", "coordinates": [ 0.152278730735077, 51.556788788022814 ] } },
{ "type": "Feature", "properties": { "visible_points": 23, "total_points": 80, "visibility_pct": 28.75 }, "geometry": { "type": "Point", "coordinates": [ 0.151584767464131, 51.556909422684662 ] } },
{ "type": "Feature", "properties": { "visible_points": 36, "total_points": 87, "visibility_pct": 41.379310344827587 }, "geometry": { "type": "Point", "coordinates": [ 0.151784496378046, 51.556905762352002 ] } },
{ "type": "Feature", "properties": { "visible_points": 35, "total_points": 88, "visibility_pct": 39.772727272727273 }, "geometry": { "type": "Point", "coordinates": [ 0.151984225250205, 51.556902101678126 ] } },
{ "type": "Feature", "properties": { "visible_points": 33, "total_points": 86, "visibility_pct": 38.372093023255815 }, "geometry": { "type": "Point", "coordinates": [ 0.152183954080608, 51.556898440662984 ] } },
{ "type": "Feature", "properties": { "visible_points": 13, "total_points": 79, "visibility_pct": 16.455696202531644 }, "geometry": { "type": "Point", "coordinates": [ 0.152383682869242, 51.556894779306639 ] } },
{ "type": "Feature", "properties": { "visible_points": 26, "total_points": 83, "visibility_pct": 31.325301204819279 }, "geometry": { "type": "Point", "coordinates": [ 0.151689718309526, 51.557015414542178 ] } },
{ "type": "Feature", "properties": { "visible_points": 32, "total_points": 87, "visibility_pct": 36.781609195402297 }, "geometry": { "type": "Point", "coordinates": [ 0.151889447666959, 51.557011754046314 ] } },
{ "type": "Feature", "properties": { "visible_points": 32, "total_points": 87, "visibility_pct": 36.781609195402297 }, "geometry": { "type": "Point", "coordinates": [ 0.152089176982639, 51.557008093209213 ] } },
{ "type": "Feature", "properties": { "visible_points": 20, "total_points": 82, "visibility_pct": 24.390243902439025 }, "geometry": { "type": "Point", "coordinates": [ 0.152288906256556, 51.557004432030865 ] } },
{ "type": "Feature", "properties": { "visible_points": 21, "total_points": 75, "visibility_pct": 28.000000000000004 }, "geometry": { "type": "Point", "coordinates": [ 0.151594939797502, 51.557125066638385 ] } },
{ "type": "Feature", "properties": { "visible_points": 29, "total_points": 80, "visibility_pct": 36.25 }, "geometry": { "type": "Point", "coordinates": [ 0.15179466964021, 51.557121406320555 ] } },
{ "type": "Feature", "properties": { "visible_points": 29, "total_points": 81, "visibility_pct": 35.802469135802468 }, "geometry": { "type": "Point", "coordinates": [ 0.151994399441168, 51.557117745661465 ] } },
{ "type": "Feature", "properties": { "visible_points": 33, "total_points": 80, "visibility_pct": 41.25 }, "geometry": { "type": "Point", "coordinates": [ 0.152194129200367, 51.557114084661158 ] } },
{ "type": "Feature", "properties": { "visible_points": 17, "total_points": 73, "visibility_pct": 23.287671232876711 }, "geometry": { "type": "Point", "coordinates": [ 0.152393858917798, 51.557110423319614 ] } },
{ "type": "Feature", "properties": { "visible_points": 22, "total_points": 72, "visibility_pct": 30.555555555555557 }, "geometry": { "type": "Point", "coordinates": [ 0.151699891169957, 51.557231058500832 ] } },
{ "type": "Feature", "properties": { "visible_points": 30, "total_points": 73, "visibility_pct": 41.095890410958901 }, "geometry": { "type": "Point", "coordinates": [ 0.151899621456192, 51.557227398019762 ] } },
{ "type": "Feature", "properties": { "visible_points": 30, "total_points": 73, "visibility_pct": 41.095890410958901 }, "geometry": { "type": "Point", "coordinates": [ 0.152099351700676, 51.557223737197482 ] } },
{ "type": "Feature", "properties": { "visible_points": 24, "total_points": 71, "visibility_pct": 33.802816901408448 }, "geometry": { "type": "Point", "coordinates": [ 0.152299081903396, 51.557220076033936 ] } },
{ "type": "Feature", "properties": { "visible_points": 21, "total_points": 63, "visibility_pct": 33.333333333333329 }, "geometry": { "type": "Point", "coordinates": [ 0.151605112256192, 51.557340710587148 ] } },
{ "type": "Feature", "properties": { "visible_points": 26, "total_points": 66, "visibility_pct": 39.393939393939391 }, "geometry": { "type": "Point", "coordinates": [ 0.151804843027713, 51.557337050284112 ] } },
{ "type": "Feature", "properties": { "visible_points": 29, "total_points": 66, "visibility_pct": 43.939393939393938 }, "geometry": { "type": "Point", "coordinates": [ 0.152004573757473, 51.557333389639837 ] } },
{ "type": "Feature", "properties": { "visible_points": 28, "total_points": 65, "visibility_pct": 43.07692307692308 }, "geometry": { "type": "Point", "coordinates": [ 0.152204304445483, 51.557329728654317 ] } },
{ "type": "Feature", "properties": { "visible_points": 19, "total_points": 54, "visibility_pct": 35.185185185185183 }, "geometry": { "type": "Point", "coordinates": [ 0.151510332898914, 51.557450362579509 ] } },
{ "type": "Feature", "properties": { "visible_points": 23, "total_points": 58, "visibility_pct": 39.655172413793103 }, "geometry": { "type": "Point", "coordinates": [ 0.151710064155718, 51.557446702454477 ] } },
{ "type": "Feature", "properties": { "visible_points": 22, "total_points": 59, "visibility_pct": 37.288135593220339 }, "geometry": { "type": "Point", "coordinates": [ 0.151909795370768, 51.557443041988243 ] } },
{ "type": "Feature", "properties": { "visible_points": 17, "total_points": 59, "visibility_pct": 28.8135593220339 }, "geometry": { "type": "Point", "coordinates": [ 0.152109526544064, 51.557439381180743 ] } },
{ "type": "Feature", "properties": { "visible_points": 15, "total_points": 56, "visibility_pct": 26.785714285714285 }, "geometry": { "type": "Point", "coordinates": [ 0.152309257675596, 51.557435720032011 ] } },
{ "type": "Feature", "properties": { "visible_points": 20, "total_points": 52, "visibility_pct": 38.461538461538467 }, "geometry": { "type": "Point", "coordinates": [ 0.151815016540549, 51.557552694242666 ] } },
{ "type": "Feature", "properties": { "visible_points": 18, "total_points": 52, "visibility_pct": 34.615384615384613 }, "geometry": { "type": "Point", "coordinates": [ 0.152014748199133, 51.557549033613206 ] } },
{ "type": "Feature", "properties": { "visible_points": 3, "total_points": 51, "visibility_pct": 5.8823529411764701 }, "geometry": { "type": "Point", "coordinates": [ 0.152214479815958, 51.557545372642501 ] } }
]
}
