{
"type": "FeatureCollection",
"name": "ec9cb92da3c4_visibility",
"crs": { "type": "name", "properties": { "name": "urn:ogc:def:crs:OGC:1.3:CRS84" } },
"features": [
{ "type": "Feature", "properties": { "visible_points": 1, "total_points": 67, "visibility_pct": 1.4925373134328357 }, "geometry": { "type": "Point", "coordinates": [ 0.110925526242377, 51.528187417672044 ] } },
{ "type": "Feature", "properties": { "visible_points": 9, "total_points": 61, "visibility_pct": 14.754098360655737 }, "geometry": { "type": "Point", "coordinates": [ 0.1111251326386, 51.52818382481874 ] } },
{ "type": "Feature", "properties": { "visible_points": 0, "total_points": 54, "visibility_pct": 0.0 }, "geometry": { "type": "Point", "coordinates": [ 0.111324738993736, 51.528180231626777 ] } },
{ "type": "Feature", "properties": { "visible_points": 8, "total_points": 80, "visibility_pct": 10.0 }, "geometry": { "type": "Point", "coordinates": [ 0.110431494817128, 51.528304222259429 ] } },
{ "type": "Feature", "properties": { "visible_points": 11, "total_points": 83, "visibility_pct": 13.253012048192772 }, "geometry": { "type": "Point", "coordinates": [ 0.110631101782448, 51.528300630226774 ] } },
{ "type": "Feature", "properties": { "visible_points": 14, "total_points": 79, "visibility_pct": 17.721518987341771 }, "geometry": { "type": "Point", "coordinates": [ 0.110830708706686, 51.528297037855481 ] } },
{ "type": "Feature", "properties": { "visible_points": 12, "total_points": 73, "visibility_pct": 16.43835616438356 }, "geometry": { "type": "Point", "coordinates": [ 0.111030315589844, 51.528293445145536 ] } },
{ "type": "Feature", "properties": { "visible_points": 0, "total_points": 66, "visibility_pct": 0.0 }, "geometry": { "type": "Point", "coordinates": [ 0.111229922431914, 51.528289852096982 ] } },
{ "type": "Feature", "properties": { "visible_points": 5, "total_points": 62, "visibility_pct": 8.064516129032258 }, "geometry": { "type": "Point", "coordinates": [ 0.109937460834015, 51.52842102485706 ] } },
{ "type": "Feature", "properties": { "visible_points": 6, "total_points": 73, "visibility_pct": 8.2191780821917799 }, "geometry": { "type": "Point", "coordinates": [ 0.110137068368407, 51.528417433645053 ] } },
{ "type": "Feature", "properties": { "visible_points": 12, "total_points": 83, "visibility_pct": 14.457831325301203 }, "geometry": { "type": "Point", "coordinates": [ 0.11033667586173, 51.528413842094423 ] } },
{ "type": "Feature", "properties": { "visible_points": 15, "total_points": 92, "visibility_pct": 16.304347826086957 }, "geometry": { "type": "Point", "coordinates": [ 0.110536283313978, 51.528410250205148 ] } },
{ "type": "Feature", "properties": { "visible_points": 11, "total_points": 92, "visibility_pct": 11.956521739130435 }, "geometry": { "type": "Point", "coordinates": [ 0.110735890725156, 51.528406657977236 ] } },
{ "type": "Feature", "properties": { "visible_points": 14, "total_points": 86, "visibility_pct": 16.279069767441861 }, "geometry": { "type": "Point", "coordinates": [ 0.11093549809525, 51.528403065410672 ] } },
{ "type": "Feature", "properties": { "visible_points": 12, "total_points": 62, "visibility_pct": 19.35483870967742 }, "geometry": { "type": "Point", "coordinates": [ 0.109842640458896, 51.528530644343604 ] } },
{ "type": "Feature", "properties": { "visible_points": 13, "total_points": 73, "visibility_pct": 17.80821917808219 }, "geometry": { "type": "Point", "coordinates": [ 0.110042248480224, 51.528527053274999 ] } },
{ "type": "Feature", "properties": { "visible_points": 8, "total_points": 85, "visibility_pct": 9.4117647058823533 }, "geometry": { "type": "Point", "coordinates": [ 0.11024185646048, 51.528523461867749 ] } },
{ "type": "Feature", "properties": { "visible_points": 10, "total_points": 96, "visibility_pct": 10.416666666666668 }, "geometry": { "type": "Point", "coordinates": [ 0.110441464399667, 51.528519870121862 ] } },
{ "type": "Feature", "properties": { "visible_points": 18, "total_points": 103, "visibility_pct": 17.475728155339805 }, "geometry": { "type": "Point", "coordinates": [ 0.110641072297783, 51.528516278037316 ] } },
{ "type": "Feature", "properties": { "visible_points": 23, "total_points": 99, "visibility_pct": 23.232323232323232 }, "geometry": { "type": "Point", "coordinates": [ 0.110840680154815, 51.528512685614167 ] } },
{ "type": "Feature", "properties": { "visible_points": 12, "total_points": 90, "visibility_pct": 13.333333333333334 }, "geometry": { "type": "Point", "coordinates": [ 0.111040287970769, 51.528509092852353 ] } },
{ "type": "Feature", "properties": { "visible_points": 3, "total_points": 81, "visibility_pct": 3.7037037037037033 }, "geometry": { "type": "Point", "coordinates": [ 0.111239895745633, 51.528505499751894 ] } },
{ "type": "Feature", "properties": { "visible_points": 12, "total_points": 72, "visibility_pct": 16.666666666666664 }, "geometry": { "type": "Point", "coordinates": [ 0.109947428146184, 51.52863667284327 ] } },
{ "type": "Feature", "properties": { "visible_points": 23, "total_points": 84, "visibility_pct": 27.380952380952383 }, "geometry": { "type": "Point", "coordinates": [ 0.110147036613381, 51.5286330815794 ] } },
{ "type": "Feature", "properties": { "visible_points": 32, "total_points": 96, "visibility_pct": 33.333333333333329 }, "geometry": { "type": "Point", "coordinates": [ 0.110346645039508, 51.528629489976908 ] } },
{ "type": "Feature", "properties": { "visible_points": 23, "total_points": 107, "visibility_pct": 21.495327102803738 }, "geometry": { "type": "Point", "coordinates": [ 0.110546253424563, 51.528625898035763 ] } },
{ "type": "Feature", "properties": { "visible_points": 27, "total_points": 109, "visibility_pct": 24.770642201834864 }, "geometry": { "type": "Point", "coordinates": [ 0.110745861768537, 51.528622305755981 ] } },
{ "type": "Feature", "properties": { "visible_points": 17, "total_points": 102, "visibility_pct": 16.666666666666664 }, "geometry": { "type": "Point", "coordinates": [ 0.110945470071431, 51.52861871313754 ] } },
{ "type": "Feature", "properties": { "visible_points": 7, "total_points": 93, "visibility_pct": 7.5268817204301079 }, "geometry": { "type": "Point", "coordinates": [ 0.111145078333247, 51.528615120180476 ] } },
{ "type": "Feature", "properties": { "visible_points": 17, "total_points": 81, "visibility_pct": 20.987654320987652 }, "geometry": { "type": "Point", "coordinates": [ 0.110052216320428, 51.52874270122939 ] } },
{ "type": "Feature", "properties": { "visible_points": 20, "total_points": 94, "visibility_pct": 21.276595744680851 }, "geometry": { "type": "Point", "coordinates": [ 0.110251825233493, 51.528739109770278 ] } },
{ "type": "Feature", "properties": { "visible_points": 22, "total_points": 107, "visibility_pct": 20.5607476635514 }, "geometry": { "type": "Point", "coordinates": [ 0.110451434105492, 51.528735517972521 ] } },
{ "type": "Feature", "properties": { "visible_points": 22, "total_points": 114, "visibility_pct": 19.298245614035086 }, "geometry": { "type": "Point", "coordinates": [ 0.11065104293641, 51.528731925836134 ] } },
{ "type": "Feature", "properties": { "visible_points": 21, "total_points": 110, "visibility_pct": 19.090909090909093 }, "geometry": { "type": "Point", "coordinates": [ 0.110850651726256, 51.528728333361073 ] } },
{ "type": "Feature", "properties": { "visible_points": 22, "total_points": 99, "visibility_pct": 22.222222222222221 }, "geometry": { "type": "Point", "coordinates": [ 0.111050260475009, 51.528724740547389 ] } },
{ "type": "Feature", "properties": { "visible_points": 0, "total_points": 87, "visibility_pct": 0.0 }, "geometry": { "type": "Point", "coordinates": [ 0.111249869182684, 51.528721147395075 ] } },
{ "type": "Feature", "properties": { "visible_points": 14, "total_points": 74, "visibility_pct": 18.918918918918919 }, "geometry": { "type": "Point", "coordinates": [ 0.109957395581613, 51.528852320817698 ] } },
{ "type": "Feature", "properties": { "visible_points": 19, "total_points": 86, "visibility_pct": 22.093023255813954 }, "geometry": { "type": "Point", "coordinates": [ 0.110157004981624, 51.528848729501973 ] } },
{ "type": "Feature", "properties": { "visible_points": 24, "total_points": 98, "visibility_pct": 24.489795918367346 }, "geometry": { "type": "Point", "coordinates": [ 0.110356614340565, 51.528845137847618 ] } },
{ "type": "Feature", "properties": { "visible_points": 19, "total_points": 107, "visibility_pct": 17.75700934579439 }, "geometry": { "type": "Point", "coordinates": [ 0.110556223658433, 51.528841545854597 ] } },
{ "type": "Feature", "properties": { "visible_points": 21, "total_points": 108, "visibility_pct": 19.444444444444446 }, "geometry": { "type": "Point", "coordinates": [ 0.110755832935224, 51.528837953522952 ] } },
{ "type": "Feature", "properties": { "visible_points": 18, "total_points": 99, "visibility_pct": 18.181818181818183 }, "geometry": { "type": "Point", "coordinates": [ 0.11095544217093, 51.528834360852656 ] } },
{ "type": "Feature", "properties": { "visible_points": 17, "total_points": 88, "visibility_pct": 19.318181818181817 }, "geometry": { "type": "Point", "coordinates": [ 0.111155051365555, 51.528830767843715 ] } },
{ "type": "Feature", "properties": { "visible_points": 1, "total_points": 76, "visibility_pct": 1.3157894736842104 }, "geometry": { "type": "Point", "coordinates": [ 0.111354660519088, 51.528827174496136 ] } },
{ "type": "Feature", "properties": { "visible_points": 15, "total_points": 75, "visibility_pct": 20.0 }, "geometry": { "type": "Point", "coordinates": [ 0.110062184283893, 51.528958349172022 ] } },
{ "type": "Feature", "properties": { "visible_points": 0, "total_points": 85, "visibility_pct": 0.0 }, "geometry": { "type": "Point", "coordinates": [ 0.110261794129784, 51.528954757661047 ] } },
{ "type": "Feature", "properties": { "visible_points": 21, "total_points": 94, "visibility_pct": 22.340425531914892 }, "geometry": { "type": "Point", "coordinates": [ 0.110461403934598, 51.528951165811414 ] } },
{ "type": "Feature", "properties": { "visible_points": 19, "total_points": 99, "visibility_pct": 19.19191919191919 }, "geometry": { "type": "Point", "coordinates": [ 0.11066101369834, 51.528947573623157 ] } },
{ "type": "Feature", "properties": { "visible_points": 21, "total_points": 96, "visibility_pct": 21.875 }, "geometry": { "type": "Point", "coordinates": [ 0.110860623421001, 51.528943981096241 ] } },
{ "type": "Feature", "properties": { "visible_points": 16, "total_points": 86, "visibility_pct": 18.604651162790699 }, "geometry": { "type": "Point", "coordinates": [ 0.111060233102576, 51.52894038823068 ] } },
{ "type": "Feature", "properties": { "visible_points": 0, "total_points": 76, "visibility_pct": 0.0 }, "geometry": { "type": "Point", "coordinates": [ 0.111259842743064, 51.528936795026496 ] } },
{ "type": "Feature", "properties": { "visible_points": 14, "total_points": 72, "visibility_pct": 19.444444444444446 }, "geometry": { "type": "Point", "coordinates": [ 0.11016697347314, 51.529064377412809 ] } },
{ "type": "Feature", "properties": { "visible_points": 17, "total_points": 81, "visibility_pct": 20.987654320987652 }, "geometry": { "type": "Point", "coordinates": [ 0.110366583764903, 51.529060785706569 ] } },
{ "type": "Feature", "properties": { "visible_points": 20, "total_points": 88, "visibility_pct": 22.727272727272727 }, "geometry": { "type": "Point", "coordinates": [ 0.110566194015598, 51.529057193661686 ] } },
{ "type": "Feature", "properties": { "visible_points": 23, "total_points": 88, "visibility_pct": 26.136363636363637 }, "geometry": { "type": "Point", "coordinates": [ 0.110765804225215, 51.529053601278157 ] } },
{ "type": "Feature", "properties": { "visible_points": 20, "total_points": 83, "visibility_pct": 24.096385542168676 }, "geometry": { "type": "Point", "coordinates": [ 0.110965414393747, 51.529050008555998 ] } },
{ "type": "Feature", "properties": { "visible_points": 15, "total_points": 74, "visibility_pct": 20.27027027027027 }, "geometry": { "type": "Point", "coordinates": [ 0.111165024521192, 51.529046415495181 ] } },
{ "type": "Feature", "properties": { "visible_points": 9, "total_points": 64, "visibility_pct": 14.0625 }, "geometry": { "type": "Point", "coordinates": [ 0.11136463460755, 51.529042822095718 ] } },
{ "type": "Feature", "properties": { "visible_points": 12, "total_points": 68, "visibility_pct": 17.647058823529413 }, "geometry": { "type": "Point", "coordinates": [ 0.11027176314935, 51.52917040554005 ] } },
{ "type": "Feature", "properties": { "visible_points": 12, "total_points": 75, "visibility_pct": 16.0 }, "geometry": { "type": "Point", "coordinates": [ 0.110471373886995, 51.529166813638561 ] } },
{ "type": "Feature", "properties": { "visible_points": 10, "total_points": 78, "visibility_pct": 12.820512820512819 }, "geometry": { "type": "Point", "coordinates": [ 0.110670984583568, 51.529163221398434 ] } },
{ "type": "Feature", "properties": { "visible_points": 2, "total_points": 77, "visibility_pct": 2.5974025974025974 }, "geometry": { "type": "Point", "coordinates": [ 0.110870595239059, 51.529159628819642 ] } },
{ "type": "Feature", "properties": { "visible_points": 15, "total_points": 71, "visibility_pct": 21.12676056338028 }, "geometry": { "type": "Point", "coordinates": [ 0.111070205853464, 51.529156035902218 ] } },
{ "type": "Feature", "properties": { "visible_points": 12, "total_points": 62, "visibility_pct": 19.35483870967742 }, "geometry": { "type": "Point", "coordinates": [ 0.111269816426783, 51.529152442646158 ] } },
{ "type": "Feature", "properties": { "visible_points": 8, "total_points": 53, "visibility_pct": 15.09433962264151 }, "geometry": { "type": "Point", "coordinates": [ 0.11146942695901, 51.529148849051424 ] } },
{ "type": "Feature", "properties": { "visible_points": 1, "total_points": 62, "visibility_pct": 1.6129032258064515 }, "geometry": { "type": "Point", "coordinates": [ 0.110376553312529, 51.529276433553761 ] } },
{ "type": "Feature", "properties": { "visible_points": 9, "total_points": 67, "visibility_pct": 13.432835820895523 }, "geometry": { "type": "Point", "coordinates": [ 0.110576164496059, 51.529272841457022 ] } }
]
}
