{
"type": "FeatureCollection",
"name": "HACKN_157_toilets",
"crs": { "type": "name", "properties": { "name": "urn:ogc:def:crs:OGC:1.3:CRS84" } },
"features": [
{ "type": "Feature", "properties": { "name": "London Fields Toilet", "payment_info": "Free", "accessible": "False", "radar": "True", "women": "True", "men": "True", "baby_change": "True", "Mon": "09:00-18:00", "Tue": "09:00-18:00", "Wed": "09:00-18:00", "Thu": "09:00-18:00", "Fri": "09:00-18:00", "Sat": "09:00-18:00", "Sun": "09:00-18:00", "index_right": 30, "park_offical_id": "HACKN_157" }, "geometry": { "type": "Point", "coordinates": [ -0.060408711, 51.537752295 ] } },
{ "type": "Feature", "properties": { "name": "Flat Earth Pizzas", "payment_info": "Free", "accessible": "False", "radar": "False", "women": "True", "men": "True", "baby_change": "True", "Mon": "Closed", "Tue": "12:00-22:00", "Wed": "12:00-22:00", "Thu": "12:00-22:00", "Fri": "12:00-22:00", "Sat": "12:00-22:00", "Sun": "12:00-20:00", "index_right": 30, "park_offical_id": "HACKN_157" }, "geometry": { "type": "Point", "coordinates": [ -0.057230291, 51.534183582 ] } },
{ "type": "Feature", "properties": { "name": "Speciality Cafetiere", "payment_info": "Free", "accessible": "False", "radar": "False", "women": "False", "men": "False", "baby_change": "False", "Mon": "07:00-16:00", "Tue": "07:00-16:00", "Wed": "07:00-16:00", "Thu": "07:00-16:00", "Fri": "07:00-16:00", "Sat": "08:00-17:00", "Sun": "08:00-17:00", "index_right": 30, "park_offical_id": "HACKN_157" }, "geometry": { "type": "Point", "coordinates": [ -0.062997102, 51.531734274 ] } },
{ "type": "Feature", "properties": { "name": "Melody Brunch and Bistro", "payment_info": "Free", "accessible": "False", "radar": "False", "women": "True", "men": "True", "baby_change": "False", "Mon": "07:00-17:00", "Tue": "07:00-17:00", "Wed": "07:00-17:00", "Thu": "07:00-17:00", "Fri": "07:00-17:00", "Sat": "08:00-17:00", "Sun": "08:00-16:00", "index_right": 30, "park_offical_id": "HACKN_157" }, "geometry": { "type": "Point", "coordinates": [ -0.057375124, 51.532992351 ] } },
{ "type": "Feature", "properties": { "name": "Knees Up", "payment_info": "Free", "accessible": "False", "radar": "False", "women": "False", "men": "False", "baby_change": "False", "Mon": "Closed", "Tue": "08:00-16:00", "Wed": "08:00-16:00", "Thu": "08:00-16:00", "Fri": "08:00-16:00", "Sat": "08:00-16:00", "Sun": "08:00-16:00", "index_right": 30, "park_offical_id": "HACKN_157" }, "geometry": { "type": "Point", "coordinates": [ -0.060454279, 51.532328185 ] } },
{ "type": "Feature", "properties": { "name": "The Food Map", "payment_info": "Free", "accessible": "False", "radar": "False", "women": "True", "men": "True", "baby_change": "False", "Mon": "07:30-15:00", "Tue": "07:30-21:00", "Wed": "07:30-21:00", "Thu": "07:30-21:00", "Fri": "07:30-17:00", "Sat": "Closed", "Sun": "Closed", "index_right": 30, "park_offical_id": "HACKN_157" }, "geometry": { "type": "Point", "coordinates": [ -0.058995187, 51.532442403 ] } },
{ "type": "Feature", "properties": { "name": "Unknown", "payment_info": "Free", "accessible": "False", "radar": "Unknown", "women": "Unknown", "men": "Unknown", "baby_change": "Unknown", "Mon": "Unknown", "Tue": "Unknown", "Wed": "Unknown", "Thu": "Unknown", "Fri": "Unknown", "Sat": "Unknown", "Sun": "Unknown", "index_right": 30, "park_offical_id": "HACKN_157" }, "geometry": { "type": "Point", "coordinates": [ -0.0592065, 51.5412199 ] } }
]
}
