{
"type": "FeatureCollection",
"name": "GREEN_4_cycling",
"crs": { "type": "name", "properties": { "name": "urn:ogc:def:crs:OGC:1.3:CRS84" } },
"features": [
{"type":"Feature","properties":{"highway":"cycleway","name":null,"category":"Dedicated cycleway"},"geometry":{"type":"MultiLineString","coordinates":[[[0.0492748,51.4393631],[0.0492842,51.4393863],[0.0492972,51.4394183]]]}},
{"type":"Feature","properties":{"highway":"cycleway","name":null,"category":"Dedicated cycleway"},"geometry":{"type":"MultiLineString","coordinates":[[[0.0528803,51.4260339],[0.0529169,51.4260184],[0.0524984,51.425701],[0.0524849,51.4256905],[0.0522894,51.4255382],[0.0520394,51.425319],[0.0519643,51.4252278]]]}},
{"type":"Feature","properties":{"highway":"cycleway","name":null,"category":"Dedicated cycleway"},"geometry":{"type":"MultiLineString","coordinates":[[[0.0491457,51.4393608],[0.0491539,51.439375],[0.0492695,51.439352],[0.0492748,51.4393631]]]}},
{"type":"Feature","properties":{"highway":"path","name":null,"category":"Shared path"},"geometry":{"type":"MultiLineString","coordinates":[[[0.0590392,51.4385842],[0.0589271,51.4385593],[0.0588911,51.4385516],[0.0588079,51.4385384],[0.0585921,51.4385174],[0.0585213,51.438513],[0.0584611,51.4385064],[0.058316,51.4384877],[0.0582505,51.4384832],[0.0580842,51.4384821],[0.0579674,51.4384832],[0.0578771,51.4384943],[0.0577975,51.4385042],[0.0577037,51.4385086],[0.0575887,51.4385119],[0.0574347,51.4385064],[0.0573303,51.4385086],[0.0572419,51.4385174],[0.0570454,51.4385373],[0.056918,51.4385494],[0.0567871,51.4385781],[0.0567517,51.4385925],[0.0566738,51.4386289],[0.0566384,51.4386454],[0.0564809,51.438684],[0.0564579,51.4386961],[0.0563517,51.4387469],[0.0562243,51.4388031],[0.0561712,51.4388208],[0.0560668,51.4388539],[0.0559695,51.4388903],[0.0558085,51.4389377],[0.0556811,51.4389719],[0.055474,51.4390193],[0.055336,51.4390403],[0.0553068,51.4390464],[0.0552404,51.4390602],[0.0550554,51.4391182]]]}},
{"type":"Feature","properties":{"highway":"path","name":null,"category":"Shared path"},"geometry":{"type":"MultiLineString","coordinates":[[[0.0553068,51.4390464],[0.0554298,51.4389807],[0.0555165,51.4389322],[0.0555731,51.4388914],[0.055605,51.4388517],[0.0556297,51.4387954],[0.0556421,51.4387568],[0.0556439,51.4387281],[0.0556421,51.4386939],[0.0556333,51.4386443],[0.0556262,51.4385836],[0.0556351,51.4385274],[0.0556563,51.4384899],[0.055674,51.4384435],[0.0557235,51.438416],[0.0558333,51.4383917],[0.0559907,51.438352],[0.0561766,51.4383001],[0.0563429,51.4382516],[0.0564668,51.438213],[0.0566066,51.438181],[0.0567552,51.4381545],[0.0568791,51.4381424],[0.0569516,51.4381468],[0.0571392,51.4381611],[0.0573409,51.4381755],[0.0574631,51.4381733],[0.0575586,51.4381578],[0.0576789,51.4381137],[0.0577391,51.4380751],[0.0578577,51.4379935],[0.057955,51.437935],[0.0580187,51.4378975],[0.0580594,51.4378821],[0.0581107,51.4378721],[0.0581585,51.4378699],[0.0582134,51.4378754],[0.0582753,51.4378887],[0.0583213,51.4379185],[0.0583673,51.4379626],[0.0584823,51.4380839],[0.0585761,51.4381931],[0.0589271,51.4385593]]]}},
{"type":"Feature","properties":{"highway":"path","name":null,"category":"Shared path"},"geometry":{"type":"MultiLineString","coordinates":[[[0.0555884,51.439169],[0.0555858,51.4392448],[0.055554,51.4392889],[0.0554973,51.4393176],[0.055423,51.4393242],[0.0553151,51.4393187],[0.0552673,51.4392944],[0.0552531,51.4392514],[0.0552726,51.4392161],[0.0552885,51.4391907],[0.0552885,51.4391275]]]}},
{"type":"Feature","properties":{"highway":"path","name":null,"category":"Shared path"},"geometry":{"type":"MultiLineString","coordinates":[[[0.0582872,51.4375646],[0.0583055,51.4376031],[0.0583288,51.4376676],[0.0583471,51.4377005],[0.0583451,51.4377411],[0.0583318,51.4377702],[0.0583318,51.4378596],[0.0583213,51.4379185]]]}},
{"type":"Feature","properties":{"highway":"cycleway","name":null,"category":"Dedicated cycleway"},"geometry":{"type":"MultiLineString","coordinates":[[[0.0511828,51.4399125],[0.051256,51.4399025],[0.0513299,51.4398924]]]}},
{"type":"Feature","properties":{"highway":"cycleway","name":null,"category":"Dedicated cycleway"},"geometry":{"type":"MultiLineString","coordinates":[[[0.0513671,51.4397777],[0.0514174,51.4397382],[0.0514596,51.4397125],[0.0515129,51.439688],[0.0517171,51.4395977]]]}},
{"type":"Feature","properties":{"highway":"cycleway","name":null,"category":"Dedicated cycleway"},"geometry":{"type":"MultiLineString","coordinates":[[[0.05114,51.4398905],[0.0511561,51.4399168],[0.0511828,51.4399125]]]}},
{"type":"Feature","properties":{"highway":"cycleway","name":null,"category":"Dedicated cycleway"},"geometry":{"type":"MultiLineString","coordinates":[[[0.051102,51.4398299],[0.051125,51.4398671],[0.05114,51.4398905]]]}},
{"type":"Feature","properties":{"highway":"cycleway","name":null,"category":"Dedicated cycleway"},"geometry":{"type":"MultiLineString","coordinates":[[[0.0513342,51.4397984],[0.0513191,51.4397776]]]}},
{"type":"Feature","properties":{"highway":"cycleway","name":null,"category":"Dedicated cycleway"},"geometry":{"type":"MultiLineString","coordinates":[[[0.0513299,51.4398924],[0.0513593,51.4398867],[0.0513342,51.4397984],[0.0513671,51.4397777]]]}},
{"type":"Feature","properties":{"highway":"cycleway","name":null,"category":"Dedicated cycleway"},"geometry":{"type":"MultiLineString","coordinates":[[[0.0517171,51.4395977],[0.0517408,51.4395636]]]}},
{"type":"Feature","properties":{"highway":"cycleway","name":null,"category":"Dedicated cycleway"},"geometry":{"type":"MultiLineString","coordinates":[[[0.0491194,51.4393076],[0.0491296,51.4393282],[0.0491457,51.4393608]]]}},
{"type":"Feature","properties":{"highway":"path","name":null,"category":"Shared path"},"geometry":{"type":"MultiLineString","coordinates":[[[0.057903,51.4299033],[0.0579491,51.4300256],[0.057953,51.4300295],[0.057963,51.4300304],[0.0581964,51.4300002],[0.0582018,51.4299968],[0.0582018,51.4299896],[0.0581937,51.4299694]]]}},
{"type":"Feature","properties":{"highway":"path","name":null,"category":"Shared path"},"geometry":{"type":"MultiLineString","coordinates":[[[0.0570465,51.4307749],[0.0570542,51.4308013],[0.0570285,51.4308044],[0.0569265,51.4308155],[0.0568334,51.4308279]]]}},
{"type":"Feature","properties":{"highway":"path","name":null,"category":"Shared path"},"geometry":{"type":"MultiLineString","coordinates":[[[0.0489391,51.4327248],[0.0488903,51.4327555]]]}},
{"type":"Feature","properties":{"highway":"path","name":null,"category":"Shared path"},"geometry":{"type":"MultiLineString","coordinates":[[[0.0482276,51.4328358],[0.0483034,51.4328833]]]}},
{"type":"Feature","properties":{"highway":"path","name":null,"category":"Shared path"},"geometry":{"type":"MultiLineString","coordinates":[[[0.0483856,51.4327318],[0.0484726,51.4327843]]]}},
{"type":"Feature","properties":{"highway":"path","name":null,"category":"Shared path"},"geometry":{"type":"MultiLineString","coordinates":[[[0.048545,51.4326299],[0.0486327,51.4326829]]]}},
{"type":"Feature","properties":{"highway":"path","name":null,"category":"Shared path"},"geometry":{"type":"MultiLineString","coordinates":[[[0.048801,51.4325487],[0.0488214,51.4325634]]]}},
{"type":"Feature","properties":{"highway":"path","name":null,"category":"Shared path"},"geometry":{"type":"MultiLineString","coordinates":[[[0.0489343,51.4323684],[0.0490289,51.4324293]]]}},
{"type":"Feature","properties":{"highway":"path","name":null,"category":"Shared path"},"geometry":{"type":"MultiLineString","coordinates":[[[0.0490907,51.4322698],[0.0491799,51.4323276]]]}},
{"type":"Feature","properties":{"highway":"path","name":null,"category":"Shared path"},"geometry":{"type":"MultiLineString","coordinates":[[[0.0492399,51.4321685],[0.0493284,51.4322275]]]}},
{"type":"Feature","properties":{"highway":"path","name":null,"category":"Shared path"},"geometry":{"type":"MultiLineString","coordinates":[[[0.0486484,51.4324541],[0.0482642,51.4322256]]]}},
{"type":"Feature","properties":{"highway":"path","name":null,"category":"Shared path"},"geometry":{"type":"MultiLineString","coordinates":[[[0.0486484,51.4324541],[0.0487813,51.432373],[0.0487571,51.4323565],[0.048806,51.4323238],[0.0488098,51.4323176],[0.0488116,51.4323123],[0.0488196,51.4323064],[0.0488292,51.4323017],[0.0488394,51.4322995],[0.0488467,51.4322967],[0.0489187,51.4322487],[0.0489207,51.4322452],[0.0489191,51.4322421],[0.0489093,51.4322366],[0.0489081,51.4322329],[0.0489095,51.4322288],[0.0490089,51.4321659],[0.0490238,51.4321656],[0.0490369,51.4321708],[0.0491116,51.4321243],[0.0491135,51.4321231],[0.0491121,51.432117],[0.0491159,51.4321109],[0.0491227,51.4321053],[0.0491246,51.4321038],[0.0491359,51.4321],[0.0491464,51.4320973],[0.0491558,51.4320972],[0.0491849,51.4320794],[0.0490741,51.4320131],[0.0490658,51.4320125],[0.0490575,51.4320102],[0.0490505,51.4320072],[0.0490434,51.4320025],[0.0490398,51.4319964],[0.0490376,51.4319909],[0.0489462,51.4319383],[0.0489361,51.4319373],[0.0489295,51.4319347],[0.0489223,51.4319309],[0.0489159,51.4319265],[0.0489135,51.4319219],[0.0489126,51.4319165],[0.0489014,51.4319093],[0.0488558,51.4318828],[0.0489478,51.4318225],[0.0490581,51.4318938],[0.0492176,51.4319901],[0.0492187,51.431993],[0.0492172,51.4319961],[0.0491971,51.4320157],[0.0491743,51.4320309]]]}},
{"type":"Feature","properties":{"highway":"path","name":null,"category":"Shared path"},"geometry":{"type":"MultiLineString","coordinates":[[[0.0486484,51.4324541],[0.0485414,51.4325335],[0.0485369,51.4325361],[0.0485316,51.4325373],[0.0485268,51.4325363],[0.0485206,51.4325338],[0.0485151,51.4325316],[0.0485088,51.4325293],[0.0485031,51.4325287],[0.048498,51.4325291],[0.0484914,51.4325323],[0.0484582,51.4325544],[0.0484511,51.4325586],[0.0484412,51.4325598],[0.0484328,51.4325616],[0.0484261,51.4325645],[0.0484232,51.4325655],[0.0484187,51.4325701],[0.0484167,51.4325739],[0.0484167,51.4325785],[0.0484161,51.4325825],[0.0483522,51.4326236],[0.0483461,51.4326255],[0.0483211,51.4326261],[0.0483145,51.4326279],[0.0483091,51.4326281],[0.0483038,51.4326295],[0.0482251,51.4326819],[0.0482091,51.4326917],[0.0482081,51.4326944],[0.0482097,51.4326983],[0.0482069,51.4327059],[0.0482081,51.4327087],[0.0482118,51.4327115],[0.0482111,51.4327147],[0.0481538,51.432756],[0.0481438,51.432756],[0.0481359,51.4327567],[0.0481271,51.4327589],[0.0481209,51.4327617],[0.0481186,51.4327634],[0.0481155,51.4327656],[0.0481125,51.4327699],[0.0481111,51.4327749],[0.0481118,51.4327816],[0.0480892,51.4327954],[0.0480845,51.4327976],[0.0480796,51.4327989],[0.0480754,51.4327981],[0.0480718,51.4327963],[0.0479748,51.4327406],[0.0479699,51.4327341],[0.0479677,51.4327295],[0.0479621,51.4327258],[0.0479559,51.4327236],[0.0479488,51.4327217],[0.0479395,51.4327199],[0.0478636,51.4326755],[0.0478455,51.4326655],[0.0478438,51.4326608],[0.0478408,51.4326561],[0.047836,51.4326524],[0.0478301,51.4326496],[0.0478234,51.4326482],[0.0478138,51.4326466],[0.0477645,51.4326178],[0.0477591,51.4326145],[0.0477543,51.4326128],[0.0477494,51.4326122],[0.0476713,51.4326627],[0.047668,51.4326666],[0.047669,51.4326707],[0.0476711,51.4326737],[0.047677,51.4326782],[0.0479312,51.4328281],[0.0479362,51.4328302],[0.0479417,51.4328298],[0.0479475,51.4328274],[0.0479718,51.4328182],[0.0479946,51.432803]]]}},
{"type":"Feature","properties":{"highway":"path","name":null,"category":"Shared path"},"geometry":{"type":"MultiLineString","coordinates":[[[0.0489859,51.4326943],[0.049018,51.4327119]]]}},
{"type":"Feature","properties":{"highway":"path","name":null,"category":"Shared path"},"geometry":{"type":"MultiLineString","coordinates":[[[0.0490283,51.4326664],[0.0490408,51.4326643],[0.0490506,51.4326648],[0.049076,51.4326717]]]}},
{"type":"Feature","properties":{"highway":"path","name":null,"category":"Shared path"},"geometry":{"type":"MultiLineString","coordinates":[[[0.0480381,51.4321176],[0.0480496,51.4321224],[0.0480581,51.4321236],[0.0480712,51.4321224],[0.0481139,51.432095],[0.0481223,51.4320993]]]}},
{"type":"Feature","properties":{"highway":"path","name":null,"category":"Shared path"},"geometry":{"type":"MultiLineString","coordinates":[[[0.0477097,51.4318301],[0.0480238,51.431876],[0.0479573,51.4320282],[0.0478568,51.4321133],[0.0474716,51.4323528],[0.0474424,51.4323579],[0.0474155,51.4323528],[0.0472042,51.4322387],[0.0472813,51.4321896]]]}},
{"type":"Feature","properties":{"highway":"track","name":null,"category":"Track"},"geometry":{"type":"MultiLineString","coordinates":[[[0.0619271,51.4288652],[0.061819,51.4291279],[0.0615908,51.4296796]]]}},
{"type":"Feature","properties":{"highway":"track","name":null,"category":"Track"},"geometry":{"type":"MultiLineString","coordinates":[[[0.0613892,51.4296485],[0.0615908,51.4296796],[0.0617571,51.4297149]]]}},
{"type":"Feature","properties":{"highway":"path","name":null,"category":"Shared path"},"geometry":{"type":"MultiLineString","coordinates":[[[0.0612051,51.429023],[0.0609788,51.4295693]]]}},
{"type":"Feature","properties":{"highway":"path","name":null,"category":"Shared path"},"geometry":{"type":"MultiLineString","coordinates":[[[0.0614368,51.4290626],[0.0612254,51.4296152]]]}},
{"type":"Feature","properties":{"highway":"path","name":null,"category":"Shared path"},"geometry":{"type":"MultiLineString","coordinates":[[[0.0606635,51.4295206],[0.060721,51.4295295],[0.0609788,51.4295693],[0.0612254,51.4296152],[0.0613892,51.4296485]]]}},
{"type":"Feature","properties":{"highway":"path","name":null,"category":"Shared path"},"geometry":{"type":"MultiLineString","coordinates":[[[0.0609752,51.4289772],[0.0608501,51.4292625],[0.060721,51.4295295]]]}},
{"type":"Feature","properties":{"highway":"path","name":null,"category":"Shared path"},"geometry":{"type":"MultiLineString","coordinates":[[[0.0565641,51.4300083],[0.0565599,51.4299949]]]}},
{"type":"Feature","properties":{"highway":"path","name":null,"category":"Shared path"},"geometry":{"type":"MultiLineString","coordinates":[[[0.0506331,51.4324484],[0.0506566,51.4324304]]]}}
]
}
