{
"type": "FeatureCollection",
"name": "HACKN_36",
"crs": { "type": "name", "properties": { "name": "urn:ogc:def:crs:OGC:1.3:CRS84" } },
"features": [
{ "type": "Feature", "properties": { "osm_id": 5211224396, "name": null, "amenity": "bench", "man_made": null, "leisure": null, "playground": null, "memorial": null }, "geometry": { "type": "Point", "coordinates": [ -0.0835991, 51.5333093 ] } },
{ "type": "Feature", "properties": { "osm_id": 5211224399, "name": null, "amenity": "bench", "man_made": null, "leisure": null, "playground": null, "memorial": null }, "geometry": { "type": "Point", "coordinates": [ -0.0833228, 51.5333193 ] } },
{ "type": "Feature", "properties": { "osm_id": 5211224395, "name": null, "amenity": "bench", "man_made": null, "leisure": null, "playground": null, "memorial": null }, "geometry": { "type": "Point", "coordinates": [ -0.0838208, 51.5333323 ] } },
{ "type": "Feature", "properties": { "osm_id": 5211224398, "name": null, "amenity": "bench", "man_made": null, "leisure": null, "playground": null, "memorial": null }, "geometry": { "type": "Point", "coordinates": [ -0.0834345, 51.5333357 ] } },
{ "type": "Feature", "properties": { "osm_id": 5211224397, "name": null, "amenity": "bench", "man_made": null, "leisure": null, "playground": null, "memorial": null }, "geometry": { "type": "Point", "coordinates": [ -0.0832155, 51.5334378 ] } },
{ "type": "Feature", "properties": { "osm_id": 5211224415, "name": null, "amenity": "bench", "man_made": null, "leisure": null, "playground": null, "memorial": null }, "geometry": { "type": "Point", "coordinates": [ -0.0839746, 51.5334461 ] } },
{ "type": "Feature", "properties": { "osm_id": 5211224414, "name": null, "amenity": "bench", "man_made": null, "leisure": null, "playground": null, "memorial": null }, "geometry": { "type": "Point", "coordinates": [ -0.0840068, 51.5335763 ] } },
{ "type": "Feature", "properties": { "osm_id": 5211224411, "name": null, "amenity": "bench", "man_made": null, "leisure": null, "playground": null, "memorial": null }, "geometry": { "type": "Point", "coordinates": [ -0.0839303, 51.5336764 ] } },
{ "type": "Feature", "properties": { "osm_id": 5211225623, "name": null, "amenity": "bench", "man_made": null, "leisure": null, "playground": null, "memorial": null }, "geometry": { "type": "Point", "coordinates": [ -0.083245, 51.5336906 ] } },
{ "type": "Feature", "properties": { "osm_id": 5211235128, "name": null, "amenity": "bench", "man_made": null, "leisure": null, "playground": null, "memorial": null }, "geometry": { "type": "Point", "coordinates": [ -0.0834918, 51.5337231 ] } },
{ "type": "Feature", "properties": { "osm_id": 5211234818, "name": null, "amenity": "bench", "man_made": null, "leisure": null, "playground": null, "memorial": null }, "geometry": { "type": "Point", "coordinates": [ -0.0835562, 51.5337498 ] } },
{ "type": "Feature", "properties": { "osm_id": 5211217191, "name": null, "amenity": "bench", "man_made": null, "leisure": null, "playground": null, "memorial": null }, "geometry": { "type": "Point", "coordinates": [ -0.0879765, 51.5343905 ] } },
{ "type": "Feature", "properties": { "osm_id": 5211217187, "name": null, "amenity": "bench", "man_made": null, "leisure": null, "playground": null, "memorial": null }, "geometry": { "type": "Point", "coordinates": [ -0.0862813, 51.5343922 ] } },
{ "type": "Feature", "properties": { "osm_id": 5211217194, "name": null, "amenity": "bench", "man_made": null, "leisure": null, "playground": null, "memorial": null }, "geometry": { "type": "Point", "coordinates": [ -0.0880623, 51.5345106 ] } },
{ "type": "Feature", "properties": { "osm_id": 5211217205, "name": null, "amenity": "bench", "man_made": null, "leisure": null, "playground": null, "memorial": null }, "geometry": { "type": "Point", "coordinates": [ -0.0879335, 51.5345907 ] } },
{ "type": "Feature", "properties": { "osm_id": 5211217204, "name": null, "amenity": "bench", "man_made": null, "leisure": null, "playground": null, "memorial": null }, "geometry": { "type": "Point", "coordinates": [ -0.087955, 51.534831 ] } },
{ "type": "Feature", "properties": { "osm_id": 5444168148, "name": null, "amenity": "bench", "man_made": null, "leisure": null, "playground": null, "memorial": null }, "geometry": { "type": "Point", "coordinates": [ -0.0864066, 51.5348317 ] } },
{ "type": "Feature", "properties": { "osm_id": 5211217206, "name": null, "amenity": "bench", "man_made": null, "leisure": null, "playground": null, "memorial": null }, "geometry": { "type": "Point", "coordinates": [ -0.0881696, 51.5349511 ] } },
{ "type": "Feature", "properties": { "osm_id": 5211217201, "name": null, "amenity": "bench", "man_made": null, "leisure": null, "playground": null, "memorial": null }, "geometry": { "type": "Point", "coordinates": [ -0.0873756, 51.5353649 ] } },
{ "type": "Feature", "properties": { "osm_id": 5211217199, "name": null, "amenity": "bench", "man_made": null, "leisure": null, "playground": null, "memorial": null }, "geometry": { "type": "Point", "coordinates": [ -0.0875044, 51.5356718 ] } },
{ "type": "Feature", "properties": { "osm_id": 5211217202, "name": null, "amenity": "bench", "man_made": null, "leisure": null, "playground": null, "memorial": null }, "geometry": { "type": "Point", "coordinates": [ -0.0869894, 51.535832 ] } }
]
}
