{
"type": "FeatureCollection",
"name": "NEWHA_63_toilets",
"crs": { "type": "name", "properties": { "name": "urn:ogc:def:crs:OGC:1.3:CRS84" } },
"features": [
{ "type": "Feature", "properties": { "name": "City Hall", "payment_info": "Free", "accessible": "True", "radar": "False", "women": "True", "men": "True", "baby_change": "Unknown", "Mon": "Unknown", "Tue": "Unknown", "Wed": "Unknown", "Thu": "Unknown", "Fri": "Unknown", "Sat": "Unknown", "Sun": "Unknown", "index_right": 206, "park_offical_id": "NEWHA_63" }, "geometry": { "type": "Point", "coordinates": [ 0.016420484, 51.507260687 ] } }
]
}
