{
"type": "FeatureCollection",
"name": "NEWHA_221_toilets",
"crs": { "type": "name", "properties": { "name": "urn:ogc:def:crs:OGC:1.3:CRS84" } },
"features": [
{ "type": "Feature", "properties": { "name": "Stratford Mall", "payment_info": "Free", "accessible": "True", "radar": "True", "women": "True", "men": "True", "baby_change": "True", "Mon": "09:00-18:00", "Tue": "09:00-18:00", "Wed": "09:00-18:00", "Thu": "09:00-18:00", "Fri": "09:00-18:00", "Sat": "09:00-18:00", "Sun": "10:00-17:00", "index_right": 53, "park_offical_id": "NEWHA_221" }, "geometry": { "type": "Point", "coordinates": [ -0.0005164, 51.5417311 ] } }
]
}
