{
"type": "FeatureCollection",
"name": "HAVER_56_cycling",
"crs": { "type": "name", "properties": { "name": "urn:ogc:def:crs:OGC:1.3:CRS84" } },
"features": [
{"type":"Feature","properties":{"highway":"bridleway","name":null,"category":"Bridleway"},"geometry":{"type":"MultiLineString","coordinates":[[[0.2891822,51.5644862],[0.2892125,51.5644901],[0.2900091,51.5645924],[0.2902183,51.5646691],[0.2903543,51.564863],[0.2903812,51.5650631],[0.2901237,51.5655866],[0.289893,51.5657067],[0.2896731,51.5657967],[0.2895443,51.5660334],[0.2885639,51.5681092],[0.2884704,51.5684193],[0.2877882,51.5696375],[0.2875702,51.5701581],[0.2873591,51.5705511],[0.2870771,51.5710318]]]}},
{"type":"Feature","properties":{"highway":"track","name":null,"category":"Track"},"geometry":{"type":"MultiLineString","coordinates":[[[0.2889608,51.5644773],[0.2887172,51.5645322],[0.2884471,51.5646734],[0.2880222,51.5657605],[0.2878398,51.5662701],[0.2875316,51.5665587],[0.2874064,51.5667186],[0.2865265,51.5689116],[0.2860124,51.569895],[0.2856447,51.5705114],[0.2852201,51.5710741],[0.2848714,51.5712712],[0.2846085,51.571344],[0.2843813,51.5713909],[0.2844333,51.5714723],[0.2845427,51.5715582],[0.2846749,51.5716322]]]}},
{"type":"Feature","properties":{"highway":"track","name":null,"category":"Track"},"geometry":{"type":"MultiLineString","coordinates":[[[0.2713662,51.5682474],[0.2719592,51.5684493]]]}},
{"type":"Feature","properties":{"highway":"path","name":null,"category":"Shared path"},"geometry":{"type":"MultiLineString","coordinates":[[[0.2742605,51.5580803],[0.2744157,51.5580081],[0.2744197,51.5579642]]]}}
]
}
