{
"type": "FeatureCollection",
"name": "HAVER_36_cycling",
"crs": { "type": "name", "properties": { "name": "urn:ogc:def:crs:OGC:1.3:CRS84" } },
"features": [
{"type":"Feature","properties":{"highway":"cycleway","name":null,"category":"Dedicated cycleway"},"geometry":{"type":"MultiLineString","coordinates":[[[0.243555,51.5545288],[0.2436662,51.5545075],[0.2437374,51.5545087],[0.2437987,51.5545505],[0.2439331,51.5547938],[0.2440022,51.5548589],[0.2441248,51.5548983],[0.2441687,51.554897],[0.2446969,51.5548819],[0.2449391,51.5548749],[0.2459352,51.5548503],[0.2462435,51.5548258],[0.2464332,51.5547963],[0.2465451,51.5550333],[0.2465487,51.5551196],[0.2465381,51.5552029],[0.2464388,51.5552525],[0.2463857,51.5552933],[0.2463382,51.5553454],[0.2463215,51.5554106],[0.2463311,51.5554958],[0.2465878,51.5562687],[0.2466428,51.5563813]]]}},
{"type":"Feature","properties":{"highway":"path","name":null,"category":"Shared path"},"geometry":{"type":"MultiLineString","coordinates":[[[0.2596321,51.5574694],[0.2599004,51.5574653],[0.2600489,51.5574624]]]}},
{"type":"Feature","properties":{"highway":"cycleway","name":null,"category":"Dedicated cycleway"},"geometry":{"type":"MultiLineString","coordinates":[[[0.2599004,51.5574653],[0.2599003,51.55731],[0.2599048,51.5571784],[0.2601064,51.5570167],[0.2602196,51.5569028],[0.2602849,51.5568017],[0.2603109,51.5566732],[0.2602843,51.5565317]]]}},
{"type":"Feature","properties":{"highway":"cycleway","name":null,"category":"Dedicated cycleway"},"geometry":{"type":"MultiLineString","coordinates":[[[0.2472692,51.5582532],[0.2473013,51.5582573],[0.2473607,51.5582428],[0.2474201,51.5582283]]]}},
{"type":"Feature","properties":{"highway":"cycleway","name":null,"category":"Dedicated cycleway"},"geometry":{"type":"MultiLineString","coordinates":[[[0.2474084,51.558206],[0.2473247,51.5582266],[0.247289,51.5582354],[0.2472692,51.5582532]]]}},
{"type":"Feature","properties":{"highway":"cycleway","name":null,"category":"Dedicated cycleway"},"geometry":{"type":"MultiLineString","coordinates":[[[0.2500905,51.5582969],[0.2501482,51.5582869]]]}},
{"type":"Feature","properties":{"highway":"track","name":null,"category":"Track"},"geometry":{"type":"MultiLineString","coordinates":[[[0.2632554,51.5570921],[0.26324,51.5566321]]]}},
{"type":"Feature","properties":{"highway":"cycleway","name":null,"category":"Dedicated cycleway"},"geometry":{"type":"MultiLineString","coordinates":[[[0.2500487,51.5582085],[0.2499997,51.5582316]]]}},
{"type":"Feature","properties":{"highway":"cycleway","name":"Station Road","category":"Dedicated cycleway"},"geometry":{"type":"MultiLineString","coordinates":[[[0.2502687,51.5585293],[0.2501861,51.558331]]]}},
{"type":"Feature","properties":{"highway":"cycleway","name":"Station Road","category":"Dedicated cycleway"},"geometry":{"type":"MultiLineString","coordinates":[[[0.2499909,51.5582811],[0.2500023,51.558312],[0.2500262,51.5583089]]]}},
{"type":"Feature","properties":{"highway":"cycleway","name":"Station Road","category":"Dedicated cycleway"},"geometry":{"type":"MultiLineString","coordinates":[[[0.2501861,51.558331],[0.2501669,51.5582835]]]}},
{"type":"Feature","properties":{"highway":"cycleway","name":null,"category":"Dedicated cycleway"},"geometry":{"type":"MultiLineString","coordinates":[[[0.2499011,51.5581714],[0.249919,51.5582076]]]}},
{"type":"Feature","properties":{"highway":"cycleway","name":"Station Road","category":"Dedicated cycleway"},"geometry":{"type":"MultiLineString","coordinates":[[[0.2499755,51.558243],[0.2499909,51.5582811]]]}},
{"type":"Feature","properties":{"highway":"cycleway","name":null,"category":"Dedicated cycleway"},"geometry":{"type":"MultiLineString","coordinates":[[[0.2499755,51.558243],[0.2499574,51.5582341],[0.2499308,51.5582296],[0.249919,51.5582076]]]}},
{"type":"Feature","properties":{"highway":"cycleway","name":null,"category":"Dedicated cycleway"},"geometry":{"type":"MultiLineString","coordinates":[[[0.2501669,51.5582835],[0.2501875,51.5582503],[0.2501971,51.5582003]]]}},
{"type":"Feature","properties":{"highway":"cycleway","name":null,"category":"Dedicated cycleway"},"geometry":{"type":"MultiLineString","coordinates":[[[0.2501971,51.5582003],[0.2501853,51.5581649]]]}},
{"type":"Feature","properties":{"highway":"cycleway","name":"Station Road","category":"Dedicated cycleway"},"geometry":{"type":"MultiLineString","coordinates":[[[0.2502229,51.5585882],[0.2502575,51.5585558],[0.2502763,51.5585476]]]}},
{"type":"Feature","properties":{"highway":"cycleway","name":null,"category":"Dedicated cycleway"},"geometry":{"type":"MultiLineString","coordinates":[[[0.2503085,51.5586142],[0.2502867,51.5585691]]]}},
{"type":"Feature","properties":{"highway":"cycleway","name":null,"category":"Dedicated cycleway"},"geometry":{"type":"MultiLineString","coordinates":[[[0.2500262,51.5583089],[0.2500905,51.5582969]]]}},
{"type":"Feature","properties":{"highway":"cycleway","name":null,"category":"Dedicated cycleway"},"geometry":{"type":"MultiLineString","coordinates":[[[0.2503774,51.5586766],[0.2503581,51.5586586],[0.2503323,51.5586405],[0.2503085,51.5586142]]]}},
{"type":"Feature","properties":{"highway":"cycleway","name":null,"category":"Dedicated cycleway"},"geometry":{"type":"MultiLineString","coordinates":[[[0.2503838,51.5587168],[0.2503774,51.5586766]]]}},
{"type":"Feature","properties":{"highway":"cycleway","name":null,"category":"Dedicated cycleway"},"geometry":{"type":"MultiLineString","coordinates":[[[0.2464003,51.5565081],[0.2464871,51.5564944],[0.2464977,51.5565099],[0.2465079,51.5565249]]]}},
{"type":"Feature","properties":{"highway":"cycleway","name":null,"category":"Dedicated cycleway"},"geometry":{"type":"MultiLineString","coordinates":[[[0.2466783,51.5563769],[0.2466948,51.5564112]]]}},
{"type":"Feature","properties":{"highway":"cycleway","name":null,"category":"Dedicated cycleway"},"geometry":{"type":"MultiLineString","coordinates":[[[0.2466428,51.5563813],[0.2463756,51.5564254]]]}},
{"type":"Feature","properties":{"highway":"cycleway","name":null,"category":"Dedicated cycleway"},"geometry":{"type":"MultiLineString","coordinates":[[[0.2463267,51.5564412],[0.2463395,51.5564689],[0.2463551,51.5565052]]]}},
{"type":"Feature","properties":{"highway":"cycleway","name":null,"category":"Dedicated cycleway"},"geometry":{"type":"MultiLineString","coordinates":[[[0.2463551,51.5565052],[0.2463599,51.5565145],[0.2464003,51.5565081]]]}},
{"type":"Feature","properties":{"highway":"cycleway","name":null,"category":"Dedicated cycleway"},"geometry":{"type":"MultiLineString","coordinates":[[[0.2463756,51.5564254],[0.2463247,51.5564338],[0.2463267,51.5564412]]]}},
{"type":"Feature","properties":{"highway":"cycleway","name":null,"category":"Dedicated cycleway"},"geometry":{"type":"MultiLineString","coordinates":[[[0.2499997,51.5582316],[0.2499755,51.558243]]]}},
{"type":"Feature","properties":{"highway":"cycleway","name":null,"category":"Dedicated cycleway"},"geometry":{"type":"MultiLineString","coordinates":[[[0.2502867,51.5585691],[0.2502763,51.5585476]]]}},
{"type":"Feature","properties":{"highway":"cycleway","name":"Station Road","category":"Dedicated cycleway"},"geometry":{"type":"MultiLineString","coordinates":[[[0.2502763,51.5585476],[0.2502687,51.5585293]]]}},
{"type":"Feature","properties":{"highway":"cycleway","name":null,"category":"Dedicated cycleway"},"geometry":{"type":"MultiLineString","coordinates":[[[0.2466428,51.5563813],[0.2466783,51.5563769]]]}},
{"type":"Feature","properties":{"highway":"cycleway","name":null,"category":"Dedicated cycleway"},"geometry":{"type":"MultiLineString","coordinates":[[[0.2465079,51.5565249],[0.2465331,51.5565617],[0.2465726,51.5565825]]]}},
{"type":"Feature","properties":{"highway":"cycleway","name":"Station Road","category":"Dedicated cycleway"},"geometry":{"type":"MultiLineString","coordinates":[[[0.2501669,51.5582835],[0.2501482,51.5582869]]]}},
{"type":"Feature","properties":{"highway":"path","name":null,"category":"Shared path"},"geometry":{"type":"MultiLineString","coordinates":[[[0.2482255,51.5562324],[0.2481229,51.5558222]]]}},
{"type":"Feature","properties":{"highway":"cycle_lane_on_street","name":"St Mary's Lane","category":"Cycle lane on street"},"geometry":{"type":"MultiLineString","coordinates":[[[0.2407039,51.5580728],[0.2416415,51.5578164],[0.2418958,51.5577397],[0.2423338,51.5576172],[0.2425021,51.5575707]]]}}
]
}
