{
"type": "FeatureCollection",
"name": "10414f33b3f4_visibility",
"crs": { "type": "name", "properties": { "name": "urn:ogc:def:crs:OGC:1.3:CRS84" } },
"features": [
{ "type": "Feature", "properties": { "visible_points": 0, "total_points": 51, "visibility_pct": 0.0 }, "geometry": { "type": "Point", "coordinates": [ -0.126334538359231, 51.497634096967744 ] } },
{ "type": "Feature", "properties": { "visible_points": 1, "total_points": 51, "visibility_pct": 1.9607843137254901 }, "geometry": { "type": "Point", "coordinates": [ -0.126135034789361, 51.497630909582462 ] } },
{ "type": "Feature", "properties": { "visible_points": 10, "total_points": 50, "visibility_pct": 20.0 }, "geometry": { "type": "Point", "coordinates": [ -0.125935531256062, 51.497627721858031 ] } },
{ "type": "Feature", "properties": { "visible_points": 1, "total_points": 56, "visibility_pct": 1.7857142857142856 }, "geometry": { "type": "Point", "coordinates": [ -0.126429865961597, 51.497743532719326 ] } },
{ "type": "Feature", "properties": { "visible_points": 11, "total_points": 57, "visibility_pct": 19.298245614035086 }, "geometry": { "type": "Point", "coordinates": [ -0.126230361905193, 51.497740345489973 ] } },
{ "type": "Feature", "properties": { "visible_points": 10, "total_points": 57, "visibility_pct": 17.543859649122805 }, "geometry": { "type": "Point", "coordinates": [ -0.12603085788536, 51.49773715792152 ] } },
{ "type": "Feature", "properties": { "visible_points": 8, "total_points": 55, "visibility_pct": 14.545454545454545 }, "geometry": { "type": "Point", "coordinates": [ -0.125831353902106, 51.497733970013904 ] } },
{ "type": "Feature", "properties": { "visible_points": 0, "total_points": 61, "visibility_pct": 0.0 }, "geometry": { "type": "Point", "coordinates": [ -0.126525194013911, 51.497852968397417 ] } },
{ "type": "Feature", "properties": { "visible_points": 12, "total_points": 63, "visibility_pct": 19.047619047619047 }, "geometry": { "type": "Point", "coordinates": [ -0.126325689470983, 51.497849781324049 ] } },
{ "type": "Feature", "properties": { "visible_points": 11, "total_points": 63, "visibility_pct": 17.460317460317459 }, "geometry": { "type": "Point", "coordinates": [ -0.126126184964615, 51.497846593911511 ] } },
{ "type": "Feature", "properties": { "visible_points": 6, "total_points": 62, "visibility_pct": 9.67741935483871 }, "geometry": { "type": "Point", "coordinates": [ -0.125926680494821, 51.497843406159845 ] } },
{ "type": "Feature", "properties": { "visible_points": 0, "total_points": 67, "visibility_pct": 0.0 }, "geometry": { "type": "Point", "coordinates": [ -0.126421017486725, 51.497959217084592 ] } },
{ "type": "Feature", "properties": { "visible_points": 13, "total_points": 68, "visibility_pct": 19.117647058823529 }, "geometry": { "type": "Point", "coordinates": [ -0.126221512493827, 51.497956029828018 ] } },
{ "type": "Feature", "properties": { "visible_points": 4, "total_points": 69, "visibility_pct": 5.7971014492753623 }, "geometry": { "type": "Point", "coordinates": [ -0.126022007537496, 51.497952842232309 ] } },
{ "type": "Feature", "properties": { "visible_points": 9, "total_points": 67, "visibility_pct": 13.432835820895523 }, "geometry": { "type": "Point", "coordinates": [ -0.12582250261774, 51.497949654297436 ] } },
{ "type": "Feature", "properties": { "visible_points": 0, "total_points": 67, "visibility_pct": 0.0 }, "geometry": { "type": "Point", "coordinates": [ -0.126516345952438, 51.498068652771664 ] } },
{ "type": "Feature", "properties": { "visible_points": 12, "total_points": 71, "visibility_pct": 16.901408450704224 }, "geometry": { "type": "Point", "coordinates": [ -0.126316840472998, 51.49806546567104 ] } },
{ "type": "Feature", "properties": { "visible_points": 12, "total_points": 73, "visibility_pct": 16.43835616438356 }, "geometry": { "type": "Point", "coordinates": [ -0.126117335030131, 51.498062278231274 ] } },
{ "type": "Feature", "properties": { "visible_points": 7, "total_points": 72, "visibility_pct": 9.7222222222222232 }, "geometry": { "type": "Point", "coordinates": [ -0.12591782962383, 51.498059090452351 ] } },
{ "type": "Feature", "properties": { "visible_points": 2, "total_points": 66, "visibility_pct": 3.0303030303030303 }, "geometry": { "type": "Point", "coordinates": [ -0.126412168902136, 51.498174901440592 ] } },
{ "type": "Feature", "properties": { "visible_points": 11, "total_points": 67, "visibility_pct": 16.417910447761194 }, "geometry": { "type": "Point", "coordinates": [ -0.126212662972722, 51.498171714156761 ] } },
{ "type": "Feature", "properties": { "visible_points": 11, "total_points": 67, "visibility_pct": 16.417910447761194 }, "geometry": { "type": "Point", "coordinates": [ -0.126013157079888, 51.498168526533796 ] } },
{ "type": "Feature", "properties": { "visible_points": 12, "total_points": 65, "visibility_pct": 18.461538461538463 }, "geometry": { "type": "Point", "coordinates": [ -0.125813651223618, 51.498165338571688 ] } },
{ "type": "Feature", "properties": { "visible_points": 0, "total_points": 59, "visibility_pct": 0.0 }, "geometry": { "type": "Point", "coordinates": [ -0.12650749778124, 51.498284337136631 ] } },
{ "type": "Feature", "properties": { "visible_points": 12, "total_points": 61, "visibility_pct": 19.672131147540984 }, "geometry": { "type": "Point", "coordinates": [ -0.126307991365288, 51.498281150008772 ] } },
{ "type": "Feature", "properties": { "visible_points": 13, "total_points": 61, "visibility_pct": 21.311475409836063 }, "geometry": { "type": "Point", "coordinates": [ -0.126108484985899, 51.498277962541763 ] } },
{ "type": "Feature", "properties": { "visible_points": 18, "total_points": 60, "visibility_pct": 30.0 }, "geometry": { "type": "Point", "coordinates": [ -0.125908978643088, 51.498274774735599 ] } },
{ "type": "Feature", "properties": { "visible_points": 0, "total_points": 54, "visibility_pct": 0.0 }, "geometry": { "type": "Point", "coordinates": [ -0.12640332020782, 51.498390585787284 ] } },
{ "type": "Feature", "properties": { "visible_points": 14, "total_points": 55, "visibility_pct": 25.454545454545453 }, "geometry": { "type": "Point", "coordinates": [ -0.126004306512521, 51.498384210826025 ] } },
{ "type": "Feature", "properties": { "visible_points": 16, "total_points": 53, "visibility_pct": 30.188679245283019 }, "geometry": { "type": "Point", "coordinates": [ -0.125804799719738, 51.498381022836675 ] } },
{ "type": "Feature", "properties": { "visible_points": 1, "total_points": 49, "visibility_pct": 2.0408163265306123 }, "geometry": { "type": "Point", "coordinates": [ -0.126099634831929, 51.498493646842959 ] } },
{ "type": "Feature", "properties": { "visible_points": 11, "total_points": 48, "visibility_pct": 22.916666666666664 }, "geometry": { "type": "Point", "coordinates": [ -0.125900127552591, 51.498490459009545 ] } },
{ "type": "Feature", "properties": { "visible_points": 0, "total_points": 43, "visibility_pct": 0.0 }, "geometry": { "type": "Point", "coordinates": [ -0.12599545583541, 51.49859989510896 ] } }
]
}
