{
"type": "FeatureCollection",
"name": "22ef9f3f1dd8_foliage",
"crs": { "type": "name", "properties": { "name": "urn:ogc:def:crs:OGC:1.3:CRS84" } },
"features": [
{ "type": "Feature", "properties": { "max_height": 5.4242515563964844, "mean_height": 0.48760497570037842, "std_height": 1.1398826837539673, "count_pixels": 41, "percent_cover": 1.1832611832611835, "percent_above_0.1m": 41.463414634146339, "low_level_<0.5": 21.951219512195124, "mid_level_0.5-2": 9.7560975609756095, "tall_2+": 7.3170731707317067 }, "geometry": { "type": "Point", "coordinates": [ -0.195533588808448, 51.524182357479425 ] } },
{ "type": "Feature", "properties": { "max_height": 12.832752227783203, "mean_height": 8.1839485168457031, "std_height": 4.1174640655517578, "count_pixels": 42, "percent_cover": 1.2121212121212122, "percent_above_0.1m": 95.238095238095227, "low_level_<0.5": 0.0, "mid_level_0.5-2": 7.1428571428571423, "tall_2+": 88.095238095238088 }, "geometry": { "type": "Point", "coordinates": [ -0.195333961623489, 51.524179286636333 ] } },
{ "type": "Feature", "properties": { "max_height": 12.538003921508789, "mean_height": 8.1653413772583008, "std_height": 3.7152752876281738, "count_pixels": 42, "percent_cover": 1.2121212121212122, "percent_above_0.1m": 97.61904761904762, "low_level_<0.5": 2.3809523809523809, "mid_level_0.5-2": 2.3809523809523809, "tall_2+": 92.857142857142861 }, "geometry": { "type": "Point", "coordinates": [ -0.195134334473943, 51.524176215453735 ] } },
{ "type": "Feature", "properties": { "max_height": 2.9145030975341797, "mean_height": 0.39466428756713867, "std_height": 0.58043074607849121, "count_pixels": 43, "percent_cover": 1.2409812409812411, "percent_above_0.1m": 55.813953488372093, "low_level_<0.5": 23.255813953488371, "mid_level_0.5-2": 25.581395348837212, "tall_2+": 4.6511627906976747 }, "geometry": { "type": "Point", "coordinates": [ -0.195828764596302, 51.524294809086548 ] } },
{ "type": "Feature", "properties": { "max_height": 2.2027530670166016, "mean_height": 0.1852223128080368, "std_height": 0.4708716869354248, "count_pixels": 43, "percent_cover": 1.2409812409812411, "percent_above_0.1m": 25.581395348837212, "low_level_<0.5": 16.279069767441861, "mid_level_0.5-2": 4.6511627906976747, "tall_2+": 2.3255813953488373 }, "geometry": { "type": "Point", "coordinates": [ -0.195629136886836, 51.52429173873935 ] } },
{ "type": "Feature", "properties": { "max_height": 13.054502487182617, "mean_height": 3.0024597644805908, "std_height": 3.6745157241821289, "count_pixels": 42, "percent_cover": 1.2121212121212122, "percent_above_0.1m": 50.0, "low_level_<0.5": 2.3809523809523809, "mid_level_0.5-2": 2.3809523809523809, "tall_2+": 45.238095238095241 }, "geometry": { "type": "Point", "coordinates": [ -0.195429509212783, 51.524288668052677 ] } },
{ "type": "Feature", "properties": { "max_height": 16.16400146484375, "mean_height": 4.5018706321716309, "std_height": 4.032599925994873, "count_pixels": 42, "percent_cover": 1.2121212121212122, "percent_above_0.1m": 97.61904761904762, "low_level_<0.5": 2.3809523809523809, "mid_level_0.5-2": 26.190476190476193, "tall_2+": 66.666666666666657 }, "geometry": { "type": "Point", "coordinates": [ -0.195229881574137, 51.524285597026505 ] } },
{ "type": "Feature", "properties": { "max_height": 9.7412509918212891, "mean_height": 2.3263919353485107, "std_height": 2.9444007873535156, "count_pixels": 41, "percent_cover": 1.1832611832611835, "percent_above_0.1m": 78.048780487804876, "low_level_<0.5": 7.3170731707317067, "mid_level_0.5-2": 29.268292682926827, "tall_2+": 34.146341463414636 }, "geometry": { "type": "Point", "coordinates": [ -0.195030253970902, 51.524282525660851 ] } },
{ "type": "Feature", "properties": { "max_height": 14.961002349853516, "mean_height": 9.5497646331787109, "std_height": 4.5352692604064941, "count_pixels": 40, "percent_cover": 1.1544011544011543, "percent_above_0.1m": 97.5, "low_level_<0.5": 0.0, "mid_level_0.5-2": 7.5, "tall_2+": 90.0 }, "geometry": { "type": "Point", "coordinates": [ -0.194830626403087, 51.5242794539557 ] } },
{ "type": "Feature", "properties": { "max_height": 7.9737510681152344, "mean_height": 1.9984767436981201, "std_height": 2.4561614990234375, "count_pixels": 40, "percent_cover": 1.1544011544011543, "percent_above_0.1m": 82.5, "low_level_<0.5": 27.5, "mid_level_0.5-2": 17.5, "tall_2+": 32.5 }, "geometry": { "type": "Point", "coordinates": [ -0.196123941851438, 51.524407259967418 ] } },
{ "type": "Feature", "properties": { "max_height": 7.40625, "mean_height": 0.79268884658813477, "std_height": 1.7206238508224487, "count_pixels": 40, "percent_cover": 1.1544011544011543, "percent_above_0.1m": 35.0, "low_level_<0.5": 7.5, "mid_level_0.5-2": 17.5, "tall_2+": 10.0 }, "geometry": { "type": "Point", "coordinates": [ -0.195924313617482, 51.524404190116158 ] } },
{ "type": "Feature", "properties": { "max_height": 1.0005016326904297, "mean_height": 0.047623377293348312, "std_height": 0.168918177485466, "count_pixels": 41, "percent_cover": 1.1832611832611835, "percent_above_0.1m": 7.3170731707317067, "low_level_<0.5": 2.4390243902439024, "mid_level_0.5-2": 2.4390243902439024, "tall_2+": 0.0 }, "geometry": { "type": "Point", "coordinates": [ -0.195724685418918, 51.524401119925393 ] } },
{ "type": "Feature", "properties": { "max_height": 2.3180027008056641, "mean_height": 0.10995873808860779, "std_height": 0.37466251850128174, "count_pixels": 41, "percent_cover": 1.1832611832611835, "percent_above_0.1m": 14.634146341463413, "low_level_<0.5": 4.8780487804878048, "mid_level_0.5-2": 4.8780487804878048, "tall_2+": 2.4390243902439024 }, "geometry": { "type": "Point", "coordinates": [ -0.195525057255761, 51.524398049395153 ] } },
{ "type": "Feature", "properties": { "max_height": 14.459753036499023, "mean_height": 1.8541738986968994, "std_height": 4.1446857452392578, "count_pixels": 42, "percent_cover": 1.2121212121212122, "percent_above_0.1m": 23.809523809523807, "low_level_<0.5": 2.3809523809523809, "mid_level_0.5-2": 2.3809523809523809, "tall_2+": 19.047619047619047 }, "geometry": { "type": "Point", "coordinates": [ -0.195325429128014, 51.524394978525422 ] } },
{ "type": "Feature", "properties": { "max_height": 11.913003921508789, "mean_height": 0.85838252305984497, "std_height": 2.2584061622619629, "count_pixels": 42, "percent_cover": 1.2121212121212122, "percent_above_0.1m": 26.190476190476193, "low_level_<0.5": 4.7619047619047619, "mid_level_0.5-2": 9.5238095238095237, "tall_2+": 11.904761904761903 }, "geometry": { "type": "Point", "coordinates": [ -0.195125801035677, 51.524391907316165 ] } },
{ "type": "Feature", "properties": { "max_height": 12.663251876831055, "mean_height": 1.8390190601348877, "std_height": 3.777996301651001, "count_pixels": 43, "percent_cover": 1.2409812409812411, "percent_above_0.1m": 41.860465116279073, "low_level_<0.5": 13.953488372093023, "mid_level_0.5-2": 9.3023255813953494, "tall_2+": 18.604651162790699 }, "geometry": { "type": "Point", "coordinates": [ -0.194926172978753, 51.524388835767461 ] } },
{ "type": "Feature", "properties": { "max_height": 12.891750335693359, "mean_height": 1.6147887706756592, "std_height": 3.1373240947723389, "count_pixels": 40, "percent_cover": 1.1544011544011543, "percent_above_0.1m": 70.0, "low_level_<0.5": 22.5, "mid_level_0.5-2": 25.0, "tall_2+": 17.5 }, "geometry": { "type": "Point", "coordinates": [ -0.194726544957251, 51.524385763879259 ] } },
{ "type": "Feature", "properties": { "max_height": 13.437002182006836, "mean_height": 10.276658058166504, "std_height": 3.4778192043304443, "count_pixels": 40, "percent_cover": 1.1544011544011543, "percent_above_0.1m": 100.0, "low_level_<0.5": 0.0, "mid_level_0.5-2": 5.0, "tall_2+": 95.0 }, "geometry": { "type": "Point", "coordinates": [ -0.196019863092355, 51.524513571071907 ] } },
{ "type": "Feature", "properties": { "max_height": 12.459253311157227, "mean_height": 1.1906816959381104, "std_height": 2.7180461883544922, "count_pixels": 43, "percent_cover": 1.2409812409812411, "percent_above_0.1m": 30.232558139534881, "low_level_<0.5": 2.3255813953488373, "mid_level_0.5-2": 6.9767441860465116, "tall_2+": 20.930232558139537 }, "geometry": { "type": "Point", "coordinates": [ -0.195820234404696, 51.524510501037575 ] } },
{ "type": "Feature", "properties": { "max_height": 4.8590011596679688, "mean_height": 0.44787344336509705, "std_height": 1.1840357780456543, "count_pixels": 43, "percent_cover": 1.2409812409812411, "percent_above_0.1m": 16.279069767441861, "low_level_<0.5": 0.0, "mid_level_0.5-2": 6.9767441860465116, "tall_2+": 9.3023255813953494 }, "geometry": { "type": "Point", "coordinates": [ -0.19562060575243, 51.524507430663768 ] } },
{ "type": "Feature", "properties": { "max_height": 2.5015029907226562, "mean_height": 0.066513337194919586, "std_height": 0.38292467594146729, "count_pixels": 42, "percent_cover": 1.2121212121212122, "percent_above_0.1m": 4.7619047619047619, "low_level_<0.5": 2.3809523809523809, "mid_level_0.5-2": 0.0, "tall_2+": 2.3809523809523809 }, "geometry": { "type": "Point", "coordinates": [ -0.19542097713558, 51.524504359950456 ] } },
{ "type": "Feature", "properties": { "max_height": 6.4820003509521484, "mean_height": 0.93884670734405518, "std_height": 1.7152459621429443, "count_pixels": 42, "percent_cover": 1.2121212121212122, "percent_above_0.1m": 33.333333333333329, "low_level_<0.5": 4.7619047619047619, "mid_level_0.5-2": 9.5238095238095237, "tall_2+": 19.047619047619047 }, "geometry": { "type": "Point", "coordinates": [ -0.195221348554135, 51.524501288897667 ] } },
{ "type": "Feature", "properties": { "max_height": 3.0042514801025391, "mean_height": 0.25487300753593445, "std_height": 0.52337276935577393, "count_pixels": 41, "percent_cover": 1.1832611832611835, "percent_above_0.1m": 43.902439024390247, "low_level_<0.5": 31.707317073170731, "mid_level_0.5-2": 7.3170731707317067, "tall_2+": 2.4390243902439024 }, "geometry": { "type": "Point", "coordinates": [ -0.195021720008105, 51.524498217505368 ] } },
{ "type": "Feature", "properties": { "max_height": 7.8457527160644531, "mean_height": 1.8270889520645142, "std_height": 1.9987165927886963, "count_pixels": 40, "percent_cover": 1.1544011544011543, "percent_above_0.1m": 92.5, "low_level_<0.5": 22.5, "mid_level_0.5-2": 35.0, "tall_2+": 32.5 }, "geometry": { "type": "Point", "coordinates": [ -0.195915783844164, 51.524619882075896 ] } },
{ "type": "Feature", "properties": { "max_height": 10.734502792358398, "mean_height": 1.6184221506118774, "std_height": 2.7702646255493164, "count_pixels": 41, "percent_cover": 1.1832611832611835, "percent_above_0.1m": 46.341463414634148, "low_level_<0.5": 2.4390243902439024, "mid_level_0.5-2": 14.634146341463413, "tall_2+": 26.829268292682929 }, "geometry": { "type": "Point", "coordinates": [ -0.195716154702798, 51.524616811858522 ] } },
{ "type": "Feature", "properties": { "max_height": 6.9187507629394531, "mean_height": 0.51719051599502563, "std_height": 1.5600324869155884, "count_pixels": 41, "percent_cover": 1.1832611832611835, "percent_above_0.1m": 12.195121951219512, "low_level_<0.5": 0.0, "mid_level_0.5-2": 2.4390243902439024, "tall_2+": 9.7560975609756095 }, "geometry": { "type": "Point", "coordinates": [ -0.195516525596838, 51.524613741301636 ] } },
{ "type": "Feature", "properties": { "max_height": 9.0422515869140625, "mean_height": 2.1357395648956299, "std_height": 2.4035742282867432, "count_pixels": 42, "percent_cover": 1.2121212121212122, "percent_above_0.1m": 69.047619047619051, "low_level_<0.5": 7.1428571428571423, "mid_level_0.5-2": 14.285714285714285, "tall_2+": 45.238095238095241 }, "geometry": { "type": "Point", "coordinates": [ -0.195316896526284, 51.524610670405281 ] } },
{ "type": "Feature", "properties": { "max_height": 10.349252700805664, "mean_height": 2.722245454788208, "std_height": 3.037651538848877, "count_pixels": 42, "percent_cover": 1.2121212121212122, "percent_above_0.1m": 85.714285714285708, "low_level_<0.5": 28.571428571428569, "mid_level_0.5-2": 7.1428571428571423, "tall_2+": 50.0 }, "geometry": { "type": "Point", "coordinates": [ -0.195117267491146, 51.524607599169414 ] } },
{ "type": "Feature", "properties": { "max_height": 13.222499847412109, "mean_height": 5.2080421447753906, "std_height": 4.953068733215332, "count_pixels": 43, "percent_cover": 1.2409812409812411, "percent_above_0.1m": 81.395348837209298, "low_level_<0.5": 4.6511627906976747, "mid_level_0.5-2": 16.279069767441861, "tall_2+": 58.139534883720934 }, "geometry": { "type": "Point", "coordinates": [ -0.195612074511792, 51.524723122578962 ] } },
{ "type": "Feature", "properties": { "max_height": 2.9379997253417969, "mean_height": 0.4451083242893219, "std_height": 0.6965143084526062, "count_pixels": 42, "percent_cover": 1.2121212121212122, "percent_above_0.1m": 57.142857142857139, "low_level_<0.5": 19.047619047619047, "mid_level_0.5-2": 19.047619047619047, "tall_2+": 7.1428571428571423 }, "geometry": { "type": "Point", "coordinates": [ -0.195412444952131, 51.524720051839033 ] } }
]
}
