{
"type": "FeatureCollection",
"name": "95e660220000_foliage",
"crs": { "type": "name", "properties": { "name": "urn:ogc:def:crs:OGC:1.3:CRS84" } },
"features": [
{ "type": "Feature", "properties": { "max_height": 10.809000015258789, "mean_height": 2.6377968788146973, "std_height": 3.187263011932373, "count_pixels": 43, "percent_cover": 0.73630136986301375, "percent_above_0.1m": 69.767441860465112, "low_level_<0.5": 4.6511627906976747, "mid_level_0.5-2": 20.930232558139537, "tall_2+": 41.860465116279073 }, "geometry": { "type": "Point", "coordinates": [ -0.15083958857614, 51.494424424813424 ] } },
{ "type": "Feature", "properties": { "max_height": 17.855001449584961, "mean_height": 3.4681606292724609, "std_height": 4.4859023094177246, "count_pixels": 42, "percent_cover": 0.71917808219178081, "percent_above_0.1m": 73.80952380952381, "low_level_<0.5": 2.3809523809523809, "mid_level_0.5-2": 16.666666666666664, "tall_2+": 54.761904761904766 }, "geometry": { "type": "Point", "coordinates": [ -0.150640096095725, 51.494421279219026 ] } },
{ "type": "Feature", "properties": { "max_height": 9.0105018615722656, "mean_height": 2.361159086227417, "std_height": 3.0600864887237549, "count_pixels": 41, "percent_cover": 0.70205479452054798, "percent_above_0.1m": 53.658536585365859, "low_level_<0.5": 2.4390243902439024, "mid_level_0.5-2": 14.634146341463413, "tall_2+": 34.146341463414636 }, "geometry": { "type": "Point", "coordinates": [ -0.15093496872182, 51.494533841066293 ] } },
{ "type": "Feature", "properties": { "max_height": 12.759252548217773, "mean_height": 3.9790365695953369, "std_height": 4.3827004432678223, "count_pixels": 41, "percent_cover": 0.70205479452054798, "percent_above_0.1m": 63.414634146341463, "low_level_<0.5": 2.4390243902439024, "mid_level_0.5-2": 7.3170731707317067, "tall_2+": 51.219512195121951 }, "geometry": { "type": "Point", "coordinates": [ -0.150735475755011, 51.494530695632236 ] } },
{ "type": "Feature", "properties": { "max_height": 16.738750457763672, "mean_height": 9.0780782699584961, "std_height": 4.2519888877868652, "count_pixels": 42, "percent_cover": 0.71917808219178081, "percent_above_0.1m": 100.0, "low_level_<0.5": 0.0, "mid_level_0.5-2": 7.1428571428571423, "tall_2+": 92.857142857142861 }, "geometry": { "type": "Point", "coordinates": [ -0.150535982824294, 51.494527549858837 ] } },
{ "type": "Feature", "properties": { "max_height": 12.498251914978027, "mean_height": 4.9500069618225098, "std_height": 5.1078672409057617, "count_pixels": 43, "percent_cover": 0.73630136986301375, "percent_above_0.1m": 60.465116279069761, "low_level_<0.5": 4.6511627906976747, "mid_level_0.5-2": 4.6511627906976747, "tall_2+": 51.162790697674424 }, "geometry": { "type": "Point", "coordinates": [ -0.150830855864589, 51.494640111967819 ] } },
{ "type": "Feature", "properties": { "max_height": 12.309000015258789, "mean_height": 5.0504584312438965, "std_height": 4.4278063774108887, "count_pixels": 42, "percent_cover": 0.71917808219178081, "percent_above_0.1m": 69.047619047619051, "low_level_<0.5": 0.0, "mid_level_0.5-2": 7.1428571428571423, "tall_2+": 61.904761904761905 }, "geometry": { "type": "Point", "coordinates": [ -0.150631362447478, 51.494636966354754 ] } },
{ "type": "Feature", "properties": { "max_height": 12.143749237060547, "mean_height": 4.3600673675537109, "std_height": 4.2700858116149902, "count_pixels": 41, "percent_cover": 0.70205479452054798, "percent_above_0.1m": 80.487804878048792, "low_level_<0.5": 7.3170731707317067, "mid_level_0.5-2": 14.634146341463413, "tall_2+": 58.536585365853654 }, "geometry": { "type": "Point", "coordinates": [ -0.150431869066465, 51.494633820402328 ] } },
{ "type": "Feature", "properties": { "max_height": 10.890501022338867, "mean_height": 2.013756275177002, "std_height": 3.1993417739868164, "count_pixels": 41, "percent_cover": 0.70205479452054798, "percent_above_0.1m": 56.09756097560976, "low_level_<0.5": 7.3170731707317067, "mid_level_0.5-2": 24.390243902439025, "tall_2+": 24.390243902439025 }, "geometry": { "type": "Point", "coordinates": [ -0.150726742520958, 51.494746382773016 ] } },
{ "type": "Feature", "properties": { "max_height": 12.162250518798828, "mean_height": 4.8995003700256348, "std_height": 4.0212664604187012, "count_pixels": 42, "percent_cover": 0.71917808219178081, "percent_above_0.1m": 95.238095238095227, "low_level_<0.5": 9.5238095238095237, "mid_level_0.5-2": 26.190476190476193, "tall_2+": 59.523809523809526 }, "geometry": { "type": "Point", "coordinates": [ -0.150527248653539, 51.49474323698098 ] } },
{ "type": "Feature", "properties": { "max_height": 14.678250312805176, "mean_height": 3.0460414886474609, "std_height": 3.9119932651519775, "count_pixels": 43, "percent_cover": 0.73630136986301375, "percent_above_0.1m": 72.093023255813947, "low_level_<0.5": 2.3255813953488373, "mid_level_0.5-2": 25.581395348837212, "tall_2+": 37.209302325581397 }, "geometry": { "type": "Point", "coordinates": [ -0.150327754822229, 51.494740090849547 ] } },
{ "type": "Feature", "properties": { "max_height": 5.3667507171630859, "mean_height": 0.8070063591003418, "std_height": 1.3429297208786011, "count_pixels": 42, "percent_cover": 0.71917808219178081, "percent_above_0.1m": 52.380952380952387, "low_level_<0.5": 14.285714285714285, "mid_level_0.5-2": 16.666666666666664, "tall_2+": 16.666666666666664 }, "geometry": { "type": "Point", "coordinates": [ -0.150128261027018, 51.494736944378765 ] } },
{ "type": "Feature", "properties": { "max_height": 16.385501861572266, "mean_height": 9.6439762115478516, "std_height": 4.1312007904052734, "count_pixels": 41, "percent_cover": 0.70205479452054798, "percent_above_0.1m": 100.0, "low_level_<0.5": 0.0, "mid_level_0.5-2": 4.8780487804878048, "tall_2+": 95.121951219512198 }, "geometry": { "type": "Point", "coordinates": [ -0.150423134373192, 51.494849507510885 ] } },
{ "type": "Feature", "properties": { "max_height": 5.76300048828125, "mean_height": 1.151768684387207, "std_height": 1.3752161264419556, "count_pixels": 41, "percent_cover": 0.70205479452054798, "percent_above_0.1m": 65.853658536585371, "low_level_<0.5": 9.7560975609756095, "mid_level_0.5-2": 41.463414634146339, "tall_2+": 12.195121951219512 }, "geometry": { "type": "Point", "coordinates": [ -0.15022364009158, 51.494846361200445 ] } },
{ "type": "Feature", "properties": { "max_height": 8.3860015869140625, "mean_height": 1.1911671161651611, "std_height": 2.2806491851806641, "count_pixels": 42, "percent_cover": 0.71917808219178081, "percent_above_0.1m": 40.476190476190474, "low_level_<0.5": 9.5238095238095237, "mid_level_0.5-2": 7.1428571428571423, "tall_2+": 23.809523809523807 }, "geometry": { "type": "Point", "coordinates": [ -0.150024145846071, 51.494843214550656 ] } },
{ "type": "Feature", "properties": { "max_height": 7.4237499237060547, "mean_height": 1.5612622499465942, "std_height": 1.9505648612976074, "count_pixels": 43, "percent_cover": 0.73630136986301375, "percent_above_0.1m": 55.813953488372093, "low_level_<0.5": 4.6511627906976747, "mid_level_0.5-2": 11.627906976744185, "tall_2+": 37.209302325581397 }, "geometry": { "type": "Point", "coordinates": [ -0.150319019606437, 51.49495577794449 ] } },
{ "type": "Feature", "properties": { "max_height": 10.686750411987305, "mean_height": 4.0456018447875977, "std_height": 3.9542608261108398, "count_pixels": 42, "percent_cover": 0.71917808219178081, "percent_above_0.1m": 80.952380952380949, "low_level_<0.5": 0.0, "mid_level_0.5-2": 23.809523809523807, "tall_2+": 52.380952380952387 }, "geometry": { "type": "Point", "coordinates": [ -0.150119524874515, 51.494952631455035 ] } },
{ "type": "Feature", "properties": { "max_height": 11.876501083374023, "mean_height": 4.5697031021118164, "std_height": 3.5896251201629639, "count_pixels": 42, "percent_cover": 0.71917808219178081, "percent_above_0.1m": 80.952380952380949, "low_level_<0.5": 2.3809523809523809, "mid_level_0.5-2": 7.1428571428571423, "tall_2+": 69.047619047619051 }, "geometry": { "type": "Point", "coordinates": [ -0.149920030178709, 51.49494948462624 ] } },
{ "type": "Feature", "properties": { "max_height": 4.4807500839233398, "mean_height": 0.55939662456512451, "std_height": 1.1401084661483765, "count_pixels": 41, "percent_cover": 0.70205479452054798, "percent_above_0.1m": 34.146341463414636, "low_level_<0.5": 7.3170731707317067, "mid_level_0.5-2": 7.3170731707317067, "tall_2+": 14.634146341463413 }, "geometry": { "type": "Point", "coordinates": [ -0.150214904353262, 51.495062048281788 ] } },
{ "type": "Feature", "properties": { "max_height": 13.371252059936523, "mean_height": 2.2819766998291016, "std_height": 3.0038957595825195, "count_pixels": 42, "percent_cover": 0.71917808219178081, "percent_above_0.1m": 66.666666666666657, "low_level_<0.5": 7.1428571428571423, "mid_level_0.5-2": 19.047619047619047, "tall_2+": 40.476190476190474 }, "geometry": { "type": "Point", "coordinates": [ -0.150015409171036, 51.495058901613326 ] } },
{ "type": "Feature", "properties": { "max_height": 18.923500061035156, "mean_height": 6.9852504730224609, "std_height": 5.8048954010009766, "count_pixels": 38, "percent_cover": 0.65068493150684936, "percent_above_0.1m": 86.842105263157904, "low_level_<0.5": 5.2631578947368416, "mid_level_0.5-2": 13.157894736842104, "tall_2+": 68.421052631578945 }, "geometry": { "type": "Point", "coordinates": [ -0.149815914024923, 51.495055754605509 ] } },
{ "type": "Feature", "properties": { "max_height": 7.3957500457763672, "mean_height": 0.88463902473449707, "std_height": 1.6046599149703979, "count_pixels": 42, "percent_cover": 0.71917808219178081, "percent_above_0.1m": 59.523809523809526, "low_level_<0.5": 19.047619047619047, "mid_level_0.5-2": 26.190476190476193, "tall_2+": 11.904761904761903 }, "geometry": { "type": "Point", "coordinates": [ -0.150110788613665, 51.495168318522786 ] } },
{ "type": "Feature", "properties": { "max_height": 17.484500885009766, "mean_height": 9.6779708862304688, "std_height": 4.3858451843261719, "count_pixels": 42, "percent_cover": 0.71917808219178081, "percent_above_0.1m": 97.61904761904762, "low_level_<0.5": 0.0, "mid_level_0.5-2": 0.0, "tall_2+": 97.61904761904762 }, "geometry": { "type": "Point", "coordinates": [ -0.149911292981136, 51.49516517167531 ] } },
{ "type": "Feature", "properties": { "max_height": 18.322750091552734, "mean_height": 3.5052921772003174, "std_height": 4.964756965637207, "count_pixels": 42, "percent_cover": 0.71917808219178081, "percent_above_0.1m": 66.666666666666657, "low_level_<0.5": 16.666666666666664, "mid_level_0.5-2": 9.5238095238095237, "tall_2+": 40.476190476190474 }, "geometry": { "type": "Point", "coordinates": [ -0.149711797384716, 51.495162024488472 ] } },
{ "type": "Feature", "properties": { "max_height": 4.9567508697509766, "mean_height": 0.54963988065719604, "std_height": 0.93729418516159058, "count_pixels": 43, "percent_cover": 0.73630136986301375, "percent_above_0.1m": 53.488372093023251, "low_level_<0.5": 23.255813953488371, "mid_level_0.5-2": 20.930232558139537, "tall_2+": 6.9767441860465116 }, "geometry": { "type": "Point", "coordinates": [ -0.149512301824413, 51.4951588769623 ] } },
{ "type": "Feature", "properties": { "max_height": 12.040002822875977, "mean_height": 2.6395068168640137, "std_height": 3.3701422214508057, "count_pixels": 38, "percent_cover": 0.65068493150684936, "percent_above_0.1m": 73.68421052631578, "low_level_<0.5": 13.157894736842104, "mid_level_0.5-2": 23.684210526315788, "tall_2+": 36.84210526315789 }, "geometry": { "type": "Point", "coordinates": [ -0.149807176304807, 51.495271441640988 ] } },
{ "type": "Feature", "properties": { "max_height": 23.020502090454102, "mean_height": 5.8085188865661621, "std_height": 7.0102643966674805, "count_pixels": 41, "percent_cover": 0.70205479452054798, "percent_above_0.1m": 65.853658536585371, "low_level_<0.5": 7.3170731707317067, "mid_level_0.5-2": 9.7560975609756095, "tall_2+": 48.780487804878049 }, "geometry": { "type": "Point", "coordinates": [ -0.149607680258079, 51.495268294275142 ] } },
{ "type": "Feature", "properties": { "max_height": 4.6267499923706055, "mean_height": 0.89345157146453857, "std_height": 1.3462250232696533, "count_pixels": 41, "percent_cover": 0.70205479452054798, "percent_above_0.1m": 43.902439024390247, "low_level_<0.5": 2.4390243902439024, "mid_level_0.5-2": 21.951219512195124, "tall_2+": 19.512195121951219 }, "geometry": { "type": "Point", "coordinates": [ -0.149408184247475, 51.495265146569942 ] } },
{ "type": "Feature", "properties": { "max_height": 25.329502105712891, "mean_height": 18.987905502319336, "std_height": 6.5898013114929199, "count_pixels": 42, "percent_cover": 0.71917808219178081, "percent_above_0.1m": 97.61904761904762, "low_level_<0.5": 0.0, "mid_level_0.5-2": 0.0, "tall_2+": 97.61904761904762 }, "geometry": { "type": "Point", "coordinates": [ -0.149703059142046, 51.495377711510351 ] } },
{ "type": "Feature", "properties": { "max_height": 21.425750732421875, "mean_height": 6.1684203147888184, "std_height": 8.2517547607421875, "count_pixels": 43, "percent_cover": 0.73630136986301375, "percent_above_0.1m": 58.139534883720934, "low_level_<0.5": 11.627906976744185, "mid_level_0.5-2": 2.3255813953488373, "tall_2+": 44.186046511627907 }, "geometry": { "type": "Point", "coordinates": [ -0.149503562645015, 51.495374563965491 ] } },
{ "type": "Feature", "properties": { "max_height": 21.128751754760742, "mean_height": 1.7132564783096313, "std_height": 4.5444397926330566, "count_pixels": 41, "percent_cover": 0.70205479452054798, "percent_above_0.1m": 21.951219512195124, "low_level_<0.5": 0.0, "mid_level_0.5-2": 2.4390243902439024, "tall_2+": 17.073170731707318 }, "geometry": { "type": "Point", "coordinates": [ -0.149598941492853, 51.495483981283428 ] } }
]
}
