{
"type": "FeatureCollection",
"name": "BEXLE_26",
"crs": { "type": "name", "properties": { "name": "urn:ogc:def:crs:OGC:1.3:CRS84" } },
"features": [
{ "type": "Feature", "properties": { "osm_id": 9769913060, "name": null, "amenity": "bench", "man_made": null, "leisure": null, "playground": null, "memorial": null }, "geometry": { "type": "Point", "coordinates": [ 0.10146, 51.4425202 ] } },
{ "type": "Feature", "properties": { "osm_id": 12609517147, "name": null, "amenity": null, "man_made": null, "leisure": "picnic_table", "playground": null, "memorial": null }, "geometry": { "type": "Point", "coordinates": [ 0.1014747, 51.4425994 ] } },
{ "type": "Feature", "properties": { "osm_id": 12609517149, "name": null, "amenity": "bench", "man_made": null, "leisure": null, "playground": null, "memorial": null }, "geometry": { "type": "Point", "coordinates": [ 0.1009959, 51.4426632 ] } },
{ "type": "Feature", "properties": { "osm_id": 12609517150, "name": null, "amenity": "bench", "man_made": null, "leisure": null, "playground": null, "memorial": null }, "geometry": { "type": "Point", "coordinates": [ 0.1009704, 51.4426775 ] } },
{ "type": "Feature", "properties": { "osm_id": 9769913049, "name": null, "amenity": "bench", "man_made": null, "leisure": null, "playground": null, "memorial": null }, "geometry": { "type": "Point", "coordinates": [ 0.1006355, 51.4428388 ] } },
{ "type": "Feature", "properties": { "osm_id": 9769913051, "name": null, "amenity": "bench", "man_made": null, "leisure": null, "playground": null, "memorial": null }, "geometry": { "type": "Point", "coordinates": [ 0.1006758, 51.442863 ] } }
]
}
