{
"type": "FeatureCollection",
"name": "WESTM_67_toilets",
"crs": { "type": "name", "properties": { "name": "urn:ogc:def:crs:OGC:1.3:CRS84" } },
"features": [
{ "type": "Feature", "properties": { "name": "Parliament Street exit 6 Westminster Station", "payment_info": "080", "accessible": "True", "radar": "False", "women": "True", "men": "True", "baby_change": "True", "Mon": "07:30-20:30", "Tue": "07:30-20:30", "Wed": "07:30-20:30", "Thu": "07:30-20:30", "Fri": "07:30-20:30", "Sat": "07:30-20:30", "Sun": "07:30-20:30", "index_right": 110, "park_offical_id": "WESTM_67" }, "geometry": { "type": "Point", "coordinates": [ -0.126004815, 51.501194503 ] } },
{ "type": "Feature", "properties": { "name": "Lupus Street Urinal", "payment_info": "Free", "accessible": "False", "radar": "False", "women": "False", "men": "True", "baby_change": "False", "Mon": "00:00-00:00", "Tue": "00:00-00:00", "Wed": "00:00-00:00", "Thu": "00:00-00:00", "Fri": "00:00-00:00", "Sat": "00:00-00:00", "Sun": "00:00-00:00", "index_right": 110, "park_offical_id": "WESTM_67" }, "geometry": { "type": "Point", "coordinates": [ -0.1340782, 51.4890531 ] } },
{ "type": "Feature", "properties": { "name": "Express Library St Anns Street ", "payment_info": "Free", "accessible": "True", "radar": "False", "women": "True", "men": "True", "baby_change": "Unknown", "Mon": "Closed", "Tue": "10:00-19:00", "Wed": "10:00-19:00", "Thu": "10:00-19:00", "Fri": "Closed", "Sat": "Closed", "Sun": "Closed", "index_right": 110, "park_offical_id": "WESTM_67" }, "geometry": { "type": "Point", "coordinates": [ -0.130312443, 51.497177118 ] } },
{ "type": "Feature", "properties": { "name": "The Windmill", "payment_info": "Free", "accessible": "False", "radar": "Unknown", "women": "True", "men": "True", "baby_change": "False", "Mon": "09:00-17:00", "Tue": "09:00-17:00", "Wed": "09:00-17:00", "Thu": "09:00-17:00", "Fri": "09:00-17:00", "Sat": "09:00-17:00", "Sun": "09:00-17:00", "index_right": 110, "park_offical_id": "WESTM_67" }, "geometry": { "type": "Point", "coordinates": [ -0.120517015, 51.493122601 ] } },
{ "type": "Feature", "properties": { "name": "Onion Garden", "payment_info": "Free", "accessible": "False", "radar": "False", "women": "True", "men": "True", "baby_change": "False", "Mon": "Unknown", "Tue": "Unknown", "Wed": "Unknown", "Thu": "Unknown", "Fri": "Unknown", "Sat": "Unknown", "Sun": "Unknown", "index_right": 110, "park_offical_id": "WESTM_67" }, "geometry": { "type": "Point", "coordinates": [ -0.137074292, 51.497894974 ] } },
{ "type": "Feature", "properties": { "name": "Rampayne Street Community Hub SW1V 2PU", "payment_info": "Free", "accessible": "False", "radar": "False", "women": "True", "men": "True", "baby_change": "False", "Mon": "Closed", "Tue": "10:00-17:00", "Wed": "12:00-17:00", "Thu": "Closed", "Fri": "12:00-19:00", "Sat": "10:00-17:00", "Sun": "Closed", "index_right": 110, "park_offical_id": "WESTM_67" }, "geometry": { "type": "Point", "coordinates": [ -0.133810043, 51.489349991 ] } },
{ "type": "Feature", "properties": { "name": "CLOSED Wesleys Caf Central Hall Westminster", "payment_info": "Free", "accessible": "False", "radar": "Unknown", "women": "False", "men": "False", "baby_change": "Unknown", "Mon": "Closed", "Tue": "Closed", "Wed": "Closed", "Thu": "Closed", "Fri": "Closed", "Sat": "Closed", "Sun": "Closed", "index_right": 110, "park_offical_id": "WESTM_67" }, "geometry": { "type": "Point", "coordinates": [ -0.130087137, 51.499993994 ] } },
{ "type": "Feature", "properties": { "name": "Victoria Tower Gardens", "payment_info": "20p", "accessible": "False", "radar": "False", "women": "True", "men": "True", "baby_change": "True", "Mon": "Unknown", "Tue": "Unknown", "Wed": "Unknown", "Thu": "Unknown", "Fri": "Unknown", "Sat": "Unknown", "Sun": "Unknown", "index_right": 110, "park_offical_id": "WESTM_67" }, "geometry": { "type": "Point", "coordinates": [ -0.124792457, 51.494981235 ] } },
{ "type": "Feature", "properties": { "name": "Garden Museum", "payment_info": "Free", "accessible": "False", "radar": "Unknown", "women": "True", "men": "True", "baby_change": "True", "Mon": "09:00-17:00", "Tue": "09:00-17:00", "Wed": "09:00-17:00", "Thu": "09:00-17:00", "Fri": "09:00-17:00", "Sat": "09:00-17:00", "Sun": "09:00-17:00", "index_right": 110, "park_offical_id": "WESTM_67" }, "geometry": { "type": "Point", "coordinates": [ -0.120114684, 51.494959527 ] } },
{ "type": "Feature", "properties": { "name": "Urinal", "payment_info": "Free", "accessible": "False", "radar": "False", "women": "True", "men": "True", "baby_change": "False", "Mon": "00:00-00:00", "Tue": "00:00-00:00", "Wed": "00:00-00:00", "Thu": "00:00-00:00", "Fri": "00:00-00:00", "Sat": "00:00-00:00", "Sun": "00:00-00:00", "index_right": 110, "park_offical_id": "WESTM_67" }, "geometry": { "type": "Point", "coordinates": [ -0.1322335, 51.4947547 ] } },
{ "type": "Feature", "properties": { "name": "Tate Britain", "payment_info": "Free", "accessible": "True", "radar": "True", "women": "True", "men": "True", "baby_change": "Unknown", "Mon": "10:00-18:00", "Tue": "10:00-18:00", "Wed": "10:00-18:00", "Thu": "10:00-18:00", "Fri": "10:00-18:00", "Sat": "10:00-18:00", "Sun": "10:00-18:00", "index_right": 110, "park_offical_id": "WESTM_67" }, "geometry": { "type": "Point", "coordinates": [ -0.127415657, 51.491504616 ] } },
{ "type": "Feature", "properties": { "name": "Superloo", "payment_info": "50p", "accessible": "True", "radar": "True", "women": "True", "men": "True", "baby_change": "False", "Mon": "00:00-00:00", "Tue": "00:00-00:00", "Wed": "00:00-00:00", "Thu": "00:00-00:00", "Fri": "00:00-00:00", "Sat": "00:00-00:00", "Sun": "00:00-00:00", "index_right": 110, "park_offical_id": "WESTM_67" }, "geometry": { "type": "Point", "coordinates": [ -0.132284833, 51.494535459 ] } },
{ "type": "Feature", "properties": { "name": "Unknown", "payment_info": "Free", "accessible": "False", "radar": "Unknown", "women": "Unknown", "men": "Unknown", "baby_change": "Unknown", "Mon": "Unknown", "Tue": "Unknown", "Wed": "Unknown", "Thu": "Unknown", "Fri": "Unknown", "Sat": "Unknown", "Sun": "Unknown", "index_right": 110, "park_offical_id": "WESTM_67" }, "geometry": { "type": "Point", "coordinates": [ -0.1384401, 51.492228 ] } }
]
}
