{
"type": "FeatureCollection",
"name": "HILLI_60",
"crs": { "type": "name", "properties": { "name": "urn:ogc:def:crs:OGC:1.3:CRS84" } },
"features": [
{ "type": "Feature", "properties": { "osm_id": 13890218668, "name": null, "amenity": "bench", "man_made": null, "leisure": null, "playground": null, "memorial": null }, "geometry": { "type": "Point", "coordinates": [ -0.4050999, 51.5110104 ] } },
{ "type": "Feature", "properties": { "osm_id": 13890218646, "name": null, "amenity": "bench", "man_made": null, "leisure": null, "playground": null, "memorial": null }, "geometry": { "type": "Point", "coordinates": [ -0.4068561, 51.5122274 ] } },
{ "type": "Feature", "properties": { "osm_id": 13893393483, "name": null, "amenity": "bench", "man_made": null, "leisure": null, "playground": null, "memorial": null }, "geometry": { "type": "Point", "coordinates": [ -0.4074915, 51.5123034 ] } }
]
}
