{
"type": "FeatureCollection",
"name": "SOUT6_71",
"crs": { "type": "name", "properties": { "name": "urn:ogc:def:crs:OGC:1.3:CRS84" } },
"features": [
{ "type": "Feature", "properties": { "osm_id": 9679937502, "name": null, "amenity": "bench", "man_made": null, "leisure": null, "playground": null, "memorial": null }, "geometry": { "type": "Point", "coordinates": [ -0.0739958, 51.4944115 ] } },
{ "type": "Feature", "properties": { "osm_id": 9679937500, "name": null, "amenity": "bench", "man_made": null, "leisure": null, "playground": null, "memorial": null }, "geometry": { "type": "Point", "coordinates": [ -0.0743659, 51.4949659 ] } },
{ "type": "Feature", "properties": { "osm_id": 9679937501, "name": null, "amenity": "bench", "man_made": null, "leisure": null, "playground": null, "memorial": null }, "geometry": { "type": "Point", "coordinates": [ -0.074386, 51.4949993 ] } },
{ "type": "Feature", "properties": { "osm_id": 9679937499, "name": null, "amenity": "bench", "man_made": null, "leisure": null, "playground": null, "memorial": null }, "geometry": { "type": "Point", "coordinates": [ -0.074319, 51.4949993 ] } },
{ "type": "Feature", "properties": { "osm_id": 9679937498, "name": null, "amenity": "bench", "man_made": null, "leisure": null, "playground": null, "memorial": null }, "geometry": { "type": "Point", "coordinates": [ -0.0751826, 51.4951404 ] } }
]
}
