{
"type": "FeatureCollection",
"name": "SOUT6_62",
"crs": { "type": "name", "properties": { "name": "urn:ogc:def:crs:OGC:1.3:CRS84" } },
"features": [
{ "type": "Feature", "properties": { "osm_id": 13947607101, "name": null, "amenity": "bench", "man_made": null, "leisure": null, "playground": null, "memorial": null }, "geometry": { "type": "Point", "coordinates": [ -0.1081292, 51.4949781 ] } },
{ "type": "Feature", "properties": { "osm_id": 13020846034, "name": null, "amenity": "bench", "man_made": null, "leisure": null, "playground": null, "memorial": null }, "geometry": { "type": "Point", "coordinates": [ -0.1076721, 51.4952097 ] } },
{ "type": "Feature", "properties": { "osm_id": 9022471857, "name": null, "amenity": "bench", "man_made": null, "leisure": null, "playground": null, "memorial": null }, "geometry": { "type": "Point", "coordinates": [ -0.107394, 51.4955592 ] } },
{ "type": "Feature", "properties": { "osm_id": 9022471856, "name": null, "amenity": "bench", "man_made": null, "leisure": null, "playground": null, "memorial": null }, "geometry": { "type": "Point", "coordinates": [ -0.1073486, 51.49564 ] } },
{ "type": "Feature", "properties": { "osm_id": 12965006680, "name": null, "amenity": null, "man_made": null, "leisure": "picnic_table", "playground": null, "memorial": null }, "geometry": { "type": "Point", "coordinates": [ -0.1073861, 51.4960149 ] } },
{ "type": "Feature", "properties": { "osm_id": 12965006679, "name": null, "amenity": null, "man_made": null, "leisure": "picnic_table", "playground": null, "memorial": null }, "geometry": { "type": "Point", "coordinates": [ -0.1075277, 51.4960448 ] } },
{ "type": "Feature", "properties": { "osm_id": 9022471846, "name": null, "amenity": null, "man_made": null, "leisure": "picnic_table", "playground": null, "memorial": null }, "geometry": { "type": "Point", "coordinates": [ -0.1102868, 51.495496 ] } },
{ "type": "Feature", "properties": { "osm_id": 9022471845, "name": null, "amenity": null, "man_made": null, "leisure": "picnic_table", "playground": null, "memorial": null }, "geometry": { "type": "Point", "coordinates": [ -0.1103443, 51.4955245 ] } },
{ "type": "Feature", "properties": { "osm_id": 9022471841, "name": null, "amenity": null, "man_made": null, "leisure": "picnic_table", "playground": null, "memorial": null }, "geometry": { "type": "Point", "coordinates": [ -0.110404, 51.4955323 ] } },
{ "type": "Feature", "properties": { "osm_id": 9022471844, "name": null, "amenity": null, "man_made": null, "leisure": "picnic_table", "playground": null, "memorial": null }, "geometry": { "type": "Point", "coordinates": [ -0.1102907, 51.4955415 ] } },
{ "type": "Feature", "properties": { "osm_id": 9022471843, "name": null, "amenity": null, "man_made": null, "leisure": "picnic_table", "playground": null, "memorial": null }, "geometry": { "type": "Point", "coordinates": [ -0.1103465, 51.4955654 ] } },
{ "type": "Feature", "properties": { "osm_id": 9022471842, "name": null, "amenity": null, "man_made": null, "leisure": "picnic_table", "playground": null, "memorial": null }, "geometry": { "type": "Point", "coordinates": [ -0.1104063, 51.4955658 ] } },
{ "type": "Feature", "properties": { "osm_id": 9022471847, "name": null, "amenity": "bench", "man_made": null, "leisure": null, "playground": null, "memorial": null }, "geometry": { "type": "Point", "coordinates": [ -0.1106073, 51.4956852 ] } },
{ "type": "Feature", "properties": { "osm_id": 12986104830, "name": null, "amenity": null, "man_made": null, "leisure": "picnic_table", "playground": null, "memorial": null }, "geometry": { "type": "Point", "coordinates": [ -0.1096633, 51.4959156 ] } },
{ "type": "Feature", "properties": { "osm_id": 9022471848, "name": null, "amenity": "bench", "man_made": null, "leisure": null, "playground": null, "memorial": null }, "geometry": { "type": "Point", "coordinates": [ -0.1099605, 51.4960582 ] } },
{ "type": "Feature", "properties": { "osm_id": 9022471855, "name": null, "amenity": "bench", "man_made": null, "leisure": null, "playground": null, "memorial": null }, "geometry": { "type": "Point", "coordinates": [ -0.1080229, 51.4960958 ] } },
{ "type": "Feature", "properties": { "osm_id": 12971481636, "name": null, "amenity": null, "man_made": null, "leisure": "picnic_table", "playground": null, "memorial": null }, "geometry": { "type": "Point", "coordinates": [ -0.1105796, 51.4961756 ] } },
{ "type": "Feature", "properties": { "osm_id": 9022471849, "name": null, "amenity": "bench", "man_made": null, "leisure": null, "playground": null, "memorial": null }, "geometry": { "type": "Point", "coordinates": [ -0.1093909, 51.4964049 ] } },
{ "type": "Feature", "properties": { "osm_id": 4863509761, "name": null, "amenity": null, "man_made": null, "leisure": "picnic_table", "playground": null, "memorial": null }, "geometry": { "type": "Point", "coordinates": [ -0.1098573, 51.4964117 ] } },
{ "type": "Feature", "properties": { "osm_id": 9022471852, "name": null, "amenity": "bench", "man_made": null, "leisure": null, "playground": null, "memorial": null }, "geometry": { "type": "Point", "coordinates": [ -0.1089733, 51.4964152 ] } },
{ "type": "Feature", "properties": { "osm_id": 9022471851, "name": null, "amenity": "bench", "man_made": null, "leisure": null, "playground": null, "memorial": null }, "geometry": { "type": "Point", "coordinates": [ -0.108285, 51.4964166 ] } },
{ "type": "Feature", "properties": { "osm_id": 4863509760, "name": null, "amenity": null, "man_made": null, "leisure": "picnic_table", "playground": null, "memorial": null }, "geometry": { "type": "Point", "coordinates": [ -0.1096014, 51.496438 ] } },
{ "type": "Feature", "properties": { "osm_id": 4863509762, "name": null, "amenity": null, "man_made": null, "leisure": "picnic_table", "playground": null, "memorial": null }, "geometry": { "type": "Point", "coordinates": [ -0.109919, 51.496443 ] } },
{ "type": "Feature", "properties": { "osm_id": 9022471850, "name": null, "amenity": "bench", "man_made": null, "leisure": null, "playground": null, "memorial": null }, "geometry": { "type": "Point", "coordinates": [ -0.1082323, 51.4964749 ] } },
{ "type": "Feature", "properties": { "osm_id": 4863509763, "name": null, "amenity": null, "man_made": null, "leisure": "picnic_table", "playground": null, "memorial": null }, "geometry": { "type": "Point", "coordinates": [ -0.1095617, 51.4964773 ] } },
{ "type": "Feature", "properties": { "osm_id": 9793412413, "name": null, "amenity": null, "man_made": null, "leisure": "picnic_table", "playground": null, "memorial": null }, "geometry": { "type": "Point", "coordinates": [ -0.1098843, 51.4964808 ] } },
{ "type": "Feature", "properties": { "osm_id": 9022471854, "name": null, "amenity": "bench", "man_made": null, "leisure": null, "playground": null, "memorial": null }, "geometry": { "type": "Point", "coordinates": [ -0.1070647, 51.4961256 ] } },
{ "type": "Feature", "properties": { "osm_id": 12965006650, "name": null, "amenity": "bench", "man_made": null, "leisure": null, "playground": null, "memorial": null }, "geometry": { "type": "Point", "coordinates": [ -0.1076707, 51.4968447 ] } },
{ "type": "Feature", "properties": { "osm_id": 9793398551, "name": null, "amenity": "bench", "man_made": null, "leisure": null, "playground": null, "memorial": null }, "geometry": { "type": "Point", "coordinates": [ -0.1075319, 51.4968499 ] } },
{ "type": "Feature", "properties": { "osm_id": 11046783375, "name": null, "amenity": "bench", "man_made": null, "leisure": null, "playground": null, "memorial": null }, "geometry": { "type": "Point", "coordinates": [ -0.1076253, 51.4968636 ] } },
{ "type": "Feature", "properties": { "osm_id": 11046783374, "name": null, "amenity": "bench", "man_made": null, "leisure": null, "playground": null, "memorial": null }, "geometry": { "type": "Point", "coordinates": [ -0.1075927, 51.4968651 ] } },
{ "type": "Feature", "properties": { "osm_id": 11046783376, "name": null, "amenity": "bench", "man_made": null, "leisure": null, "playground": null, "memorial": null }, "geometry": { "type": "Point", "coordinates": [ -0.1076542, 51.4968785 ] } },
{ "type": "Feature", "properties": { "osm_id": 11046783373, "name": null, "amenity": "bench", "man_made": null, "leisure": null, "playground": null, "memorial": null }, "geometry": { "type": "Point", "coordinates": [ -0.1075686, 51.4968804 ] } },
{ "type": "Feature", "properties": { "osm_id": 4863509759, "name": null, "amenity": null, "man_made": null, "leisure": "picnic_table", "playground": null, "memorial": null }, "geometry": { "type": "Point", "coordinates": [ -0.1096179, 51.4965096 ] } },
{ "type": "Feature", "properties": { "osm_id": 9022471853, "name": null, "amenity": "bench", "man_made": null, "leisure": null, "playground": null, "memorial": null }, "geometry": { "type": "Point", "coordinates": [ -0.1089807, 51.4965448 ] } },
{ "type": "Feature", "properties": { "osm_id": 12651935348, "name": null, "amenity": "bench", "man_made": null, "leisure": null, "playground": null, "memorial": null }, "geometry": { "type": "Point", "coordinates": [ -0.1098719, 51.4965605 ] } },
{ "type": "Feature", "properties": { "osm_id": 13081715901, "name": null, "amenity": "bench", "man_made": null, "leisure": null, "playground": null, "memorial": null }, "geometry": { "type": "Point", "coordinates": [ -0.109465, 51.4966438 ] } },
{ "type": "Feature", "properties": { "osm_id": 12973787849, "name": null, "amenity": null, "man_made": null, "leisure": "picnic_table", "playground": null, "memorial": null }, "geometry": { "type": "Point", "coordinates": [ -0.109538, 51.4966772 ] } },
{ "type": "Feature", "properties": { "osm_id": 12651899048, "name": null, "amenity": null, "man_made": null, "leisure": "picnic_table", "playground": null, "memorial": null }, "geometry": { "type": "Point", "coordinates": [ -0.1092178, 51.4967053 ] } },
{ "type": "Feature", "properties": { "osm_id": 12973787850, "name": null, "amenity": null, "man_made": null, "leisure": "picnic_table", "playground": null, "memorial": null }, "geometry": { "type": "Point", "coordinates": [ -0.1095706, 51.4967268 ] } },
{ "type": "Feature", "properties": { "osm_id": 13147465901, "name": null, "amenity": "bench", "man_made": null, "leisure": null, "playground": null, "memorial": null }, "geometry": { "type": "Point", "coordinates": [ -0.1092678, 51.4967583 ] } },
{ "type": "Feature", "properties": { "osm_id": 4863509755, "name": null, "amenity": null, "man_made": null, "leisure": "picnic_table", "playground": null, "memorial": null }, "geometry": { "type": "Point", "coordinates": [ -0.1091662, 51.496762 ] } },
{ "type": "Feature", "properties": { "osm_id": 13147465801, "name": null, "amenity": "bench", "man_made": null, "leisure": null, "playground": null, "memorial": null }, "geometry": { "type": "Point", "coordinates": [ -0.1091132, 51.49682 ] } },
{ "type": "Feature", "properties": { "osm_id": 4863509754, "name": null, "amenity": null, "man_made": null, "leisure": "picnic_table", "playground": null, "memorial": null }, "geometry": { "type": "Point", "coordinates": [ -0.1092422, 51.4968255 ] } },
{ "type": "Feature", "properties": { "osm_id": 9793398549, "name": null, "amenity": "bench", "man_made": null, "leisure": null, "playground": null, "memorial": null }, "geometry": { "type": "Point", "coordinates": [ -0.1076837, 51.4969313 ] } },
{ "type": "Feature", "properties": { "osm_id": 11046783377, "name": null, "amenity": "bench", "man_made": null, "leisure": null, "playground": null, "memorial": null }, "geometry": { "type": "Point", "coordinates": [ -0.1076537, 51.4969006 ] } },
{ "type": "Feature", "properties": { "osm_id": 11046783372, "name": null, "amenity": "bench", "man_made": null, "leisure": null, "playground": null, "memorial": null }, "geometry": { "type": "Point", "coordinates": [ -0.1075698, 51.496903 ] } },
{ "type": "Feature", "properties": { "osm_id": 11046783371, "name": null, "amenity": "bench", "man_made": null, "leisure": null, "playground": null, "memorial": null }, "geometry": { "type": "Point", "coordinates": [ -0.1075951, 51.4969158 ] } },
{ "type": "Feature", "properties": { "osm_id": 11046783378, "name": null, "amenity": "bench", "man_made": null, "leisure": null, "playground": null, "memorial": null }, "geometry": { "type": "Point", "coordinates": [ -0.1076312, 51.4969163 ] } },
{ "type": "Feature", "properties": { "osm_id": 9793398550, "name": null, "amenity": "bench", "man_made": null, "leisure": null, "playground": null, "memorial": null }, "geometry": { "type": "Point", "coordinates": [ -0.1075333, 51.4969349 ] } }
]
}
