{
"type": "FeatureCollection",
"name": "SOUT6_7",
"crs": { "type": "name", "properties": { "name": "urn:ogc:def:crs:OGC:1.3:CRS84" } },
"features": [
{ "type": "Feature", "properties": { "osm_id": 4945392994, "name": null, "amenity": "bench", "man_made": null, "leisure": null, "playground": null, "memorial": null }, "geometry": { "type": "Point", "coordinates": [ -0.0722085, 51.4698937 ] } },
{ "type": "Feature", "properties": { "osm_id": 4945392603, "name": null, "amenity": "bench", "man_made": null, "leisure": null, "playground": null, "memorial": null }, "geometry": { "type": "Point", "coordinates": [ -0.0715413, 51.470028 ] } },
{ "type": "Feature", "properties": { "osm_id": 4945392192, "name": null, "amenity": "bench", "man_made": null, "leisure": null, "playground": null, "memorial": null }, "geometry": { "type": "Point", "coordinates": [ -0.0712528, 51.4700777 ] } },
{ "type": "Feature", "properties": { "osm_id": 4945392605, "name": null, "amenity": "bench", "man_made": null, "leisure": null, "playground": null, "memorial": null }, "geometry": { "type": "Point", "coordinates": [ -0.069831, 51.4704323 ] } }
]
}
