{
"type": "FeatureCollection",
"name": "HACKN_3_cycling",
"crs": { "type": "name", "properties": { "name": "urn:ogc:def:crs:OGC:1.3:CRS84" } },
"features": [
{"type":"Feature","properties":{"highway":"cycleway","name":"Farleigh Road","category":"Dedicated cycleway"},"geometry":{"type":"MultiLineString","coordinates":[[[-0.0683441,51.555581],[-0.068338,51.5555815],[-0.0682347,51.5555864]]]}},
{"type":"Feature","properties":{"highway":"cycleway","name":"Powell Road","category":"Dedicated cycleway"},"geometry":{"type":"MultiLineString","coordinates":[[[-0.057833,51.5583832],[-0.0578222,51.5583403],[-0.0578126,51.5582991],[-0.0578056,51.5582704],[-0.0577977,51.558238]]]}},
{"type":"Feature","properties":{"highway":"cycleway","name":null,"category":"Dedicated cycleway"},"geometry":{"type":"MultiLineString","coordinates":[[[-0.0587132,51.5556046],[-0.0587736,51.5555847]]]}},
{"type":"Feature","properties":{"highway":"cycleway","name":"Narford Road","category":"Dedicated cycleway"},"geometry":{"type":"MultiLineString","coordinates":[[[-0.0643409,51.5606718],[-0.0643244,51.5607074],[-0.0643106,51.5607383],[-0.0643009,51.5607597]]]}},
{"type":"Feature","properties":{"highway":"cycleway","name":"Reighton Road","category":"Dedicated cycleway"},"geometry":{"type":"MultiLineString","coordinates":[[[-0.0636435,51.5604857],[-0.0636148,51.5605153],[-0.0635858,51.5605452],[-0.06357,51.5605615]]]}},
{"type":"Feature","properties":{"highway":"cycleway","name":"Brooke Road","category":"Dedicated cycleway"},"geometry":{"type":"MultiLineString","coordinates":[[[-0.0703762,51.56017],[-0.0704927,51.5601626],[-0.0705232,51.5601751]]]}},
{"type":"Feature","properties":{"highway":"cycleway","name":null,"category":"Dedicated cycleway"},"geometry":{"type":"MultiLineString","coordinates":[[[-0.0519747,51.562452],[-0.0519465,51.5623745],[-0.0515356,51.5621696],[-0.0506244,51.5617154],[-0.0492886,51.5609493],[-0.0492618,51.560934]]]}},
{"type":"Feature","properties":{"highway":"cycleway","name":"Downs Road","category":"Dedicated cycleway"},"geometry":{"type":"MultiLineString","coordinates":[[[-0.0587132,51.5556046],[-0.0586618,51.5556215]]]}},
{"type":"Feature","properties":{"highway":"cycleway","name":"Downs Lane","category":"Dedicated cycleway"},"geometry":{"type":"MultiLineString","coordinates":[[[-0.059066,51.5563413],[-0.0590596,51.5562982],[-0.0590444,51.5562108],[-0.0590284,51.5561599],[-0.0589936,51.5559554],[-0.0589885,51.5559287]]]}},
{"type":"Feature","properties":{"highway":"cycleway","name":"Maury Road","category":"Dedicated cycleway"},"geometry":{"type":"MultiLineString","coordinates":[[[-0.0651695,51.5592926],[-0.065157,51.5592766],[-0.0651348,51.5592472]]]}},
{"type":"Feature","properties":{"highway":"path","name":null,"category":"Shared path"},"geometry":{"type":"MultiLineString","coordinates":[[[-0.0571309,51.5582208],[-0.0573058,51.5582183],[-0.0572897,51.5579973],[-0.0571771,51.557919],[-0.0571798,51.5578773],[-0.057433,51.5578265]]]}},
{"type":"Feature","properties":{"highway":"path","name":null,"category":"Shared path"},"geometry":{"type":"MultiLineString","coordinates":[[[-0.052992,51.5522005],[-0.0528909,51.5521005],[-0.0526544,51.551898]]]}},
{"type":"Feature","properties":{"highway":"cycleway","name":null,"category":"Dedicated cycleway"},"geometry":{"type":"MultiLineString","coordinates":[[[-0.0651488,51.5531602],[-0.0651401,51.5531627],[-0.0650442,51.5531905],[-0.0632145,51.5536041],[-0.0631432,51.5536146],[-0.0626918,51.5537202],[-0.0620782,51.5538637],[-0.0618163,51.5539229],[-0.0617867,51.5539303],[-0.061447,51.5540155],[-0.0613379,51.5540335],[-0.0612658,51.5540463]]]}},
{"type":"Feature","properties":{"highway":"cycleway","name":null,"category":"Dedicated cycleway"},"geometry":{"type":"MultiLineString","coordinates":[[[-0.0641506,51.5548444],[-0.0634416,51.5546766],[-0.0632769,51.5546383],[-0.0627654,51.5545154],[-0.0623203,51.5544084],[-0.0613927,51.5541855],[-0.0612367,51.5541475]]]}},
{"type":"Feature","properties":{"highway":"cycleway","name":null,"category":"Dedicated cycleway"},"geometry":{"type":"MultiLineString","coordinates":[[[-0.0610231,51.552298],[-0.0610371,51.5523353],[-0.0610477,51.5523635],[-0.0612763,51.5529719],[-0.061287,51.5531254],[-0.0612639,51.5533774],[-0.0612437,51.5535982],[-0.0612357,51.5536758],[-0.0612221,51.5538909],[-0.0612397,51.553939]]]}},
{"type":"Feature","properties":{"highway":"cycleway","name":null,"category":"Dedicated cycleway"},"geometry":{"type":"MultiLineString","coordinates":[[[-0.0638374,51.5519168],[-0.0638514,51.5519617],[-0.0638567,51.5519784],[-0.0638574,51.5519957],[-0.0638738,51.5520682],[-0.0642667,51.5524191],[-0.0650442,51.5531905],[-0.0658908,51.5546223],[-0.0661192,51.5550597]]]}},
{"type":"Feature","properties":{"highway":"cycleway","name":null,"category":"Dedicated cycleway"},"geometry":{"type":"MultiLineString","coordinates":[[[-0.060828,51.5539878],[-0.060824,51.5539403],[-0.0603389,51.5531523],[-0.0603224,51.5531249],[-0.060315,51.5531092],[-0.0603051,51.5530882],[-0.0602722,51.5530244],[-0.0602446,51.5529661],[-0.0600727,51.5524966],[-0.0600666,51.5524767]]]}},
{"type":"Feature","properties":{"highway":"cycleway","name":null,"category":"Dedicated cycleway"},"geometry":{"type":"MultiLineString","coordinates":[[[-0.0580145,51.5530373],[-0.0579583,51.5530388]]]}},
{"type":"Feature","properties":{"highway":"cycleway","name":null,"category":"Dedicated cycleway"},"geometry":{"type":"MultiLineString","coordinates":[[[-0.0587662,51.5531305],[-0.0586784,51.5530924],[-0.0583886,51.5529695],[-0.058348,51.55294],[-0.0583046,51.5529085],[-0.0582467,51.5528634],[-0.0581958,51.5528227],[-0.0581782,51.5527595],[-0.0581721,51.5527394]]]}},
{"type":"Feature","properties":{"highway":"cycleway","name":null,"category":"Dedicated cycleway"},"geometry":{"type":"MultiLineString","coordinates":[[[-0.052453,51.5524529],[-0.0524503,51.5524202],[-0.0524742,51.5524082]]]}},
{"type":"Feature","properties":{"highway":"cycleway","name":"Clapton Passage","category":"Dedicated cycleway"},"geometry":{"type":"MultiLineString","coordinates":[[[-0.0526671,51.5523218],[-0.0527175,51.5523107],[-0.052992,51.5522005],[-0.0536074,51.5519606],[-0.0536451,51.5519365]]]}},
{"type":"Feature","properties":{"highway":"cycleway","name":null,"category":"Dedicated cycleway"},"geometry":{"type":"MultiLineString","coordinates":[[[-0.0526671,51.5523218],[-0.0527044,51.5523511],[-0.0527733,51.552427],[-0.0527523,51.5524351]]]}},
{"type":"Feature","properties":{"highway":"cycleway","name":"Clapton Passage","category":"Dedicated cycleway"},"geometry":{"type":"MultiLineString","coordinates":[[[-0.0525864,51.5523518],[-0.0526537,51.5523263]]]}},
{"type":"Feature","properties":{"highway":"cycleway","name":null,"category":"Dedicated cycleway"},"geometry":{"type":"MultiLineString","coordinates":[[[-0.0577871,51.5528038],[-0.0578351,51.5528257],[-0.0578891,51.5528504]]]}},
{"type":"Feature","properties":{"highway":"cycleway","name":null,"category":"Dedicated cycleway"},"geometry":{"type":"MultiLineString","coordinates":[[[-0.0577179,51.5527891],[-0.0577398,51.5527882],[-0.0577523,51.5527915],[-0.0577663,51.5527956]]]}},
{"type":"Feature","properties":{"highway":"cycleway","name":null,"category":"Dedicated cycleway"},"geometry":{"type":"MultiLineString","coordinates":[[[-0.0663132,51.5554461],[-0.0663119,51.5554355],[-0.0662738,51.5553317],[-0.0661355,51.5553329],[-0.0660937,51.5553361],[-0.0658492,51.5552741],[-0.0656749,51.5552225],[-0.0641506,51.5548444]]]}},
{"type":"Feature","properties":{"highway":"cycleway","name":null,"category":"Dedicated cycleway"},"geometry":{"type":"MultiLineString","coordinates":[[[-0.0657542,51.5554495],[-0.0657495,51.5554359],[-0.0657829,51.5553453],[-0.0658492,51.5552741],[-0.0660206,51.5551388],[-0.0661192,51.5550597]]]}},
{"type":"Feature","properties":{"highway":"cycleway","name":null,"category":"Dedicated cycleway"},"geometry":{"type":"MultiLineString","coordinates":[[[-0.0580236,51.5527706],[-0.057995,51.5527919],[-0.0579446,51.5528361],[-0.0579223,51.5528652]]]}},
{"type":"Feature","properties":{"highway":"cycleway","name":null,"category":"Dedicated cycleway"},"geometry":{"type":"MultiLineString","coordinates":[[[-0.0580282,51.5529383],[-0.0580302,51.5529691],[-0.0580399,51.5530366]]]}},
{"type":"Feature","properties":{"highway":"cycleway","name":null,"category":"Dedicated cycleway"},"geometry":{"type":"MultiLineString","coordinates":[[[-0.0527733,51.552427],[-0.0528128,51.5524742],[-0.0528411,51.5525093]]]}},
{"type":"Feature","properties":{"highway":"cycleway","name":null,"category":"Dedicated cycleway"},"geometry":{"type":"MultiLineString","coordinates":[[[-0.0526187,51.5524835],[-0.0526505,51.5524715],[-0.0526748,51.5524624]]]}},
{"type":"Feature","properties":{"highway":"cycleway","name":null,"category":"Dedicated cycleway"},"geometry":{"type":"MultiLineString","coordinates":[[[-0.0657526,51.555489],[-0.0657542,51.5554495]]]}},
{"type":"Feature","properties":{"highway":"cycleway","name":null,"category":"Dedicated cycleway"},"geometry":{"type":"MultiLineString","coordinates":[[[-0.0581003,51.5527359],[-0.0580957,51.5527494]]]}},
{"type":"Feature","properties":{"highway":"cycleway","name":"Rowhill Road","category":"Dedicated cycleway"},"geometry":{"type":"MultiLineString","coordinates":[[[-0.0559321,51.5537919],[-0.0559723,51.553775],[-0.0560487,51.5537728],[-0.0561173,51.5537726]]]}},
{"type":"Feature","properties":{"highway":"cycleway","name":null,"category":"Dedicated cycleway"},"geometry":{"type":"MultiLineString","coordinates":[[[-0.0541628,51.5541683],[-0.0541672,51.5541353],[-0.0542289,51.5541157],[-0.0542863,51.5541247]]]}},
{"type":"Feature","properties":{"highway":"cycleway","name":null,"category":"Dedicated cycleway"},"geometry":{"type":"MultiLineString","coordinates":[[[-0.0530209,51.5588731],[-0.0529695,51.5588694],[-0.0529538,51.5588442],[-0.0529911,51.5588216]]]}},
{"type":"Feature","properties":{"highway":"cycleway","name":null,"category":"Dedicated cycleway"},"geometry":{"type":"MultiLineString","coordinates":[[[-0.0532973,51.5589877],[-0.0532314,51.55901],[-0.0532088,51.5590221],[-0.0531706,51.5590427],[-0.0531437,51.5590548],[-0.0530784,51.559082]]]}},
{"type":"Feature","properties":{"highway":"cycleway","name":null,"category":"Dedicated cycleway"},"geometry":{"type":"MultiLineString","coordinates":[[[-0.0529911,51.5588216],[-0.0530307,51.5588263],[-0.0530471,51.5588469],[-0.0530209,51.5588731]]]}},
{"type":"Feature","properties":{"highway":"cycleway","name":null,"category":"Dedicated cycleway"},"geometry":{"type":"MultiLineString","coordinates":[[[-0.0525,51.5523633],[-0.0524742,51.5524082]]]}},
{"type":"Feature","properties":{"highway":"cycleway","name":null,"category":"Dedicated cycleway"},"geometry":{"type":"MultiLineString","coordinates":[[[-0.0524823,51.5524157],[-0.0525001,51.5524322]]]}},
{"type":"Feature","properties":{"highway":"cycleway","name":null,"category":"Dedicated cycleway"},"geometry":{"type":"MultiLineString","coordinates":[[[-0.052524,51.5524543],[-0.0525493,51.5524777],[-0.0525725,51.5524754],[-0.0525901,51.5524792],[-0.0526001,51.5524898],[-0.0526187,51.5524835]]]}},
{"type":"Feature","properties":{"highway":"cycleway","name":null,"category":"Dedicated cycleway"},"geometry":{"type":"MultiLineString","coordinates":[[[-0.0581797,51.5526944],[-0.0581714,51.5527299],[-0.0581721,51.5527394]]]}},
{"type":"Feature","properties":{"highway":"cycleway","name":"Lower Clapton Road","category":"Dedicated cycleway"},"geometry":{"type":"MultiLineString","coordinates":[[[-0.0559414,51.5578628],[-0.0560424,51.5578869],[-0.0560566,51.5579001],[-0.0560648,51.5579464],[-0.0560714,51.5579686],[-0.0560846,51.5580129],[-0.0560931,51.5580412],[-0.0561003,51.5580613],[-0.0561075,51.5580814],[-0.0561352,51.5581245]]]}},
{"type":"Feature","properties":{"highway":"cycleway","name":"Lea Bridge Road","category":"Dedicated cycleway"},"geometry":{"type":"MultiLineString","coordinates":[[[-0.0510256,51.5598015],[-0.0510545,51.5597882],[-0.0511056,51.5597646],[-0.0512494,51.5597024],[-0.0517172,51.5594999],[-0.0519687,51.559391],[-0.0528424,51.5590344],[-0.052891,51.5590158],[-0.0529355,51.5589978],[-0.0530133,51.558966]]]}},
{"type":"Feature","properties":{"highway":"cycleway","name":null,"category":"Dedicated cycleway"},"geometry":{"type":"MultiLineString","coordinates":[[[-0.0556151,51.5588353],[-0.0555366,51.5587907],[-0.0554117,51.5587288],[-0.0553087,51.5586908],[-0.0551491,51.5586654]]]}},
{"type":"Feature","properties":{"highway":"cycleway","name":null,"category":"Dedicated cycleway"},"geometry":{"type":"MultiLineString","coordinates":[[[-0.0531185,51.5591274],[-0.0531397,51.5591585],[-0.0531475,51.5591768],[-0.0531407,51.5591952],[-0.0531267,51.5592092],[-0.0530635,51.5592439],[-0.0530096,51.5592645],[-0.0529571,51.5592787],[-0.0528969,51.5592928]]]}},
{"type":"Feature","properties":{"highway":"cycleway","name":null,"category":"Dedicated cycleway"},"geometry":{"type":"MultiLineString","coordinates":[[[-0.0558462,51.558865],[-0.0557298,51.5588541],[-0.0556416,51.5588401]]]}},
{"type":"Feature","properties":{"highway":"cycleway","name":null,"category":"Dedicated cycleway"},"geometry":{"type":"MultiLineString","coordinates":[[[-0.0558912,51.5580614],[-0.0559074,51.5580658],[-0.0560097,51.5580945],[-0.0560975,51.5581168]]]}},
{"type":"Feature","properties":{"highway":"cycleway","name":null,"category":"Dedicated cycleway"},"geometry":{"type":"MultiLineString","coordinates":[[[-0.0552097,51.5584362],[-0.0552239,51.5583814],[-0.055281,51.5582415]]]}},
{"type":"Feature","properties":{"highway":"cycleway","name":null,"category":"Dedicated cycleway"},"geometry":{"type":"MultiLineString","coordinates":[[[-0.0527146,51.5594296],[-0.0526181,51.5595246],[-0.0525107,51.5596262],[-0.0523904,51.5597767],[-0.0516064,51.5607635],[-0.0515192,51.5608705],[-0.0513753,51.5609656],[-0.0513679,51.5610269],[-0.0518315,51.5620606],[-0.0519465,51.5623745]]]}},
{"type":"Feature","properties":{"highway":"cycleway","name":"Lea Bridge Roundabout","category":"Dedicated cycleway"},"geometry":{"type":"MultiLineString","coordinates":[[[-0.056507,51.5583509],[-0.0564836,51.5584214],[-0.0564691,51.5584572],[-0.0564659,51.5584653]]]}},
{"type":"Feature","properties":{"highway":"cycleway","name":null,"category":"Dedicated cycleway"},"geometry":{"type":"MultiLineString","coordinates":[[[-0.0551491,51.5586654],[-0.0550946,51.5586657],[-0.0550671,51.5586641],[-0.054995,51.5586602],[-0.0549723,51.5586589],[-0.0549435,51.5586576],[-0.0548949,51.5586509],[-0.0548571,51.5586509],[-0.0548069,51.5586538],[-0.0546997,51.5586559],[-0.0545561,51.5586789],[-0.0541207,51.5587793],[-0.0537709,51.558862],[-0.0535815,51.5589091],[-0.0534657,51.5589374],[-0.0533947,51.5589545],[-0.0532973,51.5589877]]]}},
{"type":"Feature","properties":{"highway":"cycleway","name":null,"category":"Dedicated cycleway"},"geometry":{"type":"MultiLineString","coordinates":[[[-0.0573989,51.5584457],[-0.0572613,51.5584477],[-0.0571392,51.5584495],[-0.0570183,51.5584536],[-0.0568724,51.5584585],[-0.0568322,51.5584624],[-0.0567895,51.5584666],[-0.0567647,51.5584704],[-0.0567167,51.5584778],[-0.0566772,51.5584992],[-0.0566347,51.5585199],[-0.0565823,51.5585453],[-0.056511,51.5585799],[-0.0564658,51.5586028],[-0.0563842,51.5586592]]]}},
{"type":"Feature","properties":{"highway":"cycleway","name":"Upper Clapton Road","category":"Dedicated cycleway"},"geometry":{"type":"MultiLineString","coordinates":[[[-0.0560891,51.559175],[-0.0559374,51.5591648],[-0.0559205,51.5591654],[-0.0558769,51.5591175],[-0.0558185,51.5590975],[-0.0558071,51.5590869],[-0.0557532,51.5590351],[-0.0557436,51.5590258],[-0.055702,51.5589714],[-0.0556927,51.5589607],[-0.0556878,51.5589418],[-0.0556846,51.5589298],[-0.0556808,51.5589172],[-0.0556769,51.5589045],[-0.0556642,51.5588807],[-0.0556151,51.5588353]]]}},
{"type":"Feature","properties":{"highway":"cycleway","name":null,"category":"Dedicated cycleway"},"geometry":{"type":"MultiLineString","coordinates":[[[-0.0563842,51.5586592],[-0.0563545,51.5586826],[-0.0562602,51.5587544],[-0.0561985,51.5588051],[-0.056158,51.5588623],[-0.0561427,51.5588826],[-0.0561261,51.5589033]]]}},
{"type":"Feature","properties":{"highway":"cycleway","name":"Lea Bridge Road","category":"Dedicated cycleway"},"geometry":{"type":"MultiLineString","coordinates":[[[-0.0463143,51.5618953],[-0.0463153,51.5618314],[-0.0464293,51.5617838],[-0.0467691,51.5616427],[-0.0467897,51.5616242],[-0.0468105,51.561609],[-0.0471017,51.5614754],[-0.0471439,51.5614666],[-0.0471716,51.5614623],[-0.0474865,51.5613319],[-0.0483146,51.5609829],[-0.0483464,51.560969],[-0.0483973,51.5609442],[-0.0484641,51.5609078],[-0.0486671,51.5608191],[-0.0487212,51.5607954],[-0.0488127,51.5608094]]]}},
{"type":"Feature","properties":{"highway":"cycleway","name":"Downs Road","category":"Dedicated cycleway"},"geometry":{"type":"MultiLineString","coordinates":[[[-0.0586222,51.5556357],[-0.0585906,51.5556452],[-0.0585235,51.5556621],[-0.0584929,51.5556617],[-0.0584016,51.5556545],[-0.0582938,51.555656],[-0.0582587,51.555659]]]}},
{"type":"Feature","properties":{"highway":"cycleway","name":null,"category":"Dedicated cycleway"},"geometry":{"type":"MultiLineString","coordinates":[[[-0.0580236,51.5527706],[-0.0580281,51.5527984],[-0.0580325,51.552823],[-0.0580356,51.5528584],[-0.0580282,51.5529383]]]}},
{"type":"Feature","properties":{"highway":"cycleway","name":null,"category":"Dedicated cycleway"},"geometry":{"type":"MultiLineString","coordinates":[[[-0.0612397,51.553939],[-0.0612998,51.5538946],[-0.0614352,51.5538018],[-0.0616314,51.5536673],[-0.0625298,51.5530515],[-0.062858,51.5528091],[-0.0629067,51.552773],[-0.063245,51.552495],[-0.0636847,51.5521274],[-0.0637962,51.5520362],[-0.0638574,51.5519957]]]}},
{"type":"Feature","properties":{"highway":"cycleway","name":null,"category":"Dedicated cycleway"},"geometry":{"type":"MultiLineString","coordinates":[[[-0.0578919,51.5529091],[-0.0578538,51.5529383]]]}},
{"type":"Feature","properties":{"highway":"cycleway","name":null,"category":"Dedicated cycleway"},"geometry":{"type":"MultiLineString","coordinates":[[[-0.0581721,51.5527394],[-0.0580957,51.5527494]]]}},
{"type":"Feature","properties":{"highway":"cycleway","name":null,"category":"Dedicated cycleway"},"geometry":{"type":"MultiLineString","coordinates":[[[-0.0579184,51.5528891],[-0.0580282,51.5529383]]]}},
{"type":"Feature","properties":{"highway":"cycleway","name":null,"category":"Dedicated cycleway"},"geometry":{"type":"MultiLineString","coordinates":[[[-0.0592698,51.557577],[-0.0592507,51.5575588],[-0.0592202,51.5575608],[-0.0592034,51.5575815]]]}},
{"type":"Feature","properties":{"highway":"cycleway","name":null,"category":"Dedicated cycleway"},"geometry":{"type":"MultiLineString","coordinates":[[[-0.0590272,51.556346],[-0.0590113,51.556363],[-0.0589887,51.5563656],[-0.0589629,51.5563527]]]}},
{"type":"Feature","properties":{"highway":"cycleway","name":null,"category":"Dedicated cycleway"},"geometry":{"type":"MultiLineString","coordinates":[[[-0.0589629,51.5563527],[-0.0589802,51.5563353],[-0.0590029,51.5563325],[-0.0590272,51.556346]]]}},
{"type":"Feature","properties":{"highway":"cycleway","name":null,"category":"Dedicated cycleway"},"geometry":{"type":"MultiLineString","coordinates":[[[-0.0591739,51.5569745],[-0.0591534,51.5569532],[-0.0591207,51.5569562],[-0.0591086,51.5569806]]]}},
{"type":"Feature","properties":{"highway":"cycleway","name":null,"category":"Dedicated cycleway"},"geometry":{"type":"MultiLineString","coordinates":[[[-0.0578387,51.5527479],[-0.0578296,51.5527486],[-0.0577998,51.5527505],[-0.0577596,51.5527542],[-0.0577395,51.552759],[-0.0577339,51.552761]]]}},
{"type":"Feature","properties":{"highway":"cycleway","name":null,"category":"Dedicated cycleway"},"geometry":{"type":"MultiLineString","coordinates":[[[-0.0577339,51.552761],[-0.0576858,51.5527786]]]}},
{"type":"Feature","properties":{"highway":"cycleway","name":null,"category":"Dedicated cycleway"},"geometry":{"type":"MultiLineString","coordinates":[[[-0.0579223,51.5528652],[-0.0578891,51.5528504]]]}},
{"type":"Feature","properties":{"highway":"cycleway","name":null,"category":"Dedicated cycleway"},"geometry":{"type":"MultiLineString","coordinates":[[[-0.0580957,51.5527494],[-0.0580519,51.55276],[-0.0580236,51.5527706]]]}},
{"type":"Feature","properties":{"highway":"cycleway","name":null,"category":"Dedicated cycleway"},"geometry":{"type":"MultiLineString","coordinates":[[[-0.0581208,51.5526943],[-0.0581003,51.5527359]]]}},
{"type":"Feature","properties":{"highway":"cycleway","name":"Evering Road","category":"Dedicated cycleway"},"geometry":{"type":"MultiLineString","coordinates":[[[-0.0629982,51.5601409],[-0.0629352,51.5601529]]]}},
{"type":"Feature","properties":{"highway":"cycleway","name":"Benthal Road","category":"Dedicated cycleway"},"geometry":{"type":"MultiLineString","coordinates":[[[-0.0663507,51.5588988],[-0.0663371,51.5588766]]]}},
{"type":"Feature","properties":{"highway":"cycleway","name":null,"category":"Dedicated cycleway"},"geometry":{"type":"MultiLineString","coordinates":[[[-0.0526748,51.5524624],[-0.0526979,51.5524537]]]}},
{"type":"Feature","properties":{"highway":"cycleway","name":null,"category":"Dedicated cycleway"},"geometry":{"type":"MultiLineString","coordinates":[[[-0.0526979,51.5524537],[-0.0527235,51.552445],[-0.0527523,51.5524351]]]}},
{"type":"Feature","properties":{"highway":"cycleway","name":null,"category":"Dedicated cycleway"},"geometry":{"type":"MultiLineString","coordinates":[[[-0.0531185,51.5591274],[-0.0530356,51.5591626],[-0.0529125,51.559223],[-0.0529018,51.559238],[-0.0528961,51.5592577],[-0.0528969,51.5592928]]]}},
{"type":"Feature","properties":{"highway":"cycleway","name":null,"category":"Dedicated cycleway"},"geometry":{"type":"MultiLineString","coordinates":[[[-0.0547373,51.5597007],[-0.0547305,51.5597325],[-0.0546957,51.5597406],[-0.0546619,51.5597175]]]}},
{"type":"Feature","properties":{"highway":"path","name":null,"category":"Shared path"},"geometry":{"type":"MultiLineString","coordinates":[[[-0.0637962,51.5520362],[-0.0631308,51.5521466],[-0.0626685,51.5522053],[-0.0624218,51.5522495],[-0.0620248,51.5523054],[-0.061607,51.5523201],[-0.0610477,51.5523635]]]}},
{"type":"Feature","properties":{"highway":"cycleway","name":null,"category":"Dedicated cycleway"},"geometry":{"type":"MultiLineString","coordinates":[[[-0.0609115,51.5541992],[-0.0609475,51.5541833],[-0.0610498,51.5540846]]]}},
{"type":"Feature","properties":{"highway":"cycleway","name":null,"category":"Dedicated cycleway"},"geometry":{"type":"MultiLineString","coordinates":[[[-0.0589652,51.5554938],[-0.0590443,51.5554575],[-0.059258,51.5553361],[-0.0598703,51.5549143],[-0.0598993,51.5548929],[-0.0608595,51.5542223],[-0.0609115,51.5541992]]]}},
{"type":"Feature","properties":{"highway":"cycleway","name":null,"category":"Dedicated cycleway"},"geometry":{"type":"MultiLineString","coordinates":[[[-0.0612658,51.5540463],[-0.0610498,51.5540846]]]}},
{"type":"Feature","properties":{"highway":"cycleway","name":null,"category":"Dedicated cycleway"},"geometry":{"type":"MultiLineString","coordinates":[[[-0.0612367,51.5541475],[-0.0611986,51.5541382],[-0.0610498,51.5540846],[-0.0608435,51.5539945]]]}},
{"type":"Feature","properties":{"highway":"cycleway","name":null,"category":"Dedicated cycleway"},"geometry":{"type":"MultiLineString","coordinates":[[[-0.0608435,51.5539945],[-0.060828,51.5539878],[-0.0607671,51.553979],[-0.0606478,51.5539308],[-0.0592312,51.5533297],[-0.0587662,51.5531305]]]}},
{"type":"Feature","properties":{"highway":"cycleway","name":"Farleigh Road","category":"Dedicated cycleway"},"geometry":{"type":"MultiLineString","coordinates":[[[-0.0681893,51.5555856],[-0.0681285,51.5555755]]]}},
{"type":"Feature","properties":{"highway":"cycleway","name":"Farleigh Road","category":"Dedicated cycleway"},"geometry":{"type":"MultiLineString","coordinates":[[[-0.0682347,51.5555864],[-0.0682309,51.5555863],[-0.0682023,51.5555859],[-0.0681893,51.5555856]]]}},
{"type":"Feature","properties":{"highway":"cycleway","name":null,"category":"Dedicated cycleway"},"geometry":{"type":"MultiLineString","coordinates":[[[-0.0526632,51.552548],[-0.0526505,51.5525495],[-0.0526371,51.5525326],[-0.0526001,51.5524898]]]}},
{"type":"Feature","properties":{"highway":"cycleway","name":null,"category":"Dedicated cycleway"},"geometry":{"type":"MultiLineString","coordinates":[[[-0.0492346,51.5609178],[-0.0492092,51.560927],[-0.0491957,51.5609295],[-0.0491794,51.5609302],[-0.0491659,51.5609287],[-0.0491542,51.5609272],[-0.0491319,51.5609208],[-0.0491128,51.5609115]]]}},
{"type":"Feature","properties":{"highway":"cycleway","name":null,"category":"Dedicated cycleway"},"geometry":{"type":"MultiLineString","coordinates":[[[-0.0490528,51.5609303],[-0.0489263,51.5609794],[-0.0473645,51.5616314],[-0.047108,51.5617507],[-0.0465266,51.5619962]]]}},
{"type":"Feature","properties":{"highway":"cycleway","name":null,"category":"Dedicated cycleway"},"geometry":{"type":"MultiLineString","coordinates":[[[-0.0529773,51.5591007],[-0.0529311,51.5590552],[-0.052891,51.5590158]]]}},
{"type":"Feature","properties":{"highway":"cycleway","name":null,"category":"Dedicated cycleway"},"geometry":{"type":"MultiLineString","coordinates":[[[-0.0527202,51.5593988],[-0.0516913,51.5598298],[-0.0516744,51.5598369],[-0.0492206,51.5608796]]]}},
{"type":"Feature","properties":{"highway":"cycleway","name":null,"category":"Dedicated cycleway"},"geometry":{"type":"MultiLineString","coordinates":[[[-0.0579184,51.5528891],[-0.0578919,51.5529091]]]}},
{"type":"Feature","properties":{"highway":"cycleway","name":null,"category":"Dedicated cycleway"},"geometry":{"type":"MultiLineString","coordinates":[[[-0.0527637,51.5593813],[-0.0527307,51.559394],[-0.0527202,51.5593988]]]}},
{"type":"Feature","properties":{"highway":"cycleway","name":null,"category":"Dedicated cycleway"},"geometry":{"type":"MultiLineString","coordinates":[[[-0.0531882,51.5592027],[-0.0532269,51.5592764],[-0.0532396,51.5593134],[-0.0532785,51.5594249],[-0.0534261,51.5595054],[-0.0534599,51.5595108]]]}},
{"type":"Feature","properties":{"highway":"cycleway","name":"Brooke Road","category":"Dedicated cycleway"},"geometry":{"type":"MultiLineString","coordinates":[[[-0.0703588,51.5601696],[-0.0703762,51.56017]]]}},
{"type":"Feature","properties":{"highway":"cycleway","name":null,"category":"Dedicated cycleway"},"geometry":{"type":"MultiLineString","coordinates":[[[-0.0530784,51.559082],[-0.0529913,51.5591142]]]}},
{"type":"Feature","properties":{"highway":"cycleway","name":null,"category":"Dedicated cycleway"},"geometry":{"type":"MultiLineString","coordinates":[[[-0.0527637,51.5593813],[-0.0527146,51.5594296]]]}},
{"type":"Feature","properties":{"highway":"cycleway","name":null,"category":"Dedicated cycleway"},"geometry":{"type":"MultiLineString","coordinates":[[[-0.0531475,51.5591768],[-0.0531628,51.5591814],[-0.0531786,51.5591904],[-0.0531882,51.5592027]]]}},
{"type":"Feature","properties":{"highway":"cycleway","name":null,"category":"Dedicated cycleway"},"geometry":{"type":"MultiLineString","coordinates":[[[-0.0529913,51.5591142],[-0.0529773,51.5591007]]]}},
{"type":"Feature","properties":{"highway":"cycleway","name":null,"category":"Dedicated cycleway"},"geometry":{"type":"MultiLineString","coordinates":[[[-0.0491532,51.5608576],[-0.0491337,51.5608679],[-0.0491193,51.5608769]]]}},
{"type":"Feature","properties":{"highway":"cycleway","name":null,"category":"Dedicated cycleway"},"geometry":{"type":"MultiLineString","coordinates":[[[-0.0491128,51.5609115],[-0.0490528,51.5609303]]]}},
{"type":"Feature","properties":{"highway":"cycleway","name":null,"category":"Dedicated cycleway"},"geometry":{"type":"MultiLineString","coordinates":[[[-0.0492206,51.5608796],[-0.0491951,51.5608898]]]}},
{"type":"Feature","properties":{"highway":"cycleway","name":null,"category":"Dedicated cycleway"},"geometry":{"type":"MultiLineString","coordinates":[[[-0.0491951,51.5608898],[-0.0492346,51.5609178]]]}},
{"type":"Feature","properties":{"highway":"cycleway","name":null,"category":"Dedicated cycleway"},"geometry":{"type":"MultiLineString","coordinates":[[[-0.0530784,51.559082],[-0.0530833,51.559087],[-0.0530934,51.5590973]]]}},
{"type":"Feature","properties":{"highway":"cycleway","name":null,"category":"Dedicated cycleway"},"geometry":{"type":"MultiLineString","coordinates":[[[-0.0492618,51.560934],[-0.0492346,51.5609178]]]}},
{"type":"Feature","properties":{"highway":"cycleway","name":null,"category":"Dedicated cycleway"},"geometry":{"type":"MultiLineString","coordinates":[[[-0.0491193,51.5608769],[-0.0491138,51.5608891],[-0.0491116,51.5609014],[-0.0491128,51.5609115]]]}},
{"type":"Feature","properties":{"highway":"cycleway","name":null,"category":"Dedicated cycleway"},"geometry":{"type":"MultiLineString","coordinates":[[[-0.0590444,51.5562108],[-0.059095,51.5562077]]]}},
{"type":"Feature","properties":{"highway":"cycleway","name":null,"category":"Dedicated cycleway"},"geometry":{"type":"MultiLineString","coordinates":[[[-0.0528229,51.5525237],[-0.0527728,51.5525622]]]}},
{"type":"Feature","properties":{"highway":"cycleway","name":null,"category":"Dedicated cycleway"},"geometry":{"type":"MultiLineString","coordinates":[[[-0.0527308,51.5525453],[-0.0526632,51.552548]]]}},
{"type":"Feature","properties":{"highway":"cycleway","name":null,"category":"Dedicated cycleway"},"geometry":{"type":"MultiLineString","coordinates":[[[-0.0524742,51.5524082],[-0.0524823,51.5524157]]]}},
{"type":"Feature","properties":{"highway":"cycleway","name":"Kenninghall Road","category":"Dedicated cycleway"},"geometry":{"type":"MultiLineString","coordinates":[[[-0.056522,51.5582831],[-0.0566019,51.5583098],[-0.0566767,51.5583251],[-0.056741,51.5583309],[-0.0568269,51.5583377]]]}},
{"type":"Feature","properties":{"highway":"cycleway","name":null,"category":"Dedicated cycleway"},"geometry":{"type":"MultiLineString","coordinates":[[[-0.0556112,51.5579451],[-0.0556516,51.557941],[-0.0556738,51.5579455]]]}},
{"type":"Feature","properties":{"highway":"cycleway","name":"Lea Bridge Roundabout","category":"Dedicated cycleway"},"geometry":{"type":"MultiLineString","coordinates":[[[-0.0557573,51.5579936],[-0.0558024,51.5580254],[-0.0558517,51.5580485],[-0.0558784,51.5580572],[-0.0558912,51.5580614]]]}},
{"type":"Feature","properties":{"highway":"cycleway","name":null,"category":"Dedicated cycleway"},"geometry":{"type":"MultiLineString","coordinates":[[[-0.056107,51.5589075],[-0.056101,51.5589073],[-0.0560583,51.5589029],[-0.0559849,51.5588903]]]}},
{"type":"Feature","properties":{"highway":"cycleway","name":"Lea Bridge Roundabout","category":"Dedicated cycleway"},"geometry":{"type":"MultiLineString","coordinates":[[[-0.0559849,51.5588903],[-0.055952,51.558878],[-0.0558698,51.5588679],[-0.0558462,51.558865]]]}},
{"type":"Feature","properties":{"highway":"cycleway","name":null,"category":"Dedicated cycleway"},"geometry":{"type":"MultiLineString","coordinates":[[[-0.0551491,51.5586654],[-0.0551148,51.5586531],[-0.0551114,51.5586484]]]}},
{"type":"Feature","properties":{"highway":"cycleway","name":"Lea Bridge Roundabout","category":"Dedicated cycleway"},"geometry":{"type":"MultiLineString","coordinates":[[[-0.0551391,51.558576],[-0.0551716,51.5585495],[-0.0551931,51.558522],[-0.0552021,51.5584861],[-0.0552066,51.558455],[-0.0552097,51.5584362]]]}},
{"type":"Feature","properties":{"highway":"cycleway","name":null,"category":"Dedicated cycleway"},"geometry":{"type":"MultiLineString","coordinates":[[[-0.055281,51.5582415],[-0.0552894,51.558223]]]}},
{"type":"Feature","properties":{"highway":"cycleway","name":null,"category":"Dedicated cycleway"},"geometry":{"type":"MultiLineString","coordinates":[[[-0.0556416,51.5588401],[-0.0556151,51.5588353]]]}},
{"type":"Feature","properties":{"highway":"cycleway","name":null,"category":"Dedicated cycleway"},"geometry":{"type":"MultiLineString","coordinates":[[[-0.0564659,51.5584653],[-0.0564478,51.5585223],[-0.0564184,51.5585955],[-0.05641,51.5586163]]]}},
{"type":"Feature","properties":{"highway":"cycleway","name":null,"category":"Dedicated cycleway"},"geometry":{"type":"MultiLineString","coordinates":[[[-0.0565272,51.5582997],[-0.0565166,51.5583266],[-0.056507,51.5583509]]]}},
{"type":"Feature","properties":{"highway":"cycleway","name":"Lea Bridge Roundabout","category":"Dedicated cycleway"},"geometry":{"type":"MultiLineString","coordinates":[[[-0.056522,51.5582831],[-0.0565278,51.5582977],[-0.0565272,51.5582997]]]}},
{"type":"Feature","properties":{"highway":"cycleway","name":"Clapton Passage","category":"Dedicated cycleway"},"geometry":{"type":"MultiLineString","coordinates":[[[-0.0526537,51.5523263],[-0.0526671,51.5523218]]]}},
{"type":"Feature","properties":{"highway":"cycleway","name":"Upper Clapton Road","category":"Dedicated cycleway"},"geometry":{"type":"MultiLineString","coordinates":[[[-0.0561261,51.5589033],[-0.0561256,51.5589085],[-0.0561244,51.5589199],[-0.0561219,51.558944],[-0.0561249,51.5589686],[-0.0561262,51.5589796],[-0.0561301,51.5589931],[-0.056138,51.5590087],[-0.0561429,51.5590207],[-0.0561663,51.5590575],[-0.0561635,51.5590681],[-0.0561496,51.5590807],[-0.0562774,51.5593152],[-0.0562169,51.5593598]]]}},
{"type":"Feature","properties":{"highway":"cycleway","name":null,"category":"Dedicated cycleway"},"geometry":{"type":"MultiLineString","coordinates":[[[-0.0561261,51.5589033],[-0.056107,51.5589075]]]}},
{"type":"Feature","properties":{"highway":"cycleway","name":null,"category":"Dedicated cycleway"},"geometry":{"type":"MultiLineString","coordinates":[[[-0.0552894,51.558223],[-0.0553652,51.5581655],[-0.0553855,51.5581501],[-0.0555003,51.5580661],[-0.0555068,51.5580583],[-0.0555534,51.5580025],[-0.0556112,51.5579451]]]}},
{"type":"Feature","properties":{"highway":"cycleway","name":null,"category":"Dedicated cycleway"},"geometry":{"type":"MultiLineString","coordinates":[[[-0.0556738,51.5579455],[-0.0557204,51.5579724],[-0.0557573,51.5579936]]]}},
{"type":"Feature","properties":{"highway":"cycleway","name":"Lower Clapton Road","category":"Dedicated cycleway"},"geometry":{"type":"MultiLineString","coordinates":[[[-0.0556112,51.5579451],[-0.055641,51.5579044],[-0.0556542,51.5578832],[-0.0556638,51.5578663],[-0.0556704,51.5578553],[-0.0556869,51.557828],[-0.0557137,51.5578089],[-0.0557564,51.5577529],[-0.0557845,51.5576194],[-0.055792,51.5574848],[-0.0558635,51.5574343]]]}},
{"type":"Feature","properties":{"highway":"cycleway","name":"Lea Bridge Roundabout","category":"Dedicated cycleway"},"geometry":{"type":"MultiLineString","coordinates":[[[-0.0561352,51.5581245],[-0.056237,51.5581646],[-0.0562987,51.5581892],[-0.0563297,51.5582023],[-0.0564434,51.5582503],[-0.056522,51.5582831]]]}},
{"type":"Feature","properties":{"highway":"cycleway","name":"Lea Bridge Roundabout","category":"Dedicated cycleway"},"geometry":{"type":"MultiLineString","coordinates":[[[-0.0560975,51.5581168],[-0.0561352,51.5581245]]]}},
{"type":"Feature","properties":{"highway":"cycleway","name":null,"category":"Dedicated cycleway"},"geometry":{"type":"MultiLineString","coordinates":[[[-0.05641,51.5586163],[-0.0563842,51.5586592]]]}},
{"type":"Feature","properties":{"highway":"cycleway","name":null,"category":"Dedicated cycleway"},"geometry":{"type":"MultiLineString","coordinates":[[[-0.0551114,51.5586484],[-0.0551239,51.5586076],[-0.0551391,51.558576]]]}},
{"type":"Feature","properties":{"highway":"cycleway","name":"Kenninghall Road","category":"Dedicated cycleway"},"geometry":{"type":"MultiLineString","coordinates":[[[-0.0568269,51.5583377],[-0.056869,51.55838]]]}},
{"type":"Feature","properties":{"highway":"cycleway","name":"Kenninghall Road","category":"Dedicated cycleway"},"geometry":{"type":"MultiLineString","coordinates":[[[-0.0574526,51.5583914],[-0.0573989,51.5584457]]]}},
{"type":"Feature","properties":{"highway":"cycleway","name":null,"category":"Dedicated cycleway"},"geometry":{"type":"MultiLineString","coordinates":[[[-0.0537487,51.5588262],[-0.0537265,51.5587892],[-0.0537211,51.5587803]]]}},
{"type":"Feature","properties":{"highway":"cycleway","name":null,"category":"Dedicated cycleway"},"geometry":{"type":"MultiLineString","coordinates":[[[-0.0491951,51.5608898],[-0.0491532,51.5608576]]]}},
{"type":"Feature","properties":{"highway":"cycleway","name":null,"category":"Dedicated cycleway"},"geometry":{"type":"MultiLineString","coordinates":[[[-0.0579223,51.5528652],[-0.057915,51.5528783],[-0.0579184,51.5528891]]]}},
{"type":"Feature","properties":{"highway":"cycleway","name":null,"category":"Dedicated cycleway"},"geometry":{"type":"MultiLineString","coordinates":[[[-0.0577663,51.5527956],[-0.0577871,51.5528038]]]}},
{"type":"Feature","properties":{"highway":"cycleway","name":null,"category":"Dedicated cycleway"},"geometry":{"type":"MultiLineString","coordinates":[[[-0.0582266,51.5530509],[-0.0581513,51.5530316],[-0.0580646,51.5530359],[-0.0580399,51.5530366]]]}},
{"type":"Feature","properties":{"highway":"cycleway","name":null,"category":"Dedicated cycleway"},"geometry":{"type":"MultiLineString","coordinates":[[[-0.0587736,51.5555847],[-0.0588049,51.5555661],[-0.0589652,51.5554938]]]}},
{"type":"Feature","properties":{"highway":"cycleway","name":"Lea Bridge Road","category":"Dedicated cycleway"},"geometry":{"type":"MultiLineString","coordinates":[[[-0.0505384,51.5599942],[-0.0505737,51.5599672],[-0.0505998,51.5599568],[-0.0506891,51.5599213],[-0.0508555,51.5598551],[-0.0509224,51.5598388],[-0.0509762,51.5598243],[-0.0509899,51.5598182]]]}},
{"type":"Feature","properties":{"highway":"cycleway","name":"Lea Bridge Road","category":"Dedicated cycleway"},"geometry":{"type":"MultiLineString","coordinates":[[[-0.0494295,51.5605396],[-0.0494326,51.5604732]]]}},
{"type":"Feature","properties":{"highway":"cycleway","name":null,"category":"Dedicated cycleway"},"geometry":{"type":"MultiLineString","coordinates":[[[-0.0587662,51.5531305],[-0.0582671,51.5530613],[-0.0582266,51.5530509]]]}},
{"type":"Feature","properties":{"highway":"cycleway","name":null,"category":"Dedicated cycleway"},"geometry":{"type":"MultiLineString","coordinates":[[[-0.0509416,51.5597762],[-0.0509608,51.5597528]]]}},
{"type":"Feature","properties":{"highway":"cycleway","name":null,"category":"Dedicated cycleway"},"geometry":{"type":"MultiLineString","coordinates":[[[-0.0509608,51.5597528],[-0.051009,51.5597504]]]}},
{"type":"Feature","properties":{"highway":"cycleway","name":null,"category":"Dedicated cycleway"},"geometry":{"type":"MultiLineString","coordinates":[[[-0.0509862,51.559815],[-0.050977,51.559807],[-0.0509598,51.5597921],[-0.0509416,51.5597762]]]}},
{"type":"Feature","properties":{"highway":"cycleway","name":null,"category":"Dedicated cycleway"},"geometry":{"type":"MultiLineString","coordinates":[[[-0.051009,51.5597504],[-0.0510215,51.5597612],[-0.0510425,51.5597786],[-0.0510511,51.5597854]]]}},
{"type":"Feature","properties":{"highway":"cycleway","name":null,"category":"Dedicated cycleway"},"geometry":{"type":"MultiLineString","coordinates":[[[-0.0509899,51.5598182],[-0.0509862,51.559815]]]}},
{"type":"Feature","properties":{"highway":"cycleway","name":null,"category":"Dedicated cycleway"},"geometry":{"type":"MultiLineString","coordinates":[[[-0.0510511,51.5597854],[-0.0510545,51.5597882]]]}},
{"type":"Feature","properties":{"highway":"cycleway","name":"Lea Bridge Road","category":"Dedicated cycleway"},"geometry":{"type":"MultiLineString","coordinates":[[[-0.0509899,51.5598182],[-0.0510256,51.5598015]]]}},
{"type":"Feature","properties":{"highway":"cycleway","name":null,"category":"Dedicated cycleway"},"geometry":{"type":"MultiLineString","coordinates":[[[-0.0610498,51.5540846],[-0.0611897,51.5539774]]]}},
{"type":"Feature","properties":{"highway":"cycleway","name":null,"category":"Dedicated cycleway"},"geometry":{"type":"MultiLineString","coordinates":[[[-0.0611897,51.5539774],[-0.0612397,51.553939]]]}},
{"type":"Feature","properties":{"highway":"cycleway","name":null,"category":"Dedicated cycleway"},"geometry":{"type":"MultiLineString","coordinates":[[[-0.0612397,51.553939],[-0.0613379,51.5540335]]]}},
{"type":"Feature","properties":{"highway":"cycleway","name":"Bodney Road","category":"Dedicated cycleway"},"geometry":{"type":"MultiLineString","coordinates":[[[-0.060072,51.5522974],[-0.0601023,51.5523088],[-0.0601043,51.5523144],[-0.0601269,51.5523779],[-0.0601307,51.5523874],[-0.0601437,51.5524196]]]}},
{"type":"Feature","properties":{"highway":"cycleway","name":"Lea Bridge Road","category":"Dedicated cycleway"},"geometry":{"type":"MultiLineString","coordinates":[[[-0.0531079,51.5589316],[-0.053159,51.558916],[-0.053202,51.5589029],[-0.053267,51.5588876],[-0.0534185,51.5588517],[-0.0536565,51.5587958],[-0.0536899,51.5587879],[-0.0537211,51.5587803],[-0.0537614,51.5587706],[-0.0537889,51.5587639],[-0.0538581,51.5587473],[-0.0539214,51.5587318],[-0.0539982,51.5587132],[-0.0541262,51.5586822],[-0.0541705,51.5586702],[-0.0542879,51.5586384],[-0.0543338,51.558626],[-0.0543686,51.5586123],[-0.0544096,51.5586005],[-0.0545248,51.5585674],[-0.0546934,51.5585184],[-0.0547869,51.5584908],[-0.0548435,51.5584734],[-0.0549275,51.5584319],[-0.0549538,51.558403],[-0.0550147,51.5583704],[-0.0550201,51.5583663],[-0.0550468,51.5583515],[-0.055064,51.5583397],[-0.0551507,51.5582898],[-0.0552069,51.5582787],[-0.0552894,51.558223]]]}},
{"type":"Feature","properties":{"highway":"cycleway","name":"Lea Bridge Road","category":"Dedicated cycleway"},"geometry":{"type":"MultiLineString","coordinates":[[[-0.0530133,51.558966],[-0.0530669,51.5589457],[-0.0531079,51.5589316]]]}},
{"type":"Feature","properties":{"highway":"cycleway","name":null,"category":"Dedicated cycleway"},"geometry":{"type":"MultiLineString","coordinates":[[[-0.0579204,51.5527413],[-0.0578387,51.5527479]]]}},
{"type":"Feature","properties":{"highway":"cycleway","name":"Brooke Road","category":"Dedicated cycleway"},"geometry":{"type":"MultiLineString","coordinates":[[[-0.0703014,51.560173],[-0.0703588,51.5601696]]]}},
{"type":"Feature","properties":{"highway":"cycleway","name":"Brooke Road","category":"Dedicated cycleway"},"geometry":{"type":"MultiLineString","coordinates":[[[-0.0705232,51.5601751],[-0.0705441,51.5602034]]]}},
{"type":"Feature","properties":{"highway":"cycleway","name":null,"category":"Dedicated cycleway"},"geometry":{"type":"MultiLineString","coordinates":[[[-0.0528969,51.5592928],[-0.0527637,51.5593813]]]}},
{"type":"Feature","properties":{"highway":"cycleway","name":null,"category":"Dedicated cycleway"},"geometry":{"type":"MultiLineString","coordinates":[[[-0.0530934,51.5590973],[-0.0530999,51.5591038],[-0.0531185,51.5591274]]]}},
{"type":"Feature","properties":{"highway":"cycleway","name":null,"category":"Dedicated cycleway"},"geometry":{"type":"MultiLineString","coordinates":[[[-0.052891,51.5590158],[-0.0528866,51.5590114]]]}},
{"type":"Feature","properties":{"highway":"cycleway","name":null,"category":"Dedicated cycleway"},"geometry":{"type":"MultiLineString","coordinates":[[[-0.0580399,51.5530366],[-0.0580145,51.5530373]]]}},
{"type":"Feature","properties":{"highway":"cycleway","name":"Lea Bridge Road","category":"Dedicated cycleway"},"geometry":{"type":"MultiLineString","coordinates":[[[-0.0494326,51.5604732],[-0.0505017,51.5600216],[-0.0505384,51.5599942]]]}},
{"type":"Feature","properties":{"highway":"cycleway","name":null,"category":"Dedicated cycleway"},"geometry":{"type":"MultiLineString","coordinates":[[[-0.0661192,51.5550597],[-0.0662738,51.5553317]]]}},
{"type":"Feature","properties":{"highway":"cycleway","name":null,"category":"Dedicated cycleway"},"geometry":{"type":"MultiLineString","coordinates":[[[-0.0528411,51.5525093],[-0.0528229,51.5525237]]]}},
{"type":"Feature","properties":{"highway":"cycleway","name":null,"category":"Dedicated cycleway"},"geometry":{"type":"MultiLineString","coordinates":[[[-0.0525001,51.5524322],[-0.052524,51.5524543]]]}},
{"type":"Feature","properties":{"highway":"path","name":null,"category":"Shared path"},"geometry":{"type":"MultiLineString","coordinates":[[[-0.0674154,51.5571753],[-0.0674528,51.5571672],[-0.0673704,51.5570038],[-0.0673281,51.5569701]]]}},
{"type":"Feature","properties":{"highway":"path","name":null,"category":"Shared path"},"geometry":{"type":"MultiLineString","coordinates":[[[-0.0672672,51.5572453],[-0.0673166,51.5571976],[-0.0674154,51.5571753]]]}},
{"type":"Feature","properties":{"highway":"cycleway","name":null,"category":"Dedicated cycleway"},"geometry":{"type":"MultiLineString","coordinates":[[[-0.0663634,51.5554759],[-0.0663626,51.5555092]]]}},
{"type":"Feature","properties":{"highway":"cycleway","name":null,"category":"Dedicated cycleway"},"geometry":{"type":"MultiLineString","coordinates":[[[-0.0663132,51.5554461],[-0.0663336,51.5554471]]]}},
{"type":"Feature","properties":{"highway":"cycleway","name":null,"category":"Dedicated cycleway"},"geometry":{"type":"MultiLineString","coordinates":[[[-0.0663336,51.5554471],[-0.0663634,51.5554759]]]}},
{"type":"Feature","properties":{"highway":"cycleway","name":"Downs Road","category":"Dedicated cycleway"},"geometry":{"type":"MultiLineString","coordinates":[[[-0.0586618,51.5556215],[-0.0586436,51.5556279],[-0.0586222,51.5556357]]]}},
{"type":"Feature","properties":{"highway":"cycleway","name":"Benthal Road","category":"Dedicated cycleway"},"geometry":{"type":"MultiLineString","coordinates":[[[-0.0663825,51.5589708],[-0.066368,51.5589326]]]}},
{"type":"Feature","properties":{"highway":"cycleway","name":"Benthal Road","category":"Dedicated cycleway"},"geometry":{"type":"MultiLineString","coordinates":[[[-0.066368,51.5589326],[-0.0663637,51.5589212],[-0.0663507,51.5588988]]]}},
{"type":"Feature","properties":{"highway":"cycleway","name":"Maury Road","category":"Dedicated cycleway"},"geometry":{"type":"MultiLineString","coordinates":[[[-0.0651348,51.5592472],[-0.0651102,51.5592148]]]}},
{"type":"Feature","properties":{"highway":"cycleway","name":"Maury Road","category":"Dedicated cycleway"},"geometry":{"type":"MultiLineString","coordinates":[[[-0.0652006,51.5593323],[-0.0651695,51.5592926]]]}},
{"type":"Feature","properties":{"highway":"cycleway","name":"Evering Road","category":"Dedicated cycleway"},"geometry":{"type":"MultiLineString","coordinates":[[[-0.0628952,51.5601605],[-0.0628526,51.5601686]]]}},
{"type":"Feature","properties":{"highway":"cycleway","name":"Evering Road","category":"Dedicated cycleway"},"geometry":{"type":"MultiLineString","coordinates":[[[-0.0629352,51.5601529],[-0.0628952,51.5601605]]]}},
{"type":"Feature","properties":{"highway":"cycle_lane_on_street","name":"Kenninghall Road","category":"Cycle lane on street"},"geometry":{"type":"MultiLineString","coordinates":[[[-0.0577667,51.5583864],[-0.0574526,51.5583914]]]}}
]
}
