{
"type": "FeatureCollection",
"name": "HACKN_33_cycling",
"crs": { "type": "name", "properties": { "name": "urn:ogc:def:crs:OGC:1.3:CRS84" } },
"features": [
{"type":"Feature","properties":{"highway":"cycleway","name":null,"category":"Dedicated cycleway"},"geometry":{"type":"MultiLineString","coordinates":[[[-0.0589857,51.5410694],[-0.0589805,51.5411063],[-0.0589779,51.5411419],[-0.0590922,51.5412206],[-0.0593969,51.5414302],[-0.0597916,51.5416509],[-0.060356,51.5419665],[-0.0604794,51.5420452],[-0.0607548,51.5422509],[-0.0608219,51.5424501],[-0.0608381,51.5426402],[-0.0608443,51.5427691],[-0.060826,51.5428808],[-0.0607843,51.5429985],[-0.0607762,51.5430213],[-0.0608791,51.5433806],[-0.0608985,51.5434484],[-0.0609062,51.5434737]]]}},
{"type":"Feature","properties":{"highway":"cycleway","name":"Churchill Walk","category":"Dedicated cycleway"},"geometry":{"type":"MultiLineString","coordinates":[[[-0.0492853,51.5519137],[-0.0493076,51.5518979],[-0.049332,51.5518931],[-0.0493706,51.5519005]]]}},
{"type":"Feature","properties":{"highway":"cycleway","name":null,"category":"Dedicated cycleway"},"geometry":{"type":"MultiLineString","coordinates":[[[-0.0587132,51.5556046],[-0.0587736,51.5555847]]]}},
{"type":"Feature","properties":{"highway":"cycleway","name":"Steven's Avenue","category":"Dedicated cycleway"},"geometry":{"type":"MultiLineString","coordinates":[[[-0.0486996,51.5468685],[-0.0487225,51.5468215],[-0.0487433,51.5467788]]]}},
{"type":"Feature","properties":{"highway":"cycleway","name":null,"category":"Dedicated cycleway"},"geometry":{"type":"MultiLineString","coordinates":[[[-0.0607548,51.5422509],[-0.0609424,51.5422364],[-0.0610602,51.5422273]]]}},
{"type":"Feature","properties":{"highway":"cycleway","name":null,"category":"Dedicated cycleway"},"geometry":{"type":"MultiLineString","coordinates":[[[-0.0550269,51.5495929],[-0.0550137,51.5495504]]]}},
{"type":"Feature","properties":{"highway":"cycleway","name":"Hackney Grove","category":"Dedicated cycleway"},"geometry":{"type":"MultiLineString","coordinates":[[[-0.0561057,51.5446825],[-0.0561394,51.5446262],[-0.0562286,51.5444636],[-0.0563969,51.5442084],[-0.0565233,51.5440355],[-0.0566876,51.5438313],[-0.0567873,51.5437072],[-0.0569707,51.5434941]]]}},
{"type":"Feature","properties":{"highway":"cycleway","name":null,"category":"Dedicated cycleway"},"geometry":{"type":"MultiLineString","coordinates":[[[-0.0589805,51.5411063],[-0.0590734,51.5410872],[-0.0591053,51.5410753],[-0.0591983,51.5410408],[-0.061264,51.540183],[-0.0613316,51.5401501]]]}},
{"type":"Feature","properties":{"highway":"cycleway","name":null,"category":"Dedicated cycleway"},"geometry":{"type":"MultiLineString","coordinates":[[[-0.0589857,51.5410694],[-0.058933,51.5410729],[-0.0588926,51.5410711]]]}},
{"type":"Feature","properties":{"highway":"cycleway","name":"Sutton Place","category":"Dedicated cycleway"},"geometry":{"type":"MultiLineString","coordinates":[[[-0.0522888,51.5485609],[-0.0522341,51.5485802],[-0.0519776,51.5486296],[-0.0519225,51.5486431],[-0.0518872,51.5486402]]]}},
{"type":"Feature","properties":{"highway":"cycleway","name":null,"category":"Dedicated cycleway"},"geometry":{"type":"MultiLineString","coordinates":[[[-0.0532722,51.550674],[-0.05325,51.5506303]]]}},
{"type":"Feature","properties":{"highway":"cycleway","name":"Mehetabel Road","category":"Dedicated cycleway"},"geometry":{"type":"MultiLineString","coordinates":[[[-0.0515669,51.5476994],[-0.0515244,51.5477016],[-0.051488,51.5477047]]]}},
{"type":"Feature","properties":{"highway":"cycleway","name":"Downs Road","category":"Dedicated cycleway"},"geometry":{"type":"MultiLineString","coordinates":[[[-0.0587132,51.5556046],[-0.0586618,51.5556215]]]}},
{"type":"Feature","properties":{"highway":"cycleway","name":null,"category":"Dedicated cycleway"},"geometry":{"type":"MultiLineString","coordinates":[[[-0.052484,51.5488708],[-0.0525259,51.5488829],[-0.0525489,51.5488895],[-0.0527428,51.5489449],[-0.0527828,51.5489438]]]}},
{"type":"Feature","properties":{"highway":"cycleway","name":null,"category":"Dedicated cycleway"},"geometry":{"type":"MultiLineString","coordinates":[[[-0.0527899,51.5495863],[-0.0527978,51.54958],[-0.0530446,51.5493856]]]}},
{"type":"Feature","properties":{"highway":"cycleway","name":null,"category":"Dedicated cycleway"},"geometry":{"type":"MultiLineString","coordinates":[[[-0.0500144,51.5485664],[-0.049981,51.5486137]]]}},
{"type":"Feature","properties":{"highway":"track","name":null,"category":"Track"},"geometry":{"type":"MultiLineString","coordinates":[[[-0.0487352,51.5478411],[-0.048737,51.5477875],[-0.0487163,51.5477551],[-0.0482971,51.5477406],[-0.0482966,51.5477679],[-0.0482917,51.5478014],[-0.0483151,51.5478304],[-0.0487352,51.5478411],[-0.0489249,51.5478579],[-0.0489676,51.5478472],[-0.0491225,51.5477565]]]}},
{"type":"Feature","properties":{"highway":"cycleway","name":"Link Street","category":"Dedicated cycleway"},"geometry":{"type":"MultiLineString","coordinates":[[[-0.0493142,51.5473677],[-0.0493118,51.5473983],[-0.0493116,51.547431]]]}},
{"type":"Feature","properties":{"highway":"track","name":null,"category":"Track"},"geometry":{"type":"MultiLineString","coordinates":[[[-0.0482971,51.5477406],[-0.0482788,51.5476692],[-0.0482346,51.5475277],[-0.0481446,51.5474529],[-0.0479976,51.5474433]]]}},
{"type":"Feature","properties":{"highway":"cycleway","name":"Lyme Grove","category":"Dedicated cycleway"},"geometry":{"type":"MultiLineString","coordinates":[[[-0.0531873,51.5429258],[-0.0531874,51.5429196],[-0.0528531,51.5431161],[-0.0528163,51.5431387],[-0.0522631,51.5434788]]]}},
{"type":"Feature","properties":{"highway":"cycleway","name":null,"category":"Dedicated cycleway"},"geometry":{"type":"MultiLineString","coordinates":[[[-0.0428891,51.5471973],[-0.0428645,51.5471706],[-0.0428721,51.5471481]]]}},
{"type":"Feature","properties":{"highway":"cycleway","name":"Downs Lane","category":"Dedicated cycleway"},"geometry":{"type":"MultiLineString","coordinates":[[[-0.059066,51.5563413],[-0.0590596,51.5562982],[-0.0590444,51.5562108],[-0.0590284,51.5561599],[-0.0589936,51.5559554],[-0.0589885,51.5559287]]]}},
{"type":"Feature","properties":{"highway":"cycleway","name":null,"category":"Dedicated cycleway"},"geometry":{"type":"MultiLineString","coordinates":[[[-0.0428721,51.5471481],[-0.0429491,51.5470017]]]}},
{"type":"Feature","properties":{"highway":"cycleway","name":null,"category":"Dedicated cycleway"},"geometry":{"type":"MultiLineString","coordinates":[[[-0.0429491,51.5470017],[-0.0429593,51.5469814],[-0.0429689,51.5469635],[-0.0429648,51.5468902]]]}},
{"type":"Feature","properties":{"highway":"cycleway","name":null,"category":"Dedicated cycleway"},"geometry":{"type":"MultiLineString","coordinates":[[[-0.0549087,51.5478192],[-0.0545104,51.5479632],[-0.0539916,51.5481727],[-0.0535777,51.5482424]]]}},
{"type":"Feature","properties":{"highway":"cycleway","name":null,"category":"Dedicated cycleway"},"geometry":{"type":"MultiLineString","coordinates":[[[-0.0550137,51.5495504],[-0.0549973,51.5494943]]]}},
{"type":"Feature","properties":{"highway":"path","name":null,"category":"Shared path"},"geometry":{"type":"MultiLineString","coordinates":[[[-0.0612538,51.5470119],[-0.0612805,51.5468484]]]}},
{"type":"Feature","properties":{"highway":"cycleway","name":"Churchwell Path","category":"Dedicated cycleway"},"geometry":{"type":"MultiLineString","coordinates":[[[-0.0522888,51.5485609],[-0.0522611,51.5485313],[-0.0521713,51.548422],[-0.0519463,51.5481442],[-0.051928,51.5481235],[-0.0519106,51.5481017],[-0.051722,51.5478994],[-0.051712,51.5478884],[-0.0516409,51.5477964],[-0.0515737,51.5477084],[-0.0515669,51.5476994],[-0.0515047,51.5476183],[-0.0513753,51.5474399],[-0.0512449,51.5472611],[-0.0511731,51.5471627],[-0.0511257,51.547085]]]}},
{"type":"Feature","properties":{"highway":"cycleway","name":null,"category":"Dedicated cycleway"},"geometry":{"type":"MultiLineString","coordinates":[[[-0.0493974,51.548779],[-0.0493601,51.5487955]]]}},
{"type":"Feature","properties":{"highway":"cycleway","name":null,"category":"Dedicated cycleway"},"geometry":{"type":"MultiLineString","coordinates":[[[-0.0495189,51.5487161],[-0.0494076,51.5487737],[-0.0493974,51.548779]]]}},
{"type":"Feature","properties":{"highway":"cycleway","name":null,"category":"Dedicated cycleway"},"geometry":{"type":"MultiLineString","coordinates":[[[-0.0498548,51.5534577],[-0.0498267,51.5534518],[-0.0498168,51.5534491],[-0.049793,51.5534415],[-0.0497742,51.5534342],[-0.0497311,51.5534175],[-0.0497212,51.5534097],[-0.0497144,51.5534022],[-0.0497087,51.5533959]]]}},
{"type":"Feature","properties":{"highway":"path","name":null,"category":"Shared path"},"geometry":{"type":"MultiLineString","coordinates":[[[-0.052992,51.5522005],[-0.0528909,51.5521005],[-0.0526544,51.551898]]]}},
{"type":"Feature","properties":{"highway":"cycleway","name":"Lamb Lane","category":"Dedicated cycleway"},"geometry":{"type":"MultiLineString","coordinates":[[[-0.0557587,51.540173],[-0.0557717,51.5401755],[-0.0557948,51.5401792],[-0.0560024,51.5402193],[-0.0561137,51.5402273]]]}},
{"type":"Feature","properties":{"highway":"cycleway","name":null,"category":"Dedicated cycleway"},"geometry":{"type":"MultiLineString","coordinates":[[[-0.0569865,51.5434691],[-0.0570168,51.5434311],[-0.0570449,51.5433959]]]}},
{"type":"Feature","properties":{"highway":"cycleway","name":null,"category":"Dedicated cycleway"},"geometry":{"type":"MultiLineString","coordinates":[[[-0.0609488,51.5434829],[-0.0609576,51.5435115]]]}},
{"type":"Feature","properties":{"highway":"cycleway","name":null,"category":"Dedicated cycleway"},"geometry":{"type":"MultiLineString","coordinates":[[[-0.0651488,51.5531602],[-0.0651401,51.5531627],[-0.0650442,51.5531905],[-0.0632145,51.5536041],[-0.0631432,51.5536146],[-0.0626918,51.5537202],[-0.0620782,51.5538637],[-0.0618163,51.5539229],[-0.0617867,51.5539303],[-0.061447,51.5540155],[-0.0613379,51.5540335],[-0.0612658,51.5540463]]]}},
{"type":"Feature","properties":{"highway":"cycleway","name":null,"category":"Dedicated cycleway"},"geometry":{"type":"MultiLineString","coordinates":[[[-0.0641506,51.5548444],[-0.0634416,51.5546766],[-0.0632769,51.5546383],[-0.0627654,51.5545154],[-0.0623203,51.5544084],[-0.0613927,51.5541855],[-0.0612367,51.5541475]]]}},
{"type":"Feature","properties":{"highway":"cycleway","name":null,"category":"Dedicated cycleway"},"geometry":{"type":"MultiLineString","coordinates":[[[-0.0610231,51.552298],[-0.0610371,51.5523353],[-0.0610477,51.5523635],[-0.0612763,51.5529719],[-0.061287,51.5531254],[-0.0612639,51.5533774],[-0.0612437,51.5535982],[-0.0612357,51.5536758],[-0.0612221,51.5538909],[-0.0612397,51.553939]]]}},
{"type":"Feature","properties":{"highway":"cycleway","name":null,"category":"Dedicated cycleway"},"geometry":{"type":"MultiLineString","coordinates":[[[-0.0589107,51.5431195],[-0.0588608,51.5430093],[-0.0587262,51.542802],[-0.0585697,51.5426518],[-0.0583832,51.5425123],[-0.0582805,51.5424444],[-0.058188,51.5423937],[-0.0580215,51.5423097],[-0.0579562,51.5422938]]]}},
{"type":"Feature","properties":{"highway":"cycleway","name":null,"category":"Dedicated cycleway"},"geometry":{"type":"MultiLineString","coordinates":[[[-0.0638374,51.5519168],[-0.0638514,51.5519617],[-0.0638567,51.5519784],[-0.0638574,51.5519957],[-0.0638738,51.5520682],[-0.0642667,51.5524191],[-0.0650442,51.5531905],[-0.0658908,51.5546223],[-0.0661192,51.5550597]]]}},
{"type":"Feature","properties":{"highway":"path","name":null,"category":"Shared path"},"geometry":{"type":"MultiLineString","coordinates":[[[-0.059991,51.5469964],[-0.0599379,51.5470024]]]}},
{"type":"Feature","properties":{"highway":"path","name":null,"category":"Shared path"},"geometry":{"type":"MultiLineString","coordinates":[[[-0.0597549,51.5470124],[-0.0597441,51.5469956],[-0.0597253,51.5470003]]]}},
{"type":"Feature","properties":{"highway":"path","name":null,"category":"Shared path"},"geometry":{"type":"MultiLineString","coordinates":[[[-0.061264,51.540183],[-0.0614211,51.5405476],[-0.0614374,51.5405853],[-0.0615608,51.5410033],[-0.0616593,51.5414048],[-0.0618183,51.5420228],[-0.0617981,51.5420492],[-0.0614472,51.5421515],[-0.0612513,51.5421652],[-0.0610634,51.5421839],[-0.0609764,51.5422127],[-0.0609424,51.5422364]]]}},
{"type":"Feature","properties":{"highway":"cycleway","name":null,"category":"Dedicated cycleway"},"geometry":{"type":"MultiLineString","coordinates":[[[-0.060828,51.5539878],[-0.060824,51.5539403],[-0.0603389,51.5531523],[-0.0603224,51.5531249],[-0.060315,51.5531092],[-0.0603051,51.5530882],[-0.0602722,51.5530244],[-0.0602446,51.5529661],[-0.0600727,51.5524966],[-0.0600666,51.5524767]]]}},
{"type":"Feature","properties":{"highway":"cycleway","name":null,"category":"Dedicated cycleway"},"geometry":{"type":"MultiLineString","coordinates":[[[-0.0580145,51.5530373],[-0.0579583,51.5530388]]]}},
{"type":"Feature","properties":{"highway":"cycleway","name":null,"category":"Dedicated cycleway"},"geometry":{"type":"MultiLineString","coordinates":[[[-0.0587662,51.5531305],[-0.0586784,51.5530924],[-0.0583886,51.5529695],[-0.058348,51.55294],[-0.0583046,51.5529085],[-0.0582467,51.5528634],[-0.0581958,51.5528227],[-0.0581782,51.5527595],[-0.0581721,51.5527394]]]}},
{"type":"Feature","properties":{"highway":"cycleway","name":null,"category":"Dedicated cycleway"},"geometry":{"type":"MultiLineString","coordinates":[[[-0.059484,51.5400865],[-0.0593042,51.5404082],[-0.0591262,51.5407718],[-0.0590038,51.5410079],[-0.0589857,51.5410694]]]}},
{"type":"Feature","properties":{"highway":"cycleway","name":"Mare Street","category":"Dedicated cycleway"},"geometry":{"type":"MultiLineString","coordinates":[[[-0.0552351,51.5420503],[-0.0552451,51.542243]]]}},
{"type":"Feature","properties":{"highway":"cycleway","name":null,"category":"Dedicated cycleway"},"geometry":{"type":"MultiLineString","coordinates":[[[-0.052453,51.5524529],[-0.0524503,51.5524202],[-0.0524742,51.5524082]]]}},
{"type":"Feature","properties":{"highway":"cycleway","name":null,"category":"Dedicated cycleway"},"geometry":{"type":"MultiLineString","coordinates":[[[-0.0527986,51.5497059],[-0.0528199,51.5497017],[-0.0528413,51.5496976]]]}},
{"type":"Feature","properties":{"highway":"path","name":null,"category":"Shared path"},"geometry":{"type":"MultiLineString","coordinates":[[[-0.0488354,51.5474174],[-0.0488191,51.5474756],[-0.0487692,51.5475018],[-0.0487468,51.5477321],[-0.0487163,51.5477551]]]}},
{"type":"Feature","properties":{"highway":"cycleway","name":"Churchwell Path","category":"Dedicated cycleway"},"geometry":{"type":"MultiLineString","coordinates":[[[-0.0532165,51.5505644],[-0.0532095,51.5505549],[-0.0531977,51.5505426],[-0.0531826,51.5505163],[-0.0531695,51.5504793],[-0.0531388,51.550395],[-0.0531241,51.5503547],[-0.0528413,51.5496976],[-0.0527899,51.5495863],[-0.0526098,51.5491327],[-0.052484,51.5488708],[-0.0523248,51.5486022],[-0.0522888,51.5485609]]]}},
{"type":"Feature","properties":{"highway":"cycleway","name":null,"category":"Dedicated cycleway"},"geometry":{"type":"MultiLineString","coordinates":[[[-0.0429462,51.5432093],[-0.0429921,51.5432253],[-0.0445905,51.5440023],[-0.0446785,51.5440453]]]}},
{"type":"Feature","properties":{"highway":"cycleway","name":"Chatham Place","category":"Dedicated cycleway"},"geometry":{"type":"MultiLineString","coordinates":[[[-0.0510676,51.5469868],[-0.0510419,51.5469425]]]}},
{"type":"Feature","properties":{"highway":"cycleway","name":null,"category":"Dedicated cycleway"},"geometry":{"type":"MultiLineString","coordinates":[[[-0.0511139,51.5470657],[-0.0510942,51.5470322]]]}},
{"type":"Feature","properties":{"highway":"cycleway","name":null,"category":"Dedicated cycleway"},"geometry":{"type":"MultiLineString","coordinates":[[[-0.0501884,51.5437221],[-0.0502105,51.5437213],[-0.0502486,51.5437199],[-0.050281,51.5437187],[-0.0503087,51.5437176]]]}},
{"type":"Feature","properties":{"highway":"cycleway","name":null,"category":"Dedicated cycleway"},"geometry":{"type":"MultiLineString","coordinates":[[[-0.0552189,51.5420498],[-0.0551834,51.5420484]]]}},
{"type":"Feature","properties":{"highway":"cycleway","name":null,"category":"Dedicated cycleway"},"geometry":{"type":"MultiLineString","coordinates":[[[-0.0553138,51.5422628],[-0.0552644,51.5422624]]]}},
{"type":"Feature","properties":{"highway":"cycleway","name":"London Lane","category":"Dedicated cycleway"},"geometry":{"type":"MultiLineString","coordinates":[[[-0.0553023,51.5420503],[-0.0552596,51.5420503]]]}},
{"type":"Feature","properties":{"highway":"cycleway","name":"Clapton Passage","category":"Dedicated cycleway"},"geometry":{"type":"MultiLineString","coordinates":[[[-0.0526671,51.5523218],[-0.0527175,51.5523107],[-0.052992,51.5522005],[-0.0536074,51.5519606],[-0.0536451,51.5519365]]]}},
{"type":"Feature","properties":{"highway":"cycleway","name":null,"category":"Dedicated cycleway"},"geometry":{"type":"MultiLineString","coordinates":[[[-0.0526671,51.5523218],[-0.0527044,51.5523511],[-0.0527733,51.552427],[-0.0527523,51.5524351]]]}},
{"type":"Feature","properties":{"highway":"cycleway","name":"Rushmore Road","category":"Dedicated cycleway"},"geometry":{"type":"MultiLineString","coordinates":[[[-0.0491835,51.554325],[-0.0491458,51.5543363],[-0.0490936,51.5543142],[-0.0490744,51.5542867]]]}},
{"type":"Feature","properties":{"highway":"cycleway","name":"Rushmore Road","category":"Dedicated cycleway"},"geometry":{"type":"MultiLineString","coordinates":[[[-0.0490744,51.5542867],[-0.0491221,51.5542809],[-0.0491786,51.5542988],[-0.0491835,51.554325]]]}},
{"type":"Feature","properties":{"highway":"cycleway","name":null,"category":"Dedicated cycleway"},"geometry":{"type":"MultiLineString","coordinates":[[[-0.0552291,51.542244],[-0.0551861,51.5422467]]]}},
{"type":"Feature","properties":{"highway":"cycleway","name":null,"category":"Dedicated cycleway"},"geometry":{"type":"MultiLineString","coordinates":[[[-0.0464097,51.5570709],[-0.0464543,51.5570537],[-0.0465114,51.5570316]]]}},
{"type":"Feature","properties":{"highway":"cycleway","name":null,"category":"Dedicated cycleway"},"geometry":{"type":"MultiLineString","coordinates":[[[-0.0465114,51.5570316],[-0.0465241,51.5570287],[-0.0465621,51.5570248]]]}},
{"type":"Feature","properties":{"highway":"cycleway","name":null,"category":"Dedicated cycleway"},"geometry":{"type":"MultiLineString","coordinates":[[[-0.0466453,51.5567269],[-0.0466589,51.5567734],[-0.0465834,51.5568523]]]}},
{"type":"Feature","properties":{"highway":"cycleway","name":null,"category":"Dedicated cycleway"},"geometry":{"type":"MultiLineString","coordinates":[[[-0.0465834,51.5568523],[-0.0465813,51.5568194],[-0.0465769,51.5568124]]]}},
{"type":"Feature","properties":{"highway":"cycleway","name":"Frampton Park Road","category":"Dedicated cycleway"},"geometry":{"type":"MultiLineString","coordinates":[[[-0.0520429,51.5425919],[-0.0520118,51.5425822],[-0.0519868,51.5425743]]]}},
{"type":"Feature","properties":{"highway":"cycleway","name":"Glenarm Road","category":"Dedicated cycleway"},"geometry":{"type":"MultiLineString","coordinates":[[[-0.0519133,51.5519941],[-0.0518951,51.5519988],[-0.0518592,51.5520081],[-0.0518323,51.5520151]]]}},
{"type":"Feature","properties":{"highway":"cycleway","name":"Clapton Passage","category":"Dedicated cycleway"},"geometry":{"type":"MultiLineString","coordinates":[[[-0.0525864,51.5523518],[-0.0526537,51.5523263]]]}},
{"type":"Feature","properties":{"highway":"cycleway","name":"Martello Street","category":"Dedicated cycleway"},"geometry":{"type":"MultiLineString","coordinates":[[[-0.0575569,51.5428556],[-0.0576361,51.542776]]]}},
{"type":"Feature","properties":{"highway":"cycleway","name":"Martello Street","category":"Dedicated cycleway"},"geometry":{"type":"MultiLineString","coordinates":[[[-0.0570662,51.5433721],[-0.0575569,51.5428556]]]}},
{"type":"Feature","properties":{"highway":"cycleway","name":"Greenwood Road","category":"Dedicated cycleway"},"geometry":{"type":"MultiLineString","coordinates":[[[-0.0635985,51.5457399],[-0.0635929,51.5457286],[-0.0635843,51.5457113],[-0.0636089,51.5456878]]]}},
{"type":"Feature","properties":{"highway":"cycleway","name":"Greenwood Road","category":"Dedicated cycleway"},"geometry":{"type":"MultiLineString","coordinates":[[[-0.0637361,51.545833],[-0.0637428,51.5458451],[-0.0637902,51.5459462],[-0.0637683,51.5459774]]]}},
{"type":"Feature","properties":{"highway":"cycleway","name":"Navarino Road","category":"Dedicated cycleway"},"geometry":{"type":"MultiLineString","coordinates":[[[-0.06214,51.5455852],[-0.0621662,51.5456024],[-0.0621818,51.545633],[-0.062188,51.5456452],[-0.0621734,51.5456581]]]}},
{"type":"Feature","properties":{"highway":"cycleway","name":null,"category":"Dedicated cycleway"},"geometry":{"type":"MultiLineString","coordinates":[[[-0.0557083,51.5401632],[-0.0556814,51.5401565]]]}},
{"type":"Feature","properties":{"highway":"cycleway","name":null,"category":"Dedicated cycleway"},"geometry":{"type":"MultiLineString","coordinates":[[[-0.0557083,51.5401632],[-0.0557587,51.540173]]]}},
{"type":"Feature","properties":{"highway":"cycleway","name":null,"category":"Dedicated cycleway"},"geometry":{"type":"MultiLineString","coordinates":[[[-0.05565,51.5401485],[-0.0556035,51.5401326]]]}},
{"type":"Feature","properties":{"highway":"cycleway","name":null,"category":"Dedicated cycleway"},"geometry":{"type":"MultiLineString","coordinates":[[[-0.054778,51.5474863],[-0.0544956,51.5475322],[-0.0545084,51.5476428],[-0.0545214,51.5477451],[-0.0543128,51.5478153]]]}},
{"type":"Feature","properties":{"highway":"cycleway","name":null,"category":"Dedicated cycleway"},"geometry":{"type":"MultiLineString","coordinates":[[[-0.0577871,51.5528038],[-0.0578351,51.5528257],[-0.0578891,51.5528504]]]}},
{"type":"Feature","properties":{"highway":"cycleway","name":null,"category":"Dedicated cycleway"},"geometry":{"type":"MultiLineString","coordinates":[[[-0.0577179,51.5527891],[-0.0577398,51.5527882],[-0.0577523,51.5527915],[-0.0577663,51.5527956]]]}},
{"type":"Feature","properties":{"highway":"cycleway","name":"Reading Lane","category":"Dedicated cycleway"},"geometry":{"type":"MultiLineString","coordinates":[[[-0.0580416,51.5444655],[-0.0580327,51.5444977],[-0.0579836,51.5445089],[-0.0579468,51.5444908]]]}},
{"type":"Feature","properties":{"highway":"cycleway","name":"Reading Lane","category":"Dedicated cycleway"},"geometry":{"type":"MultiLineString","coordinates":[[[-0.0579468,51.5444908],[-0.057955,51.5444638],[-0.0580044,51.5444514],[-0.0580416,51.5444655]]]}},
{"type":"Feature","properties":{"highway":"cycleway","name":null,"category":"Dedicated cycleway"},"geometry":{"type":"MultiLineString","coordinates":[[[-0.0450423,51.5425544],[-0.045087,51.5425544],[-0.0451196,51.5425664],[-0.0451902,51.5425947]]]}},
{"type":"Feature","properties":{"highway":"cycleway","name":null,"category":"Dedicated cycleway"},"geometry":{"type":"MultiLineString","coordinates":[[[-0.0596294,51.5475944],[-0.0595673,51.5475979],[-0.0595346,51.5475912],[-0.0594931,51.5475657]]]}},
{"type":"Feature","properties":{"highway":"cycleway","name":"Wick Road","category":"Dedicated cycleway"},"geometry":{"type":"MultiLineString","coordinates":[[[-0.0418005,51.5451878],[-0.0421189,51.5451589]]]}},
{"type":"Feature","properties":{"highway":"cycleway","name":null,"category":"Dedicated cycleway"},"geometry":{"type":"MultiLineString","coordinates":[[[-0.0422432,51.5451429],[-0.0422133,51.5450949],[-0.0421999,51.5449034]]]}},
{"type":"Feature","properties":{"highway":"cycleway","name":null,"category":"Dedicated cycleway"},"geometry":{"type":"MultiLineString","coordinates":[[[-0.0422031,51.5447969],[-0.0421947,51.544721],[-0.0421878,51.544675],[-0.0421793,51.544634],[-0.0421535,51.5445529],[-0.0421604,51.5445374],[-0.0422116,51.5445081]]]}},
{"type":"Feature","properties":{"highway":"cycleway","name":null,"category":"Dedicated cycleway"},"geometry":{"type":"MultiLineString","coordinates":[[[-0.0421999,51.5449034],[-0.0422029,51.5448625],[-0.0422031,51.5448614],[-0.0422031,51.5447969]]]}},
{"type":"Feature","properties":{"highway":"cycleway","name":"Wick Road","category":"Dedicated cycleway"},"geometry":{"type":"MultiLineString","coordinates":[[[-0.0421189,51.5451589],[-0.0422432,51.5451429]]]}},
{"type":"Feature","properties":{"highway":"cycleway","name":"Wick Road","category":"Dedicated cycleway"},"geometry":{"type":"MultiLineString","coordinates":[[[-0.0416986,51.5451968],[-0.0418005,51.5451878]]]}},
{"type":"Feature","properties":{"highway":"cycleway","name":null,"category":"Dedicated cycleway"},"geometry":{"type":"MultiLineString","coordinates":[[[-0.0426603,51.5431419],[-0.0426359,51.5431526]]]}},
{"type":"Feature","properties":{"highway":"cycleway","name":null,"category":"Dedicated cycleway"},"geometry":{"type":"MultiLineString","coordinates":[[[-0.0580236,51.5527706],[-0.057995,51.5527919],[-0.0579446,51.5528361],[-0.0579223,51.5528652]]]}},
{"type":"Feature","properties":{"highway":"cycleway","name":null,"category":"Dedicated cycleway"},"geometry":{"type":"MultiLineString","coordinates":[[[-0.0580282,51.5529383],[-0.0580302,51.5529691],[-0.0580399,51.5530366]]]}},
{"type":"Feature","properties":{"highway":"cycleway","name":null,"category":"Dedicated cycleway"},"geometry":{"type":"MultiLineString","coordinates":[[[-0.0611139,51.5435378],[-0.0611678,51.5435495],[-0.0611822,51.5435923],[-0.0611592,51.5436571]]]}},
{"type":"Feature","properties":{"highway":"cycleway","name":"Wick Road","category":"Dedicated cycleway"},"geometry":{"type":"MultiLineString","coordinates":[[[-0.0455087,51.5450116],[-0.0450691,51.5450175],[-0.0444028,51.5450247]]]}},
{"type":"Feature","properties":{"highway":"cycleway","name":"Wick Road","category":"Dedicated cycleway"},"geometry":{"type":"MultiLineString","coordinates":[[[-0.0422432,51.5451429],[-0.0422966,51.5451371],[-0.0423401,51.5451323]]]}},
{"type":"Feature","properties":{"highway":"cycleway","name":"Wick Road","category":"Dedicated cycleway"},"geometry":{"type":"MultiLineString","coordinates":[[[-0.0444028,51.5450247],[-0.0443595,51.5450391],[-0.0441611,51.545042],[-0.0440254,51.5450454],[-0.0439591,51.5450326]]]}},
{"type":"Feature","properties":{"highway":"cycleway","name":"Wick Road","category":"Dedicated cycleway"},"geometry":{"type":"MultiLineString","coordinates":[[[-0.0413926,51.5452071],[-0.0415867,51.5452012],[-0.0416986,51.5451968]]]}},
{"type":"Feature","properties":{"highway":"cycleway","name":null,"category":"Dedicated cycleway"},"geometry":{"type":"MultiLineString","coordinates":[[[-0.0535777,51.5482424],[-0.053529,51.5482563],[-0.053429,51.5482848],[-0.0528663,51.5484112],[-0.0523405,51.5485424],[-0.0522888,51.5485609]]]}},
{"type":"Feature","properties":{"highway":"cycleway","name":null,"category":"Dedicated cycleway"},"geometry":{"type":"MultiLineString","coordinates":[[[-0.0428403,51.5431375],[-0.042865,51.5431595],[-0.0428975,51.5431883]]]}},
{"type":"Feature","properties":{"highway":"cycleway","name":null,"category":"Dedicated cycleway"},"geometry":{"type":"MultiLineString","coordinates":[[[-0.0426116,51.5431109],[-0.042621,51.5431145],[-0.0426532,51.5431124],[-0.0427145,51.5431113],[-0.0428252,51.5431201],[-0.0428371,51.5431332],[-0.0428403,51.5431375]]]}},
{"type":"Feature","properties":{"highway":"cycleway","name":"Wick Road","category":"Dedicated cycleway"},"geometry":{"type":"MultiLineString","coordinates":[[[-0.0436633,51.5449492],[-0.0436912,51.5449474],[-0.0437824,51.5449416]]]}},
{"type":"Feature","properties":{"highway":"cycleway","name":"Wick Road","category":"Dedicated cycleway"},"geometry":{"type":"MultiLineString","coordinates":[[[-0.0423401,51.5451323],[-0.0423729,51.5451304],[-0.0423982,51.545129]]]}},
{"type":"Feature","properties":{"highway":"cycleway","name":"Wick Road","category":"Dedicated cycleway"},"geometry":{"type":"MultiLineString","coordinates":[[[-0.0437824,51.5449416],[-0.0439745,51.5449354],[-0.0441548,51.544934],[-0.0447653,51.5449343],[-0.0448273,51.5449139],[-0.0449171,51.5449044],[-0.0449551,51.5449047],[-0.0451102,51.5449113]]]}},
{"type":"Feature","properties":{"highway":"cycleway","name":"Wick Road","category":"Dedicated cycleway"},"geometry":{"type":"MultiLineString","coordinates":[[[-0.0417022,51.5452167],[-0.0417054,51.5452471]]]}},
{"type":"Feature","properties":{"highway":"cycleway","name":"Wick Road","category":"Dedicated cycleway"},"geometry":{"type":"MultiLineString","coordinates":[[[-0.0423982,51.545129],[-0.0428258,51.5450651],[-0.0431735,51.5450109],[-0.0435825,51.5449589],[-0.0436633,51.5449492]]]}},
{"type":"Feature","properties":{"highway":"cycleway","name":"Wick Road","category":"Dedicated cycleway"},"geometry":{"type":"MultiLineString","coordinates":[[[-0.0386709,51.5451184],[-0.0391523,51.5451253],[-0.0394362,51.5451328],[-0.0396372,51.5451363],[-0.0398716,51.5451379],[-0.0400925,51.5451453],[-0.0405575,51.545164],[-0.0410322,51.5451716],[-0.0411088,51.5451749],[-0.0411557,51.5451937]]]}},
{"type":"Feature","properties":{"highway":"cycleway","name":null,"category":"Dedicated cycleway"},"geometry":{"type":"MultiLineString","coordinates":[[[-0.0527733,51.552427],[-0.0528128,51.5524742],[-0.0528411,51.5525093]]]}},
{"type":"Feature","properties":{"highway":"cycleway","name":null,"category":"Dedicated cycleway"},"geometry":{"type":"MultiLineString","coordinates":[[[-0.0526187,51.5524835],[-0.0526505,51.5524715],[-0.0526748,51.5524624]]]}},
{"type":"Feature","properties":{"highway":"cycleway","name":null,"category":"Dedicated cycleway"},"geometry":{"type":"MultiLineString","coordinates":[[[-0.0496727,51.5533572],[-0.0496586,51.5533425]]]}},
{"type":"Feature","properties":{"highway":"cycleway","name":null,"category":"Dedicated cycleway"},"geometry":{"type":"MultiLineString","coordinates":[[[-0.0581003,51.5527359],[-0.0580957,51.5527494]]]}},
{"type":"Feature","properties":{"highway":"cycleway","name":"Rowhill Road","category":"Dedicated cycleway"},"geometry":{"type":"MultiLineString","coordinates":[[[-0.0559321,51.5537919],[-0.0559723,51.553775],[-0.0560487,51.5537728],[-0.0561173,51.5537726]]]}},
{"type":"Feature","properties":{"highway":"cycleway","name":null,"category":"Dedicated cycleway"},"geometry":{"type":"MultiLineString","coordinates":[[[-0.0541628,51.5541683],[-0.0541672,51.5541353],[-0.0542289,51.5541157],[-0.0542863,51.5541247]]]}},
{"type":"Feature","properties":{"highway":"cycleway","name":null,"category":"Dedicated cycleway"},"geometry":{"type":"MultiLineString","coordinates":[[[-0.0545997,51.5446253],[-0.0545636,51.544627]]]}},
{"type":"Feature","properties":{"highway":"cycleway","name":null,"category":"Dedicated cycleway"},"geometry":{"type":"MultiLineString","coordinates":[[[-0.0545636,51.544627],[-0.0545026,51.5446354],[-0.0534617,51.5447786],[-0.0533622,51.5447517]]]}},
{"type":"Feature","properties":{"highway":"cycleway","name":"Wick Road","category":"Dedicated cycleway"},"geometry":{"type":"MultiLineString","coordinates":[[[-0.0451102,51.5449113],[-0.0451627,51.5449103],[-0.0452156,51.5449105]]]}},
{"type":"Feature","properties":{"highway":"cycleway","name":"Wick Road","category":"Dedicated cycleway"},"geometry":{"type":"MultiLineString","coordinates":[[[-0.0439591,51.5450326],[-0.043786,51.545036],[-0.043621,51.5450546],[-0.0434784,51.545072],[-0.0433231,51.5450909],[-0.0431033,51.5451229],[-0.0423892,51.5452228],[-0.0423534,51.5452256]]]}},
{"type":"Feature","properties":{"highway":"cycleway","name":"Wick Road","category":"Dedicated cycleway"},"geometry":{"type":"MultiLineString","coordinates":[[[-0.0452156,51.5449105],[-0.0452836,51.544932],[-0.0454652,51.5449307],[-0.0455363,51.5449649]]]}},
{"type":"Feature","properties":{"highway":"cycleway","name":"Wick Road","category":"Dedicated cycleway"},"geometry":{"type":"MultiLineString","coordinates":[[[-0.0411557,51.5451937],[-0.0411975,51.5452004],[-0.0413926,51.5452071]]]}},
{"type":"Feature","properties":{"highway":"cycleway","name":null,"category":"Dedicated cycleway"},"geometry":{"type":"MultiLineString","coordinates":[[[-0.0501441,51.5429438],[-0.050149,51.5429514],[-0.0501752,51.5429969]]]}},
{"type":"Feature","properties":{"highway":"cycleway","name":"Wick Road","category":"Dedicated cycleway"},"geometry":{"type":"MultiLineString","coordinates":[[[-0.0411787,51.5452441],[-0.0411337,51.5452918],[-0.0409631,51.5452879]]]}},
{"type":"Feature","properties":{"highway":"cycleway","name":"Navarino Road","category":"Dedicated cycleway"},"geometry":{"type":"MultiLineString","coordinates":[[[-0.0620647,51.5454468],[-0.0621107,51.5454669],[-0.0621266,51.5454949],[-0.0621111,51.5455178]]]}},
{"type":"Feature","properties":{"highway":"path","name":"Sigdon Passage","category":"Shared path"},"geometry":{"type":"MultiLineString","coordinates":[[[-0.061451,51.5495023],[-0.061486,51.5496266],[-0.0615082,51.549706]]]}},
{"type":"Feature","properties":{"highway":"cycleway","name":null,"category":"Dedicated cycleway"},"geometry":{"type":"MultiLineString","coordinates":[[[-0.0525,51.5523633],[-0.0524742,51.5524082]]]}},
{"type":"Feature","properties":{"highway":"cycleway","name":null,"category":"Dedicated cycleway"},"geometry":{"type":"MultiLineString","coordinates":[[[-0.0524823,51.5524157],[-0.0525001,51.5524322]]]}},
{"type":"Feature","properties":{"highway":"cycleway","name":null,"category":"Dedicated cycleway"},"geometry":{"type":"MultiLineString","coordinates":[[[-0.052524,51.5524543],[-0.0525493,51.5524777],[-0.0525725,51.5524754],[-0.0525901,51.5524792],[-0.0526001,51.5524898],[-0.0526187,51.5524835]]]}},
{"type":"Feature","properties":{"highway":"cycleway","name":null,"category":"Dedicated cycleway"},"geometry":{"type":"MultiLineString","coordinates":[[[-0.0510942,51.5470322],[-0.0510784,51.5470054]]]}},
{"type":"Feature","properties":{"highway":"cycleway","name":null,"category":"Dedicated cycleway"},"geometry":{"type":"MultiLineString","coordinates":[[[-0.0549475,51.5496807],[-0.0549596,51.5496564]]]}},
{"type":"Feature","properties":{"highway":"cycleway","name":null,"category":"Dedicated cycleway"},"geometry":{"type":"MultiLineString","coordinates":[[[-0.0549596,51.5496564],[-0.0549897,51.5496356],[-0.0550197,51.5496112],[-0.0550269,51.5495929]]]}},
{"type":"Feature","properties":{"highway":"cycleway","name":null,"category":"Dedicated cycleway"},"geometry":{"type":"MultiLineString","coordinates":[[[-0.0581797,51.5526944],[-0.0581714,51.5527299],[-0.0581721,51.5527394]]]}},
{"type":"Feature","properties":{"highway":"cycleway","name":"Barnabas Road","category":"Dedicated cycleway"},"geometry":{"type":"MultiLineString","coordinates":[[[-0.0417168,51.5453269],[-0.0417515,51.5453692],[-0.0417571,51.545391],[-0.0417274,51.5454092]]]}},
{"type":"Feature","properties":{"highway":"cycleway","name":null,"category":"Dedicated cycleway"},"geometry":{"type":"MultiLineString","coordinates":[[[-0.0588926,51.5410711],[-0.0588044,51.5410701]]]}},
{"type":"Feature","properties":{"highway":"cycleway","name":"Lower Clapton Road","category":"Dedicated cycleway"},"geometry":{"type":"MultiLineString","coordinates":[[[-0.0559414,51.5578628],[-0.0560424,51.5578869],[-0.0560566,51.5579001],[-0.0560648,51.5579464],[-0.0560714,51.5579686],[-0.0560846,51.5580129],[-0.0560931,51.5580412],[-0.0561003,51.5580613],[-0.0561075,51.5580814],[-0.0561352,51.5581245]]]}},
{"type":"Feature","properties":{"highway":"cycleway","name":"Downs Road","category":"Dedicated cycleway"},"geometry":{"type":"MultiLineString","coordinates":[[[-0.0586222,51.5556357],[-0.0585906,51.5556452],[-0.0585235,51.5556621],[-0.0584929,51.5556617],[-0.0584016,51.5556545],[-0.0582938,51.555656],[-0.0582587,51.555659]]]}},
{"type":"Feature","properties":{"highway":"cycleway","name":null,"category":"Dedicated cycleway"},"geometry":{"type":"MultiLineString","coordinates":[[[-0.0580236,51.5527706],[-0.0580281,51.5527984],[-0.0580325,51.552823],[-0.0580356,51.5528584],[-0.0580282,51.5529383]]]}},
{"type":"Feature","properties":{"highway":"cycleway","name":null,"category":"Dedicated cycleway"},"geometry":{"type":"MultiLineString","coordinates":[[[-0.0612397,51.553939],[-0.0612998,51.5538946],[-0.0614352,51.5538018],[-0.0616314,51.5536673],[-0.0625298,51.5530515],[-0.062858,51.5528091],[-0.0629067,51.552773],[-0.063245,51.552495],[-0.0636847,51.5521274],[-0.0637962,51.5520362],[-0.0638574,51.5519957]]]}},
{"type":"Feature","properties":{"highway":"cycleway","name":null,"category":"Dedicated cycleway"},"geometry":{"type":"MultiLineString","coordinates":[[[-0.0578919,51.5529091],[-0.0578538,51.5529383]]]}},
{"type":"Feature","properties":{"highway":"cycleway","name":null,"category":"Dedicated cycleway"},"geometry":{"type":"MultiLineString","coordinates":[[[-0.0609062,51.5434737],[-0.0609488,51.5434829]]]}},
{"type":"Feature","properties":{"highway":"cycleway","name":null,"category":"Dedicated cycleway"},"geometry":{"type":"MultiLineString","coordinates":[[[-0.0466186,51.5457825],[-0.0466352,51.545791],[-0.0466577,51.5457869],[-0.0466761,51.545771],[-0.0468305,51.5457414],[-0.0468865,51.5457501]]]}},
{"type":"Feature","properties":{"highway":"cycleway","name":"Navarino Road","category":"Dedicated cycleway"},"geometry":{"type":"MultiLineString","coordinates":[[[-0.0638234,51.5482484],[-0.0638242,51.5482095],[-0.0638277,51.5481422],[-0.0638619,51.5481263]]]}},
{"type":"Feature","properties":{"highway":"cycleway","name":"Greenwood Road","category":"Dedicated cycleway"},"geometry":{"type":"MultiLineString","coordinates":[[[-0.0647261,51.5482244],[-0.0647647,51.548246],[-0.0647759,51.5482719],[-0.0647834,51.5483039],[-0.0647847,51.5483368]]]}},
{"type":"Feature","properties":{"highway":"cycleway","name":"Wayland Avenue","category":"Dedicated cycleway"},"geometry":{"type":"MultiLineString","coordinates":[[[-0.0639793,51.5484095],[-0.0639883,51.548442],[-0.0639939,51.5484622],[-0.0639975,51.5484753],[-0.0639894,51.5485076]]]}},
{"type":"Feature","properties":{"highway":"cycleway","name":null,"category":"Dedicated cycleway"},"geometry":{"type":"MultiLineString","coordinates":[[[-0.0581721,51.5527394],[-0.0580957,51.5527494]]]}},
{"type":"Feature","properties":{"highway":"cycleway","name":null,"category":"Dedicated cycleway"},"geometry":{"type":"MultiLineString","coordinates":[[[-0.0579184,51.5528891],[-0.0580282,51.5529383]]]}},
{"type":"Feature","properties":{"highway":"cycleway","name":null,"category":"Dedicated cycleway"},"geometry":{"type":"MultiLineString","coordinates":[[[-0.0578387,51.5527479],[-0.0578296,51.5527486],[-0.0577998,51.5527505],[-0.0577596,51.5527542],[-0.0577395,51.552759],[-0.0577339,51.552761]]]}},
{"type":"Feature","properties":{"highway":"cycleway","name":null,"category":"Dedicated cycleway"},"geometry":{"type":"MultiLineString","coordinates":[[[-0.0577339,51.552761],[-0.0576858,51.5527786]]]}},
{"type":"Feature","properties":{"highway":"cycleway","name":null,"category":"Dedicated cycleway"},"geometry":{"type":"MultiLineString","coordinates":[[[-0.0499613,51.5486415],[-0.0498982,51.5486168],[-0.0498571,51.5486279],[-0.0495189,51.5487161]]]}},
{"type":"Feature","properties":{"highway":"cycleway","name":null,"category":"Dedicated cycleway"},"geometry":{"type":"MultiLineString","coordinates":[[[-0.0579223,51.5528652],[-0.0578891,51.5528504]]]}},
{"type":"Feature","properties":{"highway":"cycleway","name":null,"category":"Dedicated cycleway"},"geometry":{"type":"MultiLineString","coordinates":[[[-0.0580957,51.5527494],[-0.0580519,51.55276],[-0.0580236,51.5527706]]]}},
{"type":"Feature","properties":{"highway":"cycleway","name":"Barnabas Road","category":"Dedicated cycleway"},"geometry":{"type":"MultiLineString","coordinates":[[[-0.0420169,51.5466757],[-0.0420031,51.5468345],[-0.0420025,51.5468421]]]}},
{"type":"Feature","properties":{"highway":"cycleway","name":null,"category":"Dedicated cycleway"},"geometry":{"type":"MultiLineString","coordinates":[[[-0.0581208,51.5526943],[-0.0581003,51.5527359]]]}},
{"type":"Feature","properties":{"highway":"cycleway","name":"Wilton Way","category":"Dedicated cycleway"},"geometry":{"type":"MultiLineString","coordinates":[[[-0.0634969,51.545447],[-0.0634352,51.5454526],[-0.0633681,51.5454587],[-0.0633258,51.5454632]]]}},
{"type":"Feature","properties":{"highway":"cycleway","name":null,"category":"Dedicated cycleway"},"geometry":{"type":"MultiLineString","coordinates":[[[-0.0526748,51.5524624],[-0.0526979,51.5524537]]]}},
{"type":"Feature","properties":{"highway":"cycleway","name":null,"category":"Dedicated cycleway"},"geometry":{"type":"MultiLineString","coordinates":[[[-0.0526979,51.5524537],[-0.0527235,51.552445],[-0.0527523,51.5524351]]]}},
{"type":"Feature","properties":{"highway":"cycleway","name":null,"category":"Dedicated cycleway"},"geometry":{"type":"MultiLineString","coordinates":[[[-0.0515863,51.5426787],[-0.0515575,51.5426091],[-0.0515337,51.5425865]]]}},
{"type":"Feature","properties":{"highway":"cycleway","name":"Wayland Avenue","category":"Dedicated cycleway"},"geometry":{"type":"MultiLineString","coordinates":[[[-0.0643832,51.5496534],[-0.0643762,51.5495131]]]}},
{"type":"Feature","properties":{"highway":"cycleway","name":"Marcon Place","category":"Dedicated cycleway"},"geometry":{"type":"MultiLineString","coordinates":[[[-0.0607762,51.5479531],[-0.0607585,51.5479571],[-0.0607202,51.5479635],[-0.0606941,51.547968]]]}},
{"type":"Feature","properties":{"highway":"cycleway","name":"Elsdale Street","category":"Dedicated cycleway"},"geometry":{"type":"MultiLineString","coordinates":[[[-0.049078,51.5431539],[-0.0491775,51.5431935]]]}},
{"type":"Feature","properties":{"highway":"cycleway","name":"Mead Place","category":"Dedicated cycleway"},"geometry":{"type":"MultiLineString","coordinates":[[[-0.0494017,51.543404],[-0.0494443,51.5433623],[-0.0494623,51.5433451],[-0.0494826,51.5433253]]]}},
{"type":"Feature","properties":{"highway":"track","name":null,"category":"Track"},"geometry":{"type":"MultiLineString","coordinates":[[[-0.0589955,51.5465992],[-0.0592425,51.5470187],[-0.0592654,51.5470438],[-0.0592931,51.5470646],[-0.0593266,51.5470755],[-0.0593689,51.5470827],[-0.0598174,51.5471015],[-0.0598702,51.5471014],[-0.0599197,51.5470916],[-0.0599597,51.547071],[-0.0599843,51.5470425],[-0.0599889,51.5470213],[-0.059991,51.5469964],[-0.0599938,51.5469498],[-0.0600052,51.546928],[-0.060032,51.5469133],[-0.060069,51.5469056],[-0.0601144,51.5469056],[-0.0601741,51.5469094],[-0.0602402,51.5469232],[-0.0604629,51.5469921],[-0.0604928,51.5469944],[-0.0605165,51.5469908],[-0.0605376,51.5469823],[-0.0605562,51.5469592]]]}},
{"type":"Feature","properties":{"highway":"cycleway","name":null,"category":"Dedicated cycleway"},"geometry":{"type":"MultiLineString","coordinates":[[[-0.0497087,51.5533959],[-0.0496885,51.5533742],[-0.0496727,51.5533572]]]}},
{"type":"Feature","properties":{"highway":"cycleway","name":"Mare Street","category":"Dedicated cycleway"},"geometry":{"type":"MultiLineString","coordinates":[[[-0.0549973,51.5494943],[-0.0549867,51.5494624],[-0.0549663,51.5494157]]]}},
{"type":"Feature","properties":{"highway":"path","name":null,"category":"Shared path"},"geometry":{"type":"MultiLineString","coordinates":[[[-0.0637962,51.5520362],[-0.0631308,51.5521466],[-0.0626685,51.5522053],[-0.0624218,51.5522495],[-0.0620248,51.5523054],[-0.061607,51.5523201],[-0.0610477,51.5523635]]]}},
{"type":"Feature","properties":{"highway":"cycleway","name":null,"category":"Dedicated cycleway"},"geometry":{"type":"MultiLineString","coordinates":[[[-0.0609115,51.5541992],[-0.0609475,51.5541833],[-0.0610498,51.5540846]]]}},
{"type":"Feature","properties":{"highway":"cycleway","name":null,"category":"Dedicated cycleway"},"geometry":{"type":"MultiLineString","coordinates":[[[-0.0589652,51.5554938],[-0.0590443,51.5554575],[-0.059258,51.5553361],[-0.0598703,51.5549143],[-0.0598993,51.5548929],[-0.0608595,51.5542223],[-0.0609115,51.5541992]]]}},
{"type":"Feature","properties":{"highway":"cycleway","name":null,"category":"Dedicated cycleway"},"geometry":{"type":"MultiLineString","coordinates":[[[-0.0612658,51.5540463],[-0.0610498,51.5540846]]]}},
{"type":"Feature","properties":{"highway":"cycleway","name":null,"category":"Dedicated cycleway"},"geometry":{"type":"MultiLineString","coordinates":[[[-0.0612367,51.5541475],[-0.0611986,51.5541382],[-0.0610498,51.5540846],[-0.0608435,51.5539945]]]}},
{"type":"Feature","properties":{"highway":"cycleway","name":null,"category":"Dedicated cycleway"},"geometry":{"type":"MultiLineString","coordinates":[[[-0.0608435,51.5539945],[-0.060828,51.5539878],[-0.0607671,51.553979],[-0.0606478,51.5539308],[-0.0592312,51.5533297],[-0.0587662,51.5531305]]]}},
{"type":"Feature","properties":{"highway":"cycleway","name":null,"category":"Dedicated cycleway"},"geometry":{"type":"MultiLineString","coordinates":[[[-0.0526632,51.552548],[-0.0526505,51.5525495],[-0.0526371,51.5525326],[-0.0526001,51.5524898]]]}},
{"type":"Feature","properties":{"highway":"path","name":null,"category":"Shared path"},"geometry":{"type":"MultiLineString","coordinates":[[[-0.0589779,51.5411419],[-0.0589276,51.5411902],[-0.0588597,51.541334],[-0.0587819,51.5414941],[-0.0587149,51.5416109],[-0.0586585,51.5417677],[-0.058611,51.5419479]]]}},
{"type":"Feature","properties":{"highway":"path","name":null,"category":"Shared path"},"geometry":{"type":"MultiLineString","coordinates":[[[-0.0586087,51.5426035],[-0.0587785,51.5427919],[-0.0589757,51.5430313],[-0.0591755,51.5432923],[-0.0592426,51.5434383],[-0.0594075,51.5435142],[-0.0597106,51.5435526],[-0.0598997,51.5435526],[-0.0602853,51.5435117],[-0.0605133,51.5434491],[-0.0606729,51.5433849],[-0.0607728,51.5433974],[-0.0608791,51.5433806]]]}},
{"type":"Feature","properties":{"highway":"cycleway","name":null,"category":"Dedicated cycleway"},"geometry":{"type":"MultiLineString","coordinates":[[[-0.0552644,51.5422624],[-0.0552463,51.5422622],[-0.0552451,51.542243]]]}},
{"type":"Feature","properties":{"highway":"cycleway","name":"London Lane","category":"Dedicated cycleway"},"geometry":{"type":"MultiLineString","coordinates":[[[-0.0552596,51.5420503],[-0.0552351,51.5420503]]]}},
{"type":"Feature","properties":{"highway":"cycleway","name":null,"category":"Dedicated cycleway"},"geometry":{"type":"MultiLineString","coordinates":[[[-0.0552351,51.5420503],[-0.0552189,51.5420498]]]}},
{"type":"Feature","properties":{"highway":"cycleway","name":null,"category":"Dedicated cycleway"},"geometry":{"type":"MultiLineString","coordinates":[[[-0.0579184,51.5528891],[-0.0578919,51.5529091]]]}},
{"type":"Feature","properties":{"highway":"cycleway","name":"Powerscroft Road","category":"Dedicated cycleway"},"geometry":{"type":"MultiLineString","coordinates":[[[-0.0495144,51.5533641],[-0.0495956,51.5533555],[-0.049622,51.5533481],[-0.0496528,51.5533364],[-0.0497003,51.5533174],[-0.0497625,51.5533274]]]}},
{"type":"Feature","properties":{"highway":"cycleway","name":null,"category":"Dedicated cycleway"},"geometry":{"type":"MultiLineString","coordinates":[[[-0.0496586,51.5533425],[-0.0496528,51.5533364]]]}},
{"type":"Feature","properties":{"highway":"cycleway","name":null,"category":"Dedicated cycleway"},"geometry":{"type":"MultiLineString","coordinates":[[[-0.049981,51.5486137],[-0.0499613,51.5486415]]]}},
{"type":"Feature","properties":{"highway":"cycleway","name":"Powerscroft Road","category":"Dedicated cycleway"},"geometry":{"type":"MultiLineString","coordinates":[[[-0.0498389,51.5533539],[-0.0498443,51.5533637],[-0.0498507,51.5533789],[-0.049793,51.5534415]]]}},
{"type":"Feature","properties":{"highway":"cycleway","name":null,"category":"Dedicated cycleway"},"geometry":{"type":"MultiLineString","coordinates":[[[-0.049812,51.5533102],[-0.0498338,51.5533447]]]}},
{"type":"Feature","properties":{"highway":"cycleway","name":null,"category":"Dedicated cycleway"},"geometry":{"type":"MultiLineString","coordinates":[[[-0.0503087,51.5437176],[-0.0503957,51.5437126]]]}},
{"type":"Feature","properties":{"highway":"cycleway","name":null,"category":"Dedicated cycleway"},"geometry":{"type":"MultiLineString","coordinates":[[[-0.0501447,51.5437242],[-0.0501884,51.5437221]]]}},
{"type":"Feature","properties":{"highway":"cycleway","name":null,"category":"Dedicated cycleway"},"geometry":{"type":"MultiLineString","coordinates":[[[-0.0569707,51.5434941],[-0.0569865,51.5434691]]]}},
{"type":"Feature","properties":{"highway":"cycleway","name":null,"category":"Dedicated cycleway"},"geometry":{"type":"MultiLineString","coordinates":[[[-0.0570449,51.5433959],[-0.0570592,51.54338]]]}},
{"type":"Feature","properties":{"highway":"cycleway","name":"Hackney Grove","category":"Dedicated cycleway"},"geometry":{"type":"MultiLineString","coordinates":[[[-0.0560836,51.5447359],[-0.0560899,51.5447093],[-0.0561057,51.5446825]]]}},
{"type":"Feature","properties":{"highway":"cycleway","name":null,"category":"Dedicated cycleway"},"geometry":{"type":"MultiLineString","coordinates":[[[-0.0562459,51.5466862],[-0.0562413,51.5466308]]]}},
{"type":"Feature","properties":{"highway":"cycleway","name":null,"category":"Dedicated cycleway"},"geometry":{"type":"MultiLineString","coordinates":[[[-0.0428975,51.5431883],[-0.0429462,51.5432093]]]}},
{"type":"Feature","properties":{"highway":"cycleway","name":null,"category":"Dedicated cycleway"},"geometry":{"type":"MultiLineString","coordinates":[[[-0.0465769,51.5568124],[-0.0465559,51.5567756]]]}},
{"type":"Feature","properties":{"highway":"cycleway","name":null,"category":"Dedicated cycleway"},"geometry":{"type":"MultiLineString","coordinates":[[[-0.0590444,51.5562108],[-0.059095,51.5562077]]]}},
{"type":"Feature","properties":{"highway":"cycleway","name":"Chatham Place","category":"Dedicated cycleway"},"geometry":{"type":"MultiLineString","coordinates":[[[-0.0510419,51.5469425],[-0.0510372,51.546935],[-0.051005,51.5469148]]]}},
{"type":"Feature","properties":{"highway":"cycleway","name":"Churchwell Path","category":"Dedicated cycleway"},"geometry":{"type":"MultiLineString","coordinates":[[[-0.0511202,51.547076],[-0.0511155,51.5470683],[-0.0511139,51.5470657]]]}},
{"type":"Feature","properties":{"highway":"cycleway","name":null,"category":"Dedicated cycleway"},"geometry":{"type":"MultiLineString","coordinates":[[[-0.0528229,51.5525237],[-0.0527728,51.5525622]]]}},
{"type":"Feature","properties":{"highway":"cycleway","name":null,"category":"Dedicated cycleway"},"geometry":{"type":"MultiLineString","coordinates":[[[-0.0527308,51.5525453],[-0.0526632,51.552548]]]}},
{"type":"Feature","properties":{"highway":"cycleway","name":null,"category":"Dedicated cycleway"},"geometry":{"type":"MultiLineString","coordinates":[[[-0.0524742,51.5524082],[-0.0524823,51.5524157]]]}},
{"type":"Feature","properties":{"highway":"cycleway","name":null,"category":"Dedicated cycleway"},"geometry":{"type":"MultiLineString","coordinates":[[[-0.0543128,51.5478153],[-0.0538304,51.5479684],[-0.0535777,51.5482424]]]}},
{"type":"Feature","properties":{"highway":"cycleway","name":null,"category":"Dedicated cycleway"},"geometry":{"type":"MultiLineString","coordinates":[[[-0.0552451,51.542243],[-0.0552291,51.542244]]]}},
{"type":"Feature","properties":{"highway":"cycleway","name":null,"category":"Dedicated cycleway"},"geometry":{"type":"MultiLineString","coordinates":[[[-0.0498338,51.5533447],[-0.0498389,51.5533539]]]}},
{"type":"Feature","properties":{"highway":"cycleway","name":null,"category":"Dedicated cycleway"},"geometry":{"type":"MultiLineString","coordinates":[[[-0.0496525,51.5423048],[-0.0496456,51.5423061],[-0.0496376,51.5423076]]]}},
{"type":"Feature","properties":{"highway":"cycleway","name":null,"category":"Dedicated cycleway"},"geometry":{"type":"MultiLineString","coordinates":[[[-0.05325,51.5506303],[-0.0532165,51.5505644]]]}},
{"type":"Feature","properties":{"highway":"cycleway","name":"Flanders Way","category":"Dedicated cycleway"},"geometry":{"type":"MultiLineString","coordinates":[[[-0.0456259,51.5450098],[-0.0456282,51.545036],[-0.0456213,51.5450658]]]}},
{"type":"Feature","properties":{"highway":"cycleway","name":"Flanders Way","category":"Dedicated cycleway"},"geometry":{"type":"MultiLineString","coordinates":[[[-0.0456213,51.5450658],[-0.0456116,51.545085],[-0.0455679,51.545131]]]}},
{"type":"Feature","properties":{"highway":"cycleway","name":"Flanders Way","category":"Dedicated cycleway"},"geometry":{"type":"MultiLineString","coordinates":[[[-0.0456106,51.5449615],[-0.0456259,51.5450098]]]}},
{"type":"Feature","properties":{"highway":"cycleway","name":null,"category":"Dedicated cycleway"},"geometry":{"type":"MultiLineString","coordinates":[[[-0.0556112,51.5579451],[-0.0556516,51.557941],[-0.0556738,51.5579455]]]}},
{"type":"Feature","properties":{"highway":"cycleway","name":"Lea Bridge Roundabout","category":"Dedicated cycleway"},"geometry":{"type":"MultiLineString","coordinates":[[[-0.0557573,51.5579936],[-0.0558024,51.5580254],[-0.0558517,51.5580485],[-0.0558784,51.5580572],[-0.0558912,51.5580614]]]}},
{"type":"Feature","properties":{"highway":"track","name":null,"category":"Track"},"geometry":{"type":"MultiLineString","coordinates":[[[-0.0479976,51.5474433],[-0.0478488,51.5474362],[-0.0477825,51.5474331]]]}},
{"type":"Feature","properties":{"highway":"cycleway","name":"Wick Road","category":"Dedicated cycleway"},"geometry":{"type":"MultiLineString","coordinates":[[[-0.0423534,51.5452256],[-0.0423085,51.545188]]]}},
{"type":"Feature","properties":{"highway":"cycleway","name":"Wick Road","category":"Dedicated cycleway"},"geometry":{"type":"MultiLineString","coordinates":[[[-0.0455753,51.5449649],[-0.0455087,51.5450116]]]}},
{"type":"Feature","properties":{"highway":"cycleway","name":"Clapton Passage","category":"Dedicated cycleway"},"geometry":{"type":"MultiLineString","coordinates":[[[-0.0526537,51.5523263],[-0.0526671,51.5523218]]]}},
{"type":"Feature","properties":{"highway":"cycleway","name":null,"category":"Dedicated cycleway"},"geometry":{"type":"MultiLineString","coordinates":[[[-0.0552894,51.558223],[-0.0553652,51.5581655],[-0.0553855,51.5581501],[-0.0555003,51.5580661],[-0.0555068,51.5580583],[-0.0555534,51.5580025],[-0.0556112,51.5579451]]]}},
{"type":"Feature","properties":{"highway":"cycleway","name":null,"category":"Dedicated cycleway"},"geometry":{"type":"MultiLineString","coordinates":[[[-0.0556814,51.5401565],[-0.05565,51.5401485]]]}},
{"type":"Feature","properties":{"highway":"cycleway","name":null,"category":"Dedicated cycleway"},"geometry":{"type":"MultiLineString","coordinates":[[[-0.0556738,51.5579455],[-0.0557204,51.5579724],[-0.0557573,51.5579936]]]}},
{"type":"Feature","properties":{"highway":"cycleway","name":"Lower Clapton Road","category":"Dedicated cycleway"},"geometry":{"type":"MultiLineString","coordinates":[[[-0.0556112,51.5579451],[-0.055641,51.5579044],[-0.0556542,51.5578832],[-0.0556638,51.5578663],[-0.0556704,51.5578553],[-0.0556869,51.557828],[-0.0557137,51.5578089],[-0.0557564,51.5577529],[-0.0557845,51.5576194],[-0.055792,51.5574848],[-0.0558635,51.5574343]]]}},
{"type":"Feature","properties":{"highway":"cycleway","name":null,"category":"Dedicated cycleway"},"geometry":{"type":"MultiLineString","coordinates":[[[-0.0579223,51.5528652],[-0.057915,51.5528783],[-0.0579184,51.5528891]]]}},
{"type":"Feature","properties":{"highway":"cycleway","name":null,"category":"Dedicated cycleway"},"geometry":{"type":"MultiLineString","coordinates":[[[-0.0577663,51.5527956],[-0.0577871,51.5528038]]]}},
{"type":"Feature","properties":{"highway":"cycleway","name":"Churchwell Path","category":"Dedicated cycleway"},"geometry":{"type":"MultiLineString","coordinates":[[[-0.0511257,51.547085],[-0.0511202,51.547076]]]}},
{"type":"Feature","properties":{"highway":"cycleway","name":null,"category":"Dedicated cycleway"},"geometry":{"type":"MultiLineString","coordinates":[[[-0.0465621,51.5570248],[-0.0465814,51.5569757]]]}},
{"type":"Feature","properties":{"highway":"cycleway","name":"Clapton Square","category":"Dedicated cycleway"},"geometry":{"type":"MultiLineString","coordinates":[[[-0.0532722,51.550674],[-0.0532767,51.5506844],[-0.0532812,51.5506932],[-0.0533063,51.5507531],[-0.0533091,51.5507597],[-0.0533125,51.5507678]]]}},
{"type":"Feature","properties":{"highway":"cycleway","name":null,"category":"Dedicated cycleway"},"geometry":{"type":"MultiLineString","coordinates":[[[-0.0465814,51.5569757],[-0.0465818,51.5568879],[-0.0465834,51.5568523]]]}},
{"type":"Feature","properties":{"highway":"cycleway","name":"Chatham Place","category":"Dedicated cycleway"},"geometry":{"type":"MultiLineString","coordinates":[[[-0.0510784,51.5470054],[-0.0510758,51.5470009],[-0.0510676,51.5469868]]]}},
{"type":"Feature","properties":{"highway":"cycleway","name":null,"category":"Dedicated cycleway"},"geometry":{"type":"MultiLineString","coordinates":[[[-0.0570592,51.54338],[-0.0570662,51.5433721]]]}},
{"type":"Feature","properties":{"highway":"path","name":null,"category":"Shared path"},"geometry":{"type":"MultiLineString","coordinates":[[[-0.0543202,51.5413041],[-0.0543161,51.54122]]]}},
{"type":"Feature","properties":{"highway":"path","name":null,"category":"Shared path"},"geometry":{"type":"MultiLineString","coordinates":[[[-0.0543161,51.54122],[-0.0543174,51.5411956]]]}},
{"type":"Feature","properties":{"highway":"cycleway","name":null,"category":"Dedicated cycleway"},"geometry":{"type":"MultiLineString","coordinates":[[[-0.0582266,51.5530509],[-0.0581513,51.5530316],[-0.0580646,51.5530359],[-0.0580399,51.5530366]]]}},
{"type":"Feature","properties":{"highway":"cycleway","name":null,"category":"Dedicated cycleway"},"geometry":{"type":"MultiLineString","coordinates":[[[-0.0587736,51.5555847],[-0.0588049,51.5555661],[-0.0589652,51.5554938]]]}},
{"type":"Feature","properties":{"highway":"cycleway","name":null,"category":"Dedicated cycleway"},"geometry":{"type":"MultiLineString","coordinates":[[[-0.0587662,51.5531305],[-0.0582671,51.5530613],[-0.0582266,51.5530509]]]}},
{"type":"Feature","properties":{"highway":"cycleway","name":null,"category":"Dedicated cycleway"},"geometry":{"type":"MultiLineString","coordinates":[[[-0.0463704,51.5571076],[-0.0463722,51.5570894],[-0.0463922,51.5570785],[-0.0464097,51.5570709]]]}},
{"type":"Feature","properties":{"highway":"cycleway","name":null,"category":"Dedicated cycleway"},"geometry":{"type":"MultiLineString","coordinates":[[[-0.0610498,51.5540846],[-0.0611897,51.5539774]]]}},
{"type":"Feature","properties":{"highway":"cycleway","name":null,"category":"Dedicated cycleway"},"geometry":{"type":"MultiLineString","coordinates":[[[-0.0611897,51.5539774],[-0.0612397,51.553939]]]}},
{"type":"Feature","properties":{"highway":"cycleway","name":null,"category":"Dedicated cycleway"},"geometry":{"type":"MultiLineString","coordinates":[[[-0.0612397,51.553939],[-0.0613379,51.5540335]]]}},
{"type":"Feature","properties":{"highway":"cycleway","name":"Bodney Road","category":"Dedicated cycleway"},"geometry":{"type":"MultiLineString","coordinates":[[[-0.060072,51.5522974],[-0.0601023,51.5523088],[-0.0601043,51.5523144],[-0.0601269,51.5523779],[-0.0601307,51.5523874],[-0.0601437,51.5524196]]]}},
{"type":"Feature","properties":{"highway":"cycleway","name":null,"category":"Dedicated cycleway"},"geometry":{"type":"MultiLineString","coordinates":[[[-0.0579204,51.5527413],[-0.0578387,51.5527479]]]}},
{"type":"Feature","properties":{"highway":"cycleway","name":"Wick Road","category":"Dedicated cycleway"},"geometry":{"type":"MultiLineString","coordinates":[[[-0.0416986,51.5451968],[-0.0417022,51.5452167]]]}},
{"type":"Feature","properties":{"highway":"cycleway","name":"Greenwood Road","category":"Dedicated cycleway"},"geometry":{"type":"MultiLineString","coordinates":[[[-0.0637049,51.5457893],[-0.0637361,51.545833]]]}},
{"type":"Feature","properties":{"highway":"cycleway","name":"Greenwood Road","category":"Dedicated cycleway"},"geometry":{"type":"MultiLineString","coordinates":[[[-0.0636311,51.5457876],[-0.0635985,51.5457399]]]}},
{"type":"Feature","properties":{"highway":"cycleway","name":"Navarino Road","category":"Dedicated cycleway"},"geometry":{"type":"MultiLineString","coordinates":[[[-0.0638567,51.5483272],[-0.0638234,51.5482484]]]}},
{"type":"Feature","properties":{"highway":"cycleway","name":"Wayland Avenue","category":"Dedicated cycleway"},"geometry":{"type":"MultiLineString","coordinates":[[[-0.0639174,51.5483349],[-0.0639793,51.5484095]]]}},
{"type":"Feature","properties":{"highway":"cycleway","name":null,"category":"Dedicated cycleway"},"geometry":{"type":"MultiLineString","coordinates":[[[-0.0580399,51.5530366],[-0.0580145,51.5530373]]]}},
{"type":"Feature","properties":{"highway":"cycleway","name":"Pembury Road","category":"Dedicated cycleway"},"geometry":{"type":"MultiLineString","coordinates":[[[-0.0593761,51.5497569],[-0.059346,51.5496915]]]}},
{"type":"Feature","properties":{"highway":"cycleway","name":"Barnabas Road","category":"Dedicated cycleway"},"geometry":{"type":"MultiLineString","coordinates":[[[-0.0420025,51.5468421],[-0.0420005,51.5468646]]]}},
{"type":"Feature","properties":{"highway":"cycleway","name":"Barnabas Road","category":"Dedicated cycleway"},"geometry":{"type":"MultiLineString","coordinates":[[[-0.0420203,51.5466368],[-0.0420169,51.5466757]]]}},
{"type":"Feature","properties":{"highway":"cycleway","name":null,"category":"Dedicated cycleway"},"geometry":{"type":"MultiLineString","coordinates":[[[-0.0446034,51.5441598],[-0.0446048,51.5441899]]]}},
{"type":"Feature","properties":{"highway":"cycleway","name":null,"category":"Dedicated cycleway"},"geometry":{"type":"MultiLineString","coordinates":[[[-0.0446372,51.5441135],[-0.0446108,51.5441361],[-0.0446034,51.5441598]]]}},
{"type":"Feature","properties":{"highway":"cycleway","name":null,"category":"Dedicated cycleway"},"geometry":{"type":"MultiLineString","coordinates":[[[-0.0448253,51.5441045],[-0.0448467,51.5441072],[-0.0449167,51.544116]]]}},
{"type":"Feature","properties":{"highway":"cycleway","name":null,"category":"Dedicated cycleway"},"geometry":{"type":"MultiLineString","coordinates":[[[-0.0446923,51.5440666],[-0.0446629,51.5440916],[-0.0446372,51.5441135]]]}},
{"type":"Feature","properties":{"highway":"cycleway","name":null,"category":"Dedicated cycleway"},"geometry":{"type":"MultiLineString","coordinates":[[[-0.0447032,51.5440573],[-0.0446923,51.5440666]]]}},
{"type":"Feature","properties":{"highway":"cycleway","name":null,"category":"Dedicated cycleway"},"geometry":{"type":"MultiLineString","coordinates":[[[-0.0447032,51.5440573],[-0.0447836,51.5440962],[-0.0448057,51.5441069],[-0.0448124,51.5441078],[-0.0448253,51.5441045]]]}},
{"type":"Feature","properties":{"highway":"cycleway","name":null,"category":"Dedicated cycleway"},"geometry":{"type":"MultiLineString","coordinates":[[[-0.0446785,51.5440453],[-0.0447032,51.5440573]]]}},
{"type":"Feature","properties":{"highway":"cycleway","name":null,"category":"Dedicated cycleway"},"geometry":{"type":"MultiLineString","coordinates":[[[-0.0528411,51.5525093],[-0.0528229,51.5525237]]]}},
{"type":"Feature","properties":{"highway":"cycleway","name":null,"category":"Dedicated cycleway"},"geometry":{"type":"MultiLineString","coordinates":[[[-0.0525001,51.5524322],[-0.052524,51.5524543]]]}},
{"type":"Feature","properties":{"highway":"cycleway","name":"Pembury Road","category":"Dedicated cycleway"},"geometry":{"type":"MultiLineString","coordinates":[[[-0.059346,51.5496915],[-0.0593369,51.5496624],[-0.0593277,51.5496427],[-0.0593138,51.5496222],[-0.0593076,51.549611]]]}},
{"type":"Feature","properties":{"highway":"cycleway","name":"Downs Road","category":"Dedicated cycleway"},"geometry":{"type":"MultiLineString","coordinates":[[[-0.0586618,51.5556215],[-0.0586436,51.5556279],[-0.0586222,51.5556357]]]}},
{"type":"Feature","properties":{"highway":"path","name":"Pembury Road","category":"Shared path"},"geometry":{"type":"MultiLineString","coordinates":[[[-0.0593076,51.549611],[-0.0593037,51.5496038],[-0.0592752,51.5495866],[-0.059239,51.549581],[-0.059226,51.549579],[-0.0591714,51.5495763],[-0.0591481,51.5495751],[-0.0591004,51.5495301]]]}}
]
}
