{
"type": "FeatureCollection",
"name": "GREEN_32_toilets",
"crs": { "type": "name", "properties": { "name": "urn:ogc:def:crs:OGC:1.3:CRS84" } },
"features": [
{ "type": "Feature", "properties": { "name": "Unknown", "payment_info": "Free", "accessible": "False", "radar": "Unknown", "women": "Unknown", "men": "Unknown", "baby_change": "Unknown", "Mon": "Unknown", "Tue": "Unknown", "Wed": "Unknown", "Thu": "Unknown", "Fri": "Unknown", "Sat": "Unknown", "Sun": "Unknown", "index_right": 50, "park_offical_id": "GREEN_32" }, "geometry": { "type": "Point", "coordinates": [ 0.0451704, 51.4894888 ] } },
{ "type": "Feature", "properties": { "name": "Charlton", "payment_info": "Free", "accessible": "False", "radar": "True", "women": "Unknown", "men": "Unknown", "baby_change": "True", "Mon": "Unknown", "Tue": "Unknown", "Wed": "Unknown", "Thu": "Unknown", "Fri": "Unknown", "Sat": "Unknown", "Sun": "Unknown", "index_right": 50, "park_offical_id": "GREEN_32" }, "geometry": { "type": "Point", "coordinates": [ 0.031446218, 51.486776287 ] } },
{ "type": "Feature", "properties": { "name": "Thames Barrier cafe", "payment_info": "Cost unknown", "accessible": "False", "radar": "Unknown", "women": "True", "men": "True", "baby_change": "Unknown", "Mon": "Unknown", "Tue": "Unknown", "Wed": "Unknown", "Thu": "Unknown", "Fri": "Unknown", "Sat": "Unknown", "Sun": "Unknown", "index_right": 50, "park_offical_id": "GREEN_32" }, "geometry": { "type": "Point", "coordinates": [ 0.041145086, 51.494767488 ] } },
{ "type": "Feature", "properties": { "name": "Charlton Park", "payment_info": "Free", "accessible": "False", "radar": "Unknown", "women": "True", "men": "True", "baby_change": "Unknown", "Mon": "09:00-17:00", "Tue": "09:00-17:00", "Wed": "09:00-17:00", "Thu": "09:00-17:00", "Fri": "09:00-17:00", "Sat": "09:00-17:00", "Sun": "09:00-17:00", "index_right": 50, "park_offical_id": "GREEN_32" }, "geometry": { "type": "Point", "coordinates": [ 0.040595, 51.481757 ] } },
{ "type": "Feature", "properties": { "name": "Woolwich Dockyard Station", "payment_info": "Free", "accessible": "False", "radar": "False", "women": "Unknown", "men": "Unknown", "baby_change": "False", "Mon": "Unknown", "Tue": "Unknown", "Wed": "Unknown", "Thu": "Unknown", "Fri": "Unknown", "Sat": "Unknown", "Sun": "Unknown", "index_right": 50, "park_offical_id": "GREEN_32" }, "geometry": { "type": "Point", "coordinates": [ 0.055081844, 51.491105237 ] } }
]
}
