{
"type": "FeatureCollection",
"name": "05415dd65e34_foliage",
"crs": { "type": "name", "properties": { "name": "urn:ogc:def:crs:OGC:1.3:CRS84" } },
"features": [
{ "type": "Feature", "properties": { "max_height": 6.1592521667480469, "mean_height": 1.3521010875701904, "std_height": 1.7579834461212158, "count_pixels": 42, "percent_cover": 0.068417280250211765, "percent_above_0.1m": 69.047619047619051, "low_level_<0.5": 19.047619047619047, "mid_level_0.5-2": 26.190476190476193, "tall_2+": 23.809523809523807 }, "geometry": { "type": "Point", "coordinates": [ -0.419746718726431, 51.557745091429723 ] } },
{ "type": "Feature", "properties": { "max_height": 3.4637527465820312, "mean_height": 0.3836626410484314, "std_height": 0.86035394668579102, "count_pixels": 42, "percent_cover": 0.068417280250211765, "percent_above_0.1m": 21.428571428571427, "low_level_<0.5": 4.7619047619047619, "mid_level_0.5-2": 9.5238095238095237, "tall_2+": 7.1428571428571423 }, "geometry": { "type": "Point", "coordinates": [ -0.419546925105737, 51.557742398857357 ] } },
{ "type": "Feature", "properties": { "max_height": 0.85850143432617188, "mean_height": 0.090252019464969635, "std_height": 0.19271646440029144, "count_pixels": 38, "percent_cover": 0.061901348797810646, "percent_above_0.1m": 15.789473684210526, "low_level_<0.5": 7.8947368421052628, "mid_level_0.5-2": 7.8947368421052628, "tall_2+": 0.0 }, "geometry": { "type": "Point", "coordinates": [ -0.419347131516004, 51.557739705944918 ] } },
{ "type": "Feature", "properties": { "max_height": 0.977996826171875, "mean_height": 0.084281288087368011, "std_height": 0.2171759158372879, "count_pixels": 42, "percent_cover": 0.068417280250211765, "percent_above_0.1m": 11.904761904761903, "low_level_<0.5": 7.1428571428571423, "mid_level_0.5-2": 4.7619047619047619, "tall_2+": 0.0 }, "geometry": { "type": "Point", "coordinates": [ -0.419147337957262, 51.557737012692414 ] } },
{ "type": "Feature", "properties": { "max_height": 1.3370018005371094, "mean_height": 0.093020088970661163, "std_height": 0.28786063194274902, "count_pixels": 41, "percent_cover": 0.066788297387111492, "percent_above_0.1m": 12.195121951219512, "low_level_<0.5": 4.8780487804878048, "mid_level_0.5-2": 7.3170731707317067, "tall_2+": 0.0 }, "geometry": { "type": "Point", "coordinates": [ -0.418947544429491, 51.557734319099858 ] } },
{ "type": "Feature", "properties": { "max_height": 5.4772529602050781, "mean_height": 0.72037726640701294, "std_height": 1.1547979116439819, "count_pixels": 42, "percent_cover": 0.068417280250211765, "percent_above_0.1m": 50.0, "low_level_<0.5": 19.047619047619047, "mid_level_0.5-2": 19.047619047619047, "tall_2+": 11.904761904761903 }, "geometry": { "type": "Point", "coordinates": [ -0.419842875763334, 51.557854294834421 ] } },
{ "type": "Feature", "properties": { "max_height": 9.3985023498535156, "mean_height": 1.4000635147094727, "std_height": 2.3191208839416504, "count_pixels": 41, "percent_cover": 0.066788297387111492, "percent_above_0.1m": 65.853658536585371, "low_level_<0.5": 17.073170731707318, "mid_level_0.5-2": 24.390243902439025, "tall_2+": 19.512195121951219 }, "geometry": { "type": "Point", "coordinates": [ -0.419643081656615, 51.557851602421309 ] } },
{ "type": "Feature", "properties": { "max_height": 1.7687530517578125, "mean_height": 0.46742457151412964, "std_height": 0.56400758028030396, "count_pixels": 42, "percent_cover": 0.068417280250211765, "percent_above_0.1m": 54.761904761904766, "low_level_<0.5": 14.285714285714285, "mid_level_0.5-2": 35.714285714285715, "tall_2+": 0.0 }, "geometry": { "type": "Point", "coordinates": [ -0.419443287580873, 51.557848909668124 ] } },
{ "type": "Feature", "properties": { "max_height": 10.122753143310547, "mean_height": 3.2483768463134766, "std_height": 2.9192614555358887, "count_pixels": 42, "percent_cover": 0.068417280250211765, "percent_above_0.1m": 95.238095238095227, "low_level_<0.5": 9.5238095238095237, "mid_level_0.5-2": 23.809523809523807, "tall_2+": 59.523809523809526 }, "geometry": { "type": "Point", "coordinates": [ -0.419243493536103, 51.557846216574866 ] } },
{ "type": "Feature", "properties": { "max_height": 11.958000183105469, "mean_height": 4.2313590049743652, "std_height": 3.230393648147583, "count_pixels": 42, "percent_cover": 0.068417280250211765, "percent_above_0.1m": 88.095238095238088, "low_level_<0.5": 4.7619047619047619, "mid_level_0.5-2": 14.285714285714285, "tall_2+": 69.047619047619051 }, "geometry": { "type": "Point", "coordinates": [ -0.419043699522317, 51.557843523141543 ] } },
{ "type": "Feature", "properties": { "max_height": 5.9767532348632812, "mean_height": 1.1978887319564819, "std_height": 1.6002024412155151, "count_pixels": 42, "percent_cover": 0.068417280250211765, "percent_above_0.1m": 66.666666666666657, "low_level_<0.5": 16.666666666666664, "mid_level_0.5-2": 14.285714285714285, "tall_2+": 28.571428571428569 }, "geometry": { "type": "Point", "coordinates": [ -0.418843905539514, 51.557840829368146 ] } },
{ "type": "Feature", "properties": { "max_height": 9.5037574768066406, "mean_height": 1.9672698974609375, "std_height": 3.0623981952667236, "count_pixels": 42, "percent_cover": 0.068417280250211765, "percent_above_0.1m": 42.857142857142854, "low_level_<0.5": 4.7619047619047619, "mid_level_0.5-2": 2.3809523809523809, "tall_2+": 33.333333333333329 }, "geometry": { "type": "Point", "coordinates": [ -0.418644111587697, 51.557838135254691 ] } },
{ "type": "Feature", "properties": { "max_height": 0.350250244140625, "mean_height": 0.025573458522558212, "std_height": 0.067598924040794373, "count_pixels": 42, "percent_cover": 0.068417280250211765, "percent_above_0.1m": 7.1428571428571423, "low_level_<0.5": 4.7619047619047619, "mid_level_0.5-2": 0.0, "tall_2+": 0.0 }, "geometry": { "type": "Point", "coordinates": [ -0.418444317666873, 51.557835440801178 ] } },
{ "type": "Feature", "properties": { "max_height": 5.5255050659179688, "mean_height": 0.27151387929916382, "std_height": 0.91463726758956909, "count_pixels": 41, "percent_cover": 0.066788297387111492, "percent_above_0.1m": 14.634146341463413, "low_level_<0.5": 0.0, "mid_level_0.5-2": 9.7560975609756095, "tall_2+": 2.4390243902439024 }, "geometry": { "type": "Point", "coordinates": [ -0.418244523875167, 51.557832746000621 ] } },
{ "type": "Feature", "properties": { "max_height": 4.9497528076171875, "mean_height": 0.28243601322174072, "std_height": 0.9287840723991394, "count_pixels": 42, "percent_cover": 0.068417280250211765, "percent_above_0.1m": 16.666666666666664, "low_level_<0.5": 4.7619047619047619, "mid_level_0.5-2": 7.1428571428571423, "tall_2+": 4.7619047619047619 }, "geometry": { "type": "Point", "coordinates": [ -0.41804473042575, 51.557830050800696 ] } },
{ "type": "Feature", "properties": { "max_height": 6.074249267578125, "mean_height": 2.2667841911315918, "std_height": 1.8619064092636108, "count_pixels": 42, "percent_cover": 0.068417280250211765, "percent_above_0.1m": 88.095238095238088, "low_level_<0.5": 4.7619047619047619, "mid_level_0.5-2": 35.714285714285715, "tall_2+": 45.238095238095241 }, "geometry": { "type": "Point", "coordinates": [ -0.419739238662541, 51.557960805908813 ] } },
{ "type": "Feature", "properties": { "max_height": 12.816001892089844, "mean_height": 4.2345376014709473, "std_height": 3.6974945068359375, "count_pixels": 42, "percent_cover": 0.068417280250211765, "percent_above_0.1m": 88.095238095238088, "low_level_<0.5": 2.3809523809523809, "mid_level_0.5-2": 21.428571428571427, "tall_2+": 64.285714285714292 }, "geometry": { "type": "Point", "coordinates": [ -0.419539444100772, 51.557958113314875 ] } },
{ "type": "Feature", "properties": { "max_height": 5.8030014038085938, "mean_height": 2.1374025344848633, "std_height": 1.8203657865524292, "count_pixels": 38, "percent_cover": 0.061901348797810646, "percent_above_0.1m": 84.210526315789465, "low_level_<0.5": 13.157894736842104, "mid_level_0.5-2": 28.947368421052634, "tall_2+": 42.105263157894733 }, "geometry": { "type": "Point", "coordinates": [ -0.419339649569984, 51.557955420380864 ] } },
{ "type": "Feature", "properties": { "max_height": 8.6235008239746094, "mean_height": 2.3357703685760498, "std_height": 2.2757437229156494, "count_pixels": 42, "percent_cover": 0.068417280250211765, "percent_above_0.1m": 80.952380952380949, "low_level_<0.5": 4.7619047619047619, "mid_level_0.5-2": 35.714285714285715, "tall_2+": 40.476190476190474 }, "geometry": { "type": "Point", "coordinates": [ -0.419139855070176, 51.557952727106787 ] } },
{ "type": "Feature", "properties": { "max_height": 6.587249755859375, "mean_height": 1.1752700805664062, "std_height": 1.8650662899017334, "count_pixels": 41, "percent_cover": 0.066788297387111492, "percent_above_0.1m": 48.780487804878049, "low_level_<0.5": 7.3170731707317067, "mid_level_0.5-2": 19.512195121951219, "tall_2+": 21.951219512195124 }, "geometry": { "type": "Point", "coordinates": [ -0.418940060601342, 51.557950033492659 ] } },
{ "type": "Feature", "properties": { "max_height": 4.4185028076171875, "mean_height": 1.3621387481689453, "std_height": 1.51141357421875, "count_pixels": 42, "percent_cover": 0.068417280250211765, "percent_above_0.1m": 64.285714285714292, "low_level_<0.5": 4.7619047619047619, "mid_level_0.5-2": 21.428571428571427, "tall_2+": 33.333333333333329 }, "geometry": { "type": "Point", "coordinates": [ -0.418740266163506, 51.557947339538451 ] } },
{ "type": "Feature", "properties": { "max_height": 9.3230018615722656, "mean_height": 1.3705546855926514, "std_height": 2.3491783142089844, "count_pixels": 42, "percent_cover": 0.068417280250211765, "percent_above_0.1m": 64.285714285714292, "low_level_<0.5": 14.285714285714285, "mid_level_0.5-2": 19.047619047619047, "tall_2+": 19.047619047619047 }, "geometry": { "type": "Point", "coordinates": [ -0.418540471756652, 51.557944645244177 ] } },
{ "type": "Feature", "properties": { "max_height": 5.9114990234375, "mean_height": 1.6878290176391602, "std_height": 1.8390066623687744, "count_pixels": 42, "percent_cover": 0.068417280250211765, "percent_above_0.1m": 73.80952380952381, "low_level_<0.5": 9.5238095238095237, "mid_level_0.5-2": 26.190476190476193, "tall_2+": 35.714285714285715 }, "geometry": { "type": "Point", "coordinates": [ -0.418340677380789, 51.55794195060983 ] } },
{ "type": "Feature", "properties": { "max_height": 5.0550041198730469, "mean_height": 1.0147039890289307, "std_height": 1.4627411365509033, "count_pixels": 42, "percent_cover": 0.068417280250211765, "percent_above_0.1m": 66.666666666666657, "low_level_<0.5": 28.571428571428569, "mid_level_0.5-2": 19.047619047619047, "tall_2+": 19.047619047619047 }, "geometry": { "type": "Point", "coordinates": [ -0.418140883297503, 51.557939255597482 ] } },
{ "type": "Feature", "properties": { "max_height": 11.394752502441406, "mean_height": 4.2262930870056152, "std_height": 3.1493000984191895, "count_pixels": 42, "percent_cover": 0.068417280250211765, "percent_above_0.1m": 92.857142857142861, "low_level_<0.5": 9.5238095238095237, "mid_level_0.5-2": 9.5238095238095237, "tall_2+": 73.80952380952381 }, "geometry": { "type": "Point", "coordinates": [ -0.417941089542816, 51.557936560197568 ] } },
{ "type": "Feature", "properties": { "max_height": 5.7977523803710938, "mean_height": 0.91227549314498901, "std_height": 1.6819497346878052, "count_pixels": 42, "percent_cover": 0.068417280250211765, "percent_above_0.1m": 38.095238095238095, "low_level_<0.5": 7.1428571428571423, "mid_level_0.5-2": 9.5238095238095237, "tall_2+": 19.047619047619047 }, "geometry": { "type": "Point", "coordinates": [ -0.417741295843801, 51.55793386445572 ] } },
{ "type": "Feature", "properties": { "max_height": 6.8065032958984375, "mean_height": 0.55315101146697998, "std_height": 1.4194209575653076, "count_pixels": 42, "percent_cover": 0.068417280250211765, "percent_above_0.1m": 23.809523809523807, "low_level_<0.5": 7.1428571428571423, "mid_level_0.5-2": 7.1428571428571423, "tall_2+": 9.5238095238095237 }, "geometry": { "type": "Point", "coordinates": [ -0.417541502175223, 51.557931168374104 ] } },
{ "type": "Feature", "properties": { "max_height": 3.1129989624023438, "mean_height": 0.8100847601890564, "std_height": 0.87109780311584473, "count_pixels": 42, "percent_cover": 0.068417280250211765, "percent_above_0.1m": 64.285714285714292, "low_level_<0.5": 16.666666666666664, "mid_level_0.5-2": 35.714285714285715, "tall_2+": 11.904761904761903 }, "geometry": { "type": "Point", "coordinates": [ -0.419236011073069, 51.558061930995642 ] } },
{ "type": "Feature", "properties": { "max_height": 2.5932502746582031, "mean_height": 1.2018113136291504, "std_height": 0.90656018257141113, "count_pixels": 42, "percent_cover": 0.068417280250211765, "percent_above_0.1m": 78.571428571428569, "low_level_<0.5": 9.5238095238095237, "mid_level_0.5-2": 42.857142857142854, "tall_2+": 26.190476190476193 }, "geometry": { "type": "Point", "coordinates": [ -0.419036216118214, 51.558059237540739 ] } },
{ "type": "Feature", "properties": { "max_height": 4.6397514343261719, "mean_height": 1.316281795501709, "std_height": 1.1196922063827515, "count_pixels": 42, "percent_cover": 0.068417280250211765, "percent_above_0.1m": 80.952380952380949, "low_level_<0.5": 7.1428571428571423, "mid_level_0.5-2": 40.476190476190474, "tall_2+": 30.952380952380953 }, "geometry": { "type": "Point", "coordinates": [ -0.418836421194343, 51.558056543745778 ] } },
{ "type": "Feature", "properties": { "max_height": 3.7697525024414062, "mean_height": 0.74566829204559326, "std_height": 0.90097957849502563, "count_pixels": 42, "percent_cover": 0.068417280250211765, "percent_above_0.1m": 61.904761904761905, "low_level_<0.5": 19.047619047619047, "mid_level_0.5-2": 28.571428571428569, "tall_2+": 14.285714285714285 }, "geometry": { "type": "Point", "coordinates": [ -0.41863662630146, 51.558053849610758 ] } },
{ "type": "Feature", "properties": { "max_height": 2.4622535705566406, "mean_height": 0.42176419496536255, "std_height": 0.68353819847106934, "count_pixels": 42, "percent_cover": 0.068417280250211765, "percent_above_0.1m": 42.857142857142854, "low_level_<0.5": 9.5238095238095237, "mid_level_0.5-2": 21.428571428571427, "tall_2+": 7.1428571428571423 }, "geometry": { "type": "Point", "coordinates": [ -0.418436831439568, 51.558051155135651 ] } },
{ "type": "Feature", "properties": { "max_height": 2.5395011901855469, "mean_height": 0.4555506706237793, "std_height": 0.73872953653335571, "count_pixels": 41, "percent_cover": 0.066788297387111492, "percent_above_0.1m": 41.463414634146339, "low_level_<0.5": 12.195121951219512, "mid_level_0.5-2": 19.512195121951219, "tall_2+": 9.7560975609756095 }, "geometry": { "type": "Point", "coordinates": [ -0.418237036720623, 51.55804846031188 ] } },
{ "type": "Feature", "properties": { "max_height": 4.6680030822753906, "mean_height": 0.88580548763275146, "std_height": 1.2311629056930542, "count_pixels": 42, "percent_cover": 0.068417280250211765, "percent_above_0.1m": 64.285714285714292, "low_level_<0.5": 19.047619047619047, "mid_level_0.5-2": 26.190476190476193, "tall_2+": 16.666666666666664 }, "geometry": { "type": "Point", "coordinates": [ -0.418037242358895, 51.558045765079001 ] } },
{ "type": "Feature", "properties": { "max_height": 3.6187515258789062, "mean_height": 0.71535664796829224, "std_height": 0.97154313325881958, "count_pixels": 38, "percent_cover": 0.061901348797810646, "percent_above_0.1m": 60.526315789473685, "low_level_<0.5": 23.684210526315788, "mid_level_0.5-2": 21.052631578947366, "tall_2+": 13.157894736842104 }, "geometry": { "type": "Point", "coordinates": [ -0.417837448185558, 51.558043069490886 ] } },
{ "type": "Feature", "properties": { "max_height": 7.2927169799804688, "mean_height": 2.3995013236999512, "std_height": 2.3064937591552734, "count_pixels": 42, "percent_cover": 0.068417280250211765, "percent_above_0.1m": 80.952380952380949, "low_level_<0.5": 11.904761904761903, "mid_level_0.5-2": 21.428571428571427, "tall_2+": 45.238095238095241 }, "geometry": { "type": "Point", "coordinates": [ -0.417637654042663, 51.558040373562982 ] } },
{ "type": "Feature", "properties": { "max_height": 11.831752777099609, "mean_height": 4.2857251167297363, "std_height": 3.5240552425384521, "count_pixels": 41, "percent_cover": 0.066788297387111492, "percent_above_0.1m": 87.804878048780495, "low_level_<0.5": 2.4390243902439024, "mid_level_0.5-2": 9.7560975609756095, "tall_2+": 70.731707317073173 }, "geometry": { "type": "Point", "coordinates": [ -0.417437859930199, 51.558037677295268 ] } },
{ "type": "Feature", "properties": { "max_height": 2.9717559814453125, "mean_height": 1.0758051872253418, "std_height": 1.0303285121917725, "count_pixels": 42, "percent_cover": 0.068417280250211765, "percent_above_0.1m": 76.19047619047619, "low_level_<0.5": 14.285714285714285, "mid_level_0.5-2": 28.571428571428569, "tall_2+": 28.571428571428569 }, "geometry": { "type": "Point", "coordinates": [ -0.418333190636446, 51.558157664929134 ] } },
{ "type": "Feature", "properties": { "max_height": 5.3482513427734375, "mean_height": 1.7283052206039429, "std_height": 1.2933673858642578, "count_pixels": 42, "percent_cover": 0.068417280250211765, "percent_above_0.1m": 90.476190476190482, "low_level_<0.5": 11.904761904761903, "mid_level_0.5-2": 45.238095238095241, "tall_2+": 33.333333333333329 }, "geometry": { "type": "Point", "coordinates": [ -0.418133395635013, 51.558154969887646 ] } },
{ "type": "Feature", "properties": { "max_height": 5.7584991455078125, "mean_height": 1.4515316486358643, "std_height": 1.5970457792282104, "count_pixels": 42, "percent_cover": 0.068417280250211765, "percent_above_0.1m": 73.80952380952381, "low_level_<0.5": 7.1428571428571423, "mid_level_0.5-2": 35.714285714285715, "tall_2+": 26.190476190476193 }, "geometry": { "type": "Point", "coordinates": [ -0.417933600971199, 51.558152274454869 ] } },
{ "type": "Feature", "properties": { "max_height": 5.03900146484375, "mean_height": 1.2528946399688721, "std_height": 1.5956019163131714, "count_pixels": 42, "percent_cover": 0.068417280250211765, "percent_above_0.1m": 61.904761904761905, "low_level_<0.5": 7.1428571428571423, "mid_level_0.5-2": 19.047619047619047, "tall_2+": 28.571428571428569 }, "geometry": { "type": "Point", "coordinates": [ -0.417733806353973, 51.558149578680684 ] } },
{ "type": "Feature", "properties": { "max_height": 5.0974617004394531, "mean_height": 0.87357193231582642, "std_height": 1.2683961391448975, "count_pixels": 42, "percent_cover": 0.068417280250211765, "percent_above_0.1m": 47.619047619047613, "low_level_<0.5": 4.7619047619047619, "mid_level_0.5-2": 23.809523809523807, "tall_2+": 19.047619047619047 }, "geometry": { "type": "Point", "coordinates": [ -0.41753401176719, 51.558146882566717 ] } },
{ "type": "Feature", "properties": { "max_height": 9.154998779296875, "mean_height": 2.3055994510650635, "std_height": 2.5728819370269775, "count_pixels": 42, "percent_cover": 0.068417280250211765, "percent_above_0.1m": 83.333333333333343, "low_level_<0.5": 19.047619047619047, "mid_level_0.5-2": 26.190476190476193, "tall_2+": 38.095238095238095 }, "geometry": { "type": "Point", "coordinates": [ -0.417334217210842, 51.558144186112926 ] } },
{ "type": "Feature", "properties": { "max_height": 6.5304336547851562, "mean_height": 1.8464795351028442, "std_height": 1.993167519569397, "count_pixels": 42, "percent_cover": 0.068417280250211765, "percent_above_0.1m": 69.047619047619051, "low_level_<0.5": 4.7619047619047619, "mid_level_0.5-2": 23.809523809523807, "tall_2+": 35.714285714285715 }, "geometry": { "type": "Point", "coordinates": [ -0.417134422684947, 51.558141489319333 ] } },
{ "type": "Feature", "properties": { "max_height": 3.8885040283203125, "mean_height": 0.83428454399108887, "std_height": 0.98423987627029419, "count_pixels": 38, "percent_cover": 0.061901348797810646, "percent_above_0.1m": 68.421052631578945, "low_level_<0.5": 13.157894736842104, "mid_level_0.5-2": 28.947368421052634, "tall_2+": 15.789473684210526 }, "geometry": { "type": "Point", "coordinates": [ -0.417829959109171, 51.55825878372724 ] } },
{ "type": "Feature", "properties": { "max_height": 5.6767501831054688, "mean_height": 0.91154336929321289, "std_height": 1.1968618631362915, "count_pixels": 42, "percent_cover": 0.068417280250211765, "percent_above_0.1m": 76.19047619047619, "low_level_<0.5": 33.333333333333329, "mid_level_0.5-2": 26.190476190476193, "tall_2+": 14.285714285714285 }, "geometry": { "type": "Point", "coordinates": [ -0.417630164048055, 51.558256087766978 ] } },
{ "type": "Feature", "properties": { "max_height": 8.1692543029785156, "mean_height": 1.9211585521697998, "std_height": 2.2939338684082031, "count_pixels": 41, "percent_cover": 0.066788297387111492, "percent_above_0.1m": 70.731707317073173, "low_level_<0.5": 7.3170731707317067, "mid_level_0.5-2": 31.707317073170731, "tall_2+": 31.707317073170731 }, "geometry": { "type": "Point", "coordinates": [ -0.417430369017387, 51.558253391466906 ] } },
{ "type": "Feature", "properties": { "max_height": 8.9807510375976562, "mean_height": 2.7798070907592773, "std_height": 2.3471546173095703, "count_pixels": 42, "percent_cover": 0.068417280250211765, "percent_above_0.1m": 90.476190476190482, "low_level_<0.5": 9.5238095238095237, "mid_level_0.5-2": 21.428571428571427, "tall_2+": 57.142857142857139 }, "geometry": { "type": "Point", "coordinates": [ -0.417230574017154, 51.558250694827038 ] } },
{ "type": "Feature", "properties": { "max_height": 8.0954322814941406, "mean_height": 3.1031327247619629, "std_height": 2.4424183368682861, "count_pixels": 42, "percent_cover": 0.068417280250211765, "percent_above_0.1m": 85.714285714285708, "low_level_<0.5": 7.1428571428571423, "mid_level_0.5-2": 14.285714285714285, "tall_2+": 64.285714285714292 }, "geometry": { "type": "Point", "coordinates": [ -0.417030779047371, 51.558247997847374 ] } },
{ "type": "Feature", "properties": { "max_height": 9.5321540832519531, "mean_height": 2.7316570281982422, "std_height": 2.8243303298950195, "count_pixels": 42, "percent_cover": 0.068417280250211765, "percent_above_0.1m": 90.476190476190482, "low_level_<0.5": 7.1428571428571423, "mid_level_0.5-2": 38.095238095238095, "tall_2+": 40.476190476190474 }, "geometry": { "type": "Point", "coordinates": [ -0.417526521267805, 51.558362596749717 ] } },
{ "type": "Feature", "properties": { "max_height": 6.1683883666992188, "mean_height": 2.3154444694519043, "std_height": 2.0984270572662354, "count_pixels": 42, "percent_cover": 0.068417280250211765, "percent_above_0.1m": 76.19047619047619, "low_level_<0.5": 4.7619047619047619, "mid_level_0.5-2": 26.190476190476193, "tall_2+": 45.238095238095241 }, "geometry": { "type": "Point", "coordinates": [ -0.417326725793241, 51.558359900263561 ] } },
{ "type": "Feature", "properties": { "max_height": 6.1312980651855469, "mean_height": 1.4109832048416138, "std_height": 1.5778708457946777, "count_pixels": 42, "percent_cover": 0.068417280250211765, "percent_above_0.1m": 83.333333333333343, "low_level_<0.5": 16.666666666666664, "mid_level_0.5-2": 42.857142857142854, "tall_2+": 23.809523809523807 }, "geometry": { "type": "Point", "coordinates": [ -0.417126930349123, 51.558357203437609 ] } },
{ "type": "Feature", "properties": { "max_height": 12.989078521728516, "mean_height": 3.0160031318664551, "std_height": 2.9902608394622803, "count_pixels": 41, "percent_cover": 0.066788297387111492, "percent_above_0.1m": 95.121951219512198, "low_level_<0.5": 9.7560975609756095, "mid_level_0.5-2": 36.585365853658537, "tall_2+": 43.902439024390247 }, "geometry": { "type": "Point", "coordinates": [ -0.416927134935459, 51.558354506271868 ] } },
{ "type": "Feature", "properties": { "max_height": 8.0965003967285156, "mean_height": 1.1748406887054443, "std_height": 2.3024814128875732, "count_pixels": 42, "percent_cover": 0.068417280250211765, "percent_above_0.1m": 35.714285714285715, "low_level_<0.5": 2.3809523809523809, "mid_level_0.5-2": 9.5238095238095237, "tall_2+": 19.047619047619047 }, "geometry": { "type": "Point", "coordinates": [ -0.416727339552244, 51.558351808766311 ] } },
{ "type": "Feature", "properties": { "max_height": 3.9940032958984375, "mean_height": 0.82802635431289673, "std_height": 0.98629605770111084, "count_pixels": 41, "percent_cover": 0.066788297387111492, "percent_above_0.1m": 65.853658536585371, "low_level_<0.5": 14.634146341463413, "mid_level_0.5-2": 36.585365853658537, "tall_2+": 12.195121951219512 }, "geometry": { "type": "Point", "coordinates": [ -0.417422878013211, 51.55846910562893 ] } },
{ "type": "Feature", "properties": { "max_height": 6.4905014038085938, "mean_height": 2.9106450080871582, "std_height": 2.0432672500610352, "count_pixels": 42, "percent_cover": 0.068417280250211765, "percent_above_0.1m": 83.333333333333343, "low_level_<0.5": 2.3809523809523809, "mid_level_0.5-2": 14.285714285714285, "tall_2+": 64.285714285714292 }, "geometry": { "type": "Point", "coordinates": [ -0.417223082094759, 51.558466408956697 ] } },
{ "type": "Feature", "properties": { "max_height": 2.3985023498535156, "mean_height": 0.39409708976745605, "std_height": 0.56119239330291748, "count_pixels": 42, "percent_cover": 0.068417280250211765, "percent_above_0.1m": 47.619047619047613, "low_level_<0.5": 7.1428571428571423, "mid_level_0.5-2": 30.952380952380953, "tall_2+": 2.3809523809523809 }, "geometry": { "type": "Point", "coordinates": [ -0.417023286206752, 51.558463711944668 ] } },
{ "type": "Feature", "properties": { "max_height": 8.1247520446777344, "mean_height": 1.4693703651428223, "std_height": 2.3249502182006836, "count_pixels": 42, "percent_cover": 0.068417280250211765, "percent_above_0.1m": 54.761904761904766, "low_level_<0.5": 11.904761904761903, "mid_level_0.5-2": 16.666666666666664, "tall_2+": 23.809523809523807 }, "geometry": { "type": "Point", "coordinates": [ -0.4168234903492, 51.558461014592829 ] } },
{ "type": "Feature", "properties": { "max_height": 0.77300262451171875, "mean_height": 0.042471569031476974, "std_height": 0.14264169335365295, "count_pixels": 42, "percent_cover": 0.068417280250211765, "percent_above_0.1m": 11.904761904761903, "low_level_<0.5": 7.1428571428571423, "mid_level_0.5-2": 2.3809523809523809, "tall_2+": 0.0 }, "geometry": { "type": "Point", "coordinates": [ -0.4166236945221, 51.558458316901195 ] } },
{ "type": "Feature", "properties": { "max_height": 6.1199989318847656, "mean_height": 2.8491981029510498, "std_height": 1.9454125165939331, "count_pixels": 42, "percent_cover": 0.068417280250211765, "percent_above_0.1m": 92.857142857142861, "low_level_<0.5": 4.7619047619047619, "mid_level_0.5-2": 35.714285714285715, "tall_2+": 52.380952380952387 }, "geometry": { "type": "Point", "coordinates": [ -0.417119437921929, 51.5585729175463 ] } },
{ "type": "Feature", "properties": { "max_height": 9.985504150390625, "mean_height": 1.7854714393615723, "std_height": 2.8586380481719971, "count_pixels": 41, "percent_cover": 0.066788297387111492, "percent_above_0.1m": 58.536585365853654, "low_level_<0.5": 12.195121951219512, "mid_level_0.5-2": 19.512195121951219, "tall_2+": 24.390243902439025 }, "geometry": { "type": "Point", "coordinates": [ -0.416919641590033, 51.558570220348173 ] } },
{ "type": "Feature", "properties": { "max_height": 7.6498527526855469, "mean_height": 1.1762418746948242, "std_height": 1.7561705112457275, "count_pixels": 42, "percent_cover": 0.068417280250211765, "percent_above_0.1m": 61.904761904761905, "low_level_<0.5": 16.666666666666664, "mid_level_0.5-2": 16.666666666666664, "tall_2+": 23.809523809523807 }, "geometry": { "type": "Point", "coordinates": [ -0.41671984528859, 51.55856752281025 ] } },
{ "type": "Feature", "properties": { "max_height": 9.2895736694335938, "mean_height": 1.3987547159194946, "std_height": 2.4344437122344971, "count_pixels": 38, "percent_cover": 0.061901348797810646, "percent_above_0.1m": 47.368421052631575, "low_level_<0.5": 10.526315789473683, "mid_level_0.5-2": 13.157894736842104, "tall_2+": 23.684210526315788 }, "geometry": { "type": "Point", "coordinates": [ -0.416520049017605, 51.558564824932525 ] } },
{ "type": "Feature", "properties": { "max_height": 0.97220230102539062, "mean_height": 0.051693327724933624, "std_height": 0.15544639527797699, "count_pixels": 42, "percent_cover": 0.068417280250211765, "percent_above_0.1m": 16.666666666666664, "low_level_<0.5": 7.1428571428571423, "mid_level_0.5-2": 2.3809523809523809, "tall_2+": 0.0 }, "geometry": { "type": "Point", "coordinates": [ -0.416320252777083, 51.558562126714996 ] } },
{ "type": "Feature", "properties": { "max_height": 10.423500061035156, "mean_height": 3.2492697238922119, "std_height": 3.0813958644866943, "count_pixels": 42, "percent_cover": 0.068417280250211765, "percent_above_0.1m": 85.714285714285708, "low_level_<0.5": 2.3809523809523809, "mid_level_0.5-2": 19.047619047619047, "tall_2+": 59.523809523809526 }, "geometry": { "type": "Point", "coordinates": [ -0.417015793274752, 51.558679426032377 ] } },
{ "type": "Feature", "properties": { "max_height": 9.9365005493164062, "mean_height": 1.137829065322876, "std_height": 2.20255446434021, "count_pixels": 42, "percent_cover": 0.068417280250211765, "percent_above_0.1m": 50.0, "low_level_<0.5": 11.904761904761903, "mid_level_0.5-2": 21.428571428571427, "tall_2+": 16.666666666666664 }, "geometry": { "type": "Point", "coordinates": [ -0.416815996498964, 51.558676728648152 ] } },
{ "type": "Feature", "properties": { "max_height": 8.0389404296875, "mean_height": 1.3421332836151123, "std_height": 2.1170530319213867, "count_pixels": 42, "percent_cover": 0.068417280250211765, "percent_above_0.1m": 57.142857142857139, "low_level_<0.5": 11.904761904761903, "mid_level_0.5-2": 21.428571428571427, "tall_2+": 21.428571428571427 }, "geometry": { "type": "Point", "coordinates": [ -0.41661619975363, 51.558674030924152 ] } },
{ "type": "Feature", "properties": { "max_height": 2.7950019836425781, "mean_height": 0.34098771214485168, "std_height": 0.6308523416519165, "count_pixels": 42, "percent_cover": 0.068417280250211765, "percent_above_0.1m": 38.095238095238095, "low_level_<0.5": 19.047619047619047, "mid_level_0.5-2": 16.666666666666664, "tall_2+": 2.3809523809523809 }, "geometry": { "type": "Point", "coordinates": [ -0.416416403038758, 51.558671332860335 ] } },
{ "type": "Feature", "properties": { "max_height": 5.9407081604003906, "mean_height": 0.70991408824920654, "std_height": 1.3510346412658691, "count_pixels": 42, "percent_cover": 0.068417280250211765, "percent_above_0.1m": 33.333333333333329, "low_level_<0.5": 4.7619047619047619, "mid_level_0.5-2": 11.904761904761903, "tall_2+": 16.666666666666664 }, "geometry": { "type": "Point", "coordinates": [ -0.416216606354349, 51.558668634456708 ] } },
{ "type": "Feature", "properties": { "max_height": 2.8839988708496094, "mean_height": 0.80877768993377686, "std_height": 0.8850741982460022, "count_pixels": 42, "percent_cover": 0.068417280250211765, "percent_above_0.1m": 64.285714285714292, "low_level_<0.5": 14.285714285714285, "mid_level_0.5-2": 38.095238095238095, "tall_2+": 11.904761904761903 }, "geometry": { "type": "Point", "coordinates": [ -0.416712350950318, 51.558783236844938 ] } },
{ "type": "Feature", "properties": { "max_height": 0.68421173095703125, "mean_height": 0.015205684117972851, "std_height": 0.1107666939496994, "count_pixels": 38, "percent_cover": 0.061901348797810646, "percent_above_0.1m": 2.6315789473684208, "low_level_<0.5": 0.0, "mid_level_0.5-2": 2.6315789473684208, "tall_2+": 0.0 }, "geometry": { "type": "Point", "coordinates": [ -0.416512553758563, 51.558780538936396 ] } },
{ "type": "Feature", "properties": { "max_height": 2.0414085388183594, "mean_height": 0.05115436390042305, "std_height": 0.31204906105995178, "count_pixels": 42, "percent_cover": 0.068417280250211765, "percent_above_0.1m": 2.3809523809523809, "low_level_<0.5": 0.0, "mid_level_0.5-2": 0.0, "tall_2+": 2.3809523809523809 }, "geometry": { "type": "Point", "coordinates": [ -0.416312756597373, 51.558777840687569 ] } },
{ "type": "Feature", "properties": { "max_height": 7.1725044250488281, "mean_height": 1.1439298391342163, "std_height": 1.79884934425354, "count_pixels": 41, "percent_cover": 0.066788297387111492, "percent_above_0.1m": 60.975609756097562, "low_level_<0.5": 14.634146341463413, "mid_level_0.5-2": 26.829268292682929, "tall_2+": 17.073170731707318 }, "geometry": { "type": "Point", "coordinates": [ -0.416112959466748, 51.55877514209844 ] } },
{ "type": "Feature", "properties": { "max_height": 4.0380020141601562, "mean_height": 0.2985018789768219, "std_height": 0.65510129928588867, "count_pixels": 42, "percent_cover": 0.068417280250211765, "percent_above_0.1m": 42.857142857142854, "low_level_<0.5": 21.428571428571427, "mid_level_0.5-2": 16.666666666666664, "tall_2+": 2.3809523809523809 }, "geometry": { "type": "Point", "coordinates": [ -0.415913162366686, 51.558772443169012 ] } },
{ "type": "Feature", "properties": { "max_height": 5.8417549133300781, "mean_height": 0.97226977348327637, "std_height": 1.3021780252456665, "count_pixels": 42, "percent_cover": 0.068417280250211765, "percent_above_0.1m": 59.523809523809526, "low_level_<0.5": 11.904761904761903, "mid_level_0.5-2": 26.190476190476193, "tall_2+": 21.428571428571427 }, "geometry": { "type": "Point", "coordinates": [ -0.416608705706339, 51.558889744960652 ] } },
{ "type": "Feature", "properties": { "max_height": 5.5367507934570312, "mean_height": 1.8306547403335571, "std_height": 1.6938282251358032, "count_pixels": 42, "percent_cover": 0.068417280250211765, "percent_above_0.1m": 69.047619047619051, "low_level_<0.5": 4.7619047619047619, "mid_level_0.5-2": 19.047619047619047, "tall_2+": 45.238095238095241 }, "geometry": { "type": "Point", "coordinates": [ -0.416408908021004, 51.558887046882113 ] } },
{ "type": "Feature", "properties": { "max_height": 5.3807563781738281, "mean_height": 1.4410222768783569, "std_height": 1.5299197435379028, "count_pixels": 42, "percent_cover": 0.068417280250211765, "percent_above_0.1m": 78.571428571428569, "low_level_<0.5": 14.285714285714285, "mid_level_0.5-2": 35.714285714285715, "tall_2+": 28.571428571428569 }, "geometry": { "type": "Point", "coordinates": [ -0.416209110367552, 51.558884348462556 ] } },
{ "type": "Feature", "properties": { "max_height": 8.2080039978027344, "mean_height": 2.5611593723297119, "std_height": 2.3259561061859131, "count_pixels": 42, "percent_cover": 0.068417280250211765, "percent_above_0.1m": 88.095238095238088, "low_level_<0.5": 7.1428571428571423, "mid_level_0.5-2": 30.952380952380953, "tall_2+": 50.0 }, "geometry": { "type": "Point", "coordinates": [ -0.416009312745985, 51.558881649701895 ] } },
{ "type": "Feature", "properties": { "max_height": 5.1054000854492188, "mean_height": 0.597767174243927, "std_height": 1.4123971462249756, "count_pixels": 42, "percent_cover": 0.068417280250211765, "percent_above_0.1m": 19.047619047619047, "low_level_<0.5": 0.0, "mid_level_0.5-2": 4.7619047619047619, "tall_2+": 14.285714285714285 }, "geometry": { "type": "Point", "coordinates": [ -0.415809515156306, 51.558878950600196 ] } },
{ "type": "Feature", "properties": { "max_height": 8.6759986877441406, "mean_height": 1.3954092264175415, "std_height": 2.0426583290100098, "count_pixels": 38, "percent_cover": 0.061901348797810646, "percent_above_0.1m": 57.894736842105267, "low_level_<0.5": 15.789473684210526, "mid_level_0.5-2": 13.157894736842104, "tall_2+": 28.947368421052634 }, "geometry": { "type": "Point", "coordinates": [ -0.416505060704843, 51.558996253016232 ] } },
{ "type": "Feature", "properties": { "max_height": 4.9807510375976562, "mean_height": 1.7049782276153564, "std_height": 1.4506456851959229, "count_pixels": 42, "percent_cover": 0.068417280250211765, "percent_above_0.1m": 76.19047619047619, "low_level_<0.5": 2.3809523809523809, "mid_level_0.5-2": 33.333333333333329, "tall_2+": 40.476190476190474 }, "geometry": { "type": "Point", "coordinates": [ -0.416305262544199, 51.558993554783299 ] } },
{ "type": "Feature", "properties": { "max_height": 4.5552520751953125, "mean_height": 1.1881421804428101, "std_height": 1.3642992973327637, "count_pixels": 41, "percent_cover": 0.066788297387111492, "percent_above_0.1m": 68.292682926829272, "low_level_<0.5": 17.073170731707318, "mid_level_0.5-2": 21.951219512195124, "tall_2+": 26.829268292682929 }, "geometry": { "type": "Point", "coordinates": [ -0.416105464415535, 51.55899085620883 ] } },
{ "type": "Feature", "properties": { "max_height": 11.470001220703125, "mean_height": 1.0638664960861206, "std_height": 2.2046663761138916, "count_pixels": 42, "percent_cover": 0.068417280250211765, "percent_above_0.1m": 45.238095238095241, "low_level_<0.5": 4.7619047619047619, "mid_level_0.5-2": 16.666666666666664, "tall_2+": 19.047619047619047 }, "geometry": { "type": "Point", "coordinates": [ -0.41590566631886, 51.558988157292831 ] } },
{ "type": "Feature", "properties": { "max_height": 3.3520011901855469, "mean_height": 0.44023412466049194, "std_height": 0.86538320779800415, "count_pixels": 42, "percent_cover": 0.068417280250211765, "percent_above_0.1m": 40.476190476190474, "low_level_<0.5": 11.904761904761903, "mid_level_0.5-2": 9.5238095238095237, "tall_2+": 11.904761904761903 }, "geometry": { "type": "Point", "coordinates": [ -0.415705868254175, 51.558985458035288 ] } },
{ "type": "Feature", "properties": { "max_height": 2.5730018615722656, "mean_height": 0.33994174003601074, "std_height": 0.63508111238479614, "count_pixels": 42, "percent_cover": 0.068417280250211765, "percent_above_0.1m": 35.714285714285715, "low_level_<0.5": 11.904761904761903, "mid_level_0.5-2": 16.666666666666664, "tall_2+": 4.7619047619047619 }, "geometry": { "type": "Point", "coordinates": [ -0.416201616577261, 51.559100062619166 ] } },
{ "type": "Feature", "properties": { "max_height": 4.8435020446777344, "mean_height": 0.9894481897354126, "std_height": 1.460324764251709, "count_pixels": 42, "percent_cover": 0.068417280250211765, "percent_above_0.1m": 47.619047619047613, "low_level_<0.5": 7.1428571428571423, "mid_level_0.5-2": 19.047619047619047, "tall_2+": 19.047619047619047 }, "geometry": { "type": "Point", "coordinates": [ -0.416001817975118, 51.559097363892214 ] } },
{ "type": "Feature", "properties": { "max_height": 9.2555007934570312, "mean_height": 1.2432636022567749, "std_height": 2.0374271869659424, "count_pixels": 42, "percent_cover": 0.068417280250211765, "percent_above_0.1m": 52.380952380952387, "low_level_<0.5": 11.904761904761903, "mid_level_0.5-2": 14.285714285714285, "tall_2+": 23.809523809523807 }, "geometry": { "type": "Point", "coordinates": [ -0.415802019404962, 51.559094664823718 ] } },
{ "type": "Feature", "properties": { "max_height": 3.8082504272460938, "mean_height": 0.43045461177825928, "std_height": 1.0056740045547485, "count_pixels": 42, "percent_cover": 0.068417280250211765, "percent_above_0.1m": 19.047619047619047, "low_level_<0.5": 0.0, "mid_level_0.5-2": 7.1428571428571423, "tall_2+": 11.904761904761903 }, "geometry": { "type": "Point", "coordinates": [ -0.415602220866799, 51.559091965413685 ] } },
{ "type": "Feature", "properties": { "max_height": 7.0752525329589844, "mean_height": 0.94324547052383423, "std_height": 1.5448722839355469, "count_pixels": 41, "percent_cover": 0.066788297387111492, "percent_above_0.1m": 60.975609756097562, "low_level_<0.5": 19.512195121951219, "mid_level_0.5-2": 19.512195121951219, "tall_2+": 17.073170731707318 }, "geometry": { "type": "Point", "coordinates": [ -0.416097970104848, 51.559206570386841 ] } },
{ "type": "Feature", "properties": { "max_height": 6.1395034790039062, "mean_height": 1.5905852317810059, "std_height": 2.0412523746490479, "count_pixels": 42, "percent_cover": 0.068417280250211765, "percent_above_0.1m": 61.904761904761905, "low_level_<0.5": 11.904761904761903, "mid_level_0.5-2": 21.428571428571427, "tall_2+": 28.571428571428569 }, "geometry": { "type": "Point", "coordinates": [ -0.415898171029219, 51.5592038715074 ] } },
{ "type": "Feature", "properties": { "max_height": 11.59100341796875, "mean_height": 1.6591678857803345, "std_height": 2.8076560497283936, "count_pixels": 42, "percent_cover": 0.068417280250211765, "percent_above_0.1m": 59.523809523809526, "low_level_<0.5": 14.285714285714285, "mid_level_0.5-2": 16.666666666666664, "tall_2+": 26.190476190476193 }, "geometry": { "type": "Point", "coordinates": [ -0.415698371985583, 51.559201172286414 ] } },
{ "type": "Feature", "properties": { "max_height": 5.0010032653808594, "mean_height": 0.46497216820716858, "std_height": 1.1658419370651245, "count_pixels": 42, "percent_cover": 0.068417280250211765, "percent_above_0.1m": 21.428571428571427, "low_level_<0.5": 2.3809523809523809, "mid_level_0.5-2": 9.5238095238095237, "tall_2+": 9.5238095238095237 }, "geometry": { "type": "Point", "coordinates": [ -0.415498572973938, 51.559198472723878 ] } },
{ "type": "Feature", "properties": { "max_height": 7.1415023803710938, "mean_height": 2.8292617797851562, "std_height": 1.9639149904251099, "count_pixels": 42, "percent_cover": 0.068417280250211765, "percent_above_0.1m": 88.095238095238088, "low_level_<0.5": 4.7619047619047619, "mid_level_0.5-2": 21.428571428571427, "tall_2+": 61.904761904761905 }, "geometry": { "type": "Point", "coordinates": [ -0.41579452357784, 51.559310379054359 ] } },
{ "type": "Feature", "properties": { "max_height": 8.7572555541992188, "mean_height": 2.1105227470397949, "std_height": 2.164264440536499, "count_pixels": 42, "percent_cover": 0.068417280250211765, "percent_above_0.1m": 76.19047619047619, "low_level_<0.5": 11.904761904761903, "mid_level_0.5-2": 21.428571428571427, "tall_2+": 42.857142857142854 }, "geometry": { "type": "Point", "coordinates": [ -0.415594724060718, 51.559307679680877 ] } },
{ "type": "Feature", "properties": { "max_height": 8.8562545776367188, "mean_height": 0.89569109678268433, "std_height": 1.994011402130127, "count_pixels": 41, "percent_cover": 0.066788297387111492, "percent_above_0.1m": 29.268292682926827, "low_level_<0.5": 4.8780487804878048, "mid_level_0.5-2": 7.3170731707317067, "tall_2+": 14.634146341463413 }, "geometry": { "type": "Point", "coordinates": [ -0.415394924575596, 51.559304979965859 ] } },
{ "type": "Feature", "properties": { "max_height": 9.9318504333496094, "mean_height": 0.70166033506393433, "std_height": 1.8669447898864746, "count_pixels": 42, "percent_cover": 0.068417280250211765, "percent_above_0.1m": 26.190476190476193, "low_level_<0.5": 2.3809523809523809, "mid_level_0.5-2": 16.666666666666664, "tall_2+": 7.1428571428571423 }, "geometry": { "type": "Point", "coordinates": [ -0.415195125122471, 51.559302279909282 ] } },
{ "type": "Feature", "properties": { "max_height": 5.1958541870117188, "mean_height": 0.33540114760398865, "std_height": 0.99777942895889282, "count_pixels": 38, "percent_cover": 0.061901348797810646, "percent_above_0.1m": 15.789473684210526, "low_level_<0.5": 2.6315789473684208, "mid_level_0.5-2": 5.2631578947368416, "tall_2+": 7.8947368421052628 }, "geometry": { "type": "Point", "coordinates": [ -0.414995325701355, 51.559299579511176 ] } },
{ "type": "Feature", "properties": { "max_height": 9.8375053405761719, "mean_height": 0.90444785356521606, "std_height": 2.2934503555297852, "count_pixels": 42, "percent_cover": 0.068417280250211765, "percent_above_0.1m": 28.571428571428569, "low_level_<0.5": 7.1428571428571423, "mid_level_0.5-2": 11.904761904761903, "tall_2+": 9.5238095238095237 }, "geometry": { "type": "Point", "coordinates": [ -0.414795526312245, 51.559296878771548 ] } },
{ "type": "Feature", "properties": { "max_height": 5.6703414916992188, "mean_height": 2.4934780597686768, "std_height": 1.1981276273727417, "count_pixels": 42, "percent_cover": 0.068417280250211765, "percent_above_0.1m": 100.0, "low_level_<0.5": 2.3809523809523809, "mid_level_0.5-2": 30.952380952380953, "tall_2+": 66.666666666666657 }, "geometry": { "type": "Point", "coordinates": [ -0.415690875620971, 51.559416886533114 ] } },
{ "type": "Feature", "properties": { "max_height": 4.6412734985351562, "mean_height": 1.2295880317687988, "std_height": 1.4003331661224365, "count_pixels": 42, "percent_cover": 0.068417280250211765, "percent_above_0.1m": 71.428571428571431, "low_level_<0.5": 19.047619047619047, "mid_level_0.5-2": 26.190476190476193, "tall_2+": 26.190476190476193 }, "geometry": { "type": "Point", "coordinates": [ -0.415491075630364, 51.559414187007143 ] } },
{ "type": "Feature", "properties": { "max_height": 11.367053985595703, "mean_height": 1.7394953966140747, "std_height": 2.9767730236053467, "count_pixels": 42, "percent_cover": 0.068417280250211765, "percent_above_0.1m": 59.523809523809526, "low_level_<0.5": 11.904761904761903, "mid_level_0.5-2": 16.666666666666664, "tall_2+": 26.190476190476193 }, "geometry": { "type": "Point", "coordinates": [ -0.41529127567176, 51.55941148713962 ] } },
{ "type": "Feature", "properties": { "max_height": 11.165252685546875, "mean_height": 1.527562141418457, "std_height": 2.4477972984313965, "count_pixels": 42, "percent_cover": 0.068417280250211765, "percent_above_0.1m": 64.285714285714292, "low_level_<0.5": 11.904761904761903, "mid_level_0.5-2": 23.809523809523807, "tall_2+": 23.809523809523807 }, "geometry": { "type": "Point", "coordinates": [ -0.415091475745154, 51.559408786930547 ] } },
{ "type": "Feature", "properties": { "max_height": 13.528633117675781, "mean_height": 3.9405720233917236, "std_height": 4.1260786056518555, "count_pixels": 42, "percent_cover": 0.068417280250211765, "percent_above_0.1m": 73.80952380952381, "low_level_<0.5": 7.1428571428571423, "mid_level_0.5-2": 9.5238095238095237, "tall_2+": 57.142857142857139 }, "geometry": { "type": "Point", "coordinates": [ -0.414891675850561, 51.559406086379944 ] } },
{ "type": "Feature", "properties": { "max_height": 4.6885032653808594, "mean_height": 0.76854950189590454, "std_height": 1.3968161344528198, "count_pixels": 42, "percent_cover": 0.068417280250211765, "percent_above_0.1m": 38.095238095238095, "low_level_<0.5": 7.1428571428571423, "mid_level_0.5-2": 9.5238095238095237, "tall_2+": 19.047619047619047 }, "geometry": { "type": "Point", "coordinates": [ -0.414691875987977, 51.559403385487798 ] } },
{ "type": "Feature", "properties": { "max_height": 9.7455024719238281, "mean_height": 1.1635376214981079, "std_height": 2.3415327072143555, "count_pixels": 42, "percent_cover": 0.068417280250211765, "percent_above_0.1m": 30.952380952380953, "low_level_<0.5": 0.0, "mid_level_0.5-2": 9.5238095238095237, "tall_2+": 21.428571428571427 }, "geometry": { "type": "Point", "coordinates": [ -0.414492076157409, 51.559400684254115 ] } },
{ "type": "Feature", "properties": { "max_height": 4.5940017700195312, "mean_height": 0.35323977470397949, "std_height": 0.91095805168151855, "count_pixels": 42, "percent_cover": 0.068417280250211765, "percent_above_0.1m": 30.952380952380953, "low_level_<0.5": 16.666666666666664, "mid_level_0.5-2": 7.1428571428571423, "tall_2+": 7.1428571428571423 }, "geometry": { "type": "Point", "coordinates": [ -0.414292276358854, 51.559397982678881 ] } },
{ "type": "Feature", "properties": { "max_height": 3.7127532958984375, "mean_height": 1.4133838415145874, "std_height": 0.97666782140731812, "count_pixels": 41, "percent_cover": 0.066788297387111492, "percent_above_0.1m": 87.804878048780495, "low_level_<0.5": 9.7560975609756095, "mid_level_0.5-2": 46.341463414634148, "tall_2+": 31.707317073170731 }, "geometry": { "type": "Point", "coordinates": [ -0.415387426694517, 51.559520694265167 ] } },
{ "type": "Feature", "properties": { "max_height": 10.823001861572266, "mean_height": 4.5652995109558105, "std_height": 3.1263260841369629, "count_pixels": 42, "percent_cover": 0.068417280250211765, "percent_above_0.1m": 92.857142857142861, "low_level_<0.5": 2.3809523809523809, "mid_level_0.5-2": 9.5238095238095237, "tall_2+": 78.571428571428569 }, "geometry": { "type": "Point", "coordinates": [ -0.415187626262428, 51.559517994245155 ] } },
{ "type": "Feature", "properties": { "max_height": 8.4675025939941406, "mean_height": 1.8588241338729858, "std_height": 2.3328404426574707, "count_pixels": 38, "percent_cover": 0.061901348797810646, "percent_above_0.1m": 71.05263157894737, "low_level_<0.5": 10.526315789473683, "mid_level_0.5-2": 31.578947368421051, "tall_2+": 28.947368421052634 }, "geometry": { "type": "Point", "coordinates": [ -0.414987825862344, 51.559515293883599 ] } },
{ "type": "Feature", "properties": { "max_height": 6.071502685546875, "mean_height": 0.72162711620330811, "std_height": 1.6214461326599121, "count_pixels": 42, "percent_cover": 0.068417280250211765, "percent_above_0.1m": 28.571428571428569, "low_level_<0.5": 0.0, "mid_level_0.5-2": 9.5238095238095237, "tall_2+": 14.285714285714285 }, "geometry": { "type": "Point", "coordinates": [ -0.414788025494269, 51.559512593180493 ] } },
{ "type": "Feature", "properties": { "max_height": 13.012500762939453, "mean_height": 1.828727126121521, "std_height": 3.3733530044555664, "count_pixels": 41, "percent_cover": 0.066788297387111492, "percent_above_0.1m": 46.341463414634148, "low_level_<0.5": 4.8780487804878048, "mid_level_0.5-2": 14.634146341463413, "tall_2+": 24.390243902439025 }, "geometry": { "type": "Point", "coordinates": [ -0.414588225158206, 51.559509892135821 ] } },
{ "type": "Feature", "properties": { "max_height": 11.928001403808594, "mean_height": 2.8934123516082764, "std_height": 3.6833291053771973, "count_pixels": 42, "percent_cover": 0.068417280250211765, "percent_above_0.1m": 59.523809523809526, "low_level_<0.5": 2.3809523809523809, "mid_level_0.5-2": 21.428571428571427, "tall_2+": 35.714285714285715 }, "geometry": { "type": "Point", "coordinates": [ -0.414388424854161, 51.559507190749656 ] } },
{ "type": "Feature", "properties": { "max_height": 7.19000244140625, "mean_height": 1.4690519571304321, "std_height": 2.1747369766235352, "count_pixels": 42, "percent_cover": 0.068417280250211765, "percent_above_0.1m": 54.761904761904766, "low_level_<0.5": 7.1428571428571423, "mid_level_0.5-2": 14.285714285714285, "tall_2+": 28.571428571428569 }, "geometry": { "type": "Point", "coordinates": [ -0.41418862458214, 51.559504489021911 ] } },
{ "type": "Feature", "properties": { "max_height": 8.7055740356445312, "mean_height": 1.9168021678924561, "std_height": 2.5061724185943604, "count_pixels": 42, "percent_cover": 0.068417280250211765, "percent_above_0.1m": 57.142857142857139, "low_level_<0.5": 9.5238095238095237, "mid_level_0.5-2": 16.666666666666664, "tall_2+": 30.952380952380953 }, "geometry": { "type": "Point", "coordinates": [ -0.41398882434214, 51.559501786952623 ] } },
{ "type": "Feature", "properties": { "max_height": 10.48101806640625, "mean_height": 1.6804903745651245, "std_height": 2.6757621765136719, "count_pixels": 42, "percent_cover": 0.068417280250211765, "percent_above_0.1m": 42.857142857142854, "low_level_<0.5": 4.7619047619047619, "mid_level_0.5-2": 11.904761904761903, "tall_2+": 26.190476190476193 }, "geometry": { "type": "Point", "coordinates": [ -0.413789024134176, 51.559499084541798 ] } },
{ "type": "Feature", "properties": { "max_height": 4.3307533264160156, "mean_height": 1.901305079460144, "std_height": 1.1671826839447021, "count_pixels": 42, "percent_cover": 0.068417280250211765, "percent_above_0.1m": 90.476190476190482, "low_level_<0.5": 7.1428571428571423, "mid_level_0.5-2": 23.809523809523807, "tall_2+": 57.142857142857139 }, "geometry": { "type": "Point", "coordinates": [ -0.414884175474031, 51.559621800768404 ] } },
{ "type": "Feature", "properties": { "max_height": 4.1122512817382812, "mean_height": 0.94127547740936279, "std_height": 1.2167695760726929, "count_pixels": 42, "percent_cover": 0.068417280250211765, "percent_above_0.1m": 61.904761904761905, "low_level_<0.5": 9.5238095238095237, "mid_level_0.5-2": 30.952380952380953, "tall_2+": 14.285714285714285 }, "geometry": { "type": "Point", "coordinates": [ -0.41468437463247, 51.559619099912808 ] } },
{ "type": "Feature", "properties": { "max_height": 5.912750244140625, "mean_height": 1.190299391746521, "std_height": 1.5693070888519287, "count_pixels": 42, "percent_cover": 0.068417280250211765, "percent_above_0.1m": 52.380952380952387, "low_level_<0.5": 4.7619047619047619, "mid_level_0.5-2": 23.809523809523807, "tall_2+": 23.809523809523807 }, "geometry": { "type": "Point", "coordinates": [ -0.414484573822934, 51.55961639871564 ] } },
{ "type": "Feature", "properties": { "max_height": 5.4200019836425781, "mean_height": 1.0043801069259644, "std_height": 1.6722310781478882, "count_pixels": 42, "percent_cover": 0.068417280250211765, "percent_above_0.1m": 42.857142857142854, "low_level_<0.5": 2.3809523809523809, "mid_level_0.5-2": 11.904761904761903, "tall_2+": 21.428571428571427 }, "geometry": { "type": "Point", "coordinates": [ -0.414284773045412, 51.559613697176943 ] } },
{ "type": "Feature", "properties": { "max_height": 7.2167510986328125, "mean_height": 0.68436270952224731, "std_height": 1.4125939607620239, "count_pixels": 41, "percent_cover": 0.066788297387111492, "percent_above_0.1m": 65.853658536585371, "low_level_<0.5": 24.390243902439025, "mid_level_0.5-2": 21.951219512195124, "tall_2+": 7.3170731707317067 }, "geometry": { "type": "Point", "coordinates": [ -0.414084972299913, 51.559610995296701 ] } },
{ "type": "Feature", "properties": { "max_height": 7.7482528686523438, "mean_height": 1.3287993669509888, "std_height": 1.6805272102355957, "count_pixels": 42, "percent_cover": 0.068417280250211765, "percent_above_0.1m": 73.80952380952381, "low_level_<0.5": 2.3809523809523809, "mid_level_0.5-2": 28.571428571428569, "tall_2+": 28.571428571428569 }, "geometry": { "type": "Point", "coordinates": [ -0.413885171586445, 51.559608293074923 ] } },
{ "type": "Feature", "properties": { "max_height": 12.005172729492188, "mean_height": 5.0002121925354004, "std_height": 4.1432218551635742, "count_pixels": 38, "percent_cover": 0.061901348797810646, "percent_above_0.1m": 97.368421052631575, "low_level_<0.5": 10.526315789473683, "mid_level_0.5-2": 21.052631578947366, "tall_2+": 63.157894736842103 }, "geometry": { "type": "Point", "coordinates": [ -0.413685370905006, 51.559605590511573 ] } },
{ "type": "Feature", "properties": { "max_height": 11.454830169677734, "mean_height": 2.8780560493469238, "std_height": 3.2170746326446533, "count_pixels": 42, "percent_cover": 0.068417280250211765, "percent_above_0.1m": 73.80952380952381, "low_level_<0.5": 11.904761904761903, "mid_level_0.5-2": 19.047619047619047, "tall_2+": 42.857142857142854 }, "geometry": { "type": "Point", "coordinates": [ -0.413485570255608, 51.559602887606694 ] } },
{ "type": "Feature", "properties": { "max_height": 4.029754638671875, "mean_height": 1.5290372371673584, "std_height": 1.1078381538391113, "count_pixels": 42, "percent_cover": 0.068417280250211765, "percent_above_0.1m": 85.714285714285708, "low_level_<0.5": 7.1428571428571423, "mid_level_0.5-2": 40.476190476190474, "tall_2+": 35.714285714285715 }, "geometry": { "type": "Point", "coordinates": [ -0.41438092198215, 51.55972290522724 ] } },
{ "type": "Feature", "properties": { "max_height": 6.6355018615722656, "mean_height": 2.8233668804168701, "std_height": 1.6650598049163818, "count_pixels": 42, "percent_cover": 0.068417280250211765, "percent_above_0.1m": 95.238095238095227, "low_level_<0.5": 7.1428571428571423, "mid_level_0.5-2": 14.285714285714285, "tall_2+": 73.80952380952381 }, "geometry": { "type": "Point", "coordinates": [ -0.414181120731152, 51.559720203536024 ] } },
{ "type": "Feature", "properties": { "max_height": 8.9080009460449219, "mean_height": 1.0346853733062744, "std_height": 1.8291784524917603, "count_pixels": 42, "percent_cover": 0.068417280250211765, "percent_above_0.1m": 57.142857142857139, "low_level_<0.5": 11.904761904761903, "mid_level_0.5-2": 30.952380952380953, "tall_2+": 11.904761904761903 }, "geometry": { "type": "Point", "coordinates": [ -0.413981319512176, 51.559717501503293 ] } },
{ "type": "Feature", "properties": { "max_height": 5.7872505187988281, "mean_height": 1.2291462421417236, "std_height": 1.6858103275299072, "count_pixels": 42, "percent_cover": 0.068417280250211765, "percent_above_0.1m": 61.904761904761905, "low_level_<0.5": 19.047619047619047, "mid_level_0.5-2": 11.904761904761903, "tall_2+": 26.190476190476193 }, "geometry": { "type": "Point", "coordinates": [ -0.413781518325235, 51.559714799128969 ] } },
{ "type": "Feature", "properties": { "max_height": 9.8457489013671875, "mean_height": 2.4327328205108643, "std_height": 2.8694519996643066, "count_pixels": 42, "percent_cover": 0.068417280250211765, "percent_above_0.1m": 78.571428571428569, "low_level_<0.5": 16.666666666666664, "mid_level_0.5-2": 14.285714285714285, "tall_2+": 42.857142857142854 }, "geometry": { "type": "Point", "coordinates": [ -0.413581717170325, 51.559712096413136 ] } },
{ "type": "Feature", "properties": { "max_height": 9.2415046691894531, "mean_height": 2.2258763313293457, "std_height": 2.914341926574707, "count_pixels": 42, "percent_cover": 0.068417280250211765, "percent_above_0.1m": 59.523809523809526, "low_level_<0.5": 2.3809523809523809, "mid_level_0.5-2": 16.666666666666664, "tall_2+": 35.714285714285715 }, "geometry": { "type": "Point", "coordinates": [ -0.413381916047456, 51.559709393355725 ] } },
{ "type": "Feature", "properties": { "max_height": 5.282501220703125, "mean_height": 0.55826365947723389, "std_height": 1.346686840057373, "count_pixels": 42, "percent_cover": 0.068417280250211765, "percent_above_0.1m": 21.428571428571427, "low_level_<0.5": 2.3809523809523809, "mid_level_0.5-2": 7.1428571428571423, "tall_2+": 11.904761904761903 }, "geometry": { "type": "Point", "coordinates": [ -0.413182114956626, 51.559706689956776 ] } },
{ "type": "Feature", "properties": { "max_height": 4.7572517395019531, "mean_height": 2.0124833583831787, "std_height": 1.2730778455734253, "count_pixels": 41, "percent_cover": 0.066788297387111492, "percent_above_0.1m": 97.560975609756099, "low_level_<0.5": 14.634146341463413, "mid_level_0.5-2": 36.585365853658537, "tall_2+": 46.341463414634148 }, "geometry": { "type": "Point", "coordinates": [ -0.414077467911376, 51.559826709826886 ] } },
{ "type": "Feature", "properties": { "max_height": 7.7392539978027344, "mean_height": 2.1774296760559082, "std_height": 2.2527132034301758, "count_pixels": 42, "percent_cover": 0.068417280250211765, "percent_above_0.1m": 90.476190476190482, "low_level_<0.5": 19.047619047619047, "mid_level_0.5-2": 30.952380952380953, "tall_2+": 38.095238095238095 }, "geometry": { "type": "Point", "coordinates": [ -0.413877666218925, 51.55982400764163 ] } },
{ "type": "Feature", "properties": { "max_height": 8.9867515563964844, "mean_height": 1.9012902975082397, "std_height": 2.0250234603881836, "count_pixels": 38, "percent_cover": 0.061901348797810646, "percent_above_0.1m": 86.842105263157904, "low_level_<0.5": 7.8947368421052628, "mid_level_0.5-2": 42.105263157894733, "tall_2+": 34.210526315789473 }, "geometry": { "type": "Point", "coordinates": [ -0.413677864558506, 51.559821305114809 ] } },
{ "type": "Feature", "properties": { "max_height": 5.1430015563964844, "mean_height": 1.2936551570892334, "std_height": 1.4174329042434692, "count_pixels": 42, "percent_cover": 0.068417280250211765, "percent_above_0.1m": 69.047619047619051, "low_level_<0.5": 14.285714285714285, "mid_level_0.5-2": 21.428571428571427, "tall_2+": 30.952380952380953 }, "geometry": { "type": "Point", "coordinates": [ -0.413478062930122, 51.559818602246445 ] } },
{ "type": "Feature", "properties": { "max_height": 8.0745048522949219, "mean_height": 2.7553372383117676, "std_height": 2.5330965518951416, "count_pixels": 41, "percent_cover": 0.066788297387111492, "percent_above_0.1m": 80.487804878048792, "low_level_<0.5": 4.8780487804878048, "mid_level_0.5-2": 21.951219512195124, "tall_2+": 53.658536585365859 }, "geometry": { "type": "Point", "coordinates": [ -0.413278261333782, 51.559815899036536 ] } },
{ "type": "Feature", "properties": { "max_height": 10.766750335693359, "mean_height": 2.0097332000732422, "std_height": 3.1147465705871582, "count_pixels": 42, "percent_cover": 0.068417280250211765, "percent_above_0.1m": 47.619047619047613, "low_level_<0.5": 7.1428571428571423, "mid_level_0.5-2": 11.904761904761903, "tall_2+": 28.571428571428569 }, "geometry": { "type": "Point", "coordinates": [ -0.413078459769487, 51.559813195485084 ] } },
{ "type": "Feature", "properties": { "max_height": 4.4747543334960938, "mean_height": 1.5441629886627197, "std_height": 1.2130336761474609, "count_pixels": 42, "percent_cover": 0.068417280250211765, "percent_above_0.1m": 78.571428571428569, "low_level_<0.5": 2.3809523809523809, "mid_level_0.5-2": 38.095238095238095, "tall_2+": 35.714285714285715 }, "geometry": { "type": "Point", "coordinates": [ -0.413574210286257, 51.559927811032424 ] } },
{ "type": "Feature", "properties": { "max_height": 9.6995010375976562, "mean_height": 2.2119183540344238, "std_height": 2.6906571388244629, "count_pixels": 42, "percent_cover": 0.068417280250211765, "percent_above_0.1m": 80.952380952380949, "low_level_<0.5": 11.904761904761903, "mid_level_0.5-2": 28.571428571428569, "tall_2+": 35.714285714285715 }, "geometry": { "type": "Point", "coordinates": [ -0.413374408184399, 51.559925108011555 ] } },
{ "type": "Feature", "properties": { "max_height": 5.8240013122558594, "mean_height": 1.460608959197998, "std_height": 1.4807517528533936, "count_pixels": 42, "percent_cover": 0.068417280250211765, "percent_above_0.1m": 83.333333333333343, "low_level_<0.5": 14.285714285714285, "mid_level_0.5-2": 40.476190476190474, "tall_2+": 28.571428571428569 }, "geometry": { "type": "Point", "coordinates": [ -0.413174606114587, 51.559922404649122 ] } },
{ "type": "Feature", "properties": { "max_height": 9.3597526550292969, "mean_height": 2.2071325778961182, "std_height": 2.6465268135070801, "count_pixels": 42, "percent_cover": 0.068417280250211765, "percent_above_0.1m": 66.666666666666657, "low_level_<0.5": 7.1428571428571423, "mid_level_0.5-2": 21.428571428571427, "tall_2+": 38.095238095238095 }, "geometry": { "type": "Point", "coordinates": [ -0.412974804076818, 51.559919700945137 ] } },
{ "type": "Feature", "properties": { "max_height": 7.2672500610351562, "mean_height": 2.5580625534057617, "std_height": 1.8330575227737427, "count_pixels": 41, "percent_cover": 0.066788297387111492, "percent_above_0.1m": 92.682926829268297, "low_level_<0.5": 9.7560975609756095, "mid_level_0.5-2": 19.512195121951219, "tall_2+": 63.414634146341463 }, "geometry": { "type": "Point", "coordinates": [ -0.413270752933146, 51.560031613708418 ] } },
{ "type": "Feature", "properties": { "max_height": 6.0700035095214844, "mean_height": 1.3600435256958008, "std_height": 1.3919621706008911, "count_pixels": 42, "percent_cover": 0.068417280250211765, "percent_above_0.1m": 71.428571428571431, "low_level_<0.5": 9.5238095238095237, "mid_level_0.5-2": 30.952380952380953, "tall_2+": 30.952380952380953 }, "geometry": { "type": "Point", "coordinates": [ -0.413070950389858, 51.560028910193473 ] } },
{ "type": "Feature", "properties": { "max_height": 1.4752540588378906, "mean_height": 0.26082903146743774, "std_height": 0.35636469721794128, "count_pixels": 42, "percent_cover": 0.068417280250211765, "percent_above_0.1m": 45.238095238095241, "low_level_<0.5": 7.1428571428571423, "mid_level_0.5-2": 26.190476190476193, "tall_2+": 0.0 }, "geometry": { "type": "Point", "coordinates": [ -0.41287114787862, 51.560026206336985 ] } },
{ "type": "Feature", "properties": { "max_height": 4.3455009460449219, "mean_height": 1.0953586101531982, "std_height": 0.93827193975448608, "count_pixels": 42, "percent_cover": 0.068417280250211765, "percent_above_0.1m": 85.714285714285708, "low_level_<0.5": 19.047619047619047, "mid_level_0.5-2": 47.619047619047613, "tall_2+": 19.047619047619047 }, "geometry": { "type": "Point", "coordinates": [ -0.413167097176368, 51.56013811933704 ] } },
{ "type": "Feature", "properties": { "max_height": 3.9732551574707031, "mean_height": 0.63013839721679688, "std_height": 0.90184038877487183, "count_pixels": 42, "percent_cover": 0.068417280250211765, "percent_above_0.1m": 59.523809523809526, "low_level_<0.5": 21.428571428571427, "mid_level_0.5-2": 23.809523809523807, "tall_2+": 9.5238095238095237 }, "geometry": { "type": "Point", "coordinates": [ -0.412967294159602, 51.560135415669592 ] } },
{ "type": "Feature", "properties": { "max_height": 7.9454994201660156, "mean_height": 2.482490062713623, "std_height": 2.1676156520843506, "count_pixels": 42, "percent_cover": 0.068417280250211765, "percent_above_0.1m": 90.476190476190482, "low_level_<0.5": 11.904761904761903, "mid_level_0.5-2": 26.190476190476193, "tall_2+": 50.0 }, "geometry": { "type": "Point", "coordinates": [ -0.412767491174889, 51.560132711660572 ] } },
{ "type": "Feature", "properties": { "max_height": 3.72650146484375, "mean_height": 1.4667632579803467, "std_height": 1.2520171403884888, "count_pixels": 42, "percent_cover": 0.068417280250211765, "percent_above_0.1m": 78.571428571428569, "low_level_<0.5": 9.5238095238095237, "mid_level_0.5-2": 30.952380952380953, "tall_2+": 33.333333333333329 }, "geometry": { "type": "Point", "coordinates": [ -0.41306344091405, 51.560244624897436 ] } },
{ "type": "Feature", "properties": { "max_height": 4.0185012817382812, "mean_height": 0.83997184038162231, "std_height": 1.162584662437439, "count_pixels": 42, "percent_cover": 0.068417280250211765, "percent_above_0.1m": 54.761904761904766, "low_level_<0.5": 9.5238095238095237, "mid_level_0.5-2": 26.190476190476193, "tall_2+": 16.666666666666664 }, "geometry": { "type": "Point", "coordinates": [ -0.412863637423806, 51.560241921077463 ] } },
{ "type": "Feature", "properties": { "max_height": 5.0367507934570312, "mean_height": 0.70495986938476562, "std_height": 1.2159978151321411, "count_pixels": 42, "percent_cover": 0.068417280250211765, "percent_above_0.1m": 50.0, "low_level_<0.5": 9.5238095238095237, "mid_level_0.5-2": 21.428571428571427, "tall_2+": 11.904761904761903 }, "geometry": { "type": "Point", "coordinates": [ -0.412663833965616, 51.560239216915924 ] } },
{ "type": "Feature", "properties": { "max_height": 15.491500854492188, "mean_height": 5.3167338371276855, "std_height": 5.3765463829040527, "count_pixels": 42, "percent_cover": 0.068417280250211765, "percent_above_0.1m": 78.571428571428569, "low_level_<0.5": 4.7619047619047619, "mid_level_0.5-2": 11.904761904761903, "tall_2+": 54.761904761904766 }, "geometry": { "type": "Point", "coordinates": [ -0.412464030539486, 51.56023651241285 ] } },
{ "type": "Feature", "properties": { "max_height": 3.4632492065429688, "mean_height": 0.89328140020370483, "std_height": 0.94519549608230591, "count_pixels": 42, "percent_cover": 0.068417280250211765, "percent_above_0.1m": 71.428571428571431, "low_level_<0.5": 23.809523809523807, "mid_level_0.5-2": 26.190476190476193, "tall_2+": 19.047619047619047 }, "geometry": { "type": "Point", "coordinates": [ -0.412959784146192, 51.560351130389606 ] } },
{ "type": "Feature", "properties": { "max_height": 11.319252014160156, "mean_height": 2.2489068508148193, "std_height": 2.5660934448242188, "count_pixels": 42, "percent_cover": 0.068417280250211765, "percent_above_0.1m": 73.80952380952381, "low_level_<0.5": 16.666666666666664, "mid_level_0.5-2": 14.285714285714285, "tall_2+": 42.857142857142854 }, "geometry": { "type": "Point", "coordinates": [ -0.41275998018247, 51.560348426417114 ] } },
{ "type": "Feature", "properties": { "max_height": 3.0045013427734375, "mean_height": 0.4011785089969635, "std_height": 0.74867516756057739, "count_pixels": 41, "percent_cover": 0.066788297387111492, "percent_above_0.1m": 41.463414634146339, "low_level_<0.5": 9.7560975609756095, "mid_level_0.5-2": 17.073170731707318, "tall_2+": 7.3170731707317067 }, "geometry": { "type": "Point", "coordinates": [ -0.412560176250805, 51.560345722103051 ] } },
{ "type": "Feature", "properties": { "max_height": 13.267005920410156, "mean_height": 2.5052876472473145, "std_height": 4.0082597732543945, "count_pixels": 42, "percent_cover": 0.068417280250211765, "percent_above_0.1m": 45.238095238095241, "low_level_<0.5": 2.3809523809523809, "mid_level_0.5-2": 11.904761904761903, "tall_2+": 30.952380952380953 }, "geometry": { "type": "Point", "coordinates": [ -0.412360372351198, 51.560343017447451 ] } },
{ "type": "Feature", "properties": { "max_height": 4.9927520751953125, "mean_height": 2.4217638969421387, "std_height": 1.6041151285171509, "count_pixels": 42, "percent_cover": 0.068417280250211765, "percent_above_0.1m": 92.857142857142861, "low_level_<0.5": 7.1428571428571423, "mid_level_0.5-2": 28.571428571428569, "tall_2+": 57.142857142857139 }, "geometry": { "type": "Point", "coordinates": [ -0.41265632243559, 51.560454931688518 ] } },
{ "type": "Feature", "properties": { "max_height": 8.917755126953125, "mean_height": 2.6276626586914062, "std_height": 2.1193904876708984, "count_pixels": 42, "percent_cover": 0.068417280250211765, "percent_above_0.1m": 90.476190476190482, "low_level_<0.5": 7.1428571428571423, "mid_level_0.5-2": 28.571428571428569, "tall_2+": 54.761904761904766 }, "geometry": { "type": "Point", "coordinates": [ -0.412456518030444, 51.560452227221944 ] } },
{ "type": "Feature", "properties": { "max_height": 10.310001373291016, "mean_height": 2.7489068508148193, "std_height": 3.2792131900787354, "count_pixels": 42, "percent_cover": 0.068417280250211765, "percent_above_0.1m": 57.142857142857139, "low_level_<0.5": 4.7619047619047619, "mid_level_0.5-2": 7.1428571428571423, "tall_2+": 45.238095238095241 }, "geometry": { "type": "Point", "coordinates": [ -0.412256713657361, 51.560449522413812 ] } },
{ "type": "Feature", "properties": { "max_height": 6.4080047607421875, "mean_height": 3.1994655132293701, "std_height": 1.6503440141677856, "count_pixels": 41, "percent_cover": 0.066788297387111492, "percent_above_0.1m": 95.121951219512198, "low_level_<0.5": 2.4390243902439024, "mid_level_0.5-2": 14.634146341463413, "tall_2+": 78.048780487804876 }, "geometry": { "type": "Point", "coordinates": [ -0.412552664183161, 51.560561436891682 ] } },
{ "type": "Feature", "properties": { "max_height": 13.227252960205078, "mean_height": 6.0908288955688477, "std_height": 3.2074897289276123, "count_pixels": 42, "percent_cover": 0.068417280250211765, "percent_above_0.1m": 95.238095238095227, "low_level_<0.5": 4.7619047619047619, "mid_level_0.5-2": 0.0, "tall_2+": 90.476190476190482 }, "geometry": { "type": "Point", "coordinates": [ -0.412352859304534, 51.560558732272582 ] } },
{ "type": "Feature", "properties": { "max_height": 7.2750015258789062, "mean_height": 3.0772061347961426, "std_height": 2.0914485454559326, "count_pixels": 38, "percent_cover": 0.061901348797810646, "percent_above_0.1m": 89.473684210526315, "low_level_<0.5": 7.8947368421052628, "mid_level_0.5-2": 13.157894736842104, "tall_2+": 65.789473684210535 }, "geometry": { "type": "Point", "coordinates": [ -0.412153054457973, 51.560556027311939 ] } },
{ "type": "Feature", "properties": { "max_height": 7.3842506408691406, "mean_height": 1.094870924949646, "std_height": 1.9909306764602661, "count_pixels": 42, "percent_cover": 0.068417280250211765, "percent_above_0.1m": 35.714285714285715, "low_level_<0.5": 2.3809523809523809, "mid_level_0.5-2": 14.285714285714285, "tall_2+": 19.047619047619047 }, "geometry": { "type": "Point", "coordinates": [ -0.411953249643479, 51.560553322009731 ] } },
{ "type": "Feature", "properties": { "max_height": 6.1102523803710938, "mean_height": 2.3233060836791992, "std_height": 1.9374967813491821, "count_pixels": 42, "percent_cover": 0.068417280250211765, "percent_above_0.1m": 76.19047619047619, "low_level_<0.5": 9.5238095238095237, "mid_level_0.5-2": 14.285714285714285, "tall_2+": 52.380952380952387 }, "geometry": { "type": "Point", "coordinates": [ -0.412449005425177, 51.560667942026619 ] } },
{ "type": "Feature", "properties": { "max_height": 5.4012489318847656, "mean_height": 2.2463171482086182, "std_height": 2.082146167755127, "count_pixels": 42, "percent_cover": 0.068417280250211765, "percent_above_0.1m": 69.047619047619051, "low_level_<0.5": 4.7619047619047619, "mid_level_0.5-2": 7.1428571428571423, "tall_2+": 52.380952380952387 }, "geometry": { "type": "Point", "coordinates": [ -0.412249200073069, 51.560665237254995 ] } },
{ "type": "Feature", "properties": { "max_height": 9.0777511596679688, "mean_height": 4.4016151428222656, "std_height": 2.2847123146057129, "count_pixels": 42, "percent_cover": 0.068417280250211765, "percent_above_0.1m": 92.857142857142861, "low_level_<0.5": 0.0, "mid_level_0.5-2": 11.904761904761903, "tall_2+": 80.952380952380949 }, "geometry": { "type": "Point", "coordinates": [ -0.412049394753026, 51.560662532141805 ] } },
{ "type": "Feature", "properties": { "max_height": 4.5957527160644531, "mean_height": 0.11951355636119843, "std_height": 0.7007516622543335, "count_pixels": 42, "percent_cover": 0.068417280250211765, "percent_above_0.1m": 7.1428571428571423, "low_level_<0.5": 2.3809523809523809, "mid_level_0.5-2": 0.0, "tall_2+": 2.3809523809523809 }, "geometry": { "type": "Point", "coordinates": [ -0.411849589465057, 51.560659826687079 ] } },
{ "type": "Feature", "properties": { "max_height": 6.4352531433105469, "mean_height": 1.8920016288757324, "std_height": 1.5532630681991577, "count_pixels": 41, "percent_cover": 0.066788297387111492, "percent_above_0.1m": 87.804878048780495, "low_level_<0.5": 7.3170731707317067, "mid_level_0.5-2": 29.268292682926827, "tall_2+": 46.341463414634148 }, "geometry": { "type": "Point", "coordinates": [ -0.412545152019296, 51.560777151675886 ] } },
{ "type": "Feature", "properties": { "max_height": 10.036502838134766, "mean_height": 3.1360673904418945, "std_height": 2.4368042945861816, "count_pixels": 42, "percent_cover": 0.068417280250211765, "percent_above_0.1m": 85.714285714285708, "low_level_<0.5": 2.3809523809523809, "mid_level_0.5-2": 16.666666666666664, "tall_2+": 66.666666666666657 }, "geometry": { "type": "Point", "coordinates": [ -0.412345346161639, 51.560774447093308 ] } },
{ "type": "Feature", "properties": { "max_height": 5.0267524719238281, "mean_height": 0.7396203875541687, "std_height": 1.2975858449935913, "count_pixels": 38, "percent_cover": 0.061901348797810646, "percent_above_0.1m": 39.473684210526315, "low_level_<0.5": 10.526315789473683, "mid_level_0.5-2": 13.157894736842104, "tall_2+": 15.789473684210526 }, "geometry": { "type": "Point", "coordinates": [ -0.412145540336046, 51.560771742169159 ] } },
{ "type": "Feature", "properties": { "max_height": 8.2447509765625, "mean_height": 2.6210434436798096, "std_height": 2.5622820854187012, "count_pixels": 42, "percent_cover": 0.068417280250211765, "percent_above_0.1m": 76.19047619047619, "low_level_<0.5": 9.5238095238095237, "mid_level_0.5-2": 14.285714285714285, "tall_2+": 52.380952380952387 }, "geometry": { "type": "Point", "coordinates": [ -0.411945734542522, 51.560769036903466 ] } },
{ "type": "Feature", "properties": { "max_height": 3.38525390625, "mean_height": 0.34711754322052002, "std_height": 0.74812847375869751, "count_pixels": 41, "percent_cover": 0.066788297387111492, "percent_above_0.1m": 36.585365853658537, "low_level_<0.5": 17.073170731707318, "mid_level_0.5-2": 14.634146341463413, "tall_2+": 4.8780487804878048 }, "geometry": { "type": "Point", "coordinates": [ -0.41174592878107, 51.560766331296186 ] } },
{ "type": "Feature", "properties": { "max_height": 2.5642509460449219, "mean_height": 0.23630015552043915, "std_height": 0.5542370080947876, "count_pixels": 42, "percent_cover": 0.068417280250211765, "percent_above_0.1m": 21.428571428571427, "low_level_<0.5": 7.1428571428571423, "mid_level_0.5-2": 11.904761904761903, "tall_2+": 2.3809523809523809 }, "geometry": { "type": "Point", "coordinates": [ -0.412641299086896, 51.560886361220419 ] } },
{ "type": "Feature", "properties": { "max_height": 6.4362525939941406, "mean_height": 1.1645492315292358, "std_height": 1.81172776222229, "count_pixels": 42, "percent_cover": 0.068417280250211765, "percent_above_0.1m": 40.476190476190474, "low_level_<0.5": 0.0, "mid_level_0.5-2": 14.285714285714285, "tall_2+": 23.809523809523807 }, "geometry": { "type": "Point", "coordinates": [ -0.412441492723687, 51.560883656826874 ] } },
{ "type": "Feature", "properties": { "max_height": 0.99325180053710938, "mean_height": 0.15974017977714539, "std_height": 0.27830851078033447, "count_pixels": 42, "percent_cover": 0.068417280250211765, "percent_above_0.1m": 30.952380952380953, "low_level_<0.5": 4.7619047619047619, "mid_level_0.5-2": 19.047619047619047, "tall_2+": 0.0 }, "geometry": { "type": "Point", "coordinates": [ -0.412241686392539, 51.560880952091757 ] } },
{ "type": "Feature", "properties": { "max_height": 1.371002197265625, "mean_height": 0.17188198864459991, "std_height": 0.32170367240905762, "count_pixels": 42, "percent_cover": 0.068417280250211765, "percent_above_0.1m": 30.952380952380953, "low_level_<0.5": 11.904761904761903, "mid_level_0.5-2": 14.285714285714285, "tall_2+": 0.0 }, "geometry": { "type": "Point", "coordinates": [ -0.412041880093457, 51.560878247015097 ] } },
{ "type": "Feature", "properties": { "max_height": 2.6160011291503906, "mean_height": 0.29433512687683105, "std_height": 0.64328008890151978, "count_pixels": 42, "percent_cover": 0.068417280250211765, "percent_above_0.1m": 28.571428571428569, "low_level_<0.5": 9.5238095238095237, "mid_level_0.5-2": 14.285714285714285, "tall_2+": 4.7619047619047619 }, "geometry": { "type": "Point", "coordinates": [ -0.411842073826452, 51.56087554159685 ] } },
{ "type": "Feature", "properties": { "max_height": 0.037502288818359375, "mean_height": 0.0016138177597895265, "std_height": 0.0063470103777945042, "count_pixels": 38, "percent_cover": 0.061901348797810646, "percent_above_0.1m": 0.0, "low_level_<0.5": 0.0, "mid_level_0.5-2": 0.0, "tall_2+": 0.0 }, "geometry": { "type": "Point", "coordinates": [ -0.412138026117872, 51.560987457021966 ] } }
]
}
