{
"type": "FeatureCollection",
"name": "45bf4a65fcda_foliage",
"crs": { "type": "name", "properties": { "name": "urn:ogc:def:crs:OGC:1.3:CRS84" } },
"features": [
{ "type": "Feature", "properties": { "max_height": 3.5942497253417969, "mean_height": 0.22297686338424683, "std_height": 0.69709360599517822, "count_pixels": 41, "percent_cover": 0.46910755148741418, "percent_above_0.1m": 12.195121951219512, "low_level_<0.5": 2.4390243902439024, "mid_level_0.5-2": 4.8780487804878048, "tall_2+": 4.8780487804878048 }, "geometry": { "type": "Point", "coordinates": [ -0.260034801881898, 51.53165474393186 ] } },
{ "type": "Feature", "properties": { "max_height": 3.6840019226074219, "mean_height": 0.48187962174415588, "std_height": 0.93103039264678955, "count_pixels": 41, "percent_cover": 0.46910755148741418, "percent_above_0.1m": 34.146341463414636, "low_level_<0.5": 9.7560975609756095, "mid_level_0.5-2": 9.7560975609756095, "tall_2+": 12.195121951219512 }, "geometry": { "type": "Point", "coordinates": [ -0.259835133699668, 51.531651783923692 ] } },
{ "type": "Feature", "properties": { "max_height": 6.4042549133300781, "mean_height": 1.3228495121002197, "std_height": 1.7797220945358276, "count_pixels": 41, "percent_cover": 0.46910755148741418, "percent_above_0.1m": 53.658536585365859, "low_level_<0.5": 2.4390243902439024, "mid_level_0.5-2": 24.390243902439025, "tall_2+": 26.829268292682929 }, "geometry": { "type": "Point", "coordinates": [ -0.259635465552225, 51.531648823575686 ] } },
{ "type": "Feature", "properties": { "max_height": 7.0250015258789062, "mean_height": 2.898716926574707, "std_height": 2.6937839984893799, "count_pixels": 36, "percent_cover": 0.41189931350114417, "percent_above_0.1m": 75.0, "low_level_<0.5": 2.7777777777777777, "mid_level_0.5-2": 19.444444444444446, "tall_2+": 52.777777777777779 }, "geometry": { "type": "Point", "coordinates": [ -0.259435797439571, 51.531645862887864 ] } },
{ "type": "Feature", "properties": { "max_height": 7.5152549743652344, "mean_height": 4.3237519264221191, "std_height": 2.9467954635620117, "count_pixels": 41, "percent_cover": 0.46910755148741418, "percent_above_0.1m": 78.048780487804876, "low_level_<0.5": 2.4390243902439024, "mid_level_0.5-2": 4.8780487804878048, "tall_2+": 70.731707317073173 }, "geometry": { "type": "Point", "coordinates": [ -0.259236129361709, 51.531642901860216 ] } },
{ "type": "Feature", "properties": { "max_height": 1.7367515563964844, "mean_height": 0.17008927464485168, "std_height": 0.34219285845756531, "count_pixels": 43, "percent_cover": 0.49199084668192217, "percent_above_0.1m": 27.906976744186046, "low_level_<0.5": 13.953488372093023, "mid_level_0.5-2": 13.953488372093023, "tall_2+": 0.0 }, "geometry": { "type": "Point", "coordinates": [ -0.259930853510777, 51.531761113425063 ] } },
{ "type": "Feature", "properties": { "max_height": 3.686248779296875, "mean_height": 0.12633301317691803, "std_height": 0.59366524219512939, "count_pixels": 43, "percent_cover": 0.49199084668192217, "percent_above_0.1m": 6.9767441860465116, "low_level_<0.5": 2.3255813953488373, "mid_level_0.5-2": 2.3255813953488373, "tall_2+": 2.3255813953488373 }, "geometry": { "type": "Point", "coordinates": [ -0.259731184862899, 51.531758153237938 ] } },
{ "type": "Feature", "properties": { "max_height": 4.4632530212402344, "mean_height": 0.36858919262886047, "std_height": 0.98211675882339478, "count_pixels": 43, "percent_cover": 0.49199084668192217, "percent_above_0.1m": 18.604651162790699, "low_level_<0.5": 4.6511627906976747, "mid_level_0.5-2": 6.9767441860465116, "tall_2+": 6.9767441860465116 }, "geometry": { "type": "Point", "coordinates": [ -0.259531516249813, 51.531755192711017 ] } },
{ "type": "Feature", "properties": { "max_height": 3.9750022888183594, "mean_height": 0.58337897062301636, "std_height": 1.1585855484008789, "count_pixels": 43, "percent_cover": 0.49199084668192217, "percent_above_0.1m": 27.906976744186046, "low_level_<0.5": 0.0, "mid_level_0.5-2": 11.627906976744185, "tall_2+": 13.953488372093023 }, "geometry": { "type": "Point", "coordinates": [ -0.259331847671518, 51.531752231844251 ] } },
{ "type": "Feature", "properties": { "max_height": 4.717254638671875, "mean_height": 1.5275776386260986, "std_height": 1.4908173084259033, "count_pixels": 43, "percent_cover": 0.49199084668192217, "percent_above_0.1m": 72.093023255813947, "low_level_<0.5": 16.279069767441861, "mid_level_0.5-2": 16.279069767441861, "tall_2+": 39.534883720930232 }, "geometry": { "type": "Point", "coordinates": [ -0.259132179128014, 51.531749270637654 ] } },
{ "type": "Feature", "properties": { "max_height": 6.5029983520507812, "mean_height": 1.7552282810211182, "std_height": 1.5591781139373779, "count_pixels": 43, "percent_cover": 0.49199084668192217, "percent_above_0.1m": 86.04651162790698, "low_level_<0.5": 16.279069767441861, "mid_level_0.5-2": 34.883720930232556, "tall_2+": 34.883720930232556 }, "geometry": { "type": "Point", "coordinates": [ -0.258932510619318, 51.53174630909124 ] } },
{ "type": "Feature", "properties": { "max_height": 7.1004981994628906, "mean_height": 3.0282635688781738, "std_height": 2.3981735706329346, "count_pixels": 42, "percent_cover": 0.4805491990846682, "percent_above_0.1m": 90.476190476190482, "low_level_<0.5": 9.5238095238095237, "mid_level_0.5-2": 19.047619047619047, "tall_2+": 59.523809523809526 }, "geometry": { "type": "Point", "coordinates": [ -0.258732842145419, 51.531743347204994 ] } },
{ "type": "Feature", "properties": { "max_height": 7.5582504272460938, "mean_height": 4.5497207641601562, "std_height": 2.6686017513275146, "count_pixels": 41, "percent_cover": 0.46910755148741418, "percent_above_0.1m": 95.121951219512198, "low_level_<0.5": 7.3170731707317067, "mid_level_0.5-2": 12.195121951219512, "tall_2+": 75.609756097560975 }, "geometry": { "type": "Point", "coordinates": [ -0.258533173706335, 51.53174038497891 ] } },
{ "type": "Feature", "properties": { "max_height": 0.001003265380859375, "mean_height": -8.9505825599189848e-05, "std_height": 0.00069808430271223187, "count_pixels": 41, "percent_cover": 0.46910755148741418, "percent_above_0.1m": 0.0, "low_level_<0.5": 0.0, "mid_level_0.5-2": 0.0, "tall_2+": 0.0 }, "geometry": { "type": "Point", "coordinates": [ -0.260026573787527, 51.531870442848337 ] } },
{ "type": "Feature", "properties": { "max_height": 5.2677497863769531, "mean_height": 0.35975134372711182, "std_height": 1.0647493600845337, "count_pixels": 41, "percent_cover": 0.46910755148741418, "percent_above_0.1m": 21.951219512195124, "low_level_<0.5": 4.8780487804878048, "mid_level_0.5-2": 12.195121951219512, "tall_2+": 4.8780487804878048 }, "geometry": { "type": "Point", "coordinates": [ -0.259826904639216, 51.531867482822136 ] } },
{ "type": "Feature", "properties": { "max_height": 8.37750244140625, "mean_height": 0.79221504926681519, "std_height": 2.0436832904815674, "count_pixels": 41, "percent_cover": 0.46910755148741418, "percent_above_0.1m": 19.512195121951219, "low_level_<0.5": 2.4390243902439024, "mid_level_0.5-2": 2.4390243902439024, "tall_2+": 14.634146341463413 }, "geometry": { "type": "Point", "coordinates": [ -0.25962723552569, 51.53186452245609 ] } },
{ "type": "Feature", "properties": { "max_height": 0.264251708984375, "mean_height": 0.02221001498401165, "std_height": 0.058396939188241959, "count_pixels": 36, "percent_cover": 0.41189931350114417, "percent_above_0.1m": 8.3333333333333321, "low_level_<0.5": 8.3333333333333321, "mid_level_0.5-2": 0.0, "tall_2+": 0.0 }, "geometry": { "type": "Point", "coordinates": [ -0.259427566446959, 51.531861561750212 ] } },
{ "type": "Feature", "properties": { "max_height": 3.2552528381347656, "mean_height": 0.12062370777130127, "std_height": 0.53018754720687866, "count_pixels": 41, "percent_cover": 0.46910755148741418, "percent_above_0.1m": 7.3170731707317067, "low_level_<0.5": 0.0, "mid_level_0.5-2": 4.8780487804878048, "tall_2+": 2.4390243902439024 }, "geometry": { "type": "Point", "coordinates": [ -0.259227897403018, 51.531858600704531 ] } },
{ "type": "Feature", "properties": { "max_height": 0.0032501220703125, "mean_height": -0.0001566817081766203, "std_height": 0.0014645071933045983, "count_pixels": 41, "percent_cover": 0.46910755148741418, "percent_above_0.1m": 0.0, "low_level_<0.5": 0.0, "mid_level_0.5-2": 0.0, "tall_2+": 0.0 }, "geometry": { "type": "Point", "coordinates": [ -0.259028228393877, 51.531855639318998 ] } },
{ "type": "Feature", "properties": { "max_height": 5.9847526550292969, "mean_height": 0.89572691917419434, "std_height": 1.6345524787902832, "count_pixels": 41, "percent_cover": 0.46910755148741418, "percent_above_0.1m": 31.707317073170731, "low_level_<0.5": 2.4390243902439024, "mid_level_0.5-2": 9.7560975609756095, "tall_2+": 19.512195121951219 }, "geometry": { "type": "Point", "coordinates": [ -0.25882855941954, 51.531852677593648 ] } },
{ "type": "Feature", "properties": { "max_height": 8.092498779296875, "mean_height": 2.0839359760284424, "std_height": 2.3742952346801758, "count_pixels": 42, "percent_cover": 0.4805491990846682, "percent_above_0.1m": 71.428571428571431, "low_level_<0.5": 4.7619047619047619, "mid_level_0.5-2": 23.809523809523807, "tall_2+": 40.476190476190474 }, "geometry": { "type": "Point", "coordinates": [ -0.258628890480009, 51.531849715528452 ] } },
{ "type": "Feature", "properties": { "max_height": 5.1680030822753906, "mean_height": 1.128048300743103, "std_height": 1.4857759475708008, "count_pixels": 43, "percent_cover": 0.49199084668192217, "percent_above_0.1m": 48.837209302325576, "low_level_<0.5": 4.6511627906976747, "mid_level_0.5-2": 20.930232558139537, "tall_2+": 23.255813953488371 }, "geometry": { "type": "Point", "coordinates": [ -0.258429221575285, 51.531846753123439 ] } },
{ "type": "Feature", "properties": { "max_height": 4.0687484741210938, "mean_height": 1.2808446884155273, "std_height": 1.2353488206863403, "count_pixels": 43, "percent_cover": 0.49199084668192217, "percent_above_0.1m": 74.418604651162795, "low_level_<0.5": 11.627906976744185, "mid_level_0.5-2": 23.255813953488371, "tall_2+": 34.883720930232556 }, "geometry": { "type": "Point", "coordinates": [ -0.25822955270538, 51.531843790378588 ] } },
{ "type": "Feature", "properties": { "max_height": 10.184497833251953, "mean_height": 3.05696702003479, "std_height": 3.0055446624755859, "count_pixels": 43, "percent_cover": 0.49199084668192217, "percent_above_0.1m": 83.720930232558146, "low_level_<0.5": 9.3023255813953494, "mid_level_0.5-2": 20.930232558139537, "tall_2+": 53.488372093023251 }, "geometry": { "type": "Point", "coordinates": [ -0.258029883870291, 51.531840827293912 ] } },
{ "type": "Feature", "properties": { "max_height": 0.015003204345703125, "mean_height": 0.00070302077801898122, "std_height": 0.0030562665779143572, "count_pixels": 41, "percent_cover": 0.46910755148741418, "percent_above_0.1m": 0.0, "low_level_<0.5": 0.0, "mid_level_0.5-2": 0.0, "tall_2+": 0.0 }, "geometry": { "type": "Point", "coordinates": [ -0.260122294529923, 51.531979772193552 ] } },
{ "type": "Feature", "properties": { "max_height": 7.9560050964355469, "mean_height": 0.70844393968582153, "std_height": 1.4377546310424805, "count_pixels": 43, "percent_cover": 0.49199084668192217, "percent_above_0.1m": 65.116279069767444, "low_level_<0.5": 32.558139534883722, "mid_level_0.5-2": 18.604651162790699, "tall_2+": 9.3023255813953494 }, "geometry": { "type": "Point", "coordinates": [ -0.259922624881176, 51.531976812328246 ] } },
{ "type": "Feature", "properties": { "max_height": 8.0579986572265625, "mean_height": 0.68897265195846558, "std_height": 2.0145444869995117, "count_pixels": 43, "percent_cover": 0.49199084668192217, "percent_above_0.1m": 20.930232558139537, "low_level_<0.5": 0.0, "mid_level_0.5-2": 11.627906976744185, "tall_2+": 6.9767441860465116 }, "geometry": { "type": "Point", "coordinates": [ -0.259722955267211, 51.531973852123095 ] } },
{ "type": "Feature", "properties": { "max_height": 0.49449920654296875, "mean_height": 0.019757203757762909, "std_height": 0.080564983189105988, "count_pixels": 43, "percent_cover": 0.49199084668192217, "percent_above_0.1m": 6.9767441860465116, "low_level_<0.5": 4.6511627906976747, "mid_level_0.5-2": 0.0, "tall_2+": 0.0 }, "geometry": { "type": "Point", "coordinates": [ -0.25952328568804, 51.531970891578126 ] } },
{ "type": "Feature", "properties": { "max_height": 9.9155006408691406, "mean_height": 0.58235090970993042, "std_height": 1.791806697845459, "count_pixels": 43, "percent_cover": 0.49199084668192217, "percent_above_0.1m": 18.604651162790699, "low_level_<0.5": 2.3255813953488373, "mid_level_0.5-2": 6.9767441860465116, "tall_2+": 9.3023255813953494 }, "geometry": { "type": "Point", "coordinates": [ -0.25932361614366, 51.531967930693327 ] } },
{ "type": "Feature", "properties": { "max_height": 0.003253936767578125, "mean_height": -5.6599463277962059e-05, "std_height": 0.0007677797693759203, "count_pixels": 43, "percent_cover": 0.49199084668192217, "percent_above_0.1m": 0.0, "low_level_<0.5": 0.0, "mid_level_0.5-2": 0.0, "tall_2+": 0.0 }, "geometry": { "type": "Point", "coordinates": [ -0.259123946634077, 51.531964969468696 ] } },
{ "type": "Feature", "properties": { "max_height": 0.002002716064453125, "mean_height": -1.5347502994700335e-05, "std_height": 0.00059417850570753217, "count_pixels": 43, "percent_cover": 0.49199084668192217, "percent_above_0.1m": 0.0, "low_level_<0.5": 0.0, "mid_level_0.5-2": 0.0, "tall_2+": 0.0 }, "geometry": { "type": "Point", "coordinates": [ -0.258924277159291, 51.531962007904241 ] } },
{ "type": "Feature", "properties": { "max_height": 0.001750946044921875, "mean_height": 3.1335013773059472e-05, "std_height": 0.00051826261915266514, "count_pixels": 42, "percent_cover": 0.4805491990846682, "percent_above_0.1m": 0.0, "low_level_<0.5": 0.0, "mid_level_0.5-2": 0.0, "tall_2+": 0.0 }, "geometry": { "type": "Point", "coordinates": [ -0.25872460771931, 51.53195904599994 ] } },
{ "type": "Feature", "properties": { "max_height": 4.5370025634765625, "mean_height": 0.1861596405506134, "std_height": 0.74034178256988525, "count_pixels": 41, "percent_cover": 0.46910755148741418, "percent_above_0.1m": 12.195121951219512, "low_level_<0.5": 4.8780487804878048, "mid_level_0.5-2": 4.8780487804878048, "tall_2+": 2.4390243902439024 }, "geometry": { "type": "Point", "coordinates": [ -0.258524938314145, 51.531956083755794 ] } },
{ "type": "Feature", "properties": { "max_height": 6.0145034790039062, "mean_height": 0.65759295225143433, "std_height": 1.4962443113327026, "count_pixels": 41, "percent_cover": 0.46910755148741418, "percent_above_0.1m": 31.707317073170731, "low_level_<0.5": 7.3170731707317067, "mid_level_0.5-2": 12.195121951219512, "tall_2+": 12.195121951219512 }, "geometry": { "type": "Point", "coordinates": [ -0.258325268943787, 51.53195312117186 ] } },
{ "type": "Feature", "properties": { "max_height": 7.5710029602050781, "mean_height": 0.8192029595375061, "std_height": 1.9573385715484619, "count_pixels": 41, "percent_cover": 0.46910755148741418, "percent_above_0.1m": 29.268292682926827, "low_level_<0.5": 4.8780487804878048, "mid_level_0.5-2": 9.7560975609756095, "tall_2+": 12.195121951219512 }, "geometry": { "type": "Point", "coordinates": [ -0.258125599608246, 51.531950158248058 ] } },
{ "type": "Feature", "properties": { "max_height": 10.378002166748047, "mean_height": 7.5451693534851074, "std_height": 3.8351967334747314, "count_pixels": 36, "percent_cover": 0.41189931350114417, "percent_above_0.1m": 91.666666666666657, "low_level_<0.5": 0.0, "mid_level_0.5-2": 8.3333333333333321, "tall_2+": 83.333333333333343 }, "geometry": { "type": "Point", "coordinates": [ -0.257925930307531, 51.531947194984447 ] } },
{ "type": "Feature", "properties": { "max_height": 0.86299896240234375, "mean_height": 0.16075143218040466, "std_height": 0.26102462410926819, "count_pixels": 41, "percent_cover": 0.46910755148741418, "percent_above_0.1m": 34.146341463414636, "low_level_<0.5": 14.634146341463413, "mid_level_0.5-2": 17.073170731707318, "tall_2+": 0.0 }, "geometry": { "type": "Point", "coordinates": [ -0.260018345588781, 51.532086141756302 ] } },
{ "type": "Feature", "properties": { "max_height": 12.828754425048828, "mean_height": 1.450696587562561, "std_height": 3.1774795055389404, "count_pixels": 41, "percent_cover": 0.46910755148741418, "percent_above_0.1m": 41.463414634146339, "low_level_<0.5": 7.3170731707317067, "mid_level_0.5-2": 14.634146341463413, "tall_2+": 17.073170731707318 }, "geometry": { "type": "Point", "coordinates": [ -0.259818675474379, 51.532083181712061 ] } },
{ "type": "Feature", "properties": { "max_height": 0.01799774169921875, "mean_height": 7.9085184552241117e-06, "std_height": 0.0033260791096836329, "count_pixels": 41, "percent_cover": 0.46910755148741418, "percent_above_0.1m": 0.0, "low_level_<0.5": 0.0, "mid_level_0.5-2": 0.0, "tall_2+": 0.0 }, "geometry": { "type": "Point", "coordinates": [ -0.259619005394764, 51.53208022132798 ] } },
{ "type": "Feature", "properties": { "max_height": 0.005252838134765625, "mean_height": 0.0002864201960619539, "std_height": 0.0012531360844150186, "count_pixels": 36, "percent_cover": 0.41189931350114417, "percent_above_0.1m": 0.0, "low_level_<0.5": 0.0, "mid_level_0.5-2": 0.0, "tall_2+": 0.0 }, "geometry": { "type": "Point", "coordinates": [ -0.25941933534994, 51.532077260604083 ] } },
{ "type": "Feature", "properties": { "max_height": 0.005001068115234375, "mean_height": 2.5400300728506409e-05, "std_height": 0.0013857679441571236, "count_pixels": 41, "percent_cover": 0.46910755148741418, "percent_above_0.1m": 0.0, "low_level_<0.5": 0.0, "mid_level_0.5-2": 0.0, "tall_2+": 0.0 }, "geometry": { "type": "Point", "coordinates": [ -0.259219665339911, 51.532074299540334 ] } },
{ "type": "Feature", "properties": { "max_height": 0.0032501220703125, "mean_height": -0.00038333056727424264, "std_height": 0.0011945042060688138, "count_pixels": 41, "percent_cover": 0.46910755148741418, "percent_above_0.1m": 0.0, "low_level_<0.5": 0.0, "mid_level_0.5-2": 0.0, "tall_2+": 0.0 }, "geometry": { "type": "Point", "coordinates": [ -0.259019995364678, 51.532071338136767 ] } },
{ "type": "Feature", "properties": { "max_height": 0.99124908447265625, "mean_height": 0.052837371826171875, "std_height": 0.21168948709964752, "count_pixels": 41, "percent_cover": 0.46910755148741418, "percent_above_0.1m": 7.3170731707317067, "low_level_<0.5": 0.0, "mid_level_0.5-2": 4.8780487804878048, "tall_2+": 0.0 }, "geometry": { "type": "Point", "coordinates": [ -0.258820325424254, 51.532068376393369 ] } },
{ "type": "Feature", "properties": { "max_height": 0.068752288818359375, "mean_height": 0.0016385940834879875, "std_height": 0.010488070547580719, "count_pixels": 42, "percent_cover": 0.4805491990846682, "percent_above_0.1m": 0.0, "low_level_<0.5": 0.0, "mid_level_0.5-2": 0.0, "tall_2+": 0.0 }, "geometry": { "type": "Point", "coordinates": [ -0.258620655518632, 51.532065414310132 ] } },
{ "type": "Feature", "properties": { "max_height": 0.9029998779296875, "mean_height": 0.029089106246829033, "std_height": 0.1448814868927002, "count_pixels": 43, "percent_cover": 0.49199084668192217, "percent_above_0.1m": 4.6511627906976747, "low_level_<0.5": 2.3255813953488373, "mid_level_0.5-2": 2.3255813953488373, "tall_2+": 0.0 }, "geometry": { "type": "Point", "coordinates": [ -0.258420985647822, 51.532062451887057 ] } },
{ "type": "Feature", "properties": { "max_height": 7.7990036010742188, "mean_height": 2.1279556751251221, "std_height": 2.3110401630401611, "count_pixels": 43, "percent_cover": 0.49199084668192217, "percent_above_0.1m": 65.116279069767444, "low_level_<0.5": 0.0, "mid_level_0.5-2": 23.255813953488371, "tall_2+": 41.860465116279073 }, "geometry": { "type": "Point", "coordinates": [ -0.258221315811829, 51.532059489124158 ] } },
{ "type": "Feature", "properties": { "max_height": 9.9245071411132812, "mean_height": 4.0631237030029297, "std_height": 3.6094398498535156, "count_pixels": 43, "percent_cover": 0.49199084668192217, "percent_above_0.1m": 83.720930232558146, "low_level_<0.5": 2.3255813953488373, "mid_level_0.5-2": 18.604651162790699, "tall_2+": 60.465116279069761 }, "geometry": { "type": "Point", "coordinates": [ -0.258021646010653, 51.532056526021435 ] } },
{ "type": "Feature", "properties": { "max_height": 1.0120010375976562, "mean_height": 0.10721523314714432, "std_height": 0.26743787527084351, "count_pixels": 41, "percent_cover": 0.46910755148741418, "percent_above_0.1m": 14.634146341463413, "low_level_<0.5": 2.4390243902439024, "mid_level_0.5-2": 9.7560975609756095, "tall_2+": 0.0 }, "geometry": { "type": "Point", "coordinates": [ -0.260114066762042, 51.532195471106284 ] } },
{ "type": "Feature", "properties": { "max_height": 5.4480018615722656, "mean_height": 0.47712352871894836, "std_height": 0.96385574340820312, "count_pixels": 43, "percent_cover": 0.49199084668192217, "percent_above_0.1m": 55.813953488372093, "low_level_<0.5": 25.581395348837212, "mid_level_0.5-2": 23.255813953488371, "tall_2+": 4.6511627906976747 }, "geometry": { "type": "Point", "coordinates": [ -0.259914396147196, 51.532192511222952 ] } },
{ "type": "Feature", "properties": { "max_height": 3.0150032043457031, "mean_height": 0.13386836647987366, "std_height": 0.54248964786529541, "count_pixels": 43, "percent_cover": 0.49199084668192217, "percent_above_0.1m": 6.9767441860465116, "low_level_<0.5": 0.0, "mid_level_0.5-2": 4.6511627906976747, "tall_2+": 2.3255813953488373 }, "geometry": { "type": "Point", "coordinates": [ -0.259714725567138, 51.532189550999774 ] } },
{ "type": "Feature", "properties": { "max_height": 0.005252838134765625, "mean_height": 0.00017591964569874108, "std_height": 0.0013793001417070627, "count_pixels": 43, "percent_cover": 0.49199084668192217, "percent_above_0.1m": 0.0, "low_level_<0.5": 0.0, "mid_level_0.5-2": 0.0, "tall_2+": 0.0 }, "geometry": { "type": "Point", "coordinates": [ -0.259515055021865, 51.532186590436766 ] } },
{ "type": "Feature", "properties": { "max_height": 0.002002716064453125, "mean_height": -0.0001085858020815067, "std_height": 0.00077273108763620257, "count_pixels": 43, "percent_cover": 0.49199084668192217, "percent_above_0.1m": 0.0, "low_level_<0.5": 0.0, "mid_level_0.5-2": 0.0, "tall_2+": 0.0 }, "geometry": { "type": "Point", "coordinates": [ -0.259315384511389, 51.532183629533925 ] } },
{ "type": "Feature", "properties": { "max_height": 0.002002716064453125, "mean_height": -9.7141710284631699e-05, "std_height": 0.00087807257659733295, "count_pixels": 43, "percent_cover": 0.49199084668192217, "percent_above_0.1m": 0.0, "low_level_<0.5": 0.0, "mid_level_0.5-2": 0.0, "tall_2+": 0.0 }, "geometry": { "type": "Point", "coordinates": [ -0.25911571403571, 51.532180668291247 ] } },
{ "type": "Feature", "properties": { "max_height": 0.188751220703125, "mean_height": 0.0044256700202822685, "std_height": 0.028462769463658333, "count_pixels": 43, "percent_cover": 0.49199084668192217, "percent_above_0.1m": 2.3255813953488373, "low_level_<0.5": 2.3255813953488373, "mid_level_0.5-2": 0.0, "tall_2+": 0.0 }, "geometry": { "type": "Point", "coordinates": [ -0.258916043594833, 51.53217770670873 ] } },
{ "type": "Feature", "properties": { "max_height": 0.470001220703125, "mean_height": 0.0238829106092453, "std_height": 0.083006225526332855, "count_pixels": 42, "percent_cover": 0.4805491990846682, "percent_above_0.1m": 7.1428571428571423, "low_level_<0.5": 4.7619047619047619, "mid_level_0.5-2": 0.0, "tall_2+": 0.0 }, "geometry": { "type": "Point", "coordinates": [ -0.258716373188752, 51.532174744786388 ] } },
{ "type": "Feature", "properties": { "max_height": 0.034999847412109375, "mean_height": 0.0021724235266447067, "std_height": 0.0068654194474220276, "count_pixels": 41, "percent_cover": 0.46910755148741418, "percent_above_0.1m": 0.0, "low_level_<0.5": 0.0, "mid_level_0.5-2": 0.0, "tall_2+": 0.0 }, "geometry": { "type": "Point", "coordinates": [ -0.258516702817499, 51.532171782524216 ] } },
{ "type": "Feature", "properties": { "max_height": 4.2712554931640625, "mean_height": 0.38560560345649719, "std_height": 1.0954762697219849, "count_pixels": 41, "percent_cover": 0.46910755148741418, "percent_above_0.1m": 12.195121951219512, "low_level_<0.5": 0.0, "mid_level_0.5-2": 2.4390243902439024, "tall_2+": 9.7560975609756095 }, "geometry": { "type": "Point", "coordinates": [ -0.258317032481039, 51.532168819922205 ] } },
{ "type": "Feature", "properties": { "max_height": 7.2892494201660156, "mean_height": 1.8442461490631104, "std_height": 2.5780925750732422, "count_pixels": 41, "percent_cover": 0.46910755148741418, "percent_above_0.1m": 46.341463414634148, "low_level_<0.5": 2.4390243902439024, "mid_level_0.5-2": 12.195121951219512, "tall_2+": 31.707317073170731 }, "geometry": { "type": "Point", "coordinates": [ -0.258117362179413, 51.53216585698037 ] } },
{ "type": "Feature", "properties": { "max_height": 10.680999755859375, "mean_height": 9.4644660949707031, "std_height": 1.9530583620071411, "count_pixels": 36, "percent_cover": 0.41189931350114417, "percent_above_0.1m": 100.0, "low_level_<0.5": 0.0, "mid_level_0.5-2": 0.0, "tall_2+": 100.0 }, "geometry": { "type": "Point", "coordinates": [ -0.257917691912597, 51.532162893698683 ] } },
{ "type": "Feature", "properties": { "max_height": 0.8795013427734375, "mean_height": 0.096105530858039856, "std_height": 0.20877878367900848, "count_pixels": 41, "percent_cover": 0.46910755148741418, "percent_above_0.1m": 19.512195121951219, "low_level_<0.5": 7.3170731707317067, "mid_level_0.5-2": 7.3170731707317067, "tall_2+": 0.0 }, "geometry": { "type": "Point", "coordinates": [ -0.260010117285669, 51.532301840655762 ] } },
{ "type": "Feature", "properties": { "max_height": 1.9190025329589844, "mean_height": 0.19622085988521576, "std_height": 0.42159783840179443, "count_pixels": 41, "percent_cover": 0.46910755148741418, "percent_above_0.1m": 24.390243902439025, "low_level_<0.5": 7.3170731707317067, "mid_level_0.5-2": 17.073170731707318, "tall_2+": 0.0 }, "geometry": { "type": "Point", "coordinates": [ -0.259810446205161, 51.532298880593501 ] } },
{ "type": "Feature", "properties": { "max_height": 0.0395050048828125, "mean_height": 0.0028860510792583227, "std_height": 0.0096944347023963928, "count_pixels": 41, "percent_cover": 0.46910755148741418, "percent_above_0.1m": 0.0, "low_level_<0.5": 0.0, "mid_level_0.5-2": 0.0, "tall_2+": 0.0 }, "geometry": { "type": "Point", "coordinates": [ -0.259610775159443, 51.532295920191387 ] } },
{ "type": "Feature", "properties": { "max_height": 9.2692527770996094, "mean_height": 2.1782584190368652, "std_height": 2.764695405960083, "count_pixels": 36, "percent_cover": 0.41189931350114417, "percent_above_0.1m": 69.444444444444443, "low_level_<0.5": 13.888888888888889, "mid_level_0.5-2": 16.666666666666664, "tall_2+": 36.111111111111107 }, "geometry": { "type": "Point", "coordinates": [ -0.259411104148516, 51.532292959449443 ] } },
{ "type": "Feature", "properties": { "max_height": 0.99975204467773438, "mean_height": 0.034519754350185394, "std_height": 0.15768918395042419, "count_pixels": 41, "percent_cover": 0.46910755148741418, "percent_above_0.1m": 7.3170731707317067, "low_level_<0.5": 2.4390243902439024, "mid_level_0.5-2": 2.4390243902439024, "tall_2+": 0.0 }, "geometry": { "type": "Point", "coordinates": [ -0.259211433172379, 51.532289998367659 ] } },
{ "type": "Feature", "properties": { "max_height": 0.97675323486328125, "mean_height": 0.024440765380859375, "std_height": 0.15071482956409454, "count_pixels": 41, "percent_cover": 0.46910755148741418, "percent_above_0.1m": 2.4390243902439024, "low_level_<0.5": 0.0, "mid_level_0.5-2": 2.4390243902439024, "tall_2+": 0.0 }, "geometry": { "type": "Point", "coordinates": [ -0.259011762231052, 51.532287036946045 ] } },
{ "type": "Feature", "properties": { "max_height": 2.5089988708496094, "mean_height": 0.16499543190002441, "std_height": 0.45547911524772644, "count_pixels": 41, "percent_cover": 0.46910755148741418, "percent_above_0.1m": 21.951219512195124, "low_level_<0.5": 9.7560975609756095, "mid_level_0.5-2": 7.3170731707317067, "tall_2+": 2.4390243902439024 }, "geometry": { "type": "Point", "coordinates": [ -0.258812091324521, 51.532284075184592 ] } },
{ "type": "Feature", "properties": { "max_height": 0.00150299072265625, "mean_height": 0.00010326930350856856, "std_height": 0.00048837874783203006, "count_pixels": 42, "percent_cover": 0.4805491990846682, "percent_above_0.1m": 0.0, "low_level_<0.5": 0.0, "mid_level_0.5-2": 0.0, "tall_2+": 0.0 }, "geometry": { "type": "Point", "coordinates": [ -0.258612420452802, 51.532281113083314 ] } },
{ "type": "Feature", "properties": { "max_height": 0.001255035400390625, "mean_height": -4.453437213669531e-05, "std_height": 0.00066114723449572921, "count_pixels": 43, "percent_cover": 0.49199084668192217, "percent_above_0.1m": 0.0, "low_level_<0.5": 0.0, "mid_level_0.5-2": 0.0, "tall_2+": 0.0 }, "geometry": { "type": "Point", "coordinates": [ -0.258412749615892, 51.532278150642192 ] } },
{ "type": "Feature", "properties": { "max_height": 2.7247505187988281, "mean_height": 0.063042044639587402, "std_height": 0.41071635484695435, "count_pixels": 43, "percent_cover": 0.49199084668192217, "percent_above_0.1m": 2.3255813953488373, "low_level_<0.5": 0.0, "mid_level_0.5-2": 0.0, "tall_2+": 2.3255813953488373 }, "geometry": { "type": "Point", "coordinates": [ -0.258213078813799, 51.532275187861238 ] } },
{ "type": "Feature", "properties": { "max_height": 11.323501586914062, "mean_height": 5.786536693572998, "std_height": 3.9273478984832764, "count_pixels": 43, "percent_cover": 0.49199084668192217, "percent_above_0.1m": 90.697674418604649, "low_level_<0.5": 4.6511627906976747, "mid_level_0.5-2": 9.3023255813953494, "tall_2+": 74.418604651162795 }, "geometry": { "type": "Point", "coordinates": [ -0.258013408046525, 51.532272224740446 ] } },
{ "type": "Feature", "properties": { "max_height": 0.0467529296875, "mean_height": 0.0022877948358654976, "std_height": 0.0094299241900444031, "count_pixels": 41, "percent_cover": 0.46910755148741418, "percent_above_0.1m": 0.0, "low_level_<0.5": 0.0, "mid_level_0.5-2": 0.0, "tall_2+": 0.0 }, "geometry": { "type": "Point", "coordinates": [ -0.260105838889794, 51.532411170010519 ] } },
{ "type": "Feature", "properties": { "max_height": 0.501251220703125, "mean_height": 0.05608314648270607, "std_height": 0.12807087600231171, "count_pixels": 43, "percent_cover": 0.49199084668192217, "percent_above_0.1m": 16.279069767441861, "low_level_<0.5": 9.3023255813953494, "mid_level_0.5-2": 2.3255813953488373, "tall_2+": 0.0 }, "geometry": { "type": "Point", "coordinates": [ -0.259906167308845, 51.532408210109139 ] } },
{ "type": "Feature", "properties": { "max_height": 1.2382545471191406, "mean_height": 0.030390806496143341, "std_height": 0.18647010624408722, "count_pixels": 43, "percent_cover": 0.49199084668192217, "percent_above_0.1m": 2.3255813953488373, "low_level_<0.5": 0.0, "mid_level_0.5-2": 2.3255813953488373, "tall_2+": 0.0 }, "geometry": { "type": "Point", "coordinates": [ -0.259706495762669, 51.532405249867942 ] } },
{ "type": "Feature", "properties": { "max_height": 8.9967536926269531, "mean_height": 0.85877531766891479, "std_height": 2.1306533813476562, "count_pixels": 43, "percent_cover": 0.49199084668192217, "percent_above_0.1m": 20.930232558139537, "low_level_<0.5": 0.0, "mid_level_0.5-2": 6.9767441860465116, "tall_2+": 13.953488372093023 }, "geometry": { "type": "Point", "coordinates": [ -0.259506824251293, 51.5324022892869 ] } },
{ "type": "Feature", "properties": { "max_height": 4.7084999084472656, "mean_height": 0.7468152642250061, "std_height": 1.2540324926376343, "count_pixels": 43, "percent_cover": 0.49199084668192217, "percent_above_0.1m": 39.534883720930232, "low_level_<0.5": 2.3255813953488373, "mid_level_0.5-2": 23.255813953488371, "tall_2+": 13.953488372093023 }, "geometry": { "type": "Point", "coordinates": [ -0.259307152774705, 51.532399328366019 ] } },
{ "type": "Feature", "properties": { "max_height": 0.00225067138671875, "mean_height": -0.00050983874825760722, "std_height": 0.0017510921461507678, "count_pixels": 43, "percent_cover": 0.49199084668192217, "percent_above_0.1m": 0.0, "low_level_<0.5": 0.0, "mid_level_0.5-2": 0.0, "tall_2+": 0.0 }, "geometry": { "type": "Point", "coordinates": [ -0.25910748133292, 51.532396367105292 ] } },
{ "type": "Feature", "properties": { "max_height": 2.3355026245117188, "mean_height": 0.21890862286090851, "std_height": 0.44640937447547913, "count_pixels": 43, "percent_cover": 0.49199084668192217, "percent_above_0.1m": 25.581395348837212, "low_level_<0.5": 2.3255813953488373, "mid_level_0.5-2": 20.930232558139537, "tall_2+": 2.3255813953488373 }, "geometry": { "type": "Point", "coordinates": [ -0.258907809925931, 51.532393405504742 ] } },
{ "type": "Feature", "properties": { "max_height": 1.7270011901855469, "mean_height": 0.055864971131086349, "std_height": 0.26825946569442749, "count_pixels": 42, "percent_cover": 0.4805491990846682, "percent_above_0.1m": 7.1428571428571423, "low_level_<0.5": 4.7619047619047619, "mid_level_0.5-2": 2.3809523809523809, "tall_2+": 0.0 }, "geometry": { "type": "Point", "coordinates": [ -0.258708138553752, 51.532390443564346 ] } },
{ "type": "Feature", "properties": { "max_height": 0.00150299072265625, "mean_height": 1.4328375073091593e-05, "std_height": 0.00049105793004855514, "count_pixels": 41, "percent_cover": 0.46910755148741418, "percent_above_0.1m": 0.0, "low_level_<0.5": 0.0, "mid_level_0.5-2": 0.0, "tall_2+": 0.0 }, "geometry": { "type": "Point", "coordinates": [ -0.258508467216381, 51.532387481284125 ] } },
{ "type": "Feature", "properties": { "max_height": 0.38325119018554688, "mean_height": 0.024153918027877808, "std_height": 0.081360951066017151, "count_pixels": 41, "percent_cover": 0.46910755148741418, "percent_above_0.1m": 7.3170731707317067, "low_level_<0.5": 7.3170731707317067, "mid_level_0.5-2": 0.0, "tall_2+": 0.0 }, "geometry": { "type": "Point", "coordinates": [ -0.258308795913827, 51.532384518664045 ] } },
{ "type": "Feature", "properties": { "max_height": 11.941501617431641, "mean_height": 1.6792334318161011, "std_height": 2.7854390144348145, "count_pixels": 41, "percent_cover": 0.46910755148741418, "percent_above_0.1m": 48.780487804878049, "low_level_<0.5": 7.3170731707317067, "mid_level_0.5-2": 9.7560975609756095, "tall_2+": 26.829268292682929 }, "geometry": { "type": "Point", "coordinates": [ -0.258109124646086, 51.532381555704148 ] } },
{ "type": "Feature", "properties": { "max_height": 1.108001708984375, "mean_height": 0.074891470372676849, "std_height": 0.2468939870595932, "count_pixels": 43, "percent_cover": 0.49199084668192217, "percent_above_0.1m": 9.3023255813953494, "low_level_<0.5": 2.3255813953488373, "mid_level_0.5-2": 6.9767441860465116, "tall_2+": 0.0 }, "geometry": { "type": "Point", "coordinates": [ -0.260201560959589, 51.532520499287209 ] } },
{ "type": "Feature", "properties": { "max_height": 0.975250244140625, "mean_height": 0.11089157313108444, "std_height": 0.27423286437988281, "count_pixels": 41, "percent_cover": 0.46910755148741418, "percent_above_0.1m": 14.634146341463413, "low_level_<0.5": 0.0, "mid_level_0.5-2": 12.195121951219512, "tall_2+": 0.0 }, "geometry": { "type": "Point", "coordinates": [ -0.260001888878181, 51.532517539546745 ] } },
{ "type": "Feature", "properties": { "max_height": 0.042999267578125, "mean_height": 0.0018797153607010841, "std_height": 0.0073652863502502441, "count_pixels": 41, "percent_cover": 0.46910755148741418, "percent_above_0.1m": 0.0, "low_level_<0.5": 0.0, "mid_level_0.5-2": 0.0, "tall_2+": 0.0 }, "geometry": { "type": "Point", "coordinates": [ -0.259802216831556, 51.532514579466415 ] } },
{ "type": "Feature", "properties": { "max_height": 0.01000213623046875, "mean_height": 0.00062309822533279657, "std_height": 0.0027883981820195913, "count_pixels": 41, "percent_cover": 0.46910755148741418, "percent_above_0.1m": 0.0, "low_level_<0.5": 0.0, "mid_level_0.5-2": 0.0, "tall_2+": 0.0 }, "geometry": { "type": "Point", "coordinates": [ -0.259602544819722, 51.532511619046282 ] } },
{ "type": "Feature", "properties": { "max_height": 0.008251190185546875, "mean_height": 0.00068251293851062655, "std_height": 0.002551584504544735, "count_pixels": 36, "percent_cover": 0.41189931350114417, "percent_above_0.1m": 0.0, "low_level_<0.5": 0.0, "mid_level_0.5-2": 0.0, "tall_2+": 0.0 }, "geometry": { "type": "Point", "coordinates": [ -0.259402872842681, 51.532508658286304 ] } },
{ "type": "Feature", "properties": { "max_height": 0.67799758911132812, "mean_height": 0.086550273001194, "std_height": 0.17282006144523621, "count_pixels": 41, "percent_cover": 0.46910755148741418, "percent_above_0.1m": 21.951219512195124, "low_level_<0.5": 14.634146341463413, "mid_level_0.5-2": 4.8780487804878048, "tall_2+": 0.0 }, "geometry": { "type": "Point", "coordinates": [ -0.259203200900432, 51.53250569718648 ] } },
{ "type": "Feature", "properties": { "max_height": 2.6190032958984375, "mean_height": 0.33636084198951721, "std_height": 0.66480237245559692, "count_pixels": 41, "percent_cover": 0.46910755148741418, "percent_above_0.1m": 29.268292682926827, "low_level_<0.5": 9.7560975609756095, "mid_level_0.5-2": 14.634146341463413, "tall_2+": 4.8780487804878048 }, "geometry": { "type": "Point", "coordinates": [ -0.259003528992989, 51.532502735746817 ] } },
{ "type": "Feature", "properties": { "max_height": 0.97000503540039062, "mean_height": 0.12467184662818909, "std_height": 0.22278472781181335, "count_pixels": 41, "percent_cover": 0.46910755148741418, "percent_above_0.1m": 31.707317073170731, "low_level_<0.5": 19.512195121951219, "mid_level_0.5-2": 4.8780487804878048, "tall_2+": 0.0 }, "geometry": { "type": "Point", "coordinates": [ -0.258803857120349, 51.532499773967324 ] } },
{ "type": "Feature", "properties": { "max_height": 0.68149948120117188, "mean_height": 0.032572884112596512, "std_height": 0.13079085946083069, "count_pixels": 42, "percent_cover": 0.4805491990846682, "percent_above_0.1m": 7.1428571428571423, "low_level_<0.5": 2.3809523809523809, "mid_level_0.5-2": 4.7619047619047619, "tall_2+": 0.0 }, "geometry": { "type": "Point", "coordinates": [ -0.258604185282511, 51.532496811847992 ] } },
{ "type": "Feature", "properties": { "max_height": 0.02425384521484375, "mean_height": -7.4164810939691961e-05, "std_height": 0.0055199055932462215, "count_pixels": 43, "percent_cover": 0.49199084668192217, "percent_above_0.1m": 0.0, "low_level_<0.5": 0.0, "mid_level_0.5-2": 0.0, "tall_2+": 0.0 }, "geometry": { "type": "Point", "coordinates": [ -0.258404513479495, 51.532493849388814 ] } },
{ "type": "Feature", "properties": { "max_height": 0.015499114990234375, "mean_height": -7.9665071098133922e-05, "std_height": 0.0044362731277942657, "count_pixels": 43, "percent_cover": 0.49199084668192217, "percent_above_0.1m": 0.0, "low_level_<0.5": 0.0, "mid_level_0.5-2": 0.0, "tall_2+": 0.0 }, "geometry": { "type": "Point", "coordinates": [ -0.258204841711285, 51.532490886589805 ] } },
{ "type": "Feature", "properties": { "max_height": 10.319999694824219, "mean_height": 2.1082398891448975, "std_height": 3.2795135974884033, "count_pixels": 43, "percent_cover": 0.49199084668192217, "percent_above_0.1m": 72.093023255813947, "low_level_<0.5": 20.930232558139537, "mid_level_0.5-2": 18.604651162790699, "tall_2+": 27.906976744186046 }, "geometry": { "type": "Point", "coordinates": [ -0.258005169977904, 51.532487923450965 ] } },
{ "type": "Feature", "properties": { "max_height": 3.2274971008300781, "mean_height": 0.22385498881340027, "std_height": 0.66390228271484375, "count_pixels": 41, "percent_cover": 0.46910755148741418, "percent_above_0.1m": 14.634146341463413, "low_level_<0.5": 4.8780487804878048, "mid_level_0.5-2": 4.8780487804878048, "tall_2+": 4.8780487804878048 }, "geometry": { "type": "Point", "coordinates": [ -0.260097610913183, 51.532626868906263 ] } },
{ "type": "Feature", "properties": { "max_height": 3.3572540283203125, "mean_height": 0.59400743246078491, "std_height": 0.94722789525985718, "count_pixels": 43, "percent_cover": 0.49199084668192217, "percent_above_0.1m": 53.488372093023251, "low_level_<0.5": 18.604651162790699, "mid_level_0.5-2": 13.953488372093023, "tall_2+": 13.953488372093023 }, "geometry": { "type": "Point", "coordinates": [ -0.259897938366104, 51.532623908986857 ] } },
{ "type": "Feature", "properties": { "max_height": 4.0942497253417969, "mean_height": 0.51167625188827515, "std_height": 0.966441810131073, "count_pixels": 43, "percent_cover": 0.49199084668192217, "percent_above_0.1m": 30.232558139534881, "low_level_<0.5": 2.3255813953488373, "mid_level_0.5-2": 18.604651162790699, "tall_2+": 9.3023255813953494 }, "geometry": { "type": "Point", "coordinates": [ -0.259698265853815, 51.532620948727612 ] } },
{ "type": "Feature", "properties": { "max_height": 0.811004638671875, "mean_height": 0.028414260596036911, "std_height": 0.13036216795444489, "count_pixels": 43, "percent_cover": 0.49199084668192217, "percent_above_0.1m": 4.6511627906976747, "low_level_<0.5": 2.3255813953488373, "mid_level_0.5-2": 2.3255813953488373, "tall_2+": 0.0 }, "geometry": { "type": "Point", "coordinates": [ -0.259498593376314, 51.532617988128528 ] } },
{ "type": "Feature", "properties": { "max_height": 1.9627494812011719, "mean_height": 0.11666435748338699, "std_height": 0.33582863211631775, "count_pixels": 43, "percent_cover": 0.49199084668192217, "percent_above_0.1m": 23.255813953488371, "low_level_<0.5": 9.3023255813953494, "mid_level_0.5-2": 6.9767441860465116, "tall_2+": 0.0 }, "geometry": { "type": "Point", "coordinates": [ -0.259298920933606, 51.5326150271896 ] } },
{ "type": "Feature", "properties": { "max_height": 0.74025344848632812, "mean_height": 0.021745814010500908, "std_height": 0.11183363944292068, "count_pixels": 43, "percent_cover": 0.49199084668192217, "percent_above_0.1m": 2.3255813953488373, "low_level_<0.5": 0.0, "mid_level_0.5-2": 2.3255813953488373, "tall_2+": 0.0 }, "geometry": { "type": "Point", "coordinates": [ -0.259099248525698, 51.532612065910854 ] } },
{ "type": "Feature", "properties": { "max_height": 0.57775115966796875, "mean_height": 0.033465985208749771, "std_height": 0.10544829070568085, "count_pixels": 43, "percent_cover": 0.49199084668192217, "percent_above_0.1m": 9.3023255813953494, "low_level_<0.5": 4.6511627906976747, "mid_level_0.5-2": 2.3255813953488373, "tall_2+": 0.0 }, "geometry": { "type": "Point", "coordinates": [ -0.258899576152596, 51.532609104292234 ] } },
{ "type": "Feature", "properties": { "max_height": 3.1814994812011719, "mean_height": 0.36295390129089355, "std_height": 0.7723844051361084, "count_pixels": 42, "percent_cover": 0.4805491990846682, "percent_above_0.1m": 30.952380952380953, "low_level_<0.5": 9.5238095238095237, "mid_level_0.5-2": 14.285714285714285, "tall_2+": 4.7619047619047619 }, "geometry": { "type": "Point", "coordinates": [ -0.258699903814292, 51.532606142333798 ] } },
{ "type": "Feature", "properties": { "max_height": 0.819000244140625, "mean_height": 0.086720719933509827, "std_height": 0.19636230170726776, "count_pixels": 41, "percent_cover": 0.46910755148741418, "percent_above_0.1m": 21.951219512195124, "low_level_<0.5": 9.7560975609756095, "mid_level_0.5-2": 7.3170731707317067, "tall_2+": 0.0 }, "geometry": { "type": "Point", "coordinates": [ -0.258500231510806, 51.532603180035522 ] } },
{ "type": "Feature", "properties": { "max_height": 1.1607513427734375, "mean_height": 0.068520151078701019, "std_height": 0.19672447443008423, "count_pixels": 41, "percent_cover": 0.46910755148741418, "percent_above_0.1m": 14.634146341463413, "low_level_<0.5": 4.8780487804878048, "mid_level_0.5-2": 4.8780487804878048, "tall_2+": 0.0 }, "geometry": { "type": "Point", "coordinates": [ -0.258300559242131, 51.532600217397402 ] } },
{ "type": "Feature", "properties": { "max_height": 1.8930015563964844, "mean_height": 0.22956280410289764, "std_height": 0.46049812436103821, "count_pixels": 41, "percent_cover": 0.46910755148741418, "percent_above_0.1m": 34.146341463414636, "low_level_<0.5": 9.7560975609756095, "mid_level_0.5-2": 14.634146341463413, "tall_2+": 0.0 }, "geometry": { "type": "Point", "coordinates": [ -0.258100887008278, 51.53259725441945 ] } },
{ "type": "Feature", "properties": { "max_height": 4.345001220703125, "mean_height": 0.36738559603691101, "std_height": 0.84166872501373291, "count_pixels": 41, "percent_cover": 0.46910755148741418, "percent_above_0.1m": 26.829268292682929, "low_level_<0.5": 7.3170731707317067, "mid_level_0.5-2": 14.634146341463413, "tall_2+": 4.8780487804878048 }, "geometry": { "type": "Point", "coordinates": [ -0.259594314375605, 51.532727317892686 ] } },
{ "type": "Feature", "properties": { "max_height": 0.63450241088867188, "mean_height": 0.096619285643100739, "std_height": 0.16867968440055847, "count_pixels": 36, "percent_cover": 0.41189931350114417, "percent_above_0.1m": 25.0, "low_level_<0.5": 13.888888888888889, "mid_level_0.5-2": 5.5555555555555554, "tall_2+": 0.0 }, "geometry": { "type": "Point", "coordinates": [ -0.259394641432437, 51.53272435711466 ] } },
{ "type": "Feature", "properties": { "max_height": 3.9519996643066406, "mean_height": 0.48227021098136902, "std_height": 0.93334561586380005, "count_pixels": 41, "percent_cover": 0.46910755148741418, "percent_above_0.1m": 34.146341463414636, "low_level_<0.5": 4.8780487804878048, "mid_level_0.5-2": 19.512195121951219, "tall_2+": 7.3170731707317067 }, "geometry": { "type": "Point", "coordinates": [ -0.259194968524065, 51.532721395996788 ] } },
{ "type": "Feature", "properties": { "max_height": 0.78150558471679688, "mean_height": 0.10529439151287079, "std_height": 0.17603978514671326, "count_pixels": 41, "percent_cover": 0.46910755148741418, "percent_above_0.1m": 31.707317073170731, "low_level_<0.5": 21.951219512195124, "mid_level_0.5-2": 4.8780487804878048, "tall_2+": 0.0 }, "geometry": { "type": "Point", "coordinates": [ -0.258995295650489, 51.532718434539106 ] } },
{ "type": "Feature", "properties": { "max_height": 7.3547515869140625, "mean_height": 1.5886545181274414, "std_height": 2.2813236713409424, "count_pixels": 41, "percent_cover": 0.46910755148741418, "percent_above_0.1m": 48.780487804878049, "low_level_<0.5": 7.3170731707317067, "mid_level_0.5-2": 12.195121951219512, "tall_2+": 29.268292682926827 }, "geometry": { "type": "Point", "coordinates": [ -0.258795622811727, 51.53271547274155 ] } },
{ "type": "Feature", "properties": { "max_height": 6.2722549438476562, "mean_height": 0.47045406699180603, "std_height": 1.2210080623626709, "count_pixels": 42, "percent_cover": 0.4805491990846682, "percent_above_0.1m": 40.476190476190474, "low_level_<0.5": 14.285714285714285, "mid_level_0.5-2": 16.666666666666664, "tall_2+": 4.7619047619047619 }, "geometry": { "type": "Point", "coordinates": [ -0.258595950007768, 51.532712510604156 ] } },
{ "type": "Feature", "properties": { "max_height": 0.43975067138671875, "mean_height": 0.03910011425614357, "std_height": 0.08965369313955307, "count_pixels": 43, "percent_cover": 0.49199084668192217, "percent_above_0.1m": 13.953488372093023, "low_level_<0.5": 11.627906976744185, "mid_level_0.5-2": 0.0, "tall_2+": 0.0 }, "geometry": { "type": "Point", "coordinates": [ -0.258396277238623, 51.532709548126952 ] } },
{ "type": "Feature", "properties": { "max_height": 2.0600013732910156, "mean_height": 0.51144349575042725, "std_height": 0.56537318229675293, "count_pixels": 43, "percent_cover": 0.49199084668192217, "percent_above_0.1m": 72.093023255813947, "low_level_<0.5": 27.906976744186046, "mid_level_0.5-2": 34.883720930232556, "tall_2+": 2.3255813953488373 }, "geometry": { "type": "Point", "coordinates": [ -0.258196604504295, 51.532706585309889 ] } },
{ "type": "Feature", "properties": { "max_height": 2.4527511596679688, "mean_height": 0.35922783613204956, "std_height": 0.58393979072570801, "count_pixels": 43, "percent_cover": 0.49199084668192217, "percent_above_0.1m": 37.209302325581397, "low_level_<0.5": 4.6511627906976747, "mid_level_0.5-2": 27.906976744186046, "tall_2+": 2.3255813953488373 }, "geometry": { "type": "Point", "coordinates": [ -0.257996931804787, 51.532703622152987 ] } },
{ "type": "Feature", "properties": { "max_height": 4.2417526245117188, "mean_height": 0.29759454727172852, "std_height": 0.74262434244155884, "count_pixels": 43, "percent_cover": 0.49199084668192217, "percent_above_0.1m": 41.860465116279073, "low_level_<0.5": 20.930232558139537, "mid_level_0.5-2": 9.3023255813953494, "tall_2+": 4.6511627906976747 }, "geometry": { "type": "Point", "coordinates": [ -0.258891342274814, 51.532824803071243 ] } },
{ "type": "Feature", "properties": { "max_height": 4.9732513427734375, "mean_height": 1.0375136137008667, "std_height": 1.4895908832550049, "count_pixels": 42, "percent_cover": 0.4805491990846682, "percent_above_0.1m": 47.619047619047613, "low_level_<0.5": 7.1428571428571423, "mid_level_0.5-2": 16.666666666666664, "tall_2+": 23.809523809523807 }, "geometry": { "type": "Point", "coordinates": [ -0.258691668970383, 51.532821841094751 ] } },
{ "type": "Feature", "properties": { "max_height": 4.709503173828125, "mean_height": 0.7054286003112793, "std_height": 1.0500055551528931, "count_pixels": 41, "percent_cover": 0.46910755148741418, "percent_above_0.1m": 70.731707317073173, "low_level_<0.5": 31.707317073170731, "mid_level_0.5-2": 26.829268292682929, "tall_2+": 9.7560975609756095 }, "geometry": { "type": "Point", "coordinates": [ -0.258491995700766, 51.532818878778428 ] } },
{ "type": "Feature", "properties": { "max_height": 5.2582511901855469, "mean_height": 1.0376360416412354, "std_height": 1.1963732242584229, "count_pixels": 41, "percent_cover": 0.46910755148741418, "percent_above_0.1m": 80.487804878048792, "low_level_<0.5": 24.390243902439025, "mid_level_0.5-2": 43.902439024390247, "tall_2+": 9.7560975609756095 }, "geometry": { "type": "Point", "coordinates": [ -0.25829232246596, 51.532815916122267 ] } },
{ "type": "Feature", "properties": { "max_height": 4.3655014038085938, "mean_height": 0.88176345825195312, "std_height": 0.88758748769760132, "count_pixels": 41, "percent_cover": 0.46910755148741418, "percent_above_0.1m": 80.487804878048792, "low_level_<0.5": 14.634146341463413, "mid_level_0.5-2": 51.219512195121951, "tall_2+": 7.3170731707317067 }, "geometry": { "type": "Point", "coordinates": [ -0.25809264926598, 51.532812953126246 ] } },
{ "type": "Feature", "properties": { "max_height": 5.9615020751953125, "mean_height": 0.71176308393478394, "std_height": 1.3370180130004883, "count_pixels": 43, "percent_cover": 0.49199084668192217, "percent_above_0.1m": 41.860465116279073, "low_level_<0.5": 11.627906976744185, "mid_level_0.5-2": 18.604651162790699, "tall_2+": 11.627906976744185 }, "geometry": { "type": "Point", "coordinates": [ -0.258188367192818, 51.53292228402146 ] } }
]
}
