{
"type": "FeatureCollection",
"name": "4f6bce0970de_visibility",
"crs": { "type": "name", "properties": { "name": "urn:ogc:def:crs:OGC:1.3:CRS84" } },
"features": [
{ "type": "Feature", "properties": { "visible_points": 0, "total_points": 55, "visibility_pct": 0.0 }, "geometry": { "type": "Point", "coordinates": [ -0.333667931825919, 51.528485917471883 ] } },
{ "type": "Feature", "properties": { "visible_points": 9, "total_points": 59, "visibility_pct": 15.254237288135593 }, "geometry": { "type": "Point", "coordinates": [ -0.333468271701872, 51.528483082366961 ] } },
{ "type": "Feature", "properties": { "visible_points": 3, "total_points": 60, "visibility_pct": 5.0 }, "geometry": { "type": "Point", "coordinates": [ -0.333268611610656, 51.528480246922328 ] } },
{ "type": "Feature", "properties": { "visible_points": 22, "total_points": 67, "visibility_pct": 32.835820895522389 }, "geometry": { "type": "Point", "coordinates": [ -0.333564161460491, 51.528592352875997 ] } },
{ "type": "Feature", "properties": { "visible_points": 22, "total_points": 69, "visibility_pct": 31.884057971014489 }, "geometry": { "type": "Point", "coordinates": [ -0.333364500878886, 51.528589517591364 ] } },
{ "type": "Feature", "properties": { "visible_points": 23, "total_points": 69, "visibility_pct": 33.333333333333329 }, "geometry": { "type": "Point", "coordinates": [ -0.333164840330115, 51.528586681966978 ] } },
{ "type": "Feature", "properties": { "visible_points": 3, "total_points": 67, "visibility_pct": 4.4776119402985071 }, "geometry": { "type": "Point", "coordinates": [ -0.332965179814186, 51.528583846002874 ] } },
{ "type": "Feature", "properties": { "visible_points": 33, "total_points": 74, "visibility_pct": 44.594594594594597 }, "geometry": { "type": "Point", "coordinates": [ -0.33366005167667, 51.528701623307768 ] } },
{ "type": "Feature", "properties": { "visible_points": 28, "total_points": 78, "visibility_pct": 35.897435897435898 }, "geometry": { "type": "Point", "coordinates": [ -0.333460390604666, 51.528698788183164 ] } },
{ "type": "Feature", "properties": { "visible_points": 27, "total_points": 79, "visibility_pct": 34.177215189873415 }, "geometry": { "type": "Point", "coordinates": [ -0.333260729565498, 51.528695952718813 ] } },
{ "type": "Feature", "properties": { "visible_points": 27, "total_points": 78, "visibility_pct": 34.615384615384613 }, "geometry": { "type": "Point", "coordinates": [ -0.333061068559174, 51.528693116914702 ] } },
{ "type": "Feature", "properties": { "visible_points": 3, "total_points": 73, "visibility_pct": 4.10958904109589 }, "geometry": { "type": "Point", "coordinates": [ -0.332861407585691, 51.528690280770853 ] } },
{ "type": "Feature", "properties": { "visible_points": 33, "total_points": 79, "visibility_pct": 41.77215189873418 }, "geometry": { "type": "Point", "coordinates": [ -0.333755942350405, 51.528810893662303 ] } },
{ "type": "Feature", "properties": { "visible_points": 40, "total_points": 87, "visibility_pct": 45.977011494252871 }, "geometry": { "type": "Point", "coordinates": [ -0.333556280788004, 51.528808058697727 ] } },
{ "type": "Feature", "properties": { "visible_points": 33, "total_points": 89, "visibility_pct": 37.078651685393261 }, "geometry": { "type": "Point", "coordinates": [ -0.333356619258443, 51.528805223393384 ] } },
{ "type": "Feature", "properties": { "visible_points": 39, "total_points": 89, "visibility_pct": 43.820224719101127 }, "geometry": { "type": "Point", "coordinates": [ -0.333156957761713, 51.528802387749295 ] } },
{ "type": "Feature", "properties": { "visible_points": 36, "total_points": 86, "visibility_pct": 41.860465116279073 }, "geometry": { "type": "Point", "coordinates": [ -0.332957296297827, 51.528799551765466 ] } },
{ "type": "Feature", "properties": { "visible_points": 3, "total_points": 75, "visibility_pct": 4.0 }, "geometry": { "type": "Point", "coordinates": [ -0.332757634866787, 51.528796715441871 ] } },
{ "type": "Feature", "properties": { "visible_points": 33, "total_points": 80, "visibility_pct": 41.25 }, "geometry": { "type": "Point", "coordinates": [ -0.333851833481702, 51.528920163939588 ] } },
{ "type": "Feature", "properties": { "visible_points": 42, "total_points": 92, "visibility_pct": 45.652173913043477 }, "geometry": { "type": "Point", "coordinates": [ -0.333652171428904, 51.528917329135034 ] } },
{ "type": "Feature", "properties": { "visible_points": 38, "total_points": 99, "visibility_pct": 38.383838383838381 }, "geometry": { "type": "Point", "coordinates": [ -0.333452509408936, 51.528914493990719 ] } },
{ "type": "Feature", "properties": { "visible_points": 41, "total_points": 100, "visibility_pct": 41.0 }, "geometry": { "type": "Point", "coordinates": [ -0.333252847421808, 51.528911658506658 ] } },
{ "type": "Feature", "properties": { "visible_points": 44, "total_points": 97, "visibility_pct": 45.360824742268044 }, "geometry": { "type": "Point", "coordinates": [ -0.333053185467516, 51.52890882268283 ] } },
{ "type": "Feature", "properties": { "visible_points": 36, "total_points": 87, "visibility_pct": 41.379310344827587 }, "geometry": { "type": "Point", "coordinates": [ -0.332853523546072, 51.528905986519263 ] } },
{ "type": "Feature", "properties": { "visible_points": 4, "total_points": 75, "visibility_pct": 5.3333333333333339 }, "geometry": { "type": "Point", "coordinates": [ -0.332653861657475, 51.528903150015942 ] } },
{ "type": "Feature", "properties": { "visible_points": 44, "total_points": 90, "visibility_pct": 48.888888888888886 }, "geometry": { "type": "Point", "coordinates": [ -0.333748062527368, 51.529026599495076 ] } },
{ "type": "Feature", "properties": { "visible_points": 52, "total_points": 101, "visibility_pct": 51.485148514851488 }, "geometry": { "type": "Point", "coordinates": [ -0.333548400016995, 51.529023764510804 ] } },
{ "type": "Feature", "properties": { "visible_points": 42, "total_points": 108, "visibility_pct": 38.888888888888893 }, "geometry": { "type": "Point", "coordinates": [ -0.333348737539465, 51.529020929186757 ] } },
{ "type": "Feature", "properties": { "visible_points": 46, "total_points": 106, "visibility_pct": 43.39622641509434 }, "geometry": { "type": "Point", "coordinates": [ -0.333149075094765, 51.52901809352295 ] } },
{ "type": "Feature", "properties": { "visible_points": 47, "total_points": 98, "visibility_pct": 47.959183673469383 }, "geometry": { "type": "Point", "coordinates": [ -0.332949412682909, 51.529015257519411 ] } },
{ "type": "Feature", "properties": { "visible_points": 22, "total_points": 86, "visibility_pct": 25.581395348837212 }, "geometry": { "type": "Point", "coordinates": [ -0.332749750303906, 51.529012421176105 ] } },
{ "type": "Feature", "properties": { "visible_points": 46, "total_points": 88, "visibility_pct": 52.272727272727273 }, "geometry": { "type": "Point", "coordinates": [ -0.333843954083399, 51.529135869777889 ] } },
{ "type": "Feature", "properties": { "visible_points": 54, "total_points": 99, "visibility_pct": 54.54545454545454 }, "geometry": { "type": "Point", "coordinates": [ -0.333644291082624, 51.529133034953631 ] } },
{ "type": "Feature", "properties": { "visible_points": 54, "total_points": 109, "visibility_pct": 49.541284403669728 }, "geometry": { "type": "Point", "coordinates": [ -0.333444628114682, 51.529130199789606 ] } },
{ "type": "Feature", "properties": { "visible_points": 50, "total_points": 113, "visibility_pct": 44.247787610619469 }, "geometry": { "type": "Point", "coordinates": [ -0.333244965179573, 51.529127364285841 ] } },
{ "type": "Feature", "properties": { "visible_points": 51, "total_points": 107, "visibility_pct": 47.663551401869157 }, "geometry": { "type": "Point", "coordinates": [ -0.33304530227731, 51.52912452844231 ] } },
{ "type": "Feature", "properties": { "visible_points": 47, "total_points": 96, "visibility_pct": 48.958333333333329 }, "geometry": { "type": "Point", "coordinates": [ -0.332845639407893, 51.529121692259018 ] } },
{ "type": "Feature", "properties": { "visible_points": 5, "total_points": 84, "visibility_pct": 5.9523809523809517 }, "geometry": { "type": "Point", "coordinates": [ -0.332645976571315, 51.52911885573598 ] } },
{ "type": "Feature", "properties": { "visible_points": 47, "total_points": 86, "visibility_pct": 54.651162790697668 }, "geometry": { "type": "Point", "coordinates": [ -0.333939846097006, 51.529245139983445 ] } },
{ "type": "Feature", "properties": { "visible_points": 53, "total_points": 97, "visibility_pct": 54.639175257731956 }, "geometry": { "type": "Point", "coordinates": [ -0.333740182605819, 51.529242305319201 ] } },
{ "type": "Feature", "properties": { "visible_points": 56, "total_points": 107, "visibility_pct": 52.336448598130836 }, "geometry": { "type": "Point", "coordinates": [ -0.333540519147468, 51.529239470315211 ] } },
{ "type": "Feature", "properties": { "visible_points": 57, "total_points": 115, "visibility_pct": 49.565217391304351 }, "geometry": { "type": "Point", "coordinates": [ -0.333340855721949, 51.529236634971468 ] } },
{ "type": "Feature", "properties": { "visible_points": 55, "total_points": 114, "visibility_pct": 48.245614035087719 }, "geometry": { "type": "Point", "coordinates": [ -0.333141192329274, 51.529233799287979 ] } },
{ "type": "Feature", "properties": { "visible_points": 50, "total_points": 105, "visibility_pct": 47.619047619047613 }, "geometry": { "type": "Point", "coordinates": [ -0.332941528969437, 51.529230963264723 ] } },
{ "type": "Feature", "properties": { "visible_points": 48, "total_points": 93, "visibility_pct": 51.612903225806448 }, "geometry": { "type": "Point", "coordinates": [ -0.332741865642449, 51.529228126901693 ] } },
{ "type": "Feature", "properties": { "visible_points": 4, "total_points": 81, "visibility_pct": 4.9382716049382713 }, "geometry": { "type": "Point", "coordinates": [ -0.332542202348312, 51.529225290198909 ] } },
{ "type": "Feature", "properties": { "visible_points": 41, "total_points": 83, "visibility_pct": 49.397590361445779 }, "geometry": { "type": "Point", "coordinates": [ -0.334035738568185, 51.529354410111743 ] } },
{ "type": "Feature", "properties": { "visible_points": 52, "total_points": 95, "visibility_pct": 54.736842105263165 }, "geometry": { "type": "Point", "coordinates": [ -0.333836074586591, 51.529351575607542 ] } },
{ "type": "Feature", "properties": { "visible_points": 53, "total_points": 105, "visibility_pct": 50.476190476190474 }, "geometry": { "type": "Point", "coordinates": [ -0.333636410637825, 51.529348740763588 ] } },
{ "type": "Feature", "properties": { "visible_points": 57, "total_points": 113, "visibility_pct": 50.442477876106196 }, "geometry": { "type": "Point", "coordinates": [ -0.333436746721892, 51.529345905579859 ] } },
{ "type": "Feature", "properties": { "visible_points": 63, "total_points": 119, "visibility_pct": 52.941176470588239 }, "geometry": { "type": "Point", "coordinates": [ -0.333237082838805, 51.529343070056385 ] } },
{ "type": "Feature", "properties": { "visible_points": 50, "total_points": 111, "visibility_pct": 45.045045045045043 }, "geometry": { "type": "Point", "coordinates": [ -0.333037418988548, 51.529340234193157 ] } },
{ "type": "Feature", "properties": { "visible_points": 47, "total_points": 101, "visibility_pct": 46.534653465346537 }, "geometry": { "type": "Point", "coordinates": [ -0.332837755171143, 51.529337397990147 ] } },
{ "type": "Feature", "properties": { "visible_points": 42, "total_points": 89, "visibility_pct": 47.191011235955052 }, "geometry": { "type": "Point", "coordinates": [ -0.332638091386588, 51.529334561447392 ] } },
{ "type": "Feature", "properties": { "visible_points": 38, "total_points": 80, "visibility_pct": 47.5 }, "geometry": { "type": "Point", "coordinates": [ -0.334131631496944, 51.52946368016282 ] } },
{ "type": "Feature", "properties": { "visible_points": 48, "total_points": 92, "visibility_pct": 52.173913043478258 }, "geometry": { "type": "Point", "coordinates": [ -0.333931967024941, 51.529460845818654 ] } },
{ "type": "Feature", "properties": { "visible_points": 57, "total_points": 103, "visibility_pct": 55.339805825242713 }, "geometry": { "type": "Point", "coordinates": [ -0.33373230258576, 51.529458011134693 ] } },
{ "type": "Feature", "properties": { "visible_points": 54, "total_points": 112, "visibility_pct": 48.214285714285715 }, "geometry": { "type": "Point", "coordinates": [ -0.333532638179414, 51.529455176111014 ] } },
{ "type": "Feature", "properties": { "visible_points": 64, "total_points": 119, "visibility_pct": 53.781512605042018 }, "geometry": { "type": "Point", "coordinates": [ -0.333332973805903, 51.529452340747554 ] } },
{ "type": "Feature", "properties": { "visible_points": 64, "total_points": 117, "visibility_pct": 54.700854700854705 }, "geometry": { "type": "Point", "coordinates": [ -0.333133309465232, 51.529449505044333 ] } },
{ "type": "Feature", "properties": { "visible_points": 44, "total_points": 108, "visibility_pct": 40.74074074074074 }, "geometry": { "type": "Point", "coordinates": [ -0.332933645157405, 51.529446669001359 ] } },
{ "type": "Feature", "properties": { "visible_points": 49, "total_points": 96, "visibility_pct": 51.041666666666664 }, "geometry": { "type": "Point", "coordinates": [ -0.332733980882424, 51.529443832618625 ] } },
{ "type": "Feature", "properties": { "visible_points": 0, "total_points": 84, "visibility_pct": 0.0 }, "geometry": { "type": "Point", "coordinates": [ -0.332534316640297, 51.529440995896152 ] } },
{ "type": "Feature", "properties": { "visible_points": 41, "total_points": 90, "visibility_pct": 45.555555555555557 }, "geometry": { "type": "Point", "coordinates": [ -0.334027859920869, 51.529570115952481 ] } },
{ "type": "Feature", "properties": { "visible_points": 50, "total_points": 101, "visibility_pct": 49.504950495049506 }, "geometry": { "type": "Point", "coordinates": [ -0.333828194991273, 51.529567281428577 ] } },
{ "type": "Feature", "properties": { "visible_points": 59, "total_points": 111, "visibility_pct": 53.153153153153156 }, "geometry": { "type": "Point", "coordinates": [ -0.33362853009451, 51.529564446564905 ] } },
{ "type": "Feature", "properties": { "visible_points": 61, "total_points": 118, "visibility_pct": 51.694915254237287 }, "geometry": { "type": "Point", "coordinates": [ -0.333428865230578, 51.529561611361473 ] } },
{ "type": "Feature", "properties": { "visible_points": 71, "total_points": 120, "visibility_pct": 59.166666666666664 }, "geometry": { "type": "Point", "coordinates": [ -0.333229200399486, 51.52955877581828 ] } },
{ "type": "Feature", "properties": { "visible_points": 60, "total_points": 114, "visibility_pct": 52.631578947368418 }, "geometry": { "type": "Point", "coordinates": [ -0.333029535601238, 51.529555939935349 ] } },
{ "type": "Feature", "properties": { "visible_points": 37, "total_points": 104, "visibility_pct": 35.57692307692308 }, "geometry": { "type": "Point", "coordinates": [ -0.332829870835828, 51.52955310371263 ] } },
{ "type": "Feature", "properties": { "visible_points": 43, "total_points": 92, "visibility_pct": 46.739130434782609 }, "geometry": { "type": "Point", "coordinates": [ -0.332630206103279, 51.529550267150164 ] } },
{ "type": "Feature", "properties": { "visible_points": 2, "total_points": 79, "visibility_pct": 2.5316455696202533 }, "geometry": { "type": "Point", "coordinates": [ -0.332430541403576, 51.529547430247931 ] } },
{ "type": "Feature", "properties": { "visible_points": 42, "total_points": 88, "visibility_pct": 47.727272727272727 }, "geometry": { "type": "Point", "coordinates": [ -0.334123753274384, 51.529679386009036 ] } },
{ "type": "Feature", "properties": { "visible_points": 46, "total_points": 99, "visibility_pct": 46.464646464646464 }, "geometry": { "type": "Point", "coordinates": [ -0.333924087854374, 51.529676551645188 ] } },
{ "type": "Feature", "properties": { "visible_points": 50, "total_points": 109, "visibility_pct": 45.871559633027523 }, "geometry": { "type": "Point", "coordinates": [ -0.333724422467185, 51.529673716941538 ] } },
{ "type": "Feature", "properties": { "visible_points": 60, "total_points": 117, "visibility_pct": 51.282051282051277 }, "geometry": { "type": "Point", "coordinates": [ -0.333524757112836, 51.529670881898141 ] } },
{ "type": "Feature", "properties": { "visible_points": 69, "total_points": 120, "visibility_pct": 57.5 }, "geometry": { "type": "Point", "coordinates": [ -0.333325091791319, 51.529668046514992 ] } },
{ "type": "Feature", "properties": { "visible_points": 39, "total_points": 118, "visibility_pct": 33.050847457627121 }, "geometry": { "type": "Point", "coordinates": [ -0.333125426502639, 51.529665210792061 ] } },
{ "type": "Feature", "properties": { "visible_points": 34, "total_points": 110, "visibility_pct": 30.909090909090907 }, "geometry": { "type": "Point", "coordinates": [ -0.332925761246814, 51.529662374729384 ] } },
{ "type": "Feature", "properties": { "visible_points": 42, "total_points": 99, "visibility_pct": 42.424242424242422 }, "geometry": { "type": "Point", "coordinates": [ -0.332726096023824, 51.529659538326946 ] } },
{ "type": "Feature", "properties": { "visible_points": 33, "total_points": 86, "visibility_pct": 38.372093023255815 }, "geometry": { "type": "Point", "coordinates": [ -0.332526430833697, 51.529656701584713 ] } },
{ "type": "Feature", "properties": { "visible_points": 43, "total_points": 86, "visibility_pct": 50.0 }, "geometry": { "type": "Point", "coordinates": [ -0.334219647085492, 51.529788655988391 ] } },
{ "type": "Feature", "properties": { "visible_points": 44, "total_points": 97, "visibility_pct": 45.360824742268044 }, "geometry": { "type": "Point", "coordinates": [ -0.334019981175059, 51.52978582178455 ] } },
{ "type": "Feature", "properties": { "visible_points": 51, "total_points": 107, "visibility_pct": 47.663551401869157 }, "geometry": { "type": "Point", "coordinates": [ -0.333820315297449, 51.529782987240949 ] } },
{ "type": "Feature", "properties": { "visible_points": 59, "total_points": 115, "visibility_pct": 51.304347826086961 }, "geometry": { "type": "Point", "coordinates": [ -0.333620649452671, 51.529780152357567 ] } },
{ "type": "Feature", "properties": { "visible_points": 69, "total_points": 120, "visibility_pct": 57.5 }, "geometry": { "type": "Point", "coordinates": [ -0.333420983640729, 51.529777317134439 ] } },
{ "type": "Feature", "properties": { "visible_points": 66, "total_points": 120, "visibility_pct": 55.000000000000007 }, "geometry": { "type": "Point", "coordinates": [ -0.333221317861627, 51.529774481571529 ] } },
{ "type": "Feature", "properties": { "visible_points": 39, "total_points": 115, "visibility_pct": 33.913043478260867 }, "geometry": { "type": "Point", "coordinates": [ -0.333021652115366, 51.52977164566888 ] } },
{ "type": "Feature", "properties": { "visible_points": 36, "total_points": 104, "visibility_pct": 34.615384615384613 }, "geometry": { "type": "Point", "coordinates": [ -0.332821986401952, 51.529768809426457 ] } },
{ "type": "Feature", "properties": { "visible_points": 42, "total_points": 93, "visibility_pct": 45.161290322580641 }, "geometry": { "type": "Point", "coordinates": [ -0.332622320721386, 51.529765972844274 ] } },
{ "type": "Feature", "properties": { "visible_points": 2, "total_points": 80, "visibility_pct": 2.5 }, "geometry": { "type": "Point", "coordinates": [ -0.332422655073681, 51.529763135922337 ] } },
{ "type": "Feature", "properties": { "visible_points": 39, "total_points": 83, "visibility_pct": 46.987951807228917 }, "geometry": { "type": "Point", "coordinates": [ -0.334315541354193, 51.529897925890467 ] } },
{ "type": "Feature", "properties": { "visible_points": 45, "total_points": 95, "visibility_pct": 47.368421052631575 }, "geometry": { "type": "Point", "coordinates": [ -0.334115874953333, 51.529895091846655 ] } },
{ "type": "Feature", "properties": { "visible_points": 49, "total_points": 105, "visibility_pct": 46.666666666666664 }, "geometry": { "type": "Point", "coordinates": [ -0.333916208585302, 51.529892257463075 ] } },
{ "type": "Feature", "properties": { "visible_points": 58, "total_points": 113, "visibility_pct": 51.327433628318587 }, "geometry": { "type": "Point", "coordinates": [ -0.333716542250098, 51.529889422739735 ] } },
{ "type": "Feature", "properties": { "visible_points": 66, "total_points": 120, "visibility_pct": 55.000000000000007 }, "geometry": { "type": "Point", "coordinates": [ -0.333516875947729, 51.529886587676643 ] } },
{ "type": "Feature", "properties": { "visible_points": 66, "total_points": 120, "visibility_pct": 55.000000000000007 }, "geometry": { "type": "Point", "coordinates": [ -0.333317209678192, 51.529883752273776 ] } },
{ "type": "Feature", "properties": { "visible_points": 43, "total_points": 118, "visibility_pct": 36.440677966101696 }, "geometry": { "type": "Point", "coordinates": [ -0.333117543441503, 51.529880916531134 ] } },
{ "type": "Feature", "properties": { "visible_points": 33, "total_points": 110, "visibility_pct": 30.0 }, "geometry": { "type": "Point", "coordinates": [ -0.332917877237653, 51.529878080448739 ] } },
{ "type": "Feature", "properties": { "visible_points": 34, "total_points": 99, "visibility_pct": 34.343434343434339 }, "geometry": { "type": "Point", "coordinates": [ -0.332718211066656, 51.529875244026584 ] } },
{ "type": "Feature", "properties": { "visible_points": 27, "total_points": 86, "visibility_pct": 31.395348837209301 }, "geometry": { "type": "Point", "coordinates": [ -0.332518544928511, 51.529872407264655 ] } },
{ "type": "Feature", "properties": { "visible_points": 0, "total_points": 73, "visibility_pct": 0.0 }, "geometry": { "type": "Point", "coordinates": [ -0.332318878823221, 51.529869570162958 ] } },
{ "type": "Feature", "properties": { "visible_points": 30, "total_points": 80, "visibility_pct": 37.5 }, "geometry": { "type": "Point", "coordinates": [ -0.334411436080489, 51.530007195715285 ] } },
{ "type": "Feature", "properties": { "visible_points": 39, "total_points": 92, "visibility_pct": 42.391304347826086 }, "geometry": { "type": "Point", "coordinates": [ -0.334211769189207, 51.530004361831516 ] } },
{ "type": "Feature", "properties": { "visible_points": 40, "total_points": 103, "visibility_pct": 38.834951456310677 }, "geometry": { "type": "Point", "coordinates": [ -0.334012102330748, 51.530001527607986 ] } },
{ "type": "Feature", "properties": { "visible_points": 52, "total_points": 112, "visibility_pct": 46.428571428571431 }, "geometry": { "type": "Point", "coordinates": [ -0.333812435505111, 51.529998693044668 ] } },
{ "type": "Feature", "properties": { "visible_points": 59, "total_points": 119, "visibility_pct": 49.579831932773111 }, "geometry": { "type": "Point", "coordinates": [ -0.333612768712313, 51.529995858141582 ] } },
{ "type": "Feature", "properties": { "visible_points": 71, "total_points": 120, "visibility_pct": 59.166666666666664 }, "geometry": { "type": "Point", "coordinates": [ -0.333413101952347, 51.529993022898751 ] } },
{ "type": "Feature", "properties": { "visible_points": 46, "total_points": 120, "visibility_pct": 38.333333333333336 }, "geometry": { "type": "Point", "coordinates": [ -0.333213435225222, 51.529990187316137 ] } },
{ "type": "Feature", "properties": { "visible_points": 36, "total_points": 114, "visibility_pct": 31.578947368421051 }, "geometry": { "type": "Point", "coordinates": [ -0.333013768530941, 51.529987351393771 ] } },
{ "type": "Feature", "properties": { "visible_points": 33, "total_points": 104, "visibility_pct": 31.73076923076923 }, "geometry": { "type": "Point", "coordinates": [ -0.332814101869503, 51.529984515131645 ] } },
{ "type": "Feature", "properties": { "visible_points": 7, "total_points": 93, "visibility_pct": 7.5268817204301079 }, "geometry": { "type": "Point", "coordinates": [ -0.332614435240916, 51.52998167852973 ] } },
{ "type": "Feature", "properties": { "visible_points": 4, "total_points": 80, "visibility_pct": 5.0 }, "geometry": { "type": "Point", "coordinates": [ -0.332414768645187, 51.529978841588061 ] } },
{ "type": "Feature", "properties": { "visible_points": 34, "total_points": 90, "visibility_pct": 37.777777777777779 }, "geometry": { "type": "Point", "coordinates": [ -0.334307663882674, 51.530113631739127 ] } },
{ "type": "Feature", "properties": { "visible_points": 40, "total_points": 101, "visibility_pct": 39.603960396039604 }, "geometry": { "type": "Point", "coordinates": [ -0.33410799653379, 51.530110797675604 ] } },
{ "type": "Feature", "properties": { "visible_points": 44, "total_points": 111, "visibility_pct": 39.63963963963964 }, "geometry": { "type": "Point", "coordinates": [ -0.333908329217726, 51.530107963272336 ] } },
{ "type": "Feature", "properties": { "visible_points": 52, "total_points": 118, "visibility_pct": 44.067796610169488 }, "geometry": { "type": "Point", "coordinates": [ -0.333708661934492, 51.530105128529293 ] } },
{ "type": "Feature", "properties": { "visible_points": 67, "total_points": 120, "visibility_pct": 55.833333333333336 }, "geometry": { "type": "Point", "coordinates": [ -0.333508994684094, 51.53010229344649 ] } },
{ "type": "Feature", "properties": { "visible_points": 70, "total_points": 120, "visibility_pct": 58.333333333333336 }, "geometry": { "type": "Point", "coordinates": [ -0.333309327466528, 51.530099458023905 ] } },
{ "type": "Feature", "properties": { "visible_points": 43, "total_points": 117, "visibility_pct": 36.752136752136757 }, "geometry": { "type": "Point", "coordinates": [ -0.333109660281811, 51.530096622261567 ] } },
{ "type": "Feature", "properties": { "visible_points": 34, "total_points": 109, "visibility_pct": 31.192660550458719 }, "geometry": { "type": "Point", "coordinates": [ -0.332909993129934, 51.530093786159448 ] } },
{ "type": "Feature", "properties": { "visible_points": 38, "total_points": 98, "visibility_pct": 38.775510204081634 }, "geometry": { "type": "Point", "coordinates": [ -0.332710326010908, 51.530090949717568 ] } },
{ "type": "Feature", "properties": { "visible_points": 0, "total_points": 86, "visibility_pct": 0.0 }, "geometry": { "type": "Point", "coordinates": [ -0.332510658924736, 51.530088112935928 ] } },
{ "type": "Feature", "properties": { "visible_points": 32, "total_points": 88, "visibility_pct": 36.363636363636367 }, "geometry": { "type": "Point", "coordinates": [ -0.334403559033754, 51.530222901569452 ] } },
{ "type": "Feature", "properties": { "visible_points": 31, "total_points": 99, "visibility_pct": 31.313131313131315 }, "geometry": { "type": "Point", "coordinates": [ -0.334203891194428, 51.530220067665994 ] } },
{ "type": "Feature", "properties": { "visible_points": 40, "total_points": 109, "visibility_pct": 36.697247706422019 }, "geometry": { "type": "Point", "coordinates": [ -0.334004223387938, 51.530217233422754 ] } },
{ "type": "Feature", "properties": { "visible_points": 45, "total_points": 117, "visibility_pct": 38.461538461538467 }, "geometry": { "type": "Point", "coordinates": [ -0.333804555614265, 51.530214398839753 ] } },
{ "type": "Feature", "properties": { "visible_points": 62, "total_points": 120, "visibility_pct": 51.666666666666671 }, "geometry": { "type": "Point", "coordinates": [ -0.33360488787343, 51.530211563916964 ] } },
{ "type": "Feature", "properties": { "visible_points": 73, "total_points": 120, "visibility_pct": 60.833333333333329 }, "geometry": { "type": "Point", "coordinates": [ -0.333405220165429, 51.530208728654415 ] } },
{ "type": "Feature", "properties": { "visible_points": 46, "total_points": 119, "visibility_pct": 38.655462184873954 }, "geometry": { "type": "Point", "coordinates": [ -0.333205552490271, 51.530205893052106 ] } },
{ "type": "Feature", "properties": { "visible_points": 37, "total_points": 113, "visibility_pct": 32.743362831858406 }, "geometry": { "type": "Point", "coordinates": [ -0.333005884847952, 51.530203057110036 ] } },
{ "type": "Feature", "properties": { "visible_points": 34, "total_points": 103, "visibility_pct": 33.009708737864081 }, "geometry": { "type": "Point", "coordinates": [ -0.332806217238485, 51.530200220828178 ] } },
{ "type": "Feature", "properties": { "visible_points": 11, "total_points": 92, "visibility_pct": 11.956521739130435 }, "geometry": { "type": "Point", "coordinates": [ -0.332606549661864, 51.530197384206566 ] } },
{ "type": "Feature", "properties": { "visible_points": 2, "total_points": 79, "visibility_pct": 2.5316455696202533 }, "geometry": { "type": "Point", "coordinates": [ -0.332406882118106, 51.530194547245166 ] } },
{ "type": "Feature", "properties": { "visible_points": 5, "total_points": 85, "visibility_pct": 5.8823529411764701 }, "geometry": { "type": "Point", "coordinates": [ -0.334499454642435, 51.530332171322556 ] } },
{ "type": "Feature", "properties": { "visible_points": 0, "total_points": 97, "visibility_pct": 0.0 }, "geometry": { "type": "Point", "coordinates": [ -0.334299786312681, 51.530329337579126 ] } },
{ "type": "Feature", "properties": { "visible_points": 0, "total_points": 107, "visibility_pct": 0.0 }, "geometry": { "type": "Point", "coordinates": [ -0.334100118015748, 51.530326503495928 ] } },
{ "type": "Feature", "properties": { "visible_points": 33, "total_points": 115, "visibility_pct": 28.695652173913043 }, "geometry": { "type": "Point", "coordinates": [ -0.333900449751642, 51.530323669072949 ] } },
{ "type": "Feature", "properties": { "visible_points": 41, "total_points": 120, "visibility_pct": 34.166666666666664 }, "geometry": { "type": "Point", "coordinates": [ -0.333700781520366, 51.530320834310203 ] } },
{ "type": "Feature", "properties": { "visible_points": 58, "total_points": 120, "visibility_pct": 48.333333333333336 }, "geometry": { "type": "Point", "coordinates": [ -0.333501113321927, 51.530317999207689 ] } },
{ "type": "Feature", "properties": { "visible_points": 69, "total_points": 120, "visibility_pct": 57.5 }, "geometry": { "type": "Point", "coordinates": [ -0.333301445156323, 51.530315163765401 ] } },
{ "type": "Feature", "properties": { "visible_points": 46, "total_points": 116, "visibility_pct": 39.655172413793103 }, "geometry": { "type": "Point", "coordinates": [ -0.333101777023564, 51.530312327983346 ] } },
{ "type": "Feature", "properties": { "visible_points": 32, "total_points": 108, "visibility_pct": 29.629629629629626 }, "geometry": { "type": "Point", "coordinates": [ -0.332902108923649, 51.53030949186153 ] } },
{ "type": "Feature", "properties": { "visible_points": 41, "total_points": 97, "visibility_pct": 42.268041237113401 }, "geometry": { "type": "Point", "coordinates": [ -0.332702440856584, 51.530306655399926 ] } },
{ "type": "Feature", "properties": { "visible_points": 2, "total_points": 86, "visibility_pct": 2.3255813953488373 }, "geometry": { "type": "Point", "coordinates": [ -0.332502772822372, 51.530303818598568 ] } },
{ "type": "Feature", "properties": { "visible_points": 8, "total_points": 82, "visibility_pct": 9.7560975609756095 }, "geometry": { "type": "Point", "coordinates": [ -0.334595350708726, 51.530441440998402 ] } },
{ "type": "Feature", "properties": { "visible_points": 1, "total_points": 94, "visibility_pct": 1.0638297872340425 }, "geometry": { "type": "Point", "coordinates": [ -0.334395681888537, 51.530438607414993 ] } },
{ "type": "Feature", "properties": { "visible_points": 0, "total_points": 105, "visibility_pct": 0.0 }, "geometry": { "type": "Point", "coordinates": [ -0.334196013101167, 51.530435773491838 ] } },
{ "type": "Feature", "properties": { "visible_points": 30, "total_points": 113, "visibility_pct": 26.548672566371685 }, "geometry": { "type": "Point", "coordinates": [ -0.333996344346623, 51.530432939228881 ] } },
{ "type": "Feature", "properties": { "visible_points": 17, "total_points": 120, "visibility_pct": 14.166666666666666 }, "geometry": { "type": "Point", "coordinates": [ -0.333796675624905, 51.530430104626205 ] } },
{ "type": "Feature", "properties": { "visible_points": 38, "total_points": 120, "visibility_pct": 31.666666666666664 }, "geometry": { "type": "Point", "coordinates": [ -0.333597006936022, 51.530427269683699 ] } },
{ "type": "Feature", "properties": { "visible_points": 66, "total_points": 120, "visibility_pct": 55.000000000000007 }, "geometry": { "type": "Point", "coordinates": [ -0.333397338279976, 51.530424434401453 ] } },
{ "type": "Feature", "properties": { "visible_points": 64, "total_points": 118, "visibility_pct": 54.237288135593218 }, "geometry": { "type": "Point", "coordinates": [ -0.333197669656767, 51.530421598779434 ] } },
{ "type": "Feature", "properties": { "visible_points": 59, "total_points": 112, "visibility_pct": 52.678571428571431 }, "geometry": { "type": "Point", "coordinates": [ -0.332998001066407, 51.530418762817632 ] } },
{ "type": "Feature", "properties": { "visible_points": 47, "total_points": 103, "visibility_pct": 45.631067961165051 }, "geometry": { "type": "Point", "coordinates": [ -0.332798332508892, 51.530415926516064 ] } },
{ "type": "Feature", "properties": { "visible_points": 38, "total_points": 92, "visibility_pct": 41.304347826086953 }, "geometry": { "type": "Point", "coordinates": [ -0.33259866398423, 51.53041308987472 ] } },
{ "type": "Feature", "properties": { "visible_points": 8, "total_points": 79, "visibility_pct": 10.126582278481013 }, "geometry": { "type": "Point", "coordinates": [ -0.334691247232636, 51.53055071059697 ] } },
{ "type": "Feature", "properties": { "visible_points": 0, "total_points": 91, "visibility_pct": 0.0 }, "geometry": { "type": "Point", "coordinates": [ -0.334491577922007, 51.530547877173611 ] } },
{ "type": "Feature", "properties": { "visible_points": 8, "total_points": 102, "visibility_pct": 7.8431372549019605 }, "geometry": { "type": "Point", "coordinates": [ -0.334291908644196, 51.530545043410477 ] } },
{ "type": "Feature", "properties": { "visible_points": 22, "total_points": 112, "visibility_pct": 19.642857142857142 }, "geometry": { "type": "Point", "coordinates": [ -0.334092239399212, 51.530542209307583 ] } },
{ "type": "Feature", "properties": { "visible_points": 29, "total_points": 119, "visibility_pct": 24.369747899159663 }, "geometry": { "type": "Point", "coordinates": [ -0.333892570187051, 51.530539374864915 ] } },
{ "type": "Feature", "properties": { "visible_points": 37, "total_points": 120, "visibility_pct": 30.833333333333336 }, "geometry": { "type": "Point", "coordinates": [ -0.33369290100772, 51.530536540082473 ] } },
{ "type": "Feature", "properties": { "visible_points": 53, "total_points": 120, "visibility_pct": 44.166666666666664 }, "geometry": { "type": "Point", "coordinates": [ -0.333493231861232, 51.530533704960249 ] } },
{ "type": "Feature", "properties": { "visible_points": 42, "total_points": 120, "visibility_pct": 35.0 }, "geometry": { "type": "Point", "coordinates": [ -0.333293562747573, 51.53053086949825 ] } },
{ "type": "Feature", "properties": { "visible_points": 63, "total_points": 115, "visibility_pct": 54.782608695652172 }, "geometry": { "type": "Point", "coordinates": [ -0.333093893666762, 51.530528033696498 ] } },
{ "type": "Feature", "properties": { "visible_points": 38, "total_points": 108, "visibility_pct": 35.185185185185183 }, "geometry": { "type": "Point", "coordinates": [ -0.332894224618794, 51.530525197554951 ] } },
{ "type": "Feature", "properties": { "visible_points": 43, "total_points": 97, "visibility_pct": 44.329896907216494 }, "geometry": { "type": "Point", "coordinates": [ -0.332694555603681, 51.530522361073643 ] } },
{ "type": "Feature", "properties": { "visible_points": 2, "total_points": 86, "visibility_pct": 2.3255813953488373 }, "geometry": { "type": "Point", "coordinates": [ -0.332494886621419, 51.530519524252568 ] } },
{ "type": "Feature", "properties": { "visible_points": 14, "total_points": 89, "visibility_pct": 15.730337078651685 }, "geometry": { "type": "Point", "coordinates": [ -0.334587474413091, 51.530657146854971 ] } },
{ "type": "Feature", "properties": { "visible_points": 21, "total_points": 100, "visibility_pct": 21.0 }, "geometry": { "type": "Point", "coordinates": [ -0.33438780464484, 51.530654313251887 ] } },
{ "type": "Feature", "properties": { "visible_points": 9, "total_points": 110, "visibility_pct": 8.1818181818181817 }, "geometry": { "type": "Point", "coordinates": [ -0.334188134909412, 51.530651479309022 ] } },
{ "type": "Feature", "properties": { "visible_points": 29, "total_points": 118, "visibility_pct": 24.576271186440678 }, "geometry": { "type": "Point", "coordinates": [ -0.333988465206805, 51.530648645026382 ] } },
{ "type": "Feature", "properties": { "visible_points": 33, "total_points": 120, "visibility_pct": 27.5 }, "geometry": { "type": "Point", "coordinates": [ -0.33378879553703, 51.530645810403968 ] } },
{ "type": "Feature", "properties": { "visible_points": 44, "total_points": 120, "visibility_pct": 36.666666666666664 }, "geometry": { "type": "Point", "coordinates": [ -0.333589125900087, 51.530642975441793 ] } },
{ "type": "Feature", "properties": { "visible_points": 49, "total_points": 120, "visibility_pct": 40.833333333333336 }, "geometry": { "type": "Point", "coordinates": [ -0.333389456295983, 51.530640140139823 ] } },
{ "type": "Feature", "properties": { "visible_points": 53, "total_points": 118, "visibility_pct": 44.915254237288138 }, "geometry": { "type": "Point", "coordinates": [ -0.333189786724716, 51.5306373044981 ] } },
{ "type": "Feature", "properties": { "visible_points": 62, "total_points": 112, "visibility_pct": 55.357142857142861 }, "geometry": { "type": "Point", "coordinates": [ -0.332990117186296, 51.530634468516595 ] } },
{ "type": "Feature", "properties": { "visible_points": 58, "total_points": 103, "visibility_pct": 56.310679611650485 }, "geometry": { "type": "Point", "coordinates": [ -0.332790447680727, 51.530631632195302 ] } },
{ "type": "Feature", "properties": { "visible_points": 35, "total_points": 92, "visibility_pct": 38.04347826086957 }, "geometry": { "type": "Point", "coordinates": [ -0.332590778208009, 51.530628795534255 ] } },
{ "type": "Feature", "properties": { "visible_points": 19, "total_points": 87, "visibility_pct": 21.839080459770116 }, "geometry": { "type": "Point", "coordinates": [ -0.334683371361798, 51.530766416459059 ] } },
{ "type": "Feature", "properties": { "visible_points": 25, "total_points": 98, "visibility_pct": 25.510204081632654 }, "geometry": { "type": "Point", "coordinates": [ -0.334483701103105, 51.530763583016025 ] } },
{ "type": "Feature", "properties": { "visible_points": 35, "total_points": 108, "visibility_pct": 32.407407407407405 }, "geometry": { "type": "Point", "coordinates": [ -0.334284030877228, 51.53076074923321 ] } },
{ "type": "Feature", "properties": { "visible_points": 42, "total_points": 116, "visibility_pct": 36.206896551724135 }, "geometry": { "type": "Point", "coordinates": [ -0.334084360684175, 51.530757915110598 ] } },
{ "type": "Feature", "properties": { "visible_points": 35, "total_points": 120, "visibility_pct": 29.166666666666668 }, "geometry": { "type": "Point", "coordinates": [ -0.333884690523948, 51.530755080648227 ] } },
{ "type": "Feature", "properties": { "visible_points": 44, "total_points": 120, "visibility_pct": 36.666666666666664 }, "geometry": { "type": "Point", "coordinates": [ -0.333685020396559, 51.530752245846081 ] } },
{ "type": "Feature", "properties": { "visible_points": 48, "total_points": 120, "visibility_pct": 40.0 }, "geometry": { "type": "Point", "coordinates": [ -0.333485350301997, 51.530749410704153 ] } },
{ "type": "Feature", "properties": { "visible_points": 58, "total_points": 120, "visibility_pct": 48.333333333333336 }, "geometry": { "type": "Point", "coordinates": [ -0.333285680240278, 51.530746575222452 ] } },
{ "type": "Feature", "properties": { "visible_points": 52, "total_points": 116, "visibility_pct": 44.827586206896555 }, "geometry": { "type": "Point", "coordinates": [ -0.3330860102114, 51.530743739400975 ] } },
{ "type": "Feature", "properties": { "visible_points": 53, "total_points": 108, "visibility_pct": 49.074074074074076 }, "geometry": { "type": "Point", "coordinates": [ -0.332886340215374, 51.530740903239739 ] } },
{ "type": "Feature", "properties": { "visible_points": 46, "total_points": 97, "visibility_pct": 47.422680412371129 }, "geometry": { "type": "Point", "coordinates": [ -0.332686670252194, 51.530738066738699 ] } },
{ "type": "Feature", "properties": { "visible_points": 0, "total_points": 86, "visibility_pct": 0.0 }, "geometry": { "type": "Point", "coordinates": [ -0.332487000321873, 51.530735229897921 ] } },
{ "type": "Feature", "properties": { "visible_points": 20, "total_points": 84, "visibility_pct": 23.809523809523807 }, "geometry": { "type": "Point", "coordinates": [ -0.334779268768131, 51.530875685985905 ] } },
{ "type": "Feature", "properties": { "visible_points": 25, "total_points": 96, "visibility_pct": 26.041666666666668 }, "geometry": { "type": "Point", "coordinates": [ -0.334579598018988, 51.530872852702913 ] } },
{ "type": "Feature", "properties": { "visible_points": 42, "total_points": 106, "visibility_pct": 39.622641509433961 }, "geometry": { "type": "Point", "coordinates": [ -0.334379927302664, 51.530870019080126 ] } },
{ "type": "Feature", "properties": { "visible_points": 41, "total_points": 114, "visibility_pct": 35.964912280701753 }, "geometry": { "type": "Point", "coordinates": [ -0.334180256619162, 51.530867185117572 ] } },
{ "type": "Feature", "properties": { "visible_points": 48, "total_points": 120, "visibility_pct": 40.0 }, "geometry": { "type": "Point", "coordinates": [ -0.333980585968484, 51.530864350815243 ] } },
{ "type": "Feature", "properties": { "visible_points": 57, "total_points": 120, "visibility_pct": 47.5 }, "geometry": { "type": "Point", "coordinates": [ -0.333780915350637, 51.530861516173111 ] } },
{ "type": "Feature", "properties": { "visible_points": 53, "total_points": 120, "visibility_pct": 44.166666666666664 }, "geometry": { "type": "Point", "coordinates": [ -0.333581244765623, 51.530858681191219 ] } },
{ "type": "Feature", "properties": { "visible_points": 57, "total_points": 120, "visibility_pct": 47.5 }, "geometry": { "type": "Point", "coordinates": [ -0.333381574213445, 51.530855845869553 ] } },
{ "type": "Feature", "properties": { "visible_points": 49, "total_points": 119, "visibility_pct": 41.17647058823529 }, "geometry": { "type": "Point", "coordinates": [ -0.333181903694117, 51.530853010208126 ] } },
{ "type": "Feature", "properties": { "visible_points": 50, "total_points": 113, "visibility_pct": 44.247787610619469 }, "geometry": { "type": "Point", "coordinates": [ -0.332982233207624, 51.530850174206904 ] } },
{ "type": "Feature", "properties": { "visible_points": 32, "total_points": 103, "visibility_pct": 31.067961165048541 }, "geometry": { "type": "Point", "coordinates": [ -0.332782562753982, 51.530847337865914 ] } },
{ "type": "Feature", "properties": { "visible_points": 41, "total_points": 92, "visibility_pct": 44.565217391304344 }, "geometry": { "type": "Point", "coordinates": [ -0.3325828923332, 51.530844501185136 ] } },
{ "type": "Feature", "properties": { "visible_points": 12, "total_points": 81, "visibility_pct": 14.814814814814813 }, "geometry": { "type": "Point", "coordinates": [ -0.334875166947432, 51.530984955537328 ] } },
{ "type": "Feature", "properties": { "visible_points": 25, "total_points": 93, "visibility_pct": 26.881720430107524 }, "geometry": { "type": "Point", "coordinates": [ -0.334675495392503, 51.530982122312537 ] } },
{ "type": "Feature", "properties": { "visible_points": 42, "total_points": 104, "visibility_pct": 40.384615384615387 }, "geometry": { "type": "Point", "coordinates": [ -0.334475824185722, 51.5309792888498 ] } },
{ "type": "Feature", "properties": { "visible_points": 51, "total_points": 112, "visibility_pct": 45.535714285714285 }, "geometry": { "type": "Point", "coordinates": [ -0.334276153011771, 51.530976455047288 ] } },
{ "type": "Feature", "properties": { "visible_points": 57, "total_points": 119, "visibility_pct": 47.899159663865547 }, "geometry": { "type": "Point", "coordinates": [ -0.33407648187064, 51.53097362090498 ] } },
{ "type": "Feature", "properties": { "visible_points": 62, "total_points": 120, "visibility_pct": 51.666666666666671 }, "geometry": { "type": "Point", "coordinates": [ -0.333876810762335, 51.530970786422905 ] } },
{ "type": "Feature", "properties": { "visible_points": 60, "total_points": 120, "visibility_pct": 50.0 }, "geometry": { "type": "Point", "coordinates": [ -0.333677139686866, 51.530967951601049 ] } },
{ "type": "Feature", "properties": { "visible_points": 58, "total_points": 120, "visibility_pct": 48.333333333333336 }, "geometry": { "type": "Point", "coordinates": [ -0.333477468644232, 51.530965116439432 ] } },
{ "type": "Feature", "properties": { "visible_points": 58, "total_points": 120, "visibility_pct": 48.333333333333336 }, "geometry": { "type": "Point", "coordinates": [ -0.333277797634437, 51.530962280938013 ] } },
{ "type": "Feature", "properties": { "visible_points": 44, "total_points": 117, "visibility_pct": 37.606837606837608 }, "geometry": { "type": "Point", "coordinates": [ -0.333078126657484, 51.530959445096812 ] } },
{ "type": "Feature", "properties": { "visible_points": 44, "total_points": 109, "visibility_pct": 40.366972477064223 }, "geometry": { "type": "Point", "coordinates": [ -0.332878455713378, 51.530956608915851 ] } },
{ "type": "Feature", "properties": { "visible_points": 22, "total_points": 98, "visibility_pct": 22.448979591836736 }, "geometry": { "type": "Point", "coordinates": [ -0.332678784802128, 51.530953772395115 ] } },
{ "type": "Feature", "properties": { "visible_points": 31, "total_points": 85, "visibility_pct": 36.470588235294116 }, "geometry": { "type": "Point", "coordinates": [ -0.332479113923732, 51.530950935534591 ] } },
{ "type": "Feature", "properties": { "visible_points": 1, "total_points": 72, "visibility_pct": 1.3888888888888888 }, "geometry": { "type": "Point", "coordinates": [ -0.332279443078195, 51.530948098334306 ] } },
{ "type": "Feature", "properties": { "visible_points": 7, "total_points": 76, "visibility_pct": 9.2105263157894726 }, "geometry": { "type": "Point", "coordinates": [ -0.334971065719949, 51.531094225269044 ] } },
{ "type": "Feature", "properties": { "visible_points": 19, "total_points": 89, "visibility_pct": 21.348314606741571 }, "geometry": { "type": "Point", "coordinates": [ -0.334771393223642, 51.531091391844903 ] } },
{ "type": "Feature", "properties": { "visible_points": 15, "total_points": 101, "visibility_pct": 14.85148514851485 }, "geometry": { "type": "Point", "coordinates": [ -0.334571721526414, 51.531088558542208 ] } },
{ "type": "Feature", "properties": { "visible_points": 43, "total_points": 111, "visibility_pct": 38.738738738738739 }, "geometry": { "type": "Point", "coordinates": [ -0.334372049862004, 51.531085724899732 ] } },
{ "type": "Feature", "properties": { "visible_points": 55, "total_points": 118, "visibility_pct": 46.610169491525419 }, "geometry": { "type": "Point", "coordinates": [ -0.334172378230415, 51.531082890917475 ] } },
{ "type": "Feature", "properties": { "visible_points": 62, "total_points": 120, "visibility_pct": 51.666666666666671 }, "geometry": { "type": "Point", "coordinates": [ -0.333972706631656, 51.531080056595442 ] } },
{ "type": "Feature", "properties": { "visible_points": 70, "total_points": 120, "visibility_pct": 58.333333333333336 }, "geometry": { "type": "Point", "coordinates": [ -0.333773035065727, 51.531077221933622 ] } },
{ "type": "Feature", "properties": { "visible_points": 72, "total_points": 120, "visibility_pct": 60.0 }, "geometry": { "type": "Point", "coordinates": [ -0.333573363532631, 51.531074386932033 ] } },
{ "type": "Feature", "properties": { "visible_points": 68, "total_points": 120, "visibility_pct": 56.666666666666664 }, "geometry": { "type": "Point", "coordinates": [ -0.33337369203237, 51.531071551590657 ] } },
{ "type": "Feature", "properties": { "visible_points": 58, "total_points": 120, "visibility_pct": 48.333333333333336 }, "geometry": { "type": "Point", "coordinates": [ -0.333174020564957, 51.531068715909498 ] } },
{ "type": "Feature", "properties": { "visible_points": 50, "total_points": 114, "visibility_pct": 43.859649122807014 }, "geometry": { "type": "Point", "coordinates": [ -0.332974349130386, 51.531065879888573 ] } },
{ "type": "Feature", "properties": { "visible_points": 52, "total_points": 103, "visibility_pct": 50.485436893203882 }, "geometry": { "type": "Point", "coordinates": [ -0.332774677728666, 51.531063043527865 ] } },
{ "type": "Feature", "properties": { "visible_points": 42, "total_points": 91, "visibility_pct": 46.153846153846153 }, "geometry": { "type": "Point", "coordinates": [ -0.332575006359799, 51.53106020682737 ] } },
{ "type": "Feature", "properties": { "visible_points": 7, "total_points": 78, "visibility_pct": 8.9743589743589745 }, "geometry": { "type": "Point", "coordinates": [ -0.332375335023793, 51.531057369787099 ] } },
{ "type": "Feature", "properties": { "visible_points": 16, "total_points": 84, "visibility_pct": 19.047619047619047 }, "geometry": { "type": "Point", "coordinates": [ -0.334867291799489, 51.531200661391956 ] } },
{ "type": "Feature", "properties": { "visible_points": 23, "total_points": 97, "visibility_pct": 23.711340206185564 }, "geometry": { "type": "Point", "coordinates": [ -0.334667619324738, 51.531197828157339 ] } },
{ "type": "Feature", "properties": { "visible_points": 28, "total_points": 109, "visibility_pct": 25.688073394495415 }, "geometry": { "type": "Point", "coordinates": [ -0.334467947169867, 51.531194994674912 ] } },
{ "type": "Feature", "properties": { "visible_points": 51, "total_points": 117, "visibility_pct": 43.589743589743591 }, "geometry": { "type": "Point", "coordinates": [ -0.334268275047823, 51.531192160852697 ] } },
{ "type": "Feature", "properties": { "visible_points": 55, "total_points": 120, "visibility_pct": 45.833333333333329 }, "geometry": { "type": "Point", "coordinates": [ -0.334068602958601, 51.531189326690715 ] } },
{ "type": "Feature", "properties": { "visible_points": 66, "total_points": 120, "visibility_pct": 55.000000000000007 }, "geometry": { "type": "Point", "coordinates": [ -0.333868930902211, 51.531186492188944 ] } },
{ "type": "Feature", "properties": { "visible_points": 75, "total_points": 120, "visibility_pct": 62.5 }, "geometry": { "type": "Point", "coordinates": [ -0.33366925887865, 51.531183657347377 ] } },
{ "type": "Feature", "properties": { "visible_points": 75, "total_points": 120, "visibility_pct": 62.5 }, "geometry": { "type": "Point", "coordinates": [ -0.333469586887928, 51.531180822166036 ] } },
{ "type": "Feature", "properties": { "visible_points": 72, "total_points": 120, "visibility_pct": 60.0 }, "geometry": { "type": "Point", "coordinates": [ -0.333269914930045, 51.531177986644934 ] } },
{ "type": "Feature", "properties": { "visible_points": 60, "total_points": 118, "visibility_pct": 50.847457627118644 }, "geometry": { "type": "Point", "coordinates": [ -0.333070243005005, 51.53117515078403 ] } },
{ "type": "Feature", "properties": { "visible_points": 54, "total_points": 108, "visibility_pct": 50.0 }, "geometry": { "type": "Point", "coordinates": [ -0.332870571112817, 51.531172314583351 ] } },
{ "type": "Feature", "properties": { "visible_points": 44, "total_points": 96, "visibility_pct": 45.833333333333329 }, "geometry": { "type": "Point", "coordinates": [ -0.332670899253478, 51.531169478042898 ] } },
{ "type": "Feature", "properties": { "visible_points": 16, "total_points": 83, "visibility_pct": 19.277108433734941 }, "geometry": { "type": "Point", "coordinates": [ -0.332471227426995, 51.531166641162656 ] } },
{ "type": "Feature", "properties": { "visible_points": 14, "total_points": 76, "visibility_pct": 18.421052631578945 }, "geometry": { "type": "Point", "coordinates": [ -0.334963190994142, 51.531309931105724 ] } },
{ "type": "Feature", "properties": { "visible_points": 22, "total_points": 89, "visibility_pct": 24.719101123595504 }, "geometry": { "type": "Point", "coordinates": [ -0.334763517580691, 51.53130709769524 ] } },
{ "type": "Feature", "properties": { "visible_points": 20, "total_points": 102, "visibility_pct": 19.607843137254903 }, "geometry": { "type": "Point", "coordinates": [ -0.334563844935363, 51.531304264372849 ] } },
{ "type": "Feature", "properties": { "visible_points": 37, "total_points": 114, "visibility_pct": 32.456140350877192 }, "geometry": { "type": "Point", "coordinates": [ -0.334364172322861, 51.53130143071067 ] } },
{ "type": "Feature", "properties": { "visible_points": 48, "total_points": 120, "visibility_pct": 40.0 }, "geometry": { "type": "Point", "coordinates": [ -0.334164499743175, 51.53129859670873 ] } },
{ "type": "Feature", "properties": { "visible_points": 57, "total_points": 120, "visibility_pct": 47.5 }, "geometry": { "type": "Point", "coordinates": [ -0.333964827196321, 51.531295762366987 ] } },
{ "type": "Feature", "properties": { "visible_points": 69, "total_points": 120, "visibility_pct": 57.5 }, "geometry": { "type": "Point", "coordinates": [ -0.333765154682297, 51.53129292768547 ] } },
{ "type": "Feature", "properties": { "visible_points": 72, "total_points": 120, "visibility_pct": 60.0 }, "geometry": { "type": "Point", "coordinates": [ -0.333565482201105, 51.531290092664172 ] } },
{ "type": "Feature", "properties": { "visible_points": 72, "total_points": 120, "visibility_pct": 60.0 }, "geometry": { "type": "Point", "coordinates": [ -0.33336580975275, 51.531287257303084 ] } },
{ "type": "Feature", "properties": { "visible_points": 67, "total_points": 120, "visibility_pct": 55.833333333333336 }, "geometry": { "type": "Point", "coordinates": [ -0.333166137337244, 51.53128442160223 ] } },
{ "type": "Feature", "properties": { "visible_points": 58, "total_points": 112, "visibility_pct": 51.785714285714292 }, "geometry": { "type": "Point", "coordinates": [ -0.332966464954577, 51.531281585561594 ] } },
{ "type": "Feature", "properties": { "visible_points": 53, "total_points": 101, "visibility_pct": 52.475247524752476 }, "geometry": { "type": "Point", "coordinates": [ -0.33276679260477, 51.531278749181162 ] } },
{ "type": "Feature", "properties": { "visible_points": 40, "total_points": 89, "visibility_pct": 44.943820224719097 }, "geometry": { "type": "Point", "coordinates": [ -0.33256712028781, 51.53127591246097 ] } },
{ "type": "Feature", "properties": { "visible_points": 1, "total_points": 76, "visibility_pct": 1.3157894736842104 }, "geometry": { "type": "Point", "coordinates": [ -0.332367448003711, 51.531273075400975 ] } },
{ "type": "Feature", "properties": { "visible_points": 14, "total_points": 67, "visibility_pct": 20.8955223880597 }, "geometry": { "type": "Point", "coordinates": [ -0.335059090938371, 51.531419200912786 ] } },
{ "type": "Feature", "properties": { "visible_points": 18, "total_points": 79, "visibility_pct": 22.784810126582279 }, "geometry": { "type": "Point", "coordinates": [ -0.334859416552467, 51.531416367237853 ] } },
{ "type": "Feature", "properties": { "visible_points": 26, "total_points": 91, "visibility_pct": 28.571428571428569 }, "geometry": { "type": "Point", "coordinates": [ -0.334659743158499, 51.531413533993529 ] } },
{ "type": "Feature", "properties": { "visible_points": 33, "total_points": 103, "visibility_pct": 32.038834951456316 }, "geometry": { "type": "Point", "coordinates": [ -0.334460070055533, 51.531410700491399 ] } },
{ "type": "Feature", "properties": { "visible_points": 38, "total_points": 115, "visibility_pct": 33.043478260869563 }, "geometry": { "type": "Point", "coordinates": [ -0.334260396985384, 51.531407866649495 ] } },
{ "type": "Feature", "properties": { "visible_points": 48, "total_points": 117, "visibility_pct": 41.025641025641022 }, "geometry": { "type": "Point", "coordinates": [ -0.334060723948061, 51.531405032467788 ] } },
{ "type": "Feature", "properties": { "visible_points": 56, "total_points": 119, "visibility_pct": 47.058823529411761 }, "geometry": { "type": "Point", "coordinates": [ -0.333861050943568, 51.531402197946342 ] } },
{ "type": "Feature", "properties": { "visible_points": 63, "total_points": 120, "visibility_pct": 52.5 }, "geometry": { "type": "Point", "coordinates": [ -0.333661377971909, 51.53139936308505 ] } },
{ "type": "Feature", "properties": { "visible_points": 63, "total_points": 120, "visibility_pct": 52.5 }, "geometry": { "type": "Point", "coordinates": [ -0.333461705033085, 51.531396527884006 ] } },
{ "type": "Feature", "properties": { "visible_points": 65, "total_points": 120, "visibility_pct": 54.166666666666664 }, "geometry": { "type": "Point", "coordinates": [ -0.333262032127104, 51.531393692343194 ] } },
{ "type": "Feature", "properties": { "visible_points": 61, "total_points": 115, "visibility_pct": 53.04347826086957 }, "geometry": { "type": "Point", "coordinates": [ -0.333062359253966, 51.531390856462565 ] } },
{ "type": "Feature", "properties": { "visible_points": 55, "total_points": 106, "visibility_pct": 51.886792452830186 }, "geometry": { "type": "Point", "coordinates": [ -0.332862686413677, 51.53138802024219 ] } },
{ "type": "Feature", "properties": { "visible_points": 43, "total_points": 94, "visibility_pct": 45.744680851063826 }, "geometry": { "type": "Point", "coordinates": [ -0.33266301360624, 51.531385183682012 ] } },
{ "type": "Feature", "properties": { "visible_points": 16, "total_points": 81, "visibility_pct": 19.753086419753085 }, "geometry": { "type": "Point", "coordinates": [ -0.332463340831662, 51.531382346782067 ] } },
{ "type": "Feature", "properties": { "visible_points": 9, "total_points": 57, "visibility_pct": 15.789473684210526 }, "geometry": { "type": "Point", "coordinates": [ -0.335154991472606, 51.531528470682957 ] } },
{ "type": "Feature", "properties": { "visible_points": 10, "total_points": 68, "visibility_pct": 14.705882352941178 }, "geometry": { "type": "Point", "coordinates": [ -0.334955316169101, 51.531525636933573 ] } },
{ "type": "Feature", "properties": { "visible_points": 8, "total_points": 80, "visibility_pct": 10.0 }, "geometry": { "type": "Point", "coordinates": [ -0.334755641839277, 51.531522803536923 ] } },
{ "type": "Feature", "properties": { "visible_points": 24, "total_points": 92, "visibility_pct": 26.086956521739129 }, "geometry": { "type": "Point", "coordinates": [ -0.33455596824584, 51.53151997019485 ] } },
{ "type": "Feature", "properties": { "visible_points": 39, "total_points": 103, "visibility_pct": 37.864077669902912 }, "geometry": { "type": "Point", "coordinates": [ -0.334356294685229, 51.531517136512974 ] } },
{ "type": "Feature", "properties": { "visible_points": 43, "total_points": 109, "visibility_pct": 39.449541284403672 }, "geometry": { "type": "Point", "coordinates": [ -0.334156621157435, 51.531514302491331 ] } },
{ "type": "Feature", "properties": { "visible_points": 52, "total_points": 111, "visibility_pct": 46.846846846846844 }, "geometry": { "type": "Point", "coordinates": [ -0.333956947662477, 51.531511468129906 ] } },
{ "type": "Feature", "properties": { "visible_points": 57, "total_points": 114, "visibility_pct": 50.0 }, "geometry": { "type": "Point", "coordinates": [ -0.333757274200342, 51.531508633428686 ] } },
{ "type": "Feature", "properties": { "visible_points": 60, "total_points": 116, "visibility_pct": 51.724137931034484 }, "geometry": { "type": "Point", "coordinates": [ -0.333557600771042, 51.53150579838767 ] } },
{ "type": "Feature", "properties": { "visible_points": 56, "total_points": 118, "visibility_pct": 47.457627118644069 }, "geometry": { "type": "Point", "coordinates": [ -0.333357927374588, 51.531502963006893 ] } },
{ "type": "Feature", "properties": { "visible_points": 54, "total_points": 116, "visibility_pct": 46.551724137931032 }, "geometry": { "type": "Point", "coordinates": [ -0.333158254010975, 51.531500127286314 ] } },
{ "type": "Feature", "properties": { "visible_points": 51, "total_points": 109, "visibility_pct": 46.788990825688074 }, "geometry": { "type": "Point", "coordinates": [ -0.332958580680207, 51.531497291225975 ] } },
{ "type": "Feature", "properties": { "visible_points": 35, "total_points": 98, "visibility_pct": 35.714285714285715 }, "geometry": { "type": "Point", "coordinates": [ -0.33275890738229, 51.531494454825825 ] } },
{ "type": "Feature", "properties": { "visible_points": 4, "total_points": 86, "visibility_pct": 4.6511627906976747 }, "geometry": { "type": "Point", "coordinates": [ -0.332559234117229, 51.531491618085894 ] } },
{ "type": "Feature", "properties": { "visible_points": 8, "total_points": 58, "visibility_pct": 13.793103448275861 }, "geometry": { "type": "Point", "coordinates": [ -0.335051216513227, 51.531634906737231 ] } },
{ "type": "Feature", "properties": { "visible_points": 8, "total_points": 69, "visibility_pct": 11.594202898550725 }, "geometry": { "type": "Point", "coordinates": [ -0.33485154120635, 51.531632073075073 ] } },
{ "type": "Feature", "properties": { "visible_points": 26, "total_points": 80, "visibility_pct": 32.5 }, "geometry": { "type": "Point", "coordinates": [ -0.334651866893797, 51.531629239821044 ] } },
{ "type": "Feature", "properties": { "visible_points": 28, "total_points": 90, "visibility_pct": 31.111111111111111 }, "geometry": { "type": "Point", "coordinates": [ -0.334452192842716, 51.531626406299232 ] } },
{ "type": "Feature", "properties": { "visible_points": 42, "total_points": 97, "visibility_pct": 43.298969072164951 }, "geometry": { "type": "Point", "coordinates": [ -0.334252518824452, 51.531623572437617 ] } },
{ "type": "Feature", "properties": { "visible_points": 48, "total_points": 102, "visibility_pct": 47.058823529411761 }, "geometry": { "type": "Point", "coordinates": [ -0.334052844839016, 51.531620738236228 ] } },
{ "type": "Feature", "properties": { "visible_points": 50, "total_points": 105, "visibility_pct": 47.619047619047613 }, "geometry": { "type": "Point", "coordinates": [ -0.333853170886413, 51.53161790369505 ] } },
{ "type": "Feature", "properties": { "visible_points": 53, "total_points": 108, "visibility_pct": 49.074074074074076 }, "geometry": { "type": "Point", "coordinates": [ -0.333653496966637, 51.531615068814091 ] } },
{ "type": "Feature", "properties": { "visible_points": 52, "total_points": 110, "visibility_pct": 47.272727272727273 }, "geometry": { "type": "Point", "coordinates": [ -0.333453823079701, 51.531612233593343 ] } },
{ "type": "Feature", "properties": { "visible_points": 52, "total_points": 110, "visibility_pct": 47.272727272727273 }, "geometry": { "type": "Point", "coordinates": [ -0.333254149225609, 51.53160939803282 ] } },
{ "type": "Feature", "properties": { "visible_points": 47, "total_points": 104, "visibility_pct": 45.192307692307693 }, "geometry": { "type": "Point", "coordinates": [ -0.333054475404363, 51.531606562132488 ] } },
{ "type": "Feature", "properties": { "visible_points": 42, "total_points": 96, "visibility_pct": 43.75 }, "geometry": { "type": "Point", "coordinates": [ -0.332854801615963, 51.531603725892388 ] } },
{ "type": "Feature", "properties": { "visible_points": 38, "total_points": 86, "visibility_pct": 44.186046511627907 }, "geometry": { "type": "Point", "coordinates": [ -0.332655127860419, 51.531600889312493 ] } },
{ "type": "Feature", "properties": { "visible_points": 20, "total_points": 68, "visibility_pct": 29.411764705882355 }, "geometry": { "type": "Point", "coordinates": [ -0.334747765999398, 51.531738509369987 ] } },
{ "type": "Feature", "properties": { "visible_points": 28, "total_points": 77, "visibility_pct": 36.363636363636367 }, "geometry": { "type": "Point", "coordinates": [ -0.334548091457844, 51.531735676008203 ] } },
{ "type": "Feature", "properties": { "visible_points": 40, "total_points": 84, "visibility_pct": 47.619047619047613 }, "geometry": { "type": "Point", "coordinates": [ -0.334348416949107, 51.53173284230666 ] } },
{ "type": "Feature", "properties": { "visible_points": 43, "total_points": 90, "visibility_pct": 47.777777777777779 }, "geometry": { "type": "Point", "coordinates": [ -0.3341487424732, 51.531730008265306 ] } },
{ "type": "Feature", "properties": { "visible_points": 47, "total_points": 94, "visibility_pct": 50.0 }, "geometry": { "type": "Point", "coordinates": [ -0.333949068030117, 51.531727173884171 ] } },
{ "type": "Feature", "properties": { "visible_points": 51, "total_points": 97, "visibility_pct": 52.577319587628871 }, "geometry": { "type": "Point", "coordinates": [ -0.333749393619866, 51.53172433916324 ] } },
{ "type": "Feature", "properties": { "visible_points": 46, "total_points": 100, "visibility_pct": 46.0 }, "geometry": { "type": "Point", "coordinates": [ -0.33354971924245, 51.531721504102535 ] } },
{ "type": "Feature", "properties": { "visible_points": 44, "total_points": 101, "visibility_pct": 43.564356435643568 }, "geometry": { "type": "Point", "coordinates": [ -0.333350044897877, 51.531718668702041 ] } },
{ "type": "Feature", "properties": { "visible_points": 43, "total_points": 97, "visibility_pct": 44.329896907216494 }, "geometry": { "type": "Point", "coordinates": [ -0.333150370586147, 51.531715832961758 ] } },
{ "type": "Feature", "properties": { "visible_points": 40, "total_points": 91, "visibility_pct": 43.956043956043956 }, "geometry": { "type": "Point", "coordinates": [ -0.332950696307262, 51.531712996881694 ] } },
{ "type": "Feature", "properties": { "visible_points": 35, "total_points": 83, "visibility_pct": 42.168674698795186 }, "geometry": { "type": "Point", "coordinates": [ -0.33275102206123, 51.531710160461841 ] } },
{ "type": "Feature", "properties": { "visible_points": 0, "total_points": 74, "visibility_pct": 0.0 }, "geometry": { "type": "Point", "coordinates": [ -0.332551347848054, 51.531707323702193 ] } },
{ "type": "Feature", "properties": { "visible_points": 42, "total_points": 82, "visibility_pct": 51.219512195121951 }, "geometry": { "type": "Point", "coordinates": [ -0.334044965631463, 51.531836443996028 ] } },
{ "type": "Feature", "properties": { "visible_points": 50, "total_points": 85, "visibility_pct": 58.82352941176471 }, "geometry": { "type": "Point", "coordinates": [ -0.333845290730736, 51.531833609435147 ] } },
{ "type": "Feature", "properties": { "visible_points": 46, "total_points": 88, "visibility_pct": 52.272727272727273 }, "geometry": { "type": "Point", "coordinates": [ -0.333645615862836, 51.531830774534484 ] } },
{ "type": "Feature", "properties": { "visible_points": 45, "total_points": 91, "visibility_pct": 49.450549450549453 }, "geometry": { "type": "Point", "coordinates": [ -0.333445941027782, 51.53182793929404 ] } },
{ "type": "Feature", "properties": { "visible_points": 47, "total_points": 88, "visibility_pct": 53.409090909090907 }, "geometry": { "type": "Point", "coordinates": [ -0.333246266225561, 51.531825103713786 ] } },
{ "type": "Feature", "properties": { "visible_points": 41, "total_points": 84, "visibility_pct": 48.80952380952381 }, "geometry": { "type": "Point", "coordinates": [ -0.333046591456194, 51.53182226779375 ] } },
{ "type": "Feature", "properties": { "visible_points": 30, "total_points": 78, "visibility_pct": 38.461538461538467 }, "geometry": { "type": "Point", "coordinates": [ -0.332846916719672, 51.531819431533918 ] } },
{ "type": "Feature", "properties": { "visible_points": 0, "total_points": 70, "visibility_pct": 0.0 }, "geometry": { "type": "Point", "coordinates": [ -0.332647242016005, 51.53181659493432 ] } },
{ "type": "Feature", "properties": { "visible_points": 37, "total_points": 79, "visibility_pct": 46.835443037974684 }, "geometry": { "type": "Point", "coordinates": [ -0.333541837615322, 51.531937209808753 ] } },
{ "type": "Feature", "properties": { "visible_points": 42, "total_points": 78, "visibility_pct": 53.846153846153847 }, "geometry": { "type": "Point", "coordinates": [ -0.333342162322619, 51.531934374388541 ] } },
{ "type": "Feature", "properties": { "visible_points": 31, "total_points": 75, "visibility_pct": 41.333333333333336 }, "geometry": { "type": "Point", "coordinates": [ -0.333142487062756, 51.531931538628562 ] } },
{ "type": "Feature", "properties": { "visible_points": 36, "total_points": 71, "visibility_pct": 50.704225352112672 }, "geometry": { "type": "Point", "coordinates": [ -0.332942811835746, 51.531928702528774 ] } },
{ "type": "Feature", "properties": { "visible_points": 28, "total_points": 65, "visibility_pct": 43.07692307692308 }, "geometry": { "type": "Point", "coordinates": [ -0.332743136641588, 51.531925866089189 ] } },
{ "type": "Feature", "properties": { "visible_points": 23, "total_points": 58, "visibility_pct": 39.655172413793103 }, "geometry": { "type": "Point", "coordinates": [ -0.332839031724802, 51.532035137166829 ] } },
{ "type": "Feature", "properties": { "visible_points": 0, "total_points": 52, "visibility_pct": 0.0 }, "geometry": { "type": "Point", "coordinates": [ -0.332639356073005, 51.532032300547513 ] } }
]
}
