{
"type": "FeatureCollection",
"name": "864c0d376c08_foliage",
"crs": { "type": "name", "properties": { "name": "urn:ogc:def:crs:OGC:1.3:CRS84" } },
"features": [
{ "type": "Feature", "properties": { "max_height": 3.8090000152587891, "mean_height": 0.29893738031387329, "std_height": 0.84016948938369751, "count_pixels": 43, "percent_cover": 1.5329768270944741, "percent_above_0.1m": 20.930232558139537, "low_level_<0.5": 6.9767441860465116, "mid_level_0.5-2": 4.6511627906976747, "tall_2+": 6.9767441860465116 }, "geometry": { "type": "Point", "coordinates": [ -0.405333921448474, 51.51078729619757 ] } },
{ "type": "Feature", "properties": { "max_height": 10.684751510620117, "mean_height": 3.1662981510162354, "std_height": 3.1994483470916748, "count_pixels": 43, "percent_cover": 1.5329768270944741, "percent_above_0.1m": 69.767441860465112, "low_level_<0.5": 2.3255813953488373, "mid_level_0.5-2": 13.953488372093023, "tall_2+": 53.488372093023251 }, "geometry": { "type": "Point", "coordinates": [ -0.405134330706242, 51.510784580770299 ] } },
{ "type": "Feature", "properties": { "max_height": 5.9227523803710938, "mean_height": 0.78754115104675293, "std_height": 1.2621637582778931, "count_pixels": 44, "percent_cover": 1.5686274509803921, "percent_above_0.1m": 52.272727272727273, "low_level_<0.5": 6.8181818181818175, "mid_level_0.5-2": 29.545454545454547, "tall_2+": 11.363636363636363 }, "geometry": { "type": "Point", "coordinates": [ -0.404934739995192, 51.510781865002819 ] } },
{ "type": "Feature", "properties": { "max_height": 0.060750961303710938, "mean_height": 0.009983905591070652, "std_height": 0.018791113048791885, "count_pixels": 43, "percent_cover": 1.5329768270944741, "percent_above_0.1m": 0.0, "low_level_<0.5": 0.0, "mid_level_0.5-2": 0.0, "tall_2+": 0.0 }, "geometry": { "type": "Point", "coordinates": [ -0.404735149315317, 51.510779148895161 ] } },
{ "type": "Feature", "properties": { "max_height": 10.533252716064453, "mean_height": 1.9735312461853027, "std_height": 3.0802807807922363, "count_pixels": 42, "percent_cover": 1.4973262032085561, "percent_above_0.1m": 52.380952380952387, "low_level_<0.5": 7.1428571428571423, "mid_level_0.5-2": 11.904761904761903, "tall_2+": 30.952380952380953 }, "geometry": { "type": "Point", "coordinates": [ -0.405629542450428, 51.510899225441683 ] } },
{ "type": "Feature", "properties": { "max_height": 13.275753021240234, "mean_height": 5.6631722450256348, "std_height": 3.9358165264129639, "count_pixels": 41, "percent_cover": 1.4616755793226381, "percent_above_0.1m": 92.682926829268297, "low_level_<0.5": 7.3170731707317067, "mid_level_0.5-2": 14.634146341463413, "tall_2+": 70.731707317073173 }, "geometry": { "type": "Point", "coordinates": [ -0.405429951192041, 51.510896510527807 ] } },
{ "type": "Feature", "properties": { "max_height": 13.885749816894531, "mean_height": 4.687952995300293, "std_height": 5.0919914245605469, "count_pixels": 41, "percent_cover": 1.4616755793226381, "percent_above_0.1m": 56.09756097560976, "low_level_<0.5": 2.4390243902439024, "mid_level_0.5-2": 2.4390243902439024, "tall_2+": 51.219512195121951 }, "geometry": { "type": "Point", "coordinates": [ -0.405230359964825, 51.510893795273759 ] } },
{ "type": "Feature", "properties": { "max_height": 0.66525077819824219, "mean_height": 0.024782609194517136, "std_height": 0.11475390940904617, "count_pixels": 40, "percent_cover": 1.4260249554367201, "percent_above_0.1m": 5.0, "low_level_<0.5": 2.5, "mid_level_0.5-2": 2.5, "tall_2+": 0.0 }, "geometry": { "type": "Point", "coordinates": [ -0.405030768768789, 51.510891079679503 ] } },
{ "type": "Feature", "properties": { "max_height": 0.014751434326171875, "mean_height": 0.00074439577292650938, "std_height": 0.0030485242605209351, "count_pixels": 36, "percent_cover": 1.2834224598930482, "percent_above_0.1m": 0.0, "low_level_<0.5": 0.0, "mid_level_0.5-2": 0.0, "tall_2+": 0.0 }, "geometry": { "type": "Point", "coordinates": [ -0.404831177603928, 51.510888363745067 ] } },
{ "type": "Feature", "properties": { "max_height": 11.190254211425781, "mean_height": 2.5592279434204102, "std_height": 3.228926420211792, "count_pixels": 42, "percent_cover": 1.4973262032085561, "percent_above_0.1m": 76.19047619047619, "low_level_<0.5": 4.7619047619047619, "mid_level_0.5-2": 33.333333333333329, "tall_2+": 35.714285714285715 }, "geometry": { "type": "Point", "coordinates": [ -0.405525981389406, 51.511005724768197 ] } },
{ "type": "Feature", "properties": { "max_height": 0.002002716064453125, "mean_height": 0.00010024669609265402, "std_height": 0.00094170734519138932, "count_pixels": 43, "percent_cover": 1.5329768270944741, "percent_above_0.1m": 0.0, "low_level_<0.5": 0.0, "mid_level_0.5-2": 0.0, "tall_2+": 0.0 }, "geometry": { "type": "Point", "coordinates": [ -0.40532638967721, 51.511003009687379 ] } },
{ "type": "Feature", "properties": { "max_height": 0.001003265380859375, "mean_height": 9.4613365945406258e-05, "std_height": 0.00044789735693484545, "count_pixels": 43, "percent_cover": 1.5329768270944741, "percent_above_0.1m": 0.0, "low_level_<0.5": 0.0, "mid_level_0.5-2": 0.0, "tall_2+": 0.0 }, "geometry": { "type": "Point", "coordinates": [ -0.40512679799618, 51.51100029426636 ] } },
{ "type": "Feature", "properties": { "max_height": 5.2302513122558594, "mean_height": 0.7536998987197876, "std_height": 1.4769037961959839, "count_pixels": 44, "percent_cover": 1.5686274509803921, "percent_above_0.1m": 29.545454545454547, "low_level_<0.5": 2.2727272727272729, "mid_level_0.5-2": 11.363636363636363, "tall_2+": 15.909090909090908 }, "geometry": { "type": "Point", "coordinates": [ -0.404927206346333, 51.510997578505133 ] } },
{ "type": "Feature", "properties": { "max_height": 0.080501556396484375, "mean_height": 0.0091991424560546875, "std_height": 0.020523600280284882, "count_pixels": 43, "percent_cover": 1.5329768270944741, "percent_above_0.1m": 0.0, "low_level_<0.5": 0.0, "mid_level_0.5-2": 0.0, "tall_2+": 0.0 }, "geometry": { "type": "Point", "coordinates": [ -0.404727614727667, 51.510994862403734 ] } },
{ "type": "Feature", "properties": { "max_height": 8.0375003814697266, "mean_height": 0.9635729193687439, "std_height": 1.4421993494033813, "count_pixels": 42, "percent_cover": 1.4973262032085561, "percent_above_0.1m": 61.904761904761905, "low_level_<0.5": 14.285714285714285, "mid_level_0.5-2": 23.809523809523807, "tall_2+": 21.428571428571427 }, "geometry": { "type": "Point", "coordinates": [ -0.405622012040582, 51.511114938918737 ] } },
{ "type": "Feature", "properties": { "max_height": 11.143753051757812, "mean_height": 1.2366906404495239, "std_height": 2.682621955871582, "count_pixels": 41, "percent_cover": 1.4616755793226381, "percent_above_0.1m": 46.341463414634148, "low_level_<0.5": 12.195121951219512, "mid_level_0.5-2": 21.951219512195124, "tall_2+": 12.195121951219512 }, "geometry": { "type": "Point", "coordinates": [ -0.405422419843393, 51.511112224011143 ] } },
{ "type": "Feature", "properties": { "max_height": 3.4442501068115234, "mean_height": 0.44930028915405273, "std_height": 0.90606093406677246, "count_pixels": 41, "percent_cover": 1.4616755793226381, "percent_above_0.1m": 24.390243902439025, "low_level_<0.5": 2.4390243902439024, "mid_level_0.5-2": 9.7560975609756095, "tall_2+": 12.195121951219512 }, "geometry": { "type": "Point", "coordinates": [ -0.405222827677376, 51.511109508763354 ] } },
{ "type": "Feature", "properties": { "max_height": 6.8765010833740234, "mean_height": 1.9511203765869141, "std_height": 2.2060754299163818, "count_pixels": 40, "percent_cover": 1.4260249554367201, "percent_above_0.1m": 57.5, "low_level_<0.5": 5.0, "mid_level_0.5-2": 10.0, "tall_2+": 42.5 }, "geometry": { "type": "Point", "coordinates": [ -0.405023235542536, 51.511106793175351 ] } },
{ "type": "Feature", "properties": { "max_height": 7.9855022430419922, "mean_height": 1.8253699541091919, "std_height": 2.3516945838928223, "count_pixels": 36, "percent_cover": 1.2834224598930482, "percent_above_0.1m": 63.888888888888886, "low_level_<0.5": 8.3333333333333321, "mid_level_0.5-2": 11.111111111111111, "tall_2+": 36.111111111111107 }, "geometry": { "type": "Point", "coordinates": [ -0.40482364343888, 51.511104077247168 ] } },
{ "type": "Feature", "properties": { "max_height": 5.7982521057128906, "mean_height": 1.2220011949539185, "std_height": 1.6006666421890259, "count_pixels": 42, "percent_cover": 1.4973262032085561, "percent_above_0.1m": 66.666666666666657, "low_level_<0.5": 19.047619047619047, "mid_level_0.5-2": 28.571428571428569, "tall_2+": 19.047619047619047 }, "geometry": { "type": "Point", "coordinates": [ -0.405518450463383, 51.511221438245045 ] } },
{ "type": "Feature", "properties": { "max_height": 7.9525032043457031, "mean_height": 1.4813505411148071, "std_height": 2.0141739845275879, "count_pixels": 43, "percent_cover": 1.5329768270944741, "percent_above_0.1m": 65.116279069767444, "low_level_<0.5": 6.9767441860465116, "mid_level_0.5-2": 30.232558139534881, "tall_2+": 25.581395348837212 }, "geometry": { "type": "Point", "coordinates": [ -0.405318857812378, 51.511218723170494 ] } },
{ "type": "Feature", "properties": { "max_height": 5.3692512512207031, "mean_height": 1.3628039360046387, "std_height": 1.7624558210372925, "count_pixels": 43, "percent_cover": 1.5329768270944741, "percent_above_0.1m": 58.139534883720934, "low_level_<0.5": 4.6511627906976747, "mid_level_0.5-2": 27.906976744186046, "tall_2+": 25.581395348837212 }, "geometry": { "type": "Point", "coordinates": [ -0.405119265192539, 51.511216007755728 ] } },
{ "type": "Feature", "properties": { "max_height": 2.55975341796875, "mean_height": 0.11047909408807755, "std_height": 0.45586633682250977, "count_pixels": 44, "percent_cover": 1.5686274509803921, "percent_above_0.1m": 9.0909090909090917, "low_level_<0.5": 2.2727272727272729, "mid_level_0.5-2": 2.2727272727272729, "tall_2+": 2.2727272727272729 }, "geometry": { "type": "Point", "coordinates": [ -0.404919672603891, 51.511213292000761 ] } },
{ "type": "Feature", "properties": { "max_height": 9.7557506561279297, "mean_height": 3.4723191261291504, "std_height": 2.8081259727478027, "count_pixels": 41, "percent_cover": 1.4616755793226381, "percent_above_0.1m": 95.121951219512198, "low_level_<0.5": 9.7560975609756095, "mid_level_0.5-2": 24.390243902439025, "tall_2+": 58.536585365853654 }, "geometry": { "type": "Point", "coordinates": [ -0.405414888401182, 51.511327937487771 ] } },
{ "type": "Feature", "properties": { "max_height": 8.2534999847412109, "mean_height": 2.0572209358215332, "std_height": 2.3883404731750488, "count_pixels": 41, "percent_cover": 1.4616755793226381, "percent_above_0.1m": 75.609756097560975, "low_level_<0.5": 9.7560975609756095, "mid_level_0.5-2": 24.390243902439025, "tall_2+": 39.024390243902438 }, "geometry": { "type": "Point", "coordinates": [ -0.405215295296356, 51.511325222246242 ] } }
]
}
