{
"type": "FeatureCollection",
"name": "9025776e1055_foliage",
"crs": { "type": "name", "properties": { "name": "urn:ogc:def:crs:OGC:1.3:CRS84" } },
"features": [
{ "type": "Feature", "properties": { "max_height": 3.0219993591308594, "mean_height": 0.45994222164154053, "std_height": 0.68258839845657349, "count_pixels": 42, "percent_cover": 0.5223880597014926, "percent_above_0.1m": 61.904761904761905, "low_level_<0.5": 30.952380952380953, "mid_level_0.5-2": 21.428571428571427, "tall_2+": 4.7619047619047619 }, "geometry": { "type": "Point", "coordinates": [ -0.259076384208965, 51.545017156301014 ] } },
{ "type": "Feature", "properties": { "max_height": 0.5155029296875, "mean_height": 0.016038661822676659, "std_height": 0.080151528120040894, "count_pixels": 41, "percent_cover": 0.50995024875621886, "percent_above_0.1m": 2.4390243902439024, "low_level_<0.5": 0.0, "mid_level_0.5-2": 2.4390243902439024, "tall_2+": 0.0 }, "geometry": { "type": "Point", "coordinates": [ -0.258876656789599, 51.545014194531618 ] } },
{ "type": "Feature", "properties": { "max_height": 2.4752540588378906, "mean_height": 0.49780049920082092, "std_height": 0.67342680692672729, "count_pixels": 41, "percent_cover": 0.50995024875621886, "percent_above_0.1m": 51.219512195121951, "low_level_<0.5": 17.073170731707318, "mid_level_0.5-2": 26.829268292682929, "tall_2+": 4.8780487804878048 }, "geometry": { "type": "Point", "coordinates": [ -0.259172129154678, 51.545126486373242 ] } },
{ "type": "Feature", "properties": { "max_height": 1.5205039978027344, "mean_height": 0.20821043848991394, "std_height": 0.36972475051879883, "count_pixels": 42, "percent_cover": 0.5223880597014926, "percent_above_0.1m": 33.333333333333329, "low_level_<0.5": 11.904761904761903, "mid_level_0.5-2": 16.666666666666664, "tall_2+": 0.0 }, "geometry": { "type": "Point", "coordinates": [ -0.258972401236521, 51.545123524769224 ] } },
{ "type": "Feature", "properties": { "max_height": 1.3867530822753906, "mean_height": 0.084088526666164398, "std_height": 0.25704497098922729, "count_pixels": 43, "percent_cover": 0.53482587064676623, "percent_above_0.1m": 13.953488372093023, "low_level_<0.5": 6.9767441860465116, "mid_level_0.5-2": 4.6511627906976747, "tall_2+": 0.0 }, "geometry": { "type": "Point", "coordinates": [ -0.258772673353083, 51.54512056282497 ] } },
{ "type": "Feature", "properties": { "max_height": 2.6517524719238281, "mean_height": 0.62315070629119873, "std_height": 0.71536475419998169, "count_pixels": 42, "percent_cover": 0.5223880597014926, "percent_above_0.1m": 64.285714285714292, "low_level_<0.5": 19.047619047619047, "mid_level_0.5-2": 38.095238095238095, "tall_2+": 4.7619047619047619 }, "geometry": { "type": "Point", "coordinates": [ -0.25906814614751, 51.545232854924556 ] } },
{ "type": "Feature", "properties": { "max_height": 0.0982513427734375, "mean_height": 0.0090994490310549736, "std_height": 0.023923283442854881, "count_pixels": 41, "percent_cover": 0.50995024875621886, "percent_above_0.1m": 0.0, "low_level_<0.5": 0.0, "mid_level_0.5-2": 0.0, "tall_2+": 0.0 }, "geometry": { "type": "Point", "coordinates": [ -0.258868417765273, 51.545229893145681 ] } },
{ "type": "Feature", "properties": { "max_height": 0.29050064086914062, "mean_height": 0.028019417077302933, "std_height": 0.051113847643136978, "count_pixels": 41, "percent_cover": 0.50995024875621886, "percent_above_0.1m": 7.3170731707317067, "low_level_<0.5": 2.4390243902439024, "mid_level_0.5-2": 0.0, "tall_2+": 0.0 }, "geometry": { "type": "Point", "coordinates": [ -0.258668689417761, 51.545226931026576 ] } },
{ "type": "Feature", "properties": { "max_height": 1.3910026550292969, "mean_height": 0.1115875244140625, "std_height": 0.26509353518486023, "count_pixels": 41, "percent_cover": 0.50995024875621886, "percent_above_0.1m": 19.512195121951219, "low_level_<0.5": 9.7560975609756095, "mid_level_0.5-2": 7.3170731707317067, "tall_2+": 0.0 }, "geometry": { "type": "Point", "coordinates": [ -0.258468961104975, 51.54522396856725 ] } },
{ "type": "Feature", "properties": { "max_height": 3.4097518920898438, "mean_height": 0.6699712872505188, "std_height": 0.90490901470184326, "count_pixels": 41, "percent_cover": 0.50995024875621886, "percent_above_0.1m": 60.975609756097562, "low_level_<0.5": 21.951219512195124, "mid_level_0.5-2": 21.951219512195124, "tall_2+": 12.195121951219512 }, "geometry": { "type": "Point", "coordinates": [ -0.259163891522577, 51.545342184997644 ] } },
{ "type": "Feature", "properties": { "max_height": 1.4992523193359375, "mean_height": 0.15529333055019379, "std_height": 0.34047359228134155, "count_pixels": 42, "percent_cover": 0.5223880597014926, "percent_above_0.1m": 26.190476190476193, "low_level_<0.5": 16.666666666666664, "mid_level_0.5-2": 9.5238095238095237, "tall_2+": 0.0 }, "geometry": { "type": "Point", "coordinates": [ -0.258964162641539, 51.545339223384126 ] } },
{ "type": "Feature", "properties": { "max_height": 0.01525115966796875, "mean_height": 0.00016962095105554909, "std_height": 0.0060930028557777405, "count_pixels": 43, "percent_cover": 0.53482587064676623, "percent_above_0.1m": 0.0, "low_level_<0.5": 0.0, "mid_level_0.5-2": 0.0, "tall_2+": 0.0 }, "geometry": { "type": "Point", "coordinates": [ -0.258764433795222, 51.545336261430407 ] } },
{ "type": "Feature", "properties": { "max_height": 1.68475341796875, "mean_height": 0.10676920413970947, "std_height": 0.28496727347373962, "count_pixels": 43, "percent_cover": 0.53482587064676623, "percent_above_0.1m": 16.279069767441861, "low_level_<0.5": 4.6511627906976747, "mid_level_0.5-2": 6.9767441860465116, "tall_2+": 0.0 }, "geometry": { "type": "Point", "coordinates": [ -0.25856470498363, 51.545333299136431 ] } },
{ "type": "Feature", "properties": { "max_height": 10.948501586914062, "mean_height": 2.2735977172851562, "std_height": 2.3133053779602051, "count_pixels": 42, "percent_cover": 0.5223880597014926, "percent_above_0.1m": 90.476190476190482, "low_level_<0.5": 4.7619047619047619, "mid_level_0.5-2": 40.476190476190474, "tall_2+": 42.857142857142854 }, "geometry": { "type": "Point", "coordinates": [ -0.25905990798188, 51.545448553540325 ] } },
{ "type": "Feature", "properties": { "max_height": 0.013004302978515625, "mean_height": 0.0011298017343506217, "std_height": 0.0038803431671112776, "count_pixels": 41, "percent_cover": 0.50995024875621886, "percent_above_0.1m": 0.0, "low_level_<0.5": 0.0, "mid_level_0.5-2": 0.0, "tall_2+": 0.0 }, "geometry": { "type": "Point", "coordinates": [ -0.258860178636758, 51.54544559175195 ] } },
{ "type": "Feature", "properties": { "max_height": 0.43575286865234375, "mean_height": 0.012697266414761543, "std_height": 0.067346245050430298, "count_pixels": 41, "percent_cover": 0.50995024875621886, "percent_above_0.1m": 2.4390243902439024, "low_level_<0.5": 2.4390243902439024, "mid_level_0.5-2": 0.0, "tall_2+": 0.0 }, "geometry": { "type": "Point", "coordinates": [ -0.258660449326358, 51.545442629623373 ] } },
{ "type": "Feature", "properties": { "max_height": 1.8822517395019531, "mean_height": 0.42605665326118469, "std_height": 0.55692636966705322, "count_pixels": 41, "percent_cover": 0.50995024875621886, "percent_above_0.1m": 53.658536585365859, "low_level_<0.5": 19.512195121951219, "mid_level_0.5-2": 31.707317073170731, "tall_2+": 0.0 }, "geometry": { "type": "Point", "coordinates": [ -0.258460720050688, 51.54543966715454 ] } },
{ "type": "Feature", "properties": { "max_height": 6.79925537109375, "mean_height": 1.489782452583313, "std_height": 1.5617455244064331, "count_pixels": 41, "percent_cover": 0.50995024875621886, "percent_above_0.1m": 70.731707317073173, "low_level_<0.5": 12.195121951219512, "mid_level_0.5-2": 24.390243902439025, "tall_2+": 31.707317073170731 }, "geometry": { "type": "Point", "coordinates": [ -0.259155653786306, 51.545557883614237 ] } },
{ "type": "Feature", "properties": { "max_height": 3.1472511291503906, "mean_height": 0.51041239500045776, "std_height": 0.92668938636779785, "count_pixels": 42, "percent_cover": 0.5223880597014926, "percent_above_0.1m": 35.714285714285715, "low_level_<0.5": 2.3809523809523809, "mid_level_0.5-2": 19.047619047619047, "tall_2+": 9.5238095238095237 }, "geometry": { "type": "Point", "coordinates": [ -0.258955923942374, 51.545554921991247 ] } },
{ "type": "Feature", "properties": { "max_height": 0.008251190185546875, "mean_height": -0.00019011386029887944, "std_height": 0.0036578772123903036, "count_pixels": 43, "percent_cover": 0.53482587064676623, "percent_above_0.1m": 0.0, "low_level_<0.5": 0.0, "mid_level_0.5-2": 0.0, "tall_2+": 0.0 }, "geometry": { "type": "Point", "coordinates": [ -0.258756194133164, 51.545551960028014 ] } },
{ "type": "Feature", "properties": { "max_height": 0.23575210571289062, "mean_height": 0.023623354732990265, "std_height": 0.046955261379480362, "count_pixels": 43, "percent_cover": 0.53482587064676623, "percent_above_0.1m": 9.3023255813953494, "low_level_<0.5": 2.3255813953488373, "mid_level_0.5-2": 0.0, "tall_2+": 0.0 }, "geometry": { "type": "Point", "coordinates": [ -0.258556464358683, 51.545548997724559 ] } },
{ "type": "Feature", "properties": { "max_height": 2.3335037231445312, "mean_height": 0.23928502202033997, "std_height": 0.49871227145195007, "count_pixels": 38, "percent_cover": 0.47263681592039797, "percent_above_0.1m": 23.684210526315788, "low_level_<0.5": 5.2631578947368416, "mid_level_0.5-2": 15.789473684210526, "tall_2+": 2.6315789473684208 }, "geometry": { "type": "Point", "coordinates": [ -0.258356734618931, 51.545546035080889 ] } },
{ "type": "Feature", "properties": { "max_height": 2.9042510986328125, "mean_height": 1.0883885622024536, "std_height": 0.84547752141952515, "count_pixels": 42, "percent_cover": 0.5223880597014926, "percent_above_0.1m": 78.571428571428569, "low_level_<0.5": 9.5238095238095237, "mid_level_0.5-2": 52.380952380952387, "tall_2+": 16.666666666666664 }, "geometry": { "type": "Point", "coordinates": [ -0.259051669712071, 51.545664252148285 ] } },
{ "type": "Feature", "properties": { "max_height": 0.007251739501953125, "mean_height": -5.3219679102767259e-05, "std_height": 0.0024510957300662994, "count_pixels": 41, "percent_cover": 0.50995024875621886, "percent_above_0.1m": 0.0, "low_level_<0.5": 0.0, "mid_level_0.5-2": 0.0, "tall_2+": 0.0 }, "geometry": { "type": "Point", "coordinates": [ -0.258851939404051, 51.545661290350431 ] } },
{ "type": "Feature", "properties": { "max_height": 0.003753662109375, "mean_height": -0.001968104625120759, "std_height": 0.0041162525303661823, "count_pixels": 41, "percent_cover": 0.50995024875621886, "percent_above_0.1m": 0.0, "low_level_<0.5": 0.0, "mid_level_0.5-2": 0.0, "tall_2+": 0.0 }, "geometry": { "type": "Point", "coordinates": [ -0.258652209130754, 51.545658328212347 ] } },
{ "type": "Feature", "properties": { "max_height": 0.02700042724609375, "mean_height": 0.0017153111984953284, "std_height": 0.0054809479042887688, "count_pixels": 41, "percent_cover": 0.50995024875621886, "percent_above_0.1m": 0.0, "low_level_<0.5": 0.0, "mid_level_0.5-2": 0.0, "tall_2+": 0.0 }, "geometry": { "type": "Point", "coordinates": [ -0.25845247889219, 51.545655365734035 ] } },
{ "type": "Feature", "properties": { "max_height": 1.4757537841796875, "mean_height": 0.16066214442253113, "std_height": 0.38144409656524658, "count_pixels": 42, "percent_cover": 0.5223880597014926, "percent_above_0.1m": 19.047619047619047, "low_level_<0.5": 2.3809523809523809, "mid_level_0.5-2": 14.285714285714285, "tall_2+": 0.0 }, "geometry": { "type": "Point", "coordinates": [ -0.258252748688356, 51.545652402915479 ] } },
{ "type": "Feature", "properties": { "max_height": 3.0880012512207031, "mean_height": 1.0969893932342529, "std_height": 1.0851695537567139, "count_pixels": 41, "percent_cover": 0.50995024875621886, "percent_above_0.1m": 63.414634146341463, "low_level_<0.5": 2.4390243902439024, "mid_level_0.5-2": 29.268292682926827, "tall_2+": 31.707317073170731 }, "geometry": { "type": "Point", "coordinates": [ -0.259147415945858, 51.545773582223042 ] } },
{ "type": "Feature", "properties": { "max_height": 2.1962509155273438, "mean_height": 0.27471631765365601, "std_height": 0.55307996273040771, "count_pixels": 42, "percent_cover": 0.5223880597014926, "percent_above_0.1m": 26.190476190476193, "low_level_<0.5": 7.1428571428571423, "mid_level_0.5-2": 16.666666666666664, "tall_2+": 2.3809523809523809 }, "geometry": { "type": "Point", "coordinates": [ -0.258947685139021, 51.545770620590567 ] } },
{ "type": "Feature", "properties": { "max_height": 0.001251220703125, "mean_height": -0.00051560514839366078, "std_height": 0.0018457070691511035, "count_pixels": 43, "percent_cover": 0.53482587064676623, "percent_above_0.1m": 0.0, "low_level_<0.5": 0.0, "mid_level_0.5-2": 0.0, "tall_2+": 0.0 }, "geometry": { "type": "Point", "coordinates": [ -0.258747954366912, 51.545767658617862 ] } },
{ "type": "Feature", "properties": { "max_height": 0.00275421142578125, "mean_height": -0.0011088348692283034, "std_height": 0.0023610498756170273, "count_pixels": 43, "percent_cover": 0.53482587064676623, "percent_above_0.1m": 0.0, "low_level_<0.5": 0.0, "mid_level_0.5-2": 0.0, "tall_2+": 0.0 }, "geometry": { "type": "Point", "coordinates": [ -0.258548223629524, 51.545764696304914 ] } },
{ "type": "Feature", "properties": { "max_height": 0.8977508544921875, "mean_height": 0.052929025143384933, "std_height": 0.17903716862201691, "count_pixels": 38, "percent_cover": 0.47263681592039797, "percent_above_0.1m": 10.526315789473683, "low_level_<0.5": 5.2631578947368416, "mid_level_0.5-2": 5.2631578947368416, "tall_2+": 0.0 }, "geometry": { "type": "Point", "coordinates": [ -0.258348492926873, 51.545761733651752 ] } },
{ "type": "Feature", "properties": { "max_height": 10.414249420166016, "mean_height": 3.1159894466400146, "std_height": 3.7295858860015869, "count_pixels": 43, "percent_cover": 0.53482587064676623, "percent_above_0.1m": 62.790697674418603, "low_level_<0.5": 4.6511627906976747, "mid_level_0.5-2": 16.279069767441861, "tall_2+": 39.534883720930232 }, "geometry": { "type": "Point", "coordinates": [ -0.259243162643734, 51.545882912215554 ] } },
{ "type": "Feature", "properties": { "max_height": 3.6910018920898438, "mean_height": 1.6062636375427246, "std_height": 1.283538818359375, "count_pixels": 42, "percent_cover": 0.5223880597014926, "percent_above_0.1m": 71.428571428571431, "low_level_<0.5": 4.7619047619047619, "mid_level_0.5-2": 21.428571428571427, "tall_2+": 45.238095238095241 }, "geometry": { "type": "Point", "coordinates": [ -0.259043431338079, 51.545879950748457 ] } },
{ "type": "Feature", "properties": { "max_height": 0.000751495361328125, "mean_height": -0.00023576690000481904, "std_height": 0.00059985002735629678, "count_pixels": 41, "percent_cover": 0.50995024875621886, "percent_above_0.1m": 0.0, "low_level_<0.5": 0.0, "mid_level_0.5-2": 0.0, "tall_2+": 0.0 }, "geometry": { "type": "Point", "coordinates": [ -0.258843700067153, 51.545876988941117 ] } },
{ "type": "Feature", "properties": { "max_height": 0.005001068115234375, "mean_height": -0.0010410401737317443, "std_height": 0.0029409201815724373, "count_pixels": 41, "percent_cover": 0.50995024875621886, "percent_above_0.1m": 0.0, "low_level_<0.5": 0.0, "mid_level_0.5-2": 0.0, "tall_2+": 0.0 }, "geometry": { "type": "Point", "coordinates": [ -0.258643968830945, 51.545874026793548 ] } },
{ "type": "Feature", "properties": { "max_height": 0.000751495361328125, "mean_height": -0.00057788012782111764, "std_height": 0.0015697308117523789, "count_pixels": 41, "percent_cover": 0.50995024875621886, "percent_above_0.1m": 0.0, "low_level_<0.5": 0.0, "mid_level_0.5-2": 0.0, "tall_2+": 0.0 }, "geometry": { "type": "Point", "coordinates": [ -0.258444237629475, 51.545871064305743 ] } },
{ "type": "Feature", "properties": { "max_height": 1.5655021667480469, "mean_height": 0.13260313868522644, "std_height": 0.3540683388710022, "count_pixels": 42, "percent_cover": 0.5223880597014926, "percent_above_0.1m": 16.666666666666664, "low_level_<0.5": 9.5238095238095237, "mid_level_0.5-2": 7.1428571428571423, "tall_2+": 0.0 }, "geometry": { "type": "Point", "coordinates": [ -0.258244506462731, 51.545868101477687 ] } },
{ "type": "Feature", "properties": { "max_height": 5.3535003662109375, "mean_height": 2.069465160369873, "std_height": 1.6901980638504028, "count_pixels": 41, "percent_cover": 0.50995024875621886, "percent_above_0.1m": 85.365853658536579, "low_level_<0.5": 9.7560975609756095, "mid_level_0.5-2": 26.829268292682929, "tall_2+": 46.341463414634148 }, "geometry": { "type": "Point", "coordinates": [ -0.259139178001236, 51.54598928082406 ] } },
{ "type": "Feature", "properties": { "max_height": 0.001255035400390625, "mean_height": -0.0001413254503859207, "std_height": 0.00093383347848430276, "count_pixels": 42, "percent_cover": 0.5223880597014926, "percent_above_0.1m": 0.0, "low_level_<0.5": 0.0, "mid_level_0.5-2": 0.0, "tall_2+": 0.0 }, "geometry": { "type": "Point", "coordinates": [ -0.258939446231482, 51.545986319182099 ] } },
{ "type": "Feature", "properties": { "max_height": 0.001003265380859375, "mean_height": -1.0202097655565012e-05, "std_height": 0.00063170556677505374, "count_pixels": 43, "percent_cover": 0.53482587064676623, "percent_above_0.1m": 0.0, "low_level_<0.5": 0.0, "mid_level_0.5-2": 0.0, "tall_2+": 0.0 }, "geometry": { "type": "Point", "coordinates": [ -0.258739714496456, 51.545983357199908 ] } },
{ "type": "Feature", "properties": { "max_height": 0.00299835205078125, "mean_height": -0.0010102738160640001, "std_height": 0.0023372615687549114, "count_pixels": 43, "percent_cover": 0.53482587064676623, "percent_above_0.1m": 0.0, "low_level_<0.5": 0.0, "mid_level_0.5-2": 0.0, "tall_2+": 0.0 }, "geometry": { "type": "Point", "coordinates": [ -0.258539982796155, 51.545980394877468 ] } },
{ "type": "Feature", "properties": { "max_height": 0.001003265380859375, "mean_height": -0.00019565381808206439, "std_height": 0.00090128334704786539, "count_pixels": 38, "percent_cover": 0.47263681592039797, "percent_above_0.1m": 0.0, "low_level_<0.5": 0.0, "mid_level_0.5-2": 0.0, "tall_2+": 0.0 }, "geometry": { "type": "Point", "coordinates": [ -0.258340251130593, 51.545977432214791 ] } },
{ "type": "Feature", "properties": { "max_height": 1.8902511596679688, "mean_height": 0.23383504152297974, "std_height": 0.47764143347740173, "count_pixels": 42, "percent_cover": 0.5223880597014926, "percent_above_0.1m": 26.190476190476193, "low_level_<0.5": 7.1428571428571423, "mid_level_0.5-2": 19.047619047619047, "tall_2+": 0.0 }, "geometry": { "type": "Point", "coordinates": [ -0.258140519499763, 51.545974469211906 ] } },
{ "type": "Feature", "properties": { "max_height": 10.048999786376953, "mean_height": 3.221966028213501, "std_height": 3.0392305850982666, "count_pixels": 42, "percent_cover": 0.5223880597014926, "percent_above_0.1m": 78.571428571428569, "low_level_<0.5": 0.0, "mid_level_0.5-2": 14.285714285714285, "tall_2+": 61.904761904761905 }, "geometry": { "type": "Point", "coordinates": [ -0.259035192859908, 51.546095649340828 ] } },
{ "type": "Feature", "properties": { "max_height": 0.12725067138671875, "mean_height": 0.011245448142290115, "std_height": 0.029019569978117943, "count_pixels": 41, "percent_cover": 0.50995024875621886, "percent_above_0.1m": 2.4390243902439024, "low_level_<0.5": 0.0, "mid_level_0.5-2": 0.0, "tall_2+": 0.0 }, "geometry": { "type": "Point", "coordinates": [ -0.258835460626058, 51.546092687524009 ] } },
{ "type": "Feature", "properties": { "max_height": 0.0052490234375, "mean_height": -0.0002606089401524514, "std_height": 0.0019921634811908007, "count_pixels": 41, "percent_cover": 0.50995024875621886, "percent_above_0.1m": 0.0, "low_level_<0.5": 0.0, "mid_level_0.5-2": 0.0, "tall_2+": 0.0 }, "geometry": { "type": "Point", "coordinates": [ -0.25863572842693, 51.546089725366961 ] } },
{ "type": "Feature", "properties": { "max_height": 0.00225067138671875, "mean_height": -0.00082769629079848528, "std_height": 0.00185269711073488, "count_pixels": 41, "percent_cover": 0.50995024875621886, "percent_above_0.1m": 0.0, "low_level_<0.5": 0.0, "mid_level_0.5-2": 0.0, "tall_2+": 0.0 }, "geometry": { "type": "Point", "coordinates": [ -0.258435996262537, 51.54608676286967 ] } },
{ "type": "Feature", "properties": { "max_height": 0.15725326538085938, "mean_height": 0.0037399474531412125, "std_height": 0.023983221501111984, "count_pixels": 42, "percent_cover": 0.5223880597014926, "percent_above_0.1m": 2.3809523809523809, "low_level_<0.5": 2.3809523809523809, "mid_level_0.5-2": 0.0, "tall_2+": 0.0 }, "geometry": { "type": "Point", "coordinates": [ -0.258236264132877, 51.546083800032122 ] } },
{ "type": "Feature", "properties": { "max_height": 1.725250244140625, "mean_height": 0.18872646987438202, "std_height": 0.39891636371612549, "count_pixels": 41, "percent_cover": 0.50995024875621886, "percent_above_0.1m": 24.390243902439025, "low_level_<0.5": 12.195121951219512, "mid_level_0.5-2": 12.195121951219512, "tall_2+": 0.0 }, "geometry": { "type": "Point", "coordinates": [ -0.25803653203796, 51.546080836854344 ] } },
{ "type": "Feature", "properties": { "max_height": 8.6857528686523438, "mean_height": 0.72292035818099976, "std_height": 1.9688467979431152, "count_pixels": 43, "percent_cover": 0.53482587064676623, "percent_above_0.1m": 23.255813953488371, "low_level_<0.5": 4.6511627906976747, "mid_level_0.5-2": 4.6511627906976747, "tall_2+": 11.627906976744185 }, "geometry": { "type": "Point", "coordinates": [ -0.258731474521802, 51.546199055774167 ] } },
{ "type": "Feature", "properties": { "max_height": 0.71625137329101562, "mean_height": 0.034838918596506119, "std_height": 0.13535228371620178, "count_pixels": 43, "percent_cover": 0.53482587064676623, "percent_above_0.1m": 6.9767441860465116, "low_level_<0.5": 4.6511627906976747, "mid_level_0.5-2": 2.3255813953488373, "tall_2+": 0.0 }, "geometry": { "type": "Point", "coordinates": [ -0.258531741858573, 51.546196093442234 ] } },
{ "type": "Feature", "properties": { "max_height": 0.82625198364257812, "mean_height": 0.070534653961658478, "std_height": 0.20084728300571442, "count_pixels": 38, "percent_cover": 0.47263681592039797, "percent_above_0.1m": 10.526315789473683, "low_level_<0.5": 2.6315789473684208, "mid_level_0.5-2": 7.8947368421052628, "tall_2+": 0.0 }, "geometry": { "type": "Point", "coordinates": [ -0.258332009230085, 51.546193130770078 ] } },
{ "type": "Feature", "properties": { "max_height": 6.4287490844726562, "mean_height": 1.2474062442779541, "std_height": 1.5913615226745605, "count_pixels": 42, "percent_cover": 0.5223880597014926, "percent_above_0.1m": 78.571428571428569, "low_level_<0.5": 14.285714285714285, "mid_level_0.5-2": 47.619047619047613, "tall_2+": 14.285714285714285 }, "geometry": { "type": "Point", "coordinates": [ -0.258132276636332, 51.546190167757686 ] } },
{ "type": "Feature", "properties": { "max_height": 0.7962493896484375, "mean_height": 0.046440497040748596, "std_height": 0.13833126425743103, "count_pixels": 41, "percent_cover": 0.50995024875621886, "percent_above_0.1m": 14.634146341463413, "low_level_<0.5": 7.3170731707317067, "mid_level_0.5-2": 2.4390243902439024, "tall_2+": 0.0 }, "geometry": { "type": "Point", "coordinates": [ -0.258627487918709, 51.546305423932552 ] } },
{ "type": "Feature", "properties": { "max_height": 0.004001617431640625, "mean_height": -0.00093125132843852043, "std_height": 0.0023816851899027824, "count_pixels": 41, "percent_cover": 0.50995024875621886, "percent_above_0.1m": 0.0, "low_level_<0.5": 0.0, "mid_level_0.5-2": 0.0, "tall_2+": 0.0 }, "geometry": { "type": "Point", "coordinates": [ -0.258427754791382, 51.546302461425782 ] } },
{ "type": "Feature", "properties": { "max_height": 1.1402511596679688, "mean_height": 0.10317448526620865, "std_height": 0.26687043905258179, "count_pixels": 42, "percent_cover": 0.5223880597014926, "percent_above_0.1m": 19.047619047619047, "low_level_<0.5": 7.1428571428571423, "mid_level_0.5-2": 7.1428571428571423, "tall_2+": 0.0 }, "geometry": { "type": "Point", "coordinates": [ -0.258228021698794, 51.54629949857874 ] } },
{ "type": "Feature", "properties": { "max_height": 2.5092506408691406, "mean_height": 0.78021502494812012, "std_height": 0.57517439126968384, "count_pixels": 41, "percent_cover": 0.50995024875621886, "percent_above_0.1m": 90.243902439024396, "low_level_<0.5": 24.390243902439025, "mid_level_0.5-2": 60.975609756097562, "tall_2+": 2.4390243902439024 }, "geometry": { "type": "Point", "coordinates": [ -0.258028288640941, 51.546296535391484 ] } },
{ "type": "Feature", "properties": { "max_height": 3.6202507019042969, "mean_height": 1.4794902801513672, "std_height": 1.3243931531906128, "count_pixels": 43, "percent_cover": 0.53482587064676623, "percent_above_0.1m": 74.418604651162795, "low_level_<0.5": 11.627906976744185, "mid_level_0.5-2": 25.581395348837212, "tall_2+": 37.209302325581397 }, "geometry": { "type": "Point", "coordinates": [ -0.258723234442942, 51.546414754340617 ] } },
{ "type": "Feature", "properties": { "max_height": 0.00775146484375, "mean_height": -0.00031857157591730356, "std_height": 0.0023926934227347374, "count_pixels": 43, "percent_cover": 0.53482587064676623, "percent_above_0.1m": 0.0, "low_level_<0.5": 0.0, "mid_level_0.5-2": 0.0, "tall_2+": 0.0 }, "geometry": { "type": "Point", "coordinates": [ -0.258523500816781, 51.546411791999219 ] } },
{ "type": "Feature", "properties": { "max_height": 0.004001617431640625, "mean_height": -0.00011072660709032789, "std_height": 0.0016771239461377263, "count_pixels": 38, "percent_cover": 0.47263681592039797, "percent_above_0.1m": 0.0, "low_level_<0.5": 0.0, "mid_level_0.5-2": 0.0, "tall_2+": 0.0 }, "geometry": { "type": "Point", "coordinates": [ -0.258323767225351, 51.546408829317564 ] } },
{ "type": "Feature", "properties": { "max_height": 0.72375106811523438, "mean_height": 0.089960187673568726, "std_height": 0.18603438138961792, "count_pixels": 42, "percent_cover": 0.5223880597014926, "percent_above_0.1m": 23.809523809523807, "low_level_<0.5": 9.5238095238095237, "mid_level_0.5-2": 9.5238095238095237, "tall_2+": 0.0 }, "geometry": { "type": "Point", "coordinates": [ -0.25812403366866, 51.546405866295672 ] } },
{ "type": "Feature", "properties": { "max_height": 1.9940032958984375, "mean_height": 0.40271705389022827, "std_height": 0.49551013112068176, "count_pixels": 43, "percent_cover": 0.53482587064676623, "percent_above_0.1m": 62.790697674418603, "low_level_<0.5": 34.883720930232556, "mid_level_0.5-2": 25.581395348837212, "tall_2+": 0.0 }, "geometry": { "type": "Point", "coordinates": [ -0.257924300146708, 51.546402902933529 ] } },
{ "type": "Feature", "properties": { "max_height": 3.2542495727539062, "mean_height": 1.0173490047454834, "std_height": 0.96813774108886719, "count_pixels": 41, "percent_cover": 0.50995024875621886, "percent_above_0.1m": 75.609756097560975, "low_level_<0.5": 9.7560975609756095, "mid_level_0.5-2": 48.780487804878049, "tall_2+": 14.634146341463413 }, "geometry": { "type": "Point", "coordinates": [ -0.258619247306278, 51.54652112249039 ] } },
{ "type": "Feature", "properties": { "max_height": 0.003002166748046875, "mean_height": -0.0012604318326339126, "std_height": 0.0030809969175606966, "count_pixels": 41, "percent_cover": 0.50995024875621886, "percent_above_0.1m": 0.0, "low_level_<0.5": 0.0, "mid_level_0.5-2": 0.0, "tall_2+": 0.0 }, "geometry": { "type": "Point", "coordinates": [ -0.258419513216006, 51.546518159974106 ] } },
{ "type": "Feature", "properties": { "max_height": 0.001003265380859375, "mean_height": -6.3669111113995314e-05, "std_height": 0.00053476332686841488, "count_pixels": 42, "percent_cover": 0.5223880597014926, "percent_above_0.1m": 0.0, "low_level_<0.5": 0.0, "mid_level_0.5-2": 0.0, "tall_2+": 0.0 }, "geometry": { "type": "Point", "coordinates": [ -0.258219779160474, 51.546515197117593 ] } },
{ "type": "Feature", "properties": { "max_height": 1.1092491149902344, "mean_height": 0.14169107377529144, "std_height": 0.22632218897342682, "count_pixels": 41, "percent_cover": 0.50995024875621886, "percent_above_0.1m": 41.463414634146339, "low_level_<0.5": 29.268292682926827, "mid_level_0.5-2": 7.3170731707317067, "tall_2+": 0.0 }, "geometry": { "type": "Point", "coordinates": [ -0.258020045139678, 51.546512233920822 ] } },
{ "type": "Feature", "properties": { "max_height": 1.4290008544921875, "mean_height": 0.085684798657894135, "std_height": 0.25323450565338135, "count_pixels": 41, "percent_cover": 0.50995024875621886, "percent_above_0.1m": 12.195121951219512, "low_level_<0.5": 7.3170731707317067, "mid_level_0.5-2": 4.8780487804878048, "tall_2+": 0.0 }, "geometry": { "type": "Point", "coordinates": [ -0.257820311153628, 51.546509270383822 ] } },
{ "type": "Feature", "properties": { "max_height": 5.8929996490478516, "mean_height": 2.262728214263916, "std_height": 2.2599058151245117, "count_pixels": 43, "percent_cover": 0.53482587064676623, "percent_above_0.1m": 79.069767441860463, "low_level_<0.5": 6.9767441860465116, "mid_level_0.5-2": 25.581395348837212, "tall_2+": 41.860465116279073 }, "geometry": { "type": "Point", "coordinates": [ -0.25871499425988, 51.546630452899308 ] } },
{ "type": "Feature", "properties": { "max_height": 1.2987518310546875, "mean_height": 0.032542470842599869, "std_height": 0.19573020935058594, "count_pixels": 43, "percent_cover": 0.53482587064676623, "percent_above_0.1m": 2.3255813953488373, "low_level_<0.5": 0.0, "mid_level_0.5-2": 2.3255813953488373, "tall_2+": 0.0 }, "geometry": { "type": "Point", "coordinates": [ -0.258515259670765, 51.546627490548403 ] } },
{ "type": "Feature", "properties": { "max_height": 2.1475028991699219, "mean_height": 0.096120335161685944, "std_height": 0.41705188155174255, "count_pixels": 38, "percent_cover": 0.47263681592039797, "percent_above_0.1m": 5.2631578947368416, "low_level_<0.5": 0.0, "mid_level_0.5-2": 2.6315789473684208, "tall_2+": 2.6315789473684208 }, "geometry": { "type": "Point", "coordinates": [ -0.258315525116387, 51.546624527857247 ] } },
{ "type": "Feature", "properties": { "max_height": 0.002750396728515625, "mean_height": 0.00022116160835139453, "std_height": 0.00067991670221090317, "count_pixels": 42, "percent_cover": 0.5223880597014926, "percent_above_0.1m": 0.0, "low_level_<0.5": 0.0, "mid_level_0.5-2": 0.0, "tall_2+": 0.0 }, "geometry": { "type": "Point", "coordinates": [ -0.258115790596748, 51.546621564825877 ] } },
{ "type": "Feature", "properties": { "max_height": 1.4027519226074219, "mean_height": 0.1597980260848999, "std_height": 0.3130355179309845, "count_pixels": 43, "percent_cover": 0.53482587064676623, "percent_above_0.1m": 27.906976744186046, "low_level_<0.5": 13.953488372093023, "mid_level_0.5-2": 11.627906976744185, "tall_2+": 0.0 }, "geometry": { "type": "Point", "coordinates": [ -0.25791605611185, 51.546618601454234 ] } },
{ "type": "Feature", "properties": { "max_height": 6.0710029602050781, "mean_height": 3.1724646091461182, "std_height": 2.471764087677002, "count_pixels": 41, "percent_cover": 0.50995024875621886, "percent_above_0.1m": 90.243902439024396, "low_level_<0.5": 14.634146341463413, "mid_level_0.5-2": 19.512195121951219, "tall_2+": 56.09756097560976 }, "geometry": { "type": "Point", "coordinates": [ -0.25881074167759, 51.546739783225952 ] } },
{ "type": "Feature", "properties": { "max_height": 5.378753662109375, "mean_height": 0.30489176511764526, "std_height": 0.98130655288696289, "count_pixels": 41, "percent_cover": 0.50995024875621886, "percent_above_0.1m": 14.634146341463413, "low_level_<0.5": 2.4390243902439024, "mid_level_0.5-2": 4.8780487804878048, "tall_2+": 7.3170731707317067 }, "geometry": { "type": "Point", "coordinates": [ -0.258611006589635, 51.546736821040426 ] } },
{ "type": "Feature", "properties": { "max_height": 3.2114982604980469, "mean_height": 0.44398313760757446, "std_height": 0.80085527896881104, "count_pixels": 41, "percent_cover": 0.50995024875621886, "percent_above_0.1m": 31.707317073170731, "low_level_<0.5": 9.7560975609756095, "mid_level_0.5-2": 14.634146341463413, "tall_2+": 7.3170731707317067 }, "geometry": { "type": "Point", "coordinates": [ -0.258411271536405, 51.546733858514642 ] } },
{ "type": "Feature", "properties": { "max_height": 2.2555027008056641, "mean_height": 0.12592419981956482, "std_height": 0.42714127898216248, "count_pixels": 42, "percent_cover": 0.5223880597014926, "percent_above_0.1m": 9.5238095238095237, "low_level_<0.5": 0.0, "mid_level_0.5-2": 7.1428571428571423, "tall_2+": 2.3809523809523809 }, "geometry": { "type": "Point", "coordinates": [ -0.258211536517918, 51.546730895648636 ] } },
{ "type": "Feature", "properties": { "max_height": 0.996002197265625, "mean_height": 0.07841607928276062, "std_height": 0.20478321611881256, "count_pixels": 41, "percent_cover": 0.50995024875621886, "percent_above_0.1m": 14.634146341463413, "low_level_<0.5": 7.3170731707317067, "mid_level_0.5-2": 7.3170731707317067, "tall_2+": 0.0 }, "geometry": { "type": "Point", "coordinates": [ -0.258011801534169, 51.546727932442366 ] } },
{ "type": "Feature", "properties": { "max_height": 1.9332504272460938, "mean_height": 0.45230650901794434, "std_height": 0.58007758855819702, "count_pixels": 41, "percent_cover": 0.50995024875621886, "percent_above_0.1m": 56.09756097560976, "low_level_<0.5": 17.073170731707318, "mid_level_0.5-2": 31.707317073170731, "tall_2+": 0.0 }, "geometry": { "type": "Point", "coordinates": [ -0.257812066585166, 51.546724968895873 ] } }
]
}
