{
"type": "FeatureCollection",
"name": "cdb5ef3459b5_foliage",
"crs": { "type": "name", "properties": { "name": "urn:ogc:def:crs:OGC:1.3:CRS84" } },
"features": [
{ "type": "Feature", "properties": { "max_height": 1.6585006713867188, "mean_height": 0.2305828332901001, "std_height": 0.34769240021705627, "count_pixels": 43, "percent_cover": 0.96846846846846846, "percent_above_0.1m": 44.186046511627907, "low_level_<0.5": 23.255813953488371, "mid_level_0.5-2": 20.930232558139537, "tall_2+": 0.0 }, "geometry": { "type": "Point", "coordinates": [ -0.260054390571836, 51.539232376011348 ] } },
{ "type": "Feature", "properties": { "max_height": 0.86150360107421875, "mean_height": 0.17642070353031158, "std_height": 0.25554683804512024, "count_pixels": 43, "percent_cover": 0.96846846846846846, "percent_above_0.1m": 37.209302325581397, "low_level_<0.5": 18.604651162790699, "mid_level_0.5-2": 16.279069767441861, "tall_2+": 0.0 }, "geometry": { "type": "Point", "coordinates": [ -0.259854688743498, 51.539229415899555 ] } },
{ "type": "Feature", "properties": { "max_height": 1.2427520751953125, "mean_height": 0.13170509040355682, "std_height": 0.28744104504585266, "count_pixels": 43, "percent_cover": 0.96846846846846846, "percent_above_0.1m": 25.581395348837212, "low_level_<0.5": 16.279069767441861, "mid_level_0.5-2": 6.9767441860465116, "tall_2+": 0.0 }, "geometry": { "type": "Point", "coordinates": [ -0.259654986949594, 51.539226455447832 ] } },
{ "type": "Feature", "properties": { "max_height": 0.95724868774414062, "mean_height": 0.24553820490837097, "std_height": 0.28811877965927124, "count_pixels": 41, "percent_cover": 0.92342342342342332, "percent_above_0.1m": 48.780487804878049, "low_level_<0.5": 24.390243902439025, "mid_level_0.5-2": 19.512195121951219, "tall_2+": 0.0 }, "geometry": { "type": "Point", "coordinates": [ -0.260150126605443, 51.539341705356314 ] } },
{ "type": "Feature", "properties": { "max_height": 0.84450149536132812, "mean_height": 0.14934222400188446, "std_height": 0.24475443363189697, "count_pixels": 36, "percent_cover": 0.81081081081081086, "percent_above_0.1m": 30.555555555555557, "low_level_<0.5": 13.888888888888889, "mid_level_0.5-2": 11.111111111111111, "tall_2+": 0.0 }, "geometry": { "type": "Point", "coordinates": [ -0.259950424283301, 51.539338745405601 ] } },
{ "type": "Feature", "properties": { "max_height": 0.08499908447265625, "mean_height": 0.0025382624007761478, "std_height": 0.013381751254200935, "count_pixels": 41, "percent_cover": 0.92342342342342332, "percent_above_0.1m": 0.0, "low_level_<0.5": 0.0, "mid_level_0.5-2": 0.0, "tall_2+": 0.0 }, "geometry": { "type": "Point", "coordinates": [ -0.259750721995589, 51.539335785114979 ] } },
{ "type": "Feature", "properties": { "max_height": 1.1787490844726562, "mean_height": 0.073812626302242279, "std_height": 0.21770599484443665, "count_pixels": 41, "percent_cover": 0.92342342342342332, "percent_above_0.1m": 14.634146341463413, "low_level_<0.5": 9.7560975609756095, "mid_level_0.5-2": 4.8780487804878048, "tall_2+": 0.0 }, "geometry": { "type": "Point", "coordinates": [ -0.259551019742308, 51.539332824484404 ] } },
{ "type": "Feature", "properties": { "max_height": 0.725250244140625, "mean_height": 0.017123376950621605, "std_height": 0.10933826118707657, "count_pixels": 43, "percent_cover": 0.96846846846846846, "percent_above_0.1m": 2.3255813953488373, "low_level_<0.5": 0.0, "mid_level_0.5-2": 2.3255813953488373, "tall_2+": 0.0 }, "geometry": { "type": "Point", "coordinates": [ -0.260445565948808, 51.539453994072758 ] } },
{ "type": "Feature", "properties": { "max_height": 0.69675445556640625, "mean_height": 0.14197255671024323, "std_height": 0.19601184129714966, "count_pixels": 43, "percent_cover": 0.96846846846846846, "percent_above_0.1m": 34.883720930232556, "low_level_<0.5": 25.581395348837212, "mid_level_0.5-2": 6.9767441860465116, "tall_2+": 0.0 }, "geometry": { "type": "Point", "coordinates": [ -0.260245863098431, 51.539451034623049 ] } },
{ "type": "Feature", "properties": { "max_height": 1.415252685546875, "mean_height": 0.094705097377300262, "std_height": 0.25192904472351074, "count_pixels": 43, "percent_cover": 0.96846846846846846, "percent_above_0.1m": 20.930232558139537, "low_level_<0.5": 13.953488372093023, "mid_level_0.5-2": 6.9767441860465116, "tall_2+": 0.0 }, "geometry": { "type": "Point", "coordinates": [ -0.260046160282475, 51.539448074833444 ] } },
{ "type": "Feature", "properties": { "max_height": 0.00275421142578125, "mean_height": 4.2760093492688611e-05, "std_height": 0.00063126173336058855, "count_pixels": 43, "percent_cover": 0.96846846846846846, "percent_above_0.1m": 0.0, "low_level_<0.5": 0.0, "mid_level_0.5-2": 0.0, "tall_2+": 0.0 }, "geometry": { "type": "Point", "coordinates": [ -0.259846457500949, 51.539445114703895 ] } },
{ "type": "Feature", "properties": { "max_height": 0.00075531005859375, "mean_height": 1.5081361652846681e-06, "std_height": 0.00043854099931195378, "count_pixels": 43, "percent_cover": 0.96846846846846846, "percent_above_0.1m": 0.0, "low_level_<0.5": 0.0, "mid_level_0.5-2": 0.0, "tall_2+": 0.0 }, "geometry": { "type": "Point", "coordinates": [ -0.259646754753862, 51.539442154234422 ] } },
{ "type": "Feature", "properties": { "max_height": 0.66300201416015625, "mean_height": 0.06179337203502655, "std_height": 0.16600267589092255, "count_pixels": 42, "percent_cover": 0.94594594594594605, "percent_above_0.1m": 14.285714285714285, "low_level_<0.5": 7.1428571428571423, "mid_level_0.5-2": 7.1428571428571423, "tall_2+": 0.0 }, "geometry": { "type": "Point", "coordinates": [ -0.259447052041206, 51.539439193425011 ] } },
{ "type": "Feature", "properties": { "max_height": 1.0097541809082031, "mean_height": 0.13664804399013519, "std_height": 0.227659672498703, "count_pixels": 41, "percent_cover": 0.92342342342342332, "percent_above_0.1m": 39.024390243902438, "low_level_<0.5": 34.146341463414636, "mid_level_0.5-2": 4.8780487804878048, "tall_2+": 0.0 }, "geometry": { "type": "Point", "coordinates": [ -0.260341600050793, 51.539560363811596 ] } },
{ "type": "Feature", "properties": { "max_height": 0.24375152587890625, "mean_height": 0.064220800995826721, "std_height": 0.060388471931219101, "count_pixels": 41, "percent_cover": 0.92342342342342332, "percent_above_0.1m": 24.390243902439025, "low_level_<0.5": 7.3170731707317067, "mid_level_0.5-2": 0.0, "tall_2+": 0.0 }, "geometry": { "type": "Point", "coordinates": [ -0.260141896741025, 51.53955740418305 ] } },
{ "type": "Feature", "properties": { "max_height": 0.308502197265625, "mean_height": 0.024286694824695587, "std_height": 0.06751994788646698, "count_pixels": 36, "percent_cover": 0.81081081081081086, "percent_above_0.1m": 8.3333333333333321, "low_level_<0.5": 5.5555555555555554, "mid_level_0.5-2": 0.0, "tall_2+": 0.0 }, "geometry": { "type": "Point", "coordinates": [ -0.259942193465687, 51.539554444214595 ] } },
{ "type": "Feature", "properties": { "max_height": 0.00150299072265625, "mean_height": -8.3644212281797081e-05, "std_height": 0.00072964152786880732, "count_pixels": 41, "percent_cover": 0.92342342342342332, "percent_above_0.1m": 0.0, "low_level_<0.5": 0.0, "mid_level_0.5-2": 0.0, "tall_2+": 0.0 }, "geometry": { "type": "Point", "coordinates": [ -0.25974249022478, 51.539551483906195 ] } },
{ "type": "Feature", "properties": { "max_height": 0.0019989013671875, "mean_height": 0.00011155663378303871, "std_height": 0.00076932413503527641, "count_pixels": 41, "percent_cover": 0.92342342342342332, "percent_above_0.1m": 0.0, "low_level_<0.5": 0.0, "mid_level_0.5-2": 0.0, "tall_2+": 0.0 }, "geometry": { "type": "Point", "coordinates": [ -0.259542787018314, 51.539548523257871 ] } },
{ "type": "Feature", "properties": { "max_height": 4.0722541809082031, "mean_height": 0.36404308676719666, "std_height": 0.72150927782058716, "count_pixels": 42, "percent_cover": 0.94594594594594605, "percent_above_0.1m": 50.0, "low_level_<0.5": 23.809523809523807, "mid_level_0.5-2": 16.666666666666664, "tall_2+": 4.7619047619047619 }, "geometry": { "type": "Point", "coordinates": [ -0.25934308384628, 51.539545562269609 ] } },
{ "type": "Feature", "properties": { "max_height": 2.2132530212402344, "mean_height": 0.27930983901023865, "std_height": 0.43522560596466064, "count_pixels": 43, "percent_cover": 0.96846846846846846, "percent_above_0.1m": 46.511627906976742, "low_level_<0.5": 18.604651162790699, "mid_level_0.5-2": 20.930232558139537, "tall_2+": 2.3255813953488373 }, "geometry": { "type": "Point", "coordinates": [ -0.260237633658953, 51.539666733454446 ] } },
{ "type": "Feature", "properties": { "max_height": 0.42425155639648438, "mean_height": 0.089130133390426636, "std_height": 0.12976261973381042, "count_pixels": 43, "percent_cover": 0.96846846846846846, "percent_above_0.1m": 30.232558139534881, "low_level_<0.5": 25.581395348837212, "mid_level_0.5-2": 0.0, "tall_2+": 0.0 }, "geometry": { "type": "Point", "coordinates": [ -0.260037929889798, 51.539663773647064 ] } },
{ "type": "Feature", "properties": { "max_height": 0.01450347900390625, "mean_height": 0.00034438731381669641, "std_height": 0.0022234055213630199, "count_pixels": 43, "percent_cover": 0.96846846846846846, "percent_above_0.1m": 0.0, "low_level_<0.5": 0.0, "mid_level_0.5-2": 0.0, "tall_2+": 0.0 }, "geometry": { "type": "Point", "coordinates": [ -0.259838226155078, 51.539660813499751 ] } },
{ "type": "Feature", "properties": { "max_height": 0.022251129150390625, "mean_height": 0.00088545330800116062, "std_height": 0.0035903130192309618, "count_pixels": 43, "percent_cover": 0.96846846846846846, "percent_above_0.1m": 0.0, "low_level_<0.5": 0.0, "mid_level_0.5-2": 0.0, "tall_2+": 0.0 }, "geometry": { "type": "Point", "coordinates": [ -0.25963852245479, 51.539657853012507 ] } },
{ "type": "Feature", "properties": { "max_height": 4.0532493591308594, "mean_height": 0.14441844820976257, "std_height": 0.63900542259216309, "count_pixels": 42, "percent_cover": 0.94594594594594605, "percent_above_0.1m": 11.904761904761903, "low_level_<0.5": 2.3809523809523809, "mid_level_0.5-2": 4.7619047619047619, "tall_2+": 2.3809523809523809 }, "geometry": { "type": "Point", "coordinates": [ -0.259438818788938, 51.539654892185332 ] } },
{ "type": "Feature", "properties": { "max_height": 0.001251220703125, "mean_height": 0.00013404422497842461, "std_height": 0.00053521222434937954, "count_pixels": 36, "percent_cover": 0.81081081081081086, "percent_above_0.1m": 0.0, "low_level_<0.5": 0.0, "mid_level_0.5-2": 0.0, "tall_2+": 0.0 }, "geometry": { "type": "Point", "coordinates": [ -0.259933962544755, 51.53977014301509 ] } },
{ "type": "Feature", "properties": { "max_height": 0.010501861572265625, "mean_height": 0.00080638978397473693, "std_height": 0.0026485107373446226, "count_pixels": 41, "percent_cover": 0.92342342342342332, "percent_above_0.1m": 0.0, "low_level_<0.5": 0.0, "mid_level_0.5-2": 0.0, "tall_2+": 0.0 }, "geometry": { "type": "Point", "coordinates": [ -0.259734258350642, 51.539767182688941 ] } },
{ "type": "Feature", "properties": { "max_height": 0.36899948120117188, "mean_height": 0.025196727365255356, "std_height": 0.072242684662342072, "count_pixels": 41, "percent_cover": 0.92342342342342332, "percent_above_0.1m": 9.7560975609756095, "low_level_<0.5": 4.8780487804878048, "mid_level_0.5-2": 0.0, "tall_2+": 0.0 }, "geometry": { "type": "Point", "coordinates": [ -0.25953455419097, 51.539764222022853 ] } },
{ "type": "Feature", "properties": { "max_height": 2.7230033874511719, "mean_height": 0.19585908949375153, "std_height": 0.49321025609970093, "count_pixels": 42, "percent_cover": 0.94594594594594605, "percent_above_0.1m": 21.428571428571427, "low_level_<0.5": 7.1428571428571423, "mid_level_0.5-2": 11.904761904761903, "tall_2+": 2.3809523809523809 }, "geometry": { "type": "Point", "coordinates": [ -0.259334850065741, 51.539761261016814 ] } },
{ "type": "Feature", "properties": { "max_height": 1.2945022583007812, "mean_height": 0.14358866214752197, "std_height": 0.32538053393363953, "count_pixels": 43, "percent_cover": 0.96846846846846846, "percent_above_0.1m": 20.930232558139537, "low_level_<0.5": 6.9767441860465116, "mid_level_0.5-2": 11.627906976744185, "tall_2+": 0.0 }, "geometry": { "type": "Point", "coordinates": [ -0.260029699393809, 51.539879472452213 ] } },
{ "type": "Feature", "properties": { "max_height": 0.037754058837890625, "mean_height": 0.0012172432616353035, "std_height": 0.0066259135492146015, "count_pixels": 43, "percent_cover": 0.96846846846846846, "percent_above_0.1m": 0.0, "low_level_<0.5": 0.0, "mid_level_0.5-2": 0.0, "tall_2+": 0.0 }, "geometry": { "type": "Point", "coordinates": [ -0.259829994705881, 51.539876512287144 ] } },
{ "type": "Feature", "properties": { "max_height": 0.23175048828125, "mean_height": 0.011403283104300499, "std_height": 0.038778617978096008, "count_pixels": 43, "percent_cover": 0.96846846846846846, "percent_above_0.1m": 2.3255813953488373, "low_level_<0.5": 2.3255813953488373, "mid_level_0.5-2": 0.0, "tall_2+": 0.0 }, "geometry": { "type": "Point", "coordinates": [ -0.25963029005238, 51.539873551782144 ] } },
{ "type": "Feature", "properties": { "max_height": 0.24725341796875, "mean_height": 0.012912750244140625, "std_height": 0.04286530613899231, "count_pixels": 42, "percent_cover": 0.94594594594594605, "percent_above_0.1m": 4.7619047619047619, "low_level_<0.5": 2.3809523809523809, "mid_level_0.5-2": 0.0, "tall_2+": 0.0 }, "geometry": { "type": "Point", "coordinates": [ -0.25943058543332, 51.539870590937198 ] } },
{ "type": "Feature", "properties": { "max_height": 3.7220077514648438, "mean_height": 0.49391254782676697, "std_height": 0.84523981809616089, "count_pixels": 42, "percent_cover": 0.94594594594594605, "percent_above_0.1m": 40.476190476190474, "low_level_<0.5": 11.904761904761903, "mid_level_0.5-2": 19.047619047619047, "tall_2+": 9.5238095238095237 }, "geometry": { "type": "Point", "coordinates": [ -0.259230880848705, 51.539867629752322 ] } },
{ "type": "Feature", "properties": { "max_height": 2.5450019836425781, "mean_height": 0.36742517352104187, "std_height": 0.66600716114044189, "count_pixels": 36, "percent_cover": 0.81081081081081086, "percent_above_0.1m": 33.333333333333329, "low_level_<0.5": 2.7777777777777777, "mid_level_0.5-2": 19.444444444444446, "tall_2+": 5.5555555555555554 }, "geometry": { "type": "Point", "coordinates": [ -0.259925731520499, 51.539985841807123 ] } },
{ "type": "Feature", "properties": { "max_height": 0.081249237060546875, "mean_height": 0.0087946448475122452, "std_height": 0.02310187928378582, "count_pixels": 41, "percent_cover": 0.92342342342342332, "percent_above_0.1m": 0.0, "low_level_<0.5": 0.0, "mid_level_0.5-2": 0.0, "tall_2+": 0.0 }, "geometry": { "type": "Point", "coordinates": [ -0.259726026373171, 51.539982881463203 ] } },
{ "type": "Feature", "properties": { "max_height": 0.10900115966796875, "mean_height": 0.012294118292629719, "std_height": 0.02747342549264431, "count_pixels": 41, "percent_cover": 0.92342342342342332, "percent_above_0.1m": 2.4390243902439024, "low_level_<0.5": 0.0, "mid_level_0.5-2": 0.0, "tall_2+": 0.0 }, "geometry": { "type": "Point", "coordinates": [ -0.259526321260285, 51.539979920779338 ] } },
{ "type": "Feature", "properties": { "max_height": 0.44675064086914062, "mean_height": 0.025406429544091225, "std_height": 0.075453035533428192, "count_pixels": 42, "percent_cover": 0.94594594594594605, "percent_above_0.1m": 7.1428571428571423, "low_level_<0.5": 4.7619047619047619, "mid_level_0.5-2": 0.0, "tall_2+": 0.0 }, "geometry": { "type": "Point", "coordinates": [ -0.259326616181838, 51.539976959755556 ] } },
{ "type": "Feature", "properties": { "max_height": 5.5945053100585938, "mean_height": 0.51817017793655396, "std_height": 1.1654642820358276, "count_pixels": 43, "percent_cover": 0.96846846846846846, "percent_above_0.1m": 32.558139534883722, "low_level_<0.5": 6.9767441860465116, "mid_level_0.5-2": 16.279069767441861, "tall_2+": 6.9767441860465116 }, "geometry": { "type": "Point", "coordinates": [ -0.260021468794506, 51.540095171248886 ] } },
{ "type": "Feature", "properties": { "max_height": 5.3070068359375, "mean_height": 0.17970515787601471, "std_height": 0.81007623672485352, "count_pixels": 43, "percent_cover": 0.96846846846846846, "percent_above_0.1m": 13.953488372093023, "low_level_<0.5": 2.3255813953488373, "mid_level_0.5-2": 6.9767441860465116, "tall_2+": 2.3255813953488373 }, "geometry": { "type": "Point", "coordinates": [ -0.259821763153348, 51.540092211066053 ] } },
{ "type": "Feature", "properties": { "max_height": 5.1197509765625, "mean_height": 0.65282100439071655, "std_height": 1.2594642639160156, "count_pixels": 43, "percent_cover": 0.96846846846846846, "percent_above_0.1m": 37.209302325581397, "low_level_<0.5": 4.6511627906976747, "mid_level_0.5-2": 16.279069767441861, "tall_2+": 13.953488372093023 }, "geometry": { "type": "Point", "coordinates": [ -0.259622057546633, 51.540089250543289 ] } },
{ "type": "Feature", "properties": { "max_height": 13.514503479003906, "mean_height": 3.2757222652435303, "std_height": 4.1790122985839844, "count_pixels": 42, "percent_cover": 0.94594594594594605, "percent_above_0.1m": 69.047619047619051, "low_level_<0.5": 9.5238095238095237, "mid_level_0.5-2": 9.5238095238095237, "tall_2+": 50.0 }, "geometry": { "type": "Point", "coordinates": [ -0.259422351974351, 51.540086289680573 ] } },
{ "type": "Feature", "properties": { "max_height": 13.073005676269531, "mean_height": 2.8421263694763184, "std_height": 4.5225801467895508, "count_pixels": 42, "percent_cover": 0.94594594594594605, "percent_above_0.1m": 59.523809523809526, "low_level_<0.5": 14.285714285714285, "mid_level_0.5-2": 11.904761904761903, "tall_2+": 30.952380952380953 }, "geometry": { "type": "Point", "coordinates": [ -0.259222646436516, 51.540083328477927 ] } },
{ "type": "Feature", "properties": { "max_height": 0.92475509643554688, "mean_height": 0.15607176721096039, "std_height": 0.27138522267341614, "count_pixels": 36, "percent_cover": 0.81081081081081086, "percent_above_0.1m": 36.111111111111107, "low_level_<0.5": 16.666666666666664, "mid_level_0.5-2": 11.111111111111111, "tall_2+": 0.0 }, "geometry": { "type": "Point", "coordinates": [ -0.259917500392923, 51.540201540590687 ] } }
]
}
