{
"type": "FeatureCollection",
"name": "f60bb33d8642_visibility",
"crs": { "type": "name", "properties": { "name": "urn:ogc:def:crs:OGC:1.3:CRS84" } },
"features": [
{ "type": "Feature", "properties": { "visible_points": 0, "total_points": 65, "visibility_pct": 0.0 }, "geometry": { "type": "Point", "coordinates": [ -0.380900121859697, 51.551680252552231 ] } },
{ "type": "Feature", "properties": { "visible_points": 0, "total_points": 58, "visibility_pct": 0.0 }, "geometry": { "type": "Point", "coordinates": [ -0.380700352358775, 51.551677495558174 ] } },
{ "type": "Feature", "properties": { "visible_points": 3, "total_points": 51, "visibility_pct": 5.8823529411764701 }, "geometry": { "type": "Point", "coordinates": [ -0.380500582888417, 51.551674738224428 ] } },
{ "type": "Feature", "properties": { "visible_points": 0, "total_points": 43, "visibility_pct": 0.0 }, "geometry": { "type": "Point", "coordinates": [ -0.380300813448624, 51.551671980550971 ] } },
{ "type": "Feature", "properties": { "visible_points": 0, "total_points": 77, "visibility_pct": 0.0 }, "geometry": { "type": "Point", "coordinates": [ -0.38179525752746, 51.55180051041161 ] } },
{ "type": "Feature", "properties": { "visible_points": 0, "total_points": 81, "visibility_pct": 0.0 }, "geometry": { "type": "Point", "coordinates": [ -0.381595487441262, 51.551797754930014 ] } },
{ "type": "Feature", "properties": { "visible_points": 8, "total_points": 82, "visibility_pct": 9.7560975609756095 }, "geometry": { "type": "Point", "coordinates": [ -0.381395717385618, 51.551794999108701 ] } },
{ "type": "Feature", "properties": { "visible_points": 7, "total_points": 79, "visibility_pct": 8.8607594936708853 }, "geometry": { "type": "Point", "coordinates": [ -0.381195947360517, 51.551792242947684 ] } },
{ "type": "Feature", "properties": { "visible_points": 17, "total_points": 75, "visibility_pct": 22.666666666666664 }, "geometry": { "type": "Point", "coordinates": [ -0.380996177365979, 51.551789486446957 ] } },
{ "type": "Feature", "properties": { "visible_points": 12, "total_points": 67, "visibility_pct": 17.910447761194028 }, "geometry": { "type": "Point", "coordinates": [ -0.380796407401997, 51.551786729606526 ] } },
{ "type": "Feature", "properties": { "visible_points": 7, "total_points": 59, "visibility_pct": 11.864406779661017 }, "geometry": { "type": "Point", "coordinates": [ -0.380596637468574, 51.551783972426385 ] } },
{ "type": "Feature", "properties": { "visible_points": 0, "total_points": 50, "visibility_pct": 0.0 }, "geometry": { "type": "Point", "coordinates": [ -0.380396867565722, 51.551781214906512 ] } },
{ "type": "Feature", "properties": { "visible_points": 3, "total_points": 77, "visibility_pct": 3.8961038961038961 }, "geometry": { "type": "Point", "coordinates": [ -0.382290856508602, 51.551915253257604 ] } },
{ "type": "Feature", "properties": { "visible_points": 8, "total_points": 82, "visibility_pct": 9.7560975609756095 }, "geometry": { "type": "Point", "coordinates": [ -0.382091085898267, 51.551912498609042 ] } },
{ "type": "Feature", "properties": { "visible_points": 0, "total_points": 86, "visibility_pct": 0.0 }, "geometry": { "type": "Point", "coordinates": [ -0.381891315318472, 51.551909743620783 ] } },
{ "type": "Feature", "properties": { "visible_points": 17, "total_points": 88, "visibility_pct": 19.318181818181817 }, "geometry": { "type": "Point", "coordinates": [ -0.38169154476922, 51.551906988292806 ] } },
{ "type": "Feature", "properties": { "visible_points": 19, "total_points": 88, "visibility_pct": 21.59090909090909 }, "geometry": { "type": "Point", "coordinates": [ -0.381491774250513, 51.551904232625112 ] } },
{ "type": "Feature", "properties": { "visible_points": 20, "total_points": 85, "visibility_pct": 23.52941176470588 }, "geometry": { "type": "Point", "coordinates": [ -0.381292003762358, 51.551901476617715 ] } },
{ "type": "Feature", "properties": { "visible_points": 19, "total_points": 81, "visibility_pct": 23.456790123456788 }, "geometry": { "type": "Point", "coordinates": [ -0.381092233304753, 51.551898720270614 ] } },
{ "type": "Feature", "properties": { "visible_points": 2, "total_points": 74, "visibility_pct": 2.7027027027027026 }, "geometry": { "type": "Point", "coordinates": [ -0.380892462877708, 51.551895963583782 ] } },
{ "type": "Feature", "properties": { "visible_points": 7, "total_points": 66, "visibility_pct": 10.606060606060606 }, "geometry": { "type": "Point", "coordinates": [ -0.380692692481223, 51.551893206557239 ] } },
{ "type": "Feature", "properties": { "visible_points": 1, "total_points": 67, "visibility_pct": 1.4925373134328357 }, "geometry": { "type": "Point", "coordinates": [ -0.382586686762157, 51.552027240243667 ] } },
{ "type": "Feature", "properties": { "visible_points": 4, "total_points": 78, "visibility_pct": 5.1282051282051277 }, "geometry": { "type": "Point", "coordinates": [ -0.382386915658231, 51.552024486088435 ] } },
{ "type": "Feature", "properties": { "visible_points": 16, "total_points": 89, "visibility_pct": 17.977528089887642 }, "geometry": { "type": "Point", "coordinates": [ -0.382187144584845, 51.552021731593513 ] } },
{ "type": "Feature", "properties": { "visible_points": 21, "total_points": 93, "visibility_pct": 22.58064516129032 }, "geometry": { "type": "Point", "coordinates": [ -0.381987373541991, 51.552018976758873 ] } },
{ "type": "Feature", "properties": { "visible_points": 21, "total_points": 95, "visibility_pct": 22.105263157894736 }, "geometry": { "type": "Point", "coordinates": [ -0.381787602529681, 51.552016221584516 ] } },
{ "type": "Feature", "properties": { "visible_points": 23, "total_points": 93, "visibility_pct": 24.731182795698924 }, "geometry": { "type": "Point", "coordinates": [ -0.381587831547917, 51.552013466070441 ] } },
{ "type": "Feature", "properties": { "visible_points": 24, "total_points": 90, "visibility_pct": 26.666666666666668 }, "geometry": { "type": "Point", "coordinates": [ -0.381388060596693, 51.552010710216642 ] } },
{ "type": "Feature", "properties": { "visible_points": 18, "total_points": 85, "visibility_pct": 21.176470588235293 }, "geometry": { "type": "Point", "coordinates": [ -0.381188289676027, 51.552007954023146 ] } },
{ "type": "Feature", "properties": { "visible_points": 17, "total_points": 79, "visibility_pct": 21.518987341772153 }, "geometry": { "type": "Point", "coordinates": [ -0.380988518785916, 51.552005197489947 ] } },
{ "type": "Feature", "properties": { "visible_points": 3, "total_points": 72, "visibility_pct": 4.1666666666666661 }, "geometry": { "type": "Point", "coordinates": [ -0.380788747926359, 51.552002440617017 ] } },
{ "type": "Feature", "properties": { "visible_points": 0, "total_points": 44, "visibility_pct": 0.0 }, "geometry": { "type": "Point", "coordinates": [ -0.383082290032896, 51.552141979833827 ] } },
{ "type": "Feature", "properties": { "visible_points": 1, "total_points": 54, "visibility_pct": 1.8518518518518516 }, "geometry": { "type": "Point", "coordinates": [ -0.382882518404867, 51.552139226511649 ] } },
{ "type": "Feature", "properties": { "visible_points": 2, "total_points": 65, "visibility_pct": 3.0769230769230771 }, "geometry": { "type": "Point", "coordinates": [ -0.38268274680736, 51.552136472849782 ] } },
{ "type": "Feature", "properties": { "visible_points": 18, "total_points": 76, "visibility_pct": 23.684210526315788 }, "geometry": { "type": "Point", "coordinates": [ -0.382482975240381, 51.552133718848175 ] } },
{ "type": "Feature", "properties": { "visible_points": 24, "total_points": 88, "visibility_pct": 27.27272727272727 }, "geometry": { "type": "Point", "coordinates": [ -0.382283203703933, 51.552130964506887 ] } },
{ "type": "Feature", "properties": { "visible_points": 25, "total_points": 97, "visibility_pct": 25.773195876288657 }, "geometry": { "type": "Point", "coordinates": [ -0.382083432198022, 51.552128209825845 ] } },
{ "type": "Feature", "properties": { "visible_points": 26, "total_points": 101, "visibility_pct": 25.742574257425744 }, "geometry": { "type": "Point", "coordinates": [ -0.381883660722648, 51.552125454805115 ] } },
{ "type": "Feature", "properties": { "visible_points": 25, "total_points": 98, "visibility_pct": 25.510204081632654 }, "geometry": { "type": "Point", "coordinates": [ -0.381683889277819, 51.552122699444652 ] } },
{ "type": "Feature", "properties": { "visible_points": 27, "total_points": 94, "visibility_pct": 28.723404255319153 }, "geometry": { "type": "Point", "coordinates": [ -0.381484117863534, 51.552119943744486 ] } },
{ "type": "Feature", "properties": { "visible_points": 23, "total_points": 88, "visibility_pct": 26.136363636363637 }, "geometry": { "type": "Point", "coordinates": [ -0.381284346479801, 51.552117187704603 ] } },
{ "type": "Feature", "properties": { "visible_points": 20, "total_points": 81, "visibility_pct": 24.691358024691358 }, "geometry": { "type": "Point", "coordinates": [ -0.381084575126623, 51.552114431325016 ] } },
{ "type": "Feature", "properties": { "visible_points": 3, "total_points": 75, "visibility_pct": 4.0 }, "geometry": { "type": "Point", "coordinates": [ -0.380884803803997, 51.552111674605705 ] } },
{ "type": "Feature", "properties": { "visible_points": 4, "total_points": 50, "visibility_pct": 8.0 }, "geometry": { "type": "Point", "coordinates": [ -0.382978579345649, 51.55224845889304 ] } },
{ "type": "Feature", "properties": { "visible_points": 4, "total_points": 61, "visibility_pct": 6.557377049180328 }, "geometry": { "type": "Point", "coordinates": [ -0.382778807285084, 51.552245705384777 ] } },
{ "type": "Feature", "properties": { "visible_points": 15, "total_points": 72, "visibility_pct": 20.833333333333336 }, "geometry": { "type": "Point", "coordinates": [ -0.382579035255045, 51.552242951536819 ] } },
{ "type": "Feature", "properties": { "visible_points": 20, "total_points": 83, "visibility_pct": 24.096385542168676 }, "geometry": { "type": "Point", "coordinates": [ -0.38237926325554, 51.552240197349128 ] } },
{ "type": "Feature", "properties": { "visible_points": 24, "total_points": 91, "visibility_pct": 26.373626373626376 }, "geometry": { "type": "Point", "coordinates": [ -0.382179491286563, 51.552237442821728 ] } },
{ "type": "Feature", "properties": { "visible_points": 26, "total_points": 97, "visibility_pct": 26.804123711340207 }, "geometry": { "type": "Point", "coordinates": [ -0.38197971934813, 51.552234687954602 ] } },
{ "type": "Feature", "properties": { "visible_points": 27, "total_points": 98, "visibility_pct": 27.551020408163261 }, "geometry": { "type": "Point", "coordinates": [ -0.381779947440231, 51.552231932747766 ] } },
{ "type": "Feature", "properties": { "visible_points": 27, "total_points": 95, "visibility_pct": 28.421052631578945 }, "geometry": { "type": "Point", "coordinates": [ -0.381580175562884, 51.552229177201241 ] } },
{ "type": "Feature", "properties": { "visible_points": 23, "total_points": 90, "visibility_pct": 25.555555555555554 }, "geometry": { "type": "Point", "coordinates": [ -0.38138040371608, 51.55222642131497 ] } },
{ "type": "Feature", "properties": { "visible_points": 18, "total_points": 83, "visibility_pct": 21.686746987951807 }, "geometry": { "type": "Point", "coordinates": [ -0.38118063189983, 51.552223665088988 ] } },
{ "type": "Feature", "properties": { "visible_points": 0, "total_points": 65, "visibility_pct": 0.0 }, "geometry": { "type": "Point", "coordinates": [ -0.382675095702232, 51.552352184154351 ] } },
{ "type": "Feature", "properties": { "visible_points": 0, "total_points": 76, "visibility_pct": 0.0 }, "geometry": { "type": "Point", "coordinates": [ -0.382475323239663, 51.552349430120287 ] } },
{ "type": "Feature", "properties": { "visible_points": 18, "total_points": 84, "visibility_pct": 21.428571428571427 }, "geometry": { "type": "Point", "coordinates": [ -0.382275550807623, 51.552346675746506 ] } },
{ "type": "Feature", "properties": { "visible_points": 19, "total_points": 90, "visibility_pct": 21.111111111111111 }, "geometry": { "type": "Point", "coordinates": [ -0.38207577840612, 51.552343921033007 ] } },
{ "type": "Feature", "properties": { "visible_points": 20, "total_points": 92, "visibility_pct": 21.739130434782609 }, "geometry": { "type": "Point", "coordinates": [ -0.381876006035162, 51.552341165979797 ] } },
{ "type": "Feature", "properties": { "visible_points": 7, "total_points": 90, "visibility_pct": 7.7777777777777777 }, "geometry": { "type": "Point", "coordinates": [ -0.381676233694741, 51.552338410586863 ] } },
{ "type": "Feature", "properties": { "visible_points": 0, "total_points": 85, "visibility_pct": 0.0 }, "geometry": { "type": "Point", "coordinates": [ -0.381476461384868, 51.552335654854218 ] } },
{ "type": "Feature", "properties": { "visible_points": 11, "total_points": 78, "visibility_pct": 14.102564102564102 }, "geometry": { "type": "Point", "coordinates": [ -0.381276689105544, 51.552332898781856 ] } },
{ "type": "Feature", "properties": { "visible_points": 0, "total_points": 68, "visibility_pct": 0.0 }, "geometry": { "type": "Point", "coordinates": [ -0.382571383656309, 51.552458662820328 ] } },
{ "type": "Feature", "properties": { "visible_points": 0, "total_points": 75, "visibility_pct": 0.0 }, "geometry": { "type": "Point", "coordinates": [ -0.382371610761203, 51.552455908600194 ] } },
{ "type": "Feature", "properties": { "visible_points": 12, "total_points": 80, "visibility_pct": 15.0 }, "geometry": { "type": "Point", "coordinates": [ -0.382171837896636, 51.552453154040307 ] } },
{ "type": "Feature", "properties": { "visible_points": 11, "total_points": 82, "visibility_pct": 13.414634146341465 }, "geometry": { "type": "Point", "coordinates": [ -0.381972065062605, 51.552450399140731 ] } },
{ "type": "Feature", "properties": { "visible_points": 0, "total_points": 80, "visibility_pct": 0.0 }, "geometry": { "type": "Point", "coordinates": [ -0.381772292259111, 51.552447643901417 ] } },
{ "type": "Feature", "properties": { "visible_points": 0, "total_points": 68, "visibility_pct": 0.0 }, "geometry": { "type": "Point", "coordinates": [ -0.382267897819669, 51.552562386976518 ] } },
{ "type": "Feature", "properties": { "visible_points": 0, "total_points": 70, "visibility_pct": 0.0 }, "geometry": { "type": "Point", "coordinates": [ -0.382068124522564, 51.552559632230555 ] } },
{ "type": "Feature", "properties": { "visible_points": 2, "total_points": 70, "visibility_pct": 2.8571428571428572 }, "geometry": { "type": "Point", "coordinates": [ -0.381868351256003, 51.552556877144866 ] } },
{ "type": "Feature", "properties": { "visible_points": 0, "total_points": 58, "visibility_pct": 0.0 }, "geometry": { "type": "Point", "coordinates": [ -0.382164184415052, 51.552668865249274 ] } },
{ "type": "Feature", "properties": { "visible_points": 0, "total_points": 59, "visibility_pct": 0.0 }, "geometry": { "type": "Point", "coordinates": [ -0.381964410685415, 51.552666110317212 ] } }
]
}
