{
"type": "FeatureCollection",
"name": "TOWHA_101_toilets",
"crs": { "type": "name", "properties": { "name": "urn:ogc:def:crs:OGC:1.3:CRS84" } },
"features": [
{ "type": "Feature", "properties": { "name": "The Old Fire Station Restaurant ", "payment_info": "Free", "accessible": "True", "radar": "False", "women": "True", "men": "True", "baby_change": "True", "Mon": "11:00-22:30", "Tue": "11:00-22:30", "Wed": "11:00-22:30", "Thu": "11:00-22:30", "Fri": "11:00-22:30", "Sat": "10:00-22:30", "Sun": "10:00-22:30", "index_right": 4, "park_offical_id": "TOWHA_101" }, "geometry": { "type": "Point", "coordinates": [ -0.025985241, 51.499212365 ] } },
{ "type": "Feature", "properties": { "name": "ASDA Isle of Dogs", "payment_info": "Free", "accessible": "True", "radar": "False", "women": "True", "men": "True", "baby_change": "True", "Mon": "06:00-00:00", "Tue": "06:00-00:00", "Wed": "06:00-00:00", "Thu": "06:00-00:00", "Fri": "06:00-00:00", "Sat": "06:00-22:00", "Sun": "11:00-17:00", "index_right": 4, "park_offical_id": "TOWHA_101" }, "geometry": { "type": "Point", "coordinates": [ -0.0125037, 51.4942394 ] } },
{ "type": "Feature", "properties": { "name": "Cubitt Town Library", "payment_info": "Free", "accessible": "True", "radar": "False", "women": "True", "men": "True", "baby_change": "True", "Mon": "10:00-18:00", "Tue": "10:00-18:00", "Wed": "10:00-18:00", "Thu": "10:00-18:00", "Fri": "Closed", "Sat": "09:00-17:00", "Sun": "Closed", "index_right": 4, "park_offical_id": "TOWHA_101" }, "geometry": { "type": "Point", "coordinates": [ -0.011699796, 51.495946425 ] } },
{ "type": "Feature", "properties": { "name": "Jubilee Place  Mall Level 2 by Weather and Palette  Rituals", "payment_info": "Free", "accessible": "True", "radar": "False", "women": "True", "men": "True", "baby_change": "True", "Mon": "10:00-20:00", "Tue": "10:00-20:00", "Wed": "10:00-20:00", "Thu": "10:00-20:00", "Fri": "10:00-20:00", "Sat": "10:00-19:00", "Sun": "12:00-18:00", "index_right": 4, "park_offical_id": "TOWHA_101" }, "geometry": { "type": "Point", "coordinates": [ -0.018367767, 51.503126231 ] } },
{ "type": "Feature", "properties": { "name": "Jubilee Place  Mall Level 1 by Wagamama  Nandos", "payment_info": "Free", "accessible": "True", "radar": "False", "women": "True", "men": "True", "baby_change": "True", "Mon": "10:00-20:00", "Tue": "10:00-20:00", "Wed": "10:00-20:00", "Thu": "10:00-20:00", "Fri": "10:00-20:00", "Sat": "10:00-19:00", "Sun": "12:00-18:00", "index_right": 4, "park_offical_id": "TOWHA_101" }, "geometry": { "type": "Point", "coordinates": [ -0.018579662, 51.502901157 ] } }
]
}
