{
"type": "FeatureCollection",
"name": "TOWHA_290_toilets",
"crs": { "type": "name", "properties": { "name": "urn:ogc:def:crs:OGC:1.3:CRS84" } },
"features": [
{ "type": "Feature", "properties": { "name": "Tower Hill  50p CashContactless", "payment_info": "050", "accessible": "True", "radar": "True", "women": "True", "men": "True", "baby_change": "False", "Mon": "09:00-19:00", "Tue": "09:00-19:00", "Wed": "09:00-19:00", "Thu": "09:00-19:00", "Fri": "09:00-19:00", "Sat": "09:00-17:00", "Sun": "09:00-17:00", "index_right": 110, "park_offical_id": "TOWHA_290" }, "geometry": { "type": "Point", "coordinates": [ -0.078836959, 51.508725874 ] } },
{ "type": "Feature", "properties": { "name": "St Katherines Dock SKD Public Toilet", "payment_info": "Free", "accessible": "True", "radar": "False", "women": "True", "men": "True", "baby_change": "True", "Mon": "00:00-23:00", "Tue": "07:00-23:00", "Wed": "07:00-23:00", "Thu": "07:00-23:00", "Fri": "07:00-23:00", "Sat": "07:00-23:00", "Sun": "00:00-23:00", "index_right": 110, "park_offical_id": "TOWHA_290" }, "geometry": { "type": "Point", "coordinates": [ -0.072658335, 51.506645652 ] } },
{ "type": "Feature", "properties": { "name": "Jack the Chipper", "payment_info": "Free", "accessible": "False", "radar": "False", "women": "True", "men": "True", "baby_change": "False", "Mon": "07:00-11:30", "Tue": "07:00-11:30", "Wed": "07:00-11:30", "Thu": "07:00-11:30", "Fri": "07:00-11:30", "Sat": "07:00-11:30", "Sun": "07:00-10:30", "index_right": 110, "park_offical_id": "TOWHA_290" }, "geometry": { "type": "Point", "coordinates": [ -0.071188509, 51.515637356 ] } },
{ "type": "Feature", "properties": { "name": "Minories Car Park", "payment_info": "Free", "accessible": "False", "radar": "False", "women": "True", "men": "True", "baby_change": "False", "Mon": "00:00-00:00", "Tue": "00:00-00:00", "Wed": "00:00-00:00", "Thu": "00:00-00:00", "Fri": "00:00-00:00", "Sat": "00:00-00:00", "Sun": "00:00-00:00", "index_right": 110, "park_offical_id": "TOWHA_290" }, "geometry": { "type": "Point", "coordinates": [ -0.073672235, 51.51026659 ] } },
{ "type": "Feature", "properties": { "name": "Tillman street E1", "payment_info": "Cost unknown", "accessible": "True", "radar": "False", "women": "True", "men": "True", "baby_change": "False", "Mon": "00:00-00:00", "Tue": "00:00-00:00", "Wed": "00:00-00:00", "Thu": "00:00-00:00", "Fri": "00:00-00:00", "Sat": "00:00-00:00", "Sun": "00:00-00:00", "index_right": 110, "park_offical_id": "TOWHA_290" }, "geometry": { "type": "Point", "coordinates": [ -0.058659911, 51.512363231 ] } },
{ "type": "Feature", "properties": { "name": "Whitechapel Gallery", "payment_info": "Free", "accessible": "True", "radar": "Unknown", "women": "True", "men": "True", "baby_change": "True", "Mon": "Closed", "Tue": "11:00-18:00", "Wed": "11:00-18:00", "Thu": "11:00-21:00", "Fri": "11:00-18:00", "Sat": "11:00-18:00", "Sun": "11:00-18:00", "index_right": 110, "park_offical_id": "TOWHA_290" }, "geometry": { "type": "Point", "coordinates": [ -0.070212185, 51.516022008 ] } },
{ "type": "Feature", "properties": { "name": "The Liberty Bounds", "payment_info": "Free", "accessible": "True", "radar": "False", "women": "True", "men": "True", "baby_change": "True", "Mon": "09:00-17:00", "Tue": "09:00-17:00", "Wed": "09:00-17:00", "Thu": "09:00-17:00", "Fri": "09:00-17:00", "Sat": "Closed", "Sun": "Closed", "index_right": 110, "park_offical_id": "TOWHA_290" }, "geometry": { "type": "Point", "coordinates": [ -0.078490445, 51.509721814 ] } },
{ "type": "Feature", "properties": { "name": "Vapor Bubble", "payment_info": "Free", "accessible": "Unknown", "radar": "Unknown", "women": "Unknown", "men": "Unknown", "baby_change": "Unknown", "Mon": "10:00-21:00", "Tue": "10:00-21:00", "Wed": "10:00-21:00", "Thu": "10:00-21:00", "Fri": "10:00-21:00", "Sat": "11:00-22:00", "Sun": "14:00-21:00", "index_right": 110, "park_offical_id": "TOWHA_290" }, "geometry": { "type": "Point", "coordinates": [ -0.065247979, 51.514708047 ] } },
{ "type": "Feature", "properties": { "name": "The Still  Star", "payment_info": "Free", "accessible": "False", "radar": "False", "women": "True", "men": "True", "baby_change": "False", "Mon": "09:00-17:00", "Tue": "09:00-17:00", "Wed": "09:00-17:00", "Thu": "09:00-17:00", "Fri": "09:00-17:00", "Sat": "Closed", "Sun": "Closed", "index_right": 110, "park_offical_id": "TOWHA_290" }, "geometry": { "type": "Point", "coordinates": [ -0.074369609, 51.51391061 ] } },
{ "type": "Feature", "properties": { "name": "JD Wetherspoons  Goodmans Fields", "payment_info": "Free", "accessible": "False", "radar": "False", "women": "True", "men": "True", "baby_change": "False", "Mon": "08:00-23:00", "Tue": "08:00-23:00", "Wed": "08:00-23:00", "Thu": "08:00-23:00", "Fri": "08:00-23:00", "Sat": "08:00-23:00", "Sun": "08:00-23:00", "index_right": 110, "park_offical_id": "TOWHA_290" }, "geometry": { "type": "Point", "coordinates": [ -0.072717369, 51.511497664 ] } },
{ "type": "Feature", "properties": { "name": "The Duke of Somerset", "payment_info": "Free", "accessible": "True", "radar": "False", "women": "True", "men": "True", "baby_change": "False", "Mon": "09:00-17:00", "Tue": "09:00-17:00", "Wed": "09:00-17:00", "Thu": "09:00-17:00", "Fri": "09:00-17:00", "Sat": "Closed", "Sun": "Closed", "index_right": 110, "park_offical_id": "TOWHA_290" }, "geometry": { "type": "Point", "coordinates": [ -0.073805133, 51.513624998 ] } },
{ "type": "Feature", "properties": { "name": "Querky Cafe", "payment_info": "Free", "accessible": "False", "radar": "False", "women": "True", "men": "True", "baby_change": "False", "Mon": "08:00-19:00", "Tue": "08:00-19:00", "Wed": "08:00-19:00", "Thu": "08:00-19:00", "Fri": "08:00-19:00", "Sat": "10:00-19:00", "Sun": "10:00-16:00", "index_right": 110, "park_offical_id": "TOWHA_290" }, "geometry": { "type": "Point", "coordinates": [ -0.056768954, 51.51119505 ] } },
{ "type": "Feature", "properties": { "name": "Moretown Belle", "payment_info": "Free", "accessible": "False", "radar": "False", "women": "True", "men": "True", "baby_change": "True", "Mon": "08:00-23:00", "Tue": "08:00-23:00", "Wed": "08:00-23:00", "Thu": "08:00-00:00", "Fri": "08:00-00:00", "Sat": "08:00-23:00", "Sun": "10:30-22:30", "index_right": 110, "park_offical_id": "TOWHA_290" }, "geometry": { "type": "Point", "coordinates": [ -0.06744951, 51.507177263 ] } },
{ "type": "Feature", "properties": { "name": "Waitrose St Katherines Dock", "payment_info": "Free", "accessible": "True", "radar": "False", "women": "True", "men": "True", "baby_change": "True", "Mon": "07:30-22:00", "Tue": "07:30-22:00", "Wed": "07:30-22:00", "Thu": "07:30-22:00", "Fri": "07:30-22:00", "Sat": "07:30-21:00", "Sun": "11:00-17:00", "index_right": 110, "park_offical_id": "TOWHA_290" }, "geometry": { "type": "Point", "coordinates": [ -0.067272317, 51.50686936 ] } },
{ "type": "Feature", "properties": { "name": "Royal Dry Cleaners", "payment_info": "Free", "accessible": "False", "radar": "False", "women": "True", "men": "True", "baby_change": "False", "Mon": "07:30-19:00", "Tue": "07:30-19:00", "Wed": "07:30-19:00", "Thu": "07:30-19:00", "Fri": "07:30-19:00", "Sat": "08:30-18:00", "Sun": "Closed", "index_right": 110, "park_offical_id": "TOWHA_290" }, "geometry": { "type": "Point", "coordinates": [ -0.063742697, 51.503574079 ] } }
]
}
