{
"type": "FeatureCollection",
"name": "HAVER_95",
"crs": { "type": "name", "properties": { "name": "urn:ogc:def:crs:OGC:1.3:CRS84" } },
"features": [
{ "type": "Feature", "properties": { "osm_id": 5493432238, "name": null, "amenity": "bench", "man_made": null, "leisure": null, "playground": null, "memorial": null }, "geometry": { "type": "Point", "coordinates": [ 0.2477234, 51.5538105 ] } },
{ "type": "Feature", "properties": { "osm_id": 5493432242, "name": null, "amenity": "bench", "man_made": null, "leisure": null, "playground": null, "memorial": null }, "geometry": { "type": "Point", "coordinates": [ 0.2478206, 51.5539972 ] } },
{ "type": "Feature", "properties": { "osm_id": 5493432239, "name": null, "amenity": "bench", "man_made": null, "leisure": null, "playground": null, "memorial": null }, "geometry": { "type": "Point", "coordinates": [ 0.2478934, 51.5541838 ] } },
{ "type": "Feature", "properties": { "osm_id": 5493432240, "name": null, "amenity": "bench", "man_made": null, "leisure": null, "playground": null, "memorial": null }, "geometry": { "type": "Point", "coordinates": [ 0.2480236, 51.5543985 ] } },
{ "type": "Feature", "properties": { "osm_id": 5493432241, "name": null, "amenity": "bench", "man_made": null, "leisure": null, "playground": null, "memorial": null }, "geometry": { "type": "Point", "coordinates": [ 0.2481554, 51.5546326 ] } }
]
}
