{
"type": "FeatureCollection",
"name": "WALFO_37_toilets",
"crs": { "type": "name", "properties": { "name": "urn:ogc:def:crs:OGC:1.3:CRS84" } },
"features": [
{ "type": "Feature", "properties": { "name": "Higham Hill Library", "payment_info": "Free", "accessible": "True", "radar": "Unknown", "women": "True", "men": "True", "baby_change": "Unknown", "Mon": "Unknown", "Tue": "Unknown", "Wed": "Unknown", "Thu": "Unknown", "Fri": "Unknown", "Sat": "Unknown", "Sun": "Unknown", "index_right": 63, "park_offical_id": "WALFO_37" }, "geometry": { "type": "Point", "coordinates": [ -0.027417496, 51.59583615 ] } }
]
}
