{
"type": "FeatureCollection",
"name": "ENFIE_11_toilets",
"crs": { "type": "name", "properties": { "name": "urn:ogc:def:crs:OGC:1.3:CRS84" } },
"features": [
{ "type": "Feature", "properties": { "name": "Gordon Hill station", "payment_info": "Free", "accessible": "True", "radar": "False", "women": "True", "men": "True", "baby_change": "Unknown", "Mon": "06:00-18:00", "Tue": "06:00-18:00", "Wed": "06:00-18:00", "Thu": "06:00-18:00", "Fri": "06:00-18:00", "Sat": "06:00-18:00", "Sun": "06:00-18:00", "index_right": 7, "park_offical_id": "ENFIE_11" }, "geometry": { "type": "Point", "coordinates": [ -0.094617605, 51.663232923 ] } }
]
}
