{
"type": "FeatureCollection",
"name": "BROML_4_walking",
"crs": { "type": "name", "properties": { "name": "urn:ogc:def:crs:OGC:1.3:CRS84" } },
"features": [
{"type":"Feature","properties":{"highway":"footway","name":"Brook Way","category":"Footpath (pedestrian only)"},"geometry":{"type":"MultiLineString","coordinates":[[[0.1164725,51.4018682],[0.1164138,51.4018705],[0.1161258,51.4019796],[0.1158401,51.4020301],[0.1156537,51.4020631]]]}},
{"type":"Feature","properties":{"highway":"footway","name":null,"category":"Footpath (pedestrian only)"},"geometry":{"type":"MultiLineString","coordinates":[[[0.1100352,51.3955476],[0.110051,51.3954311],[0.1099924,51.3952392]]]}},
{"type":"Feature","properties":{"highway":"footway","name":"Millfields Cottages","category":"Footpath (pedestrian only)"},"geometry":{"type":"MultiLineString","coordinates":[[[0.1113421,51.3952979],[0.1115268,51.3953572]]]}},
{"type":"Feature","properties":{"highway":"footway","name":"Walsingham Road","category":"Footpath (pedestrian only)"},"geometry":{"type":"MultiLineString","coordinates":[[[0.1092997,51.4062253],[0.1093297,51.4059827]]]}},
{"type":"Feature","properties":{"highway":"footway","name":"Croxley Green","category":"Footpath (pedestrian only)"},"geometry":{"type":"MultiLineString","coordinates":[[[0.1092464,51.4066156],[0.1092997,51.4062253]]]}},
{"type":"Feature","properties":{"highway":"footway","name":null,"category":"Footpath (pedestrian only)"},"geometry":{"type":"MultiLineString","coordinates":[[[0.1122703,51.4005722],[0.1129141,51.4004967],[0.1130547,51.4004417]]]}},
{"type":"Feature","properties":{"highway":"footway","name":"Nutall Court","category":"Footpath (pedestrian only)"},"geometry":{"type":"MultiLineString","coordinates":[[[0.111058,51.399409],[0.1112557,51.3993915],[0.1111772,51.399045]]]}},
{"type":"Feature","properties":{"highway":"footway","name":null,"category":"Footpath (pedestrian only)"},"geometry":{"type":"MultiLineString","coordinates":[[[0.1111817,51.4000624],[0.1115606,51.4000091],[0.1117226,51.4000139],[0.1122555,51.3995611],[0.113046,51.3994883]]]}},
{"type":"Feature","properties":{"highway":"footway","name":"Hawkinge Walk","category":"Footpath (pedestrian only)"},"geometry":{"type":"MultiLineString","coordinates":[[[0.1103421,51.3995053],[0.1093917,51.39966],[0.1093976,51.3996743],[0.1091597,51.399713],[0.1091298,51.3996299],[0.1087658,51.3996835],[0.1086626,51.3994107]]]}},
{"type":"Feature","properties":{"highway":"footway","name":"Selwyn Place","category":"Footpath (pedestrian only)"},"geometry":{"type":"MultiLineString","coordinates":[[[0.1079318,51.4002337],[0.1089315,51.4000914],[0.1088543,51.3998797],[0.1091324,51.3998402]]]}},
{"type":"Feature","properties":{"highway":"footway","name":"Wynford Grove","category":"Footpath (pedestrian only)"},"geometry":{"type":"MultiLineString","coordinates":[[[0.1094068,51.4007308],[0.109298,51.4004405],[0.1094287,51.4004214],[0.1095377,51.4007125]]]}},
{"type":"Feature","properties":{"highway":"footway","name":"Selwyn Place","category":"Footpath (pedestrian only)"},"geometry":{"type":"MultiLineString","coordinates":[[[0.1091597,51.399713],[0.109202,51.3998303],[0.1091324,51.3998402],[0.1092097,51.400052],[0.1089315,51.4000914]]]}},
{"type":"Feature","properties":{"highway":"footway","name":"Leigh Terrace","category":"Footpath (pedestrian only)"},"geometry":{"type":"MultiLineString","coordinates":[[[0.1072418,51.3995028],[0.1073241,51.3997543],[0.107538,51.3999712],[0.107622,51.3999773],[0.1076651,51.4001089],[0.107994,51.4005332],[0.1082089,51.4005688]]]}},
{"type":"Feature","properties":{"highway":"footway","name":null,"category":"Footpath (pedestrian only)"},"geometry":{"type":"MultiLineString","coordinates":[[[0.1063703,51.3994856],[0.106826,51.3997053],[0.1068828,51.3999741],[0.1067479,51.4000269],[0.1068455,51.4001646]]]}},
{"type":"Feature","properties":{"highway":"footway","name":null,"category":"Footpath (pedestrian only)"},"geometry":{"type":"MultiLineString","coordinates":[[[0.1064459,51.4088602],[0.1061911,51.4079751],[0.1061246,51.4078042],[0.1060689,51.407707],[0.1060486,51.4073585],[0.1060303,51.4072793]]]}},
{"type":"Feature","properties":{"highway":"footway","name":null,"category":"Footpath (pedestrian only)"},"geometry":{"type":"MultiLineString","coordinates":[[[0.1053989,51.4079657],[0.1053096,51.4074124],[0.1060486,51.4073585]]]}},
{"type":"Feature","properties":{"highway":"footway","name":null,"category":"Footpath (pedestrian only)"},"geometry":{"type":"MultiLineString","coordinates":[[[0.1060303,51.4072793],[0.1059297,51.4066182],[0.105846,51.4065129],[0.1057331,51.4063689],[0.1058061,51.4060444],[0.1057603,51.4059862]]]}},
{"type":"Feature","properties":{"highway":"footway","name":"Brook Way","category":"Footpath (pedestrian only)"},"geometry":{"type":"MultiLineString","coordinates":[[[0.1156537,51.4020631],[0.1153936,51.4021284]]]}},
{"type":"Feature","properties":{"highway":"footway","name":"Brook Way","category":"Footpath (pedestrian only)"},"geometry":{"type":"MultiLineString","coordinates":[[[0.1153936,51.4021284],[0.1147296,51.4022241]]]}},
{"type":"Feature","properties":{"highway":"footway","name":null,"category":"Footpath (pedestrian only)"},"geometry":{"type":"MultiLineString","coordinates":[[[0.1153936,51.4021284],[0.1154578,51.4022936],[0.1156465,51.4025345],[0.1158002,51.4026485],[0.1159633,51.4027224],[0.1160735,51.402779],[0.1161418,51.4028575],[0.1161308,51.4029607],[0.1160109,51.4031796],[0.1159907,51.4032396],[0.1159704,51.4034012],[0.1160018,51.4034502],[0.116036,51.4035301],[0.1160959,51.4036049],[0.1161557,51.4036969],[0.1161962,51.4037848],[0.1162214,51.4038606],[0.1162191,51.4039578],[0.1162382,51.4039901],[0.116269,51.4040068],[0.1162673,51.4041383],[0.1162604,51.404214],[0.1162797,51.4042756]]]}},
{"type":"Feature","properties":{"highway":"footway","name":"Stonegate Close","category":"Footpath (pedestrian only)"},"geometry":{"type":"MultiLineString","coordinates":[[[0.1158738,51.3992591],[0.1155051,51.3992909],[0.1153261,51.3993227],[0.1151228,51.3993379]]]}},
{"type":"Feature","properties":{"highway":"footway","name":null,"category":"Footpath (pedestrian only)"},"geometry":{"type":"MultiLineString","coordinates":[[[0.1222093,51.395326],[0.1217877,51.3953786]]]}},
{"type":"Feature","properties":{"highway":"footway","name":null,"category":"Footpath (pedestrian only)"},"geometry":{"type":"MultiLineString","coordinates":[[[0.1220567,51.3962305],[0.1219063,51.3961491],[0.1216825,51.3961252],[0.1214945,51.3960451]]]}},
{"type":"Feature","properties":{"highway":"footway","name":null,"category":"Footpath (pedestrian only)"},"geometry":{"type":"MultiLineString","coordinates":[[[0.1206911,51.3967229],[0.120555,51.3965926],[0.1204091,51.3965498],[0.1202975,51.3966194],[0.1202664,51.3967077]]]}},
{"type":"Feature","properties":{"highway":"footway","name":null,"category":"Footpath (pedestrian only)"},"geometry":{"type":"MultiLineString","coordinates":[[[0.1238105,51.3962156],[0.1238583,51.3962314],[0.1238778,51.3962908],[0.1238727,51.3963361],[0.123852,51.3963764],[0.1238388,51.3964496],[0.1238515,51.3964816],[0.1238676,51.3965131],[0.1238619,51.3965724],[0.1238273,51.396669],[0.1238644,51.3968422],[0.1238504,51.3969014],[0.1237997,51.3969367],[0.1237734,51.3970155]]]}},
{"type":"Feature","properties":{"highway":"footway","name":null,"category":"Footpath (pedestrian only)"},"geometry":{"type":"MultiLineString","coordinates":[[[0.125334,51.400242],[0.1255007,51.4002782],[0.1256837,51.4003398],[0.1262926,51.4005102],[0.1268908,51.4007635],[0.12742,51.4010005],[0.12752,51.4010555]]]}},
{"type":"Feature","properties":{"highway":"footway","name":null,"category":"Footpath (pedestrian only)"},"geometry":{"type":"MultiLineString","coordinates":[[[0.1133897,51.3938279],[0.1135234,51.3941882],[0.1120548,51.3943299],[0.1118264,51.3943388]]]}},
{"type":"Feature","properties":{"highway":"footway","name":null,"category":"Footpath (pedestrian only)"},"geometry":{"type":"MultiLineString","coordinates":[[[0.1200142,51.4044584],[0.1201951,51.4044765],[0.1203618,51.4045926],[0.1205706,51.4047543],[0.1207208,51.4049015],[0.1210212,51.4050689],[0.1217668,51.4051525],[0.1226303,51.4052494],[0.1227807,51.4052663],[0.1228572,51.405319]]]}},
{"type":"Feature","properties":{"highway":"footway","name":null,"category":"Footpath (pedestrian only)"},"geometry":{"type":"MultiLineString","coordinates":[[[0.1130521,51.4061625],[0.1130273,51.4069726],[0.1129593,51.4075581],[0.1128638,51.4080801],[0.1126503,51.4080768],[0.1123113,51.4080667],[0.112245,51.4080734]]]}},
{"type":"Feature","properties":{"highway":"path","name":null,"category":"Shared path"},"geometry":{"type":"MultiLineString","coordinates":[[[0.1026037,51.4044276],[0.1026314,51.4045106],[0.1025325,51.40474],[0.1025404,51.4048942],[0.1028107,51.4051963],[0.1028433,51.405306],[0.1028498,51.405436],[0.102726,51.4056209],[0.1026674,51.4057895],[0.1027098,51.4060049],[0.102954,51.4061674],[0.1032992,51.4062344],[0.103651,51.406269],[0.1039506,51.4062385],[0.1041264,51.4061979],[0.1043069,51.406027]]]}},
{"type":"Feature","properties":{"highway":"path","name":null,"category":"Shared path"},"geometry":{"type":"MultiLineString","coordinates":[[[0.1041264,51.4061979],[0.1040678,51.4063055],[0.1040743,51.4064254],[0.1041297,51.4065696]]]}},
{"type":"Feature","properties":{"highway":"path","name":null,"category":"Shared path"},"geometry":{"type":"MultiLineString","coordinates":[[[0.103651,51.406269],[0.1038626,51.4063279],[0.1039864,51.406399],[0.1041297,51.4065696],[0.104159,51.4067139],[0.104146,51.4068195],[0.1040245,51.4072591]]]}},
{"type":"Feature","properties":{"highway":"track","name":null,"category":"Track"},"geometry":{"type":"MultiLineString","coordinates":[[[0.1254667,51.3944546],[0.1257393,51.394516],[0.1259377,51.3946365],[0.1260128,51.3947503],[0.1257714,51.3956005],[0.1259968,51.3958917],[0.1261094,51.3961193],[0.1261094,51.3962632],[0.1260289,51.3963904],[0.1259538,51.3965444],[0.1261845,51.396869],[0.1263401,51.3969962],[0.1266405,51.3971033],[0.1267322,51.3971168],[0.1268229,51.3971301],[0.127075,51.3970933],[0.1272359,51.39711],[0.1275202,51.3971937],[0.1276758,51.3972238],[0.1280567,51.3972573],[0.1283195,51.3973209],[0.1284748,51.3974324],[0.1284966,51.3974481],[0.1286682,51.3976154],[0.1287809,51.3977058],[0.1289365,51.3977359],[0.1290759,51.3977325],[0.129269,51.3977761],[0.1294675,51.3978095],[0.1296177,51.3978597],[0.1298162,51.3979735],[0.1299611,51.3980806],[0.1300576,51.3981007],[0.13024,51.3981978],[0.1304385,51.3982781],[0.1307228,51.3983752],[0.1309374,51.398499],[0.1310554,51.3987132],[0.1311573,51.3988437],[0.1312056,51.3989809],[0.1313558,51.399078],[0.1315114,51.3991215],[0.1315811,51.3991985],[0.1316669,51.3992353],[0.1317689,51.3992286],[0.1319191,51.3992219],[0.1320425,51.3992386],[0.13208,51.3992989],[0.132139,51.3993825],[0.1322087,51.3994194],[0.1323499,51.3994396],[0.1324293,51.3994716],[0.1324293,51.3995503],[0.132434,51.3996289],[0.1325274,51.3996872],[0.1326348,51.3997455],[0.1326815,51.3997863],[0.1327796,51.3998067],[0.1328216,51.3998504],[0.1328543,51.3999261],[0.1329103,51.4000048],[0.1329524,51.4000747],[0.1329944,51.4002175],[0.1329664,51.4003078],[0.1328963,51.4003835],[0.1328123,51.4004389],[0.1327749,51.4004943],[0.1326862,51.4005729],[0.1325601,51.4006224],[0.1323643,51.4006675],[0.1321771,51.400672],[0.1319109,51.4006603],[0.1316307,51.4006166],[0.1314626,51.4005904],[0.1313085,51.4005584],[0.1311964,51.4005467],[0.1310517,51.4005263],[0.1309072,51.400469],[0.1308462,51.4004447],[0.1306594,51.4003544],[0.130552,51.4002204],[0.1304773,51.4000427],[0.1304539,51.3999232],[0.1304773,51.3998183],[0.1304586,51.3997047],[0.1304913,51.3996289],[0.1305987,51.3995532],[0.1307481,51.3995095],[0.1308695,51.399527],[0.1309723,51.3995707],[0.131075,51.3996319],[0.1312058,51.3996668],[0.1313552,51.399661],[0.1314533,51.3995998],[0.1315373,51.399527],[0.1315654,51.3994192],[0.1314906,51.3993347],[0.1313926,51.3992677],[0.1312992,51.3991395],[0.1312385,51.3990637],[0.1312056,51.3989809]]]}},
{"type":"Feature","properties":{"highway":"track","name":null,"category":"Track"},"geometry":{"type":"MultiLineString","coordinates":[[[0.1309072,51.400469],[0.1305893,51.4004476],[0.1302204,51.4004127],[0.1299169,51.4003952],[0.129702,51.4003835],[0.1294779,51.4003457],[0.1293611,51.4002553],[0.1292911,51.4001417],[0.129193,51.3999902],[0.1290996,51.399897],[0.1288941,51.3998183],[0.1286793,51.3996814],[0.128259,51.399358],[0.1280722,51.3992531],[0.1276939,51.3990695],[0.1271802,51.3988277],[0.1269374,51.3987403],[0.1266706,51.3987189],[0.1263677,51.3986791],[0.1261902,51.3986471],[0.1261295,51.3985917],[0.1261155,51.3985189],[0.1261201,51.3983878],[0.1261108,51.3982071],[0.1259941,51.397974],[0.125966,51.3978167],[0.125938,51.397569],[0.1259333,51.3974175],[0.125966,51.3972573],[0.1260081,51.3971786],[0.1261715,51.3970795],[0.1262836,51.3970213],[0.1263401,51.3969962]]]}},
{"type":"Feature","properties":{"highway":"track","name":null,"category":"Track"},"geometry":{"type":"MultiLineString","coordinates":[[[0.1261845,51.396869],[0.1261622,51.396963],[0.1261061,51.3970504],[0.1260174,51.3971174],[0.1260081,51.3971786]]]}},
{"type":"Feature","properties":{"highway":"track","name":null,"category":"Track"},"geometry":{"type":"MultiLineString","coordinates":[[[0.1287809,51.3977058],[0.1285345,51.3976535],[0.1284084,51.3976506],[0.1281375,51.3977383],[0.1279134,51.3978109],[0.1273484,51.3979507],[0.1272316,51.3979915],[0.1270121,51.3981314],[0.1269,51.3981634],[0.1267132,51.3982071],[0.1264517,51.3983178],[0.1263863,51.3983907],[0.1262836,51.3985859],[0.1261902,51.3986471],[0.1260781,51.3987228],[0.1260174,51.3988248],[0.1259847,51.3989938],[0.1259427,51.3990637],[0.125868,51.3992007],[0.1258353,51.3993259],[0.1259474,51.3994337],[0.1260688,51.3995532],[0.1261201,51.3996406],[0.1261342,51.3997804],[0.1261482,51.3999873],[0.1260875,51.4000922],[0.125952,51.4001592],[0.1257746,51.4002116],[0.1255924,51.4002233],[0.125334,51.400242],[0.1251488,51.4002553],[0.1249903,51.4002252],[0.1249038,51.4001825],[0.1246606,51.4000937],[0.1244852,51.4000349],[0.1243864,51.4000615]]]}},
{"type":"Feature","properties":{"highway":"track","name":null,"category":"Track"},"geometry":{"type":"MultiLineString","coordinates":[[[0.125334,51.400242],[0.125501,51.4001031],[0.1255538,51.3999433],[0.1255497,51.3996947],[0.1255253,51.3995273],[0.1256189,51.3994208],[0.1258353,51.3993259]]]}},
{"type":"Feature","properties":{"highway":"track","name":null,"category":"Track"},"geometry":{"type":"MultiLineString","coordinates":[[[0.125501,51.4001031],[0.1255924,51.4002233],[0.1256837,51.4003398]]]}},
{"type":"Feature","properties":{"highway":"track","name":null,"category":"Track"},"geometry":{"type":"MultiLineString","coordinates":[[[0.1259538,51.3965444],[0.1258235,51.3963527],[0.1256941,51.3962143],[0.1256324,51.3961182],[0.1256078,51.3959183],[0.1256386,51.3957914],[0.1256548,51.3957681],[0.1257714,51.3956005]]]}},
{"type":"Feature","properties":{"highway":"footway","name":null,"category":"Footpath (pedestrian only)"},"geometry":{"type":"MultiLineString","coordinates":[[[0.1251857,51.3957779],[0.1254011,51.3957974],[0.1254595,51.3957952],[0.1255373,51.3957753],[0.1256081,51.3957632],[0.1256548,51.3957681]]]}},
{"type":"Feature","properties":{"highway":"footway","name":null,"category":"Footpath (pedestrian only)"},"geometry":{"type":"MultiLineString","coordinates":[[[0.1125988,51.4117702],[0.1125745,51.4117704],[0.1125715,51.411721],[0.1125422,51.411721]]]}},
{"type":"Feature","properties":{"highway":"footway","name":null,"category":"Footpath (pedestrian only)"},"geometry":{"type":"MultiLineString","coordinates":[[[0.1125422,51.411721],[0.1124861,51.4117172],[0.1124136,51.4117159]]]}},
{"type":"Feature","properties":{"highway":"footway","name":null,"category":"Footpath (pedestrian only)"},"geometry":{"type":"MultiLineString","coordinates":[[[0.1124136,51.4117159],[0.11236,51.4117065],[0.1122645,51.4117042],[0.1122147,51.4117078],[0.1120331,51.4118104],[0.1119846,51.4118318],[0.1112898,51.4117505],[0.1108116,51.4116827],[0.1107183,51.4116255],[0.1101106,51.4112526],[0.1098981,51.4112599],[0.1098467,51.4113043],[0.1098082,51.4113666],[0.1101195,51.4115892],[0.1098778,51.4117482]]]}},
{"type":"Feature","properties":{"highway":"footway","name":null,"category":"Footpath (pedestrian only)"},"geometry":{"type":"MultiLineString","coordinates":[[[0.1126388,51.4117716],[0.1125988,51.4117702]]]}},
{"type":"Feature","properties":{"highway":"footway","name":null,"category":"Footpath (pedestrian only)"},"geometry":{"type":"MultiLineString","coordinates":[[[0.1123291,51.3965051],[0.1124537,51.3964776]]]}},
{"type":"Feature","properties":{"highway":"footway","name":null,"category":"Footpath (pedestrian only)"},"geometry":{"type":"MultiLineString","coordinates":[[[0.1161879,51.4027364],[0.1160735,51.402779]]]}},
{"type":"Feature","properties":{"highway":"footway","name":null,"category":"Footpath (pedestrian only)"},"geometry":{"type":"MultiLineString","coordinates":[[[0.1163596,51.4026293],[0.1161879,51.4027364]]]}},
{"type":"Feature","properties":{"highway":"footway","name":null,"category":"Footpath (pedestrian only)"},"geometry":{"type":"MultiLineString","coordinates":[[[0.1164725,51.4018682],[0.116601,51.4019533],[0.1167029,51.4021223],[0.1166627,51.4023231],[0.1165634,51.402477],[0.1163596,51.4026293]]]}},
{"type":"Feature","properties":{"highway":"footway","name":null,"category":"Footpath (pedestrian only)"},"geometry":{"type":"MultiLineString","coordinates":[[[0.1172953,51.4019016],[0.1175492,51.4018294],[0.1180346,51.40175],[0.118559,51.4016437],[0.1194066,51.401299],[0.120622,51.4008162],[0.1207734,51.4007545]]]}},
{"type":"Feature","properties":{"highway":"footway","name":null,"category":"Footpath (pedestrian only)"},"geometry":{"type":"MultiLineString","coordinates":[[[0.1068394,51.3990687],[0.1060371,51.398754]]]}},
{"type":"Feature","properties":{"highway":"footway","name":null,"category":"Footpath (pedestrian only)"},"geometry":{"type":"MultiLineString","coordinates":[[[0.107572,51.4077753],[0.1075317,51.4081327],[0.1073037,51.408126],[0.1072152,51.4081043],[0.10655,51.4080775],[0.1064759,51.4079102]]]}},
{"type":"Feature","properties":{"highway":"footway","name":null,"category":"Footpath (pedestrian only)"},"geometry":{"type":"MultiLineString","coordinates":[[[0.1205316,51.3985477],[0.1204695,51.398529],[0.1204372,51.3985193],[0.1198593,51.3983454],[0.1198428,51.3983405],[0.1195897,51.3982643]]]}},
{"type":"Feature","properties":{"highway":"footway","name":null,"category":"Footpath (pedestrian only)"},"geometry":{"type":"MultiLineString","coordinates":[[[0.1255807,51.4057396],[0.1264966,51.4064734],[0.129302,51.4083871],[0.1298258,51.4091106],[0.130371,51.4091319],[0.1306492,51.4091283],[0.1308723,51.4091576],[0.1310322,51.4091848],[0.1311001,51.4092189]]]}},
{"type":"Feature","properties":{"highway":"footway","name":null,"category":"Footpath (pedestrian only)"},"geometry":{"type":"MultiLineString","coordinates":[[[0.1116963,51.3937864],[0.1123805,51.3936764],[0.1126759,51.393631],[0.1129248,51.3935917],[0.1131794,51.3935515],[0.1138349,51.3934396],[0.1138999,51.3934286]]]}},
{"type":"Feature","properties":{"highway":"footway","name":null,"category":"Footpath (pedestrian only)"},"geometry":{"type":"MultiLineString","coordinates":[[[0.1121281,51.3930538],[0.1121739,51.3931641],[0.1122347,51.3933143],[0.1122881,51.3934516],[0.1123452,51.3935894],[0.1123805,51.3936764]]]}},
{"type":"Feature","properties":{"highway":"footway","name":null,"category":"Footpath (pedestrian only)"},"geometry":{"type":"MultiLineString","coordinates":[[[0.1200388,51.3947522],[0.1201369,51.3947848],[0.1204802,51.3947505],[0.1205894,51.3948008]]]}},
{"type":"Feature","properties":{"highway":"footway","name":null,"category":"Footpath (pedestrian only)"},"geometry":{"type":"MultiLineString","coordinates":[[[0.120223,51.3946273],[0.1196585,51.394677],[0.1196339,51.3945663],[0.119611,51.3944634],[0.1200169,51.3944274]]]}},
{"type":"Feature","properties":{"highway":"footway","name":null,"category":"Footpath (pedestrian only)"},"geometry":{"type":"MultiLineString","coordinates":[[[0.1191472,51.3946025],[0.1191911,51.3945992],[0.1196339,51.3945663]]]}},
{"type":"Feature","properties":{"highway":"footway","name":null,"category":"Footpath (pedestrian only)"},"geometry":{"type":"MultiLineString","coordinates":[[[0.1192259,51.3947223],[0.1191911,51.3945992]]]}},
{"type":"Feature","properties":{"highway":"footway","name":null,"category":"Footpath (pedestrian only)"},"geometry":{"type":"MultiLineString","coordinates":[[[0.1072657,51.3974228],[0.1069056,51.3979483]]]}},
{"type":"Feature","properties":{"highway":"footway","name":null,"category":"Footpath (pedestrian only)"},"geometry":{"type":"MultiLineString","coordinates":[[[0.1159704,51.4034012],[0.1156363,51.4035384],[0.1156111,51.4037671],[0.115518,51.4039062],[0.1155294,51.4039336]]]}},
{"type":"Feature","properties":{"highway":"footway","name":null,"category":"Footpath (pedestrian only)"},"geometry":{"type":"MultiLineString","coordinates":[[[0.120555,51.3965926],[0.1204237,51.3961555],[0.1204529,51.3959075]]]}},
{"type":"Feature","properties":{"highway":"footway","name":null,"category":"Footpath (pedestrian only)"},"geometry":{"type":"MultiLineString","coordinates":[[[0.1157786,51.4045165],[0.115688,51.4044605],[0.1156543,51.4044235],[0.1156614,51.4043728],[0.1157031,51.4043231],[0.1157811,51.4042599],[0.1158115,51.4042225],[0.1158097,51.4041918]]]}},
{"type":"Feature","properties":{"highway":"footway","name":"Stonegate Close","category":"Footpath (pedestrian only)"},"geometry":{"type":"MultiLineString","coordinates":[[[0.1153261,51.3993227],[0.115376,51.3995332],[0.1155046,51.3995226],[0.1155585,51.3995164],[0.1155051,51.3992909]]]}},
{"type":"Feature","properties":{"highway":"footway","name":null,"category":"Footpath (pedestrian only)"},"geometry":{"type":"MultiLineString","coordinates":[[[0.1170051,51.3936106],[0.1169735,51.3934711],[0.1168644,51.3929902]]]}},
{"type":"Feature","properties":{"highway":"footway","name":null,"category":"Footpath (pedestrian only)"},"geometry":{"type":"MultiLineString","coordinates":[[[0.1057438,51.403285],[0.1056305,51.4027085]]]}},
{"type":"Feature","properties":{"highway":"footway","name":null,"category":"Footpath (pedestrian only)"},"geometry":{"type":"MultiLineString","coordinates":[[[0.1171538,51.4050255],[0.1170911,51.4050715]]]}},
{"type":"Feature","properties":{"highway":"footway","name":null,"category":"Footpath (pedestrian only)"},"geometry":{"type":"MultiLineString","coordinates":[[[0.1172453,51.4049907],[0.1171538,51.4050255]]]}},
{"type":"Feature","properties":{"highway":"footway","name":null,"category":"Footpath (pedestrian only)"},"geometry":{"type":"MultiLineString","coordinates":[[[0.1170911,51.4050715],[0.1170796,51.4050892],[0.1171394,51.4051898],[0.1171267,51.4052646],[0.1171611,51.4053474],[0.1172327,51.4054228]]]}},
{"type":"Feature","properties":{"highway":"footway","name":null,"category":"Footpath (pedestrian only)"},"geometry":{"type":"MultiLineString","coordinates":[[[0.115024,51.3949554],[0.1150091,51.3949613],[0.1149865,51.394968],[0.1148991,51.3949906],[0.1147255,51.3951207],[0.1147141,51.3951382]]]}},
{"type":"Feature","properties":{"highway":"footway","name":null,"category":"Footpath (pedestrian only)"},"geometry":{"type":"MultiLineString","coordinates":[[[0.1192905,51.3962796],[0.1196009,51.3962018],[0.1197182,51.3961811]]]}},
{"type":"Feature","properties":{"highway":"footway","name":null,"category":"Footpath (pedestrian only)"},"geometry":{"type":"MultiLineString","coordinates":[[[0.1131823,51.4021506],[0.1131524,51.4021506],[0.1131517,51.4020718],[0.1131211,51.4020718]]]}},
{"type":"Feature","properties":{"highway":"footway","name":null,"category":"Footpath (pedestrian only)"},"geometry":{"type":"MultiLineString","coordinates":[[[0.1131211,51.4020718],[0.1130691,51.4020722],[0.1130004,51.4020716]]]}},
{"type":"Feature","properties":{"highway":"footway","name":null,"category":"Footpath (pedestrian only)"},"geometry":{"type":"MultiLineString","coordinates":[[[0.113251,51.4021506],[0.1131823,51.4021506]]]}},
{"type":"Feature","properties":{"highway":"footway","name":"Brook Way","category":"Footpath (pedestrian only)"},"geometry":{"type":"MultiLineString","coordinates":[[[0.1168443,51.4014239],[0.1167814,51.401446],[0.1167418,51.4015181],[0.1165097,51.4017805]]]}},
{"type":"Feature","properties":{"highway":"footway","name":"Brook Way","category":"Footpath (pedestrian only)"},"geometry":{"type":"MultiLineString","coordinates":[[[0.1165097,51.4017805],[0.1164725,51.4018682]]]}},
{"type":"Feature","properties":{"highway":"footway","name":null,"category":"Footpath (pedestrian only)"},"geometry":{"type":"MultiLineString","coordinates":[[[0.114937,51.3951638],[0.1149615,51.3951475],[0.1150064,51.3951387],[0.1149865,51.394968]]]}},
{"type":"Feature","properties":{"highway":"footway","name":null,"category":"Footpath (pedestrian only)"},"geometry":{"type":"MultiLineString","coordinates":[[[0.1212836,51.3980485],[0.1213401,51.3981836],[0.1218662,51.3980979],[0.1218097,51.3979628]]]}},
{"type":"Feature","properties":{"highway":"footway","name":null,"category":"Footpath (pedestrian only)"},"geometry":{"type":"MultiLineString","coordinates":[[[0.1225074,51.3959518],[0.1228264,51.3957767],[0.1233025,51.3957328],[0.123472,51.3958465]]]}},
{"type":"Feature","properties":{"highway":"footway","name":null,"category":"Footpath (pedestrian only)"},"geometry":{"type":"MultiLineString","coordinates":[[[0.1040961,51.4009022],[0.104177,51.4008205],[0.1045585,51.4009418],[0.1045016,51.4010296]]]}},
{"type":"Feature","properties":{"highway":"footway","name":null,"category":"Footpath (pedestrian only)"},"geometry":{"type":"MultiLineString","coordinates":[[[0.104315,51.4037358],[0.1046548,51.4045107]]]}},
{"type":"Feature","properties":{"highway":"footway","name":null,"category":"Footpath (pedestrian only)"},"geometry":{"type":"MultiLineString","coordinates":[[[0.1173091,51.3973247],[0.1173219,51.3979589],[0.1173233,51.3980256]]]}},
{"type":"Feature","properties":{"highway":"footway","name":null,"category":"Footpath (pedestrian only)"},"geometry":{"type":"MultiLineString","coordinates":[[[0.1165308,51.3935047],[0.1169735,51.3934711]]]}},
{"type":"Feature","properties":{"highway":"footway","name":null,"category":"Footpath (pedestrian only)"},"geometry":{"type":"MultiLineString","coordinates":[[[0.1058738,51.399989],[0.1052302,51.399957],[0.104436,51.3999176]]]}},
{"type":"Feature","properties":{"highway":"footway","name":null,"category":"Footpath (pedestrian only)"},"geometry":{"type":"MultiLineString","coordinates":[[[0.1062461,51.404889],[0.1064155,51.4049027],[0.1064443,51.4047646],[0.1064954,51.4045199],[0.1062538,51.4045003],[0.1062028,51.404745],[0.1062769,51.404751],[0.1064443,51.4047646],[0.1072936,51.4048227]]]}},
{"type":"Feature","properties":{"highway":"footway","name":null,"category":"Footpath (pedestrian only)"},"geometry":{"type":"MultiLineString","coordinates":[[[0.1072145,51.3980323],[0.1072599,51.3979621],[0.107743,51.3979626],[0.107856,51.3982038],[0.1077067,51.3983351],[0.1075654,51.3983365]]]}},
{"type":"Feature","properties":{"highway":"footway","name":null,"category":"Footpath (pedestrian only)"},"geometry":{"type":"MultiLineString","coordinates":[[[0.1189937,51.4094095],[0.1188997,51.4093031],[0.1188306,51.4092106],[0.1187574,51.4091079],[0.1187086,51.4090609],[0.1186558,51.4090381],[0.1186029,51.4090293],[0.118544,51.4090305],[0.1184688,51.4090495]]]}},
{"type":"Feature","properties":{"highway":"footway","name":null,"category":"Footpath (pedestrian only)"},"geometry":{"type":"MultiLineString","coordinates":[[[0.1132841,51.4116044],[0.1132851,51.411613],[0.1132886,51.4116185],[0.1133026,51.4116269],[0.113316,51.4116349],[0.1133218,51.4116433],[0.113323,51.4116524],[0.1133217,51.4116594]]]}},
{"type":"Feature","properties":{"highway":"footway","name":null,"category":"Footpath (pedestrian only)"},"geometry":{"type":"MultiLineString","coordinates":[[[0.1130415,51.4117534],[0.1130027,51.4116788]]]}},
{"type":"Feature","properties":{"highway":"footway","name":null,"category":"Footpath (pedestrian only)"},"geometry":{"type":"MultiLineString","coordinates":[[[0.1114681,51.4033893],[0.1120558,51.4033678],[0.1120578,51.4032965],[0.1114606,51.4033138]]]}},
{"type":"Feature","properties":{"highway":"footway","name":null,"category":"Footpath (pedestrian only)"},"geometry":{"type":"MultiLineString","coordinates":[[[0.1108116,51.4116827],[0.1111146,51.4118761],[0.1113188,51.411966],[0.1113969,51.4119599]]]}},
{"type":"Feature","properties":{"highway":"footway","name":null,"category":"Footpath (pedestrian only)"},"geometry":{"type":"MultiLineString","coordinates":[[[0.1219441,51.3978115],[0.1224786,51.3977245]]]}},
{"type":"Feature","properties":{"highway":"footway","name":null,"category":"Footpath (pedestrian only)"},"geometry":{"type":"MultiLineString","coordinates":[[[0.1093999,51.404651],[0.1098666,51.4046351],[0.1098686,51.4045899],[0.1094041,51.4045611]]]}},
{"type":"Feature","properties":{"highway":"footway","name":null,"category":"Footpath (pedestrian only)"},"geometry":{"type":"MultiLineString","coordinates":[[[0.1084368,51.4030389],[0.1084388,51.402982],[0.1084431,51.4028586],[0.1083881,51.4026628],[0.1083036,51.4024904],[0.1080206,51.4025076],[0.1078792,51.4024732]]]}},
{"type":"Feature","properties":{"highway":"footway","name":null,"category":"Footpath (pedestrian only)"},"geometry":{"type":"MultiLineString","coordinates":[[[0.1247005,51.3959924],[0.1246726,51.3962729],[0.1246616,51.3964961]]]}},
{"type":"Feature","properties":{"highway":"track","name":null,"category":"Track"},"geometry":{"type":"MultiLineString","coordinates":[[[0.1248321,51.3957511],[0.1249478,51.3957602]]]}},
{"type":"Feature","properties":{"highway":"footway","name":null,"category":"Footpath (pedestrian only)"},"geometry":{"type":"MultiLineString","coordinates":[[[0.1093914,51.4081721],[0.109398,51.4081074],[0.1094437,51.4081092],[0.1094552,51.4079954]]]}},
{"type":"Feature","properties":{"highway":"footway","name":null,"category":"Footpath (pedestrian only)"},"geometry":{"type":"MultiLineString","coordinates":[[[0.1094548,51.4083558],[0.1098668,51.408372],[0.1098616,51.4084241],[0.1100683,51.4084323]]]}},
{"type":"Feature","properties":{"highway":"footway","name":null,"category":"Footpath (pedestrian only)"},"geometry":{"type":"MultiLineString","coordinates":[[[0.1045001,51.405251],[0.1043855,51.4052616]]]}},
{"type":"Feature","properties":{"highway":"footway","name":null,"category":"Footpath (pedestrian only)"},"geometry":{"type":"MultiLineString","coordinates":[[[0.1046936,51.4052315],[0.1046121,51.4052418]]]}},
{"type":"Feature","properties":{"highway":"footway","name":null,"category":"Footpath (pedestrian only)"},"geometry":{"type":"MultiLineString","coordinates":[[[0.1171966,51.4019288],[0.1172745,51.4019077]]]}},
{"type":"Feature","properties":{"highway":"footway","name":null,"category":"Footpath (pedestrian only)"},"geometry":{"type":"MultiLineString","coordinates":[[[0.1121723,51.4099493],[0.1125705,51.4097779],[0.1126178,51.4097576]]]}},
{"type":"Feature","properties":{"highway":"footway","name":null,"category":"Footpath (pedestrian only)"},"geometry":{"type":"MultiLineString","coordinates":[[[0.1126201,51.4096964],[0.1125923,51.4096145],[0.1125864,51.4096067],[0.1122869,51.4092139],[0.1122603,51.4091764]]]}},
{"type":"Feature","properties":{"highway":"footway","name":null,"category":"Footpath (pedestrian only)"},"geometry":{"type":"MultiLineString","coordinates":[[[0.1122869,51.4092139],[0.1125678,51.4092185],[0.1126446,51.40922],[0.1126754,51.4092234],[0.1126839,51.4092291],[0.1126877,51.4092431],[0.1126823,51.4092805],[0.1126611,51.4094319]]]}},
{"type":"Feature","properties":{"highway":"footway","name":null,"category":"Footpath (pedestrian only)"},"geometry":{"type":"MultiLineString","coordinates":[[[0.1126128,51.4093555],[0.1125864,51.4096067]]]}},
{"type":"Feature","properties":{"highway":"footway","name":null,"category":"Footpath (pedestrian only)"},"geometry":{"type":"MultiLineString","coordinates":[[[0.1125829,51.4090228],[0.1122734,51.4090116]]]}},
{"type":"Feature","properties":{"highway":"footway","name":null,"category":"Footpath (pedestrian only)"},"geometry":{"type":"MultiLineString","coordinates":[[[0.1124881,51.4108926],[0.1125592,51.4108953]]]}},
{"type":"Feature","properties":{"highway":"footway","name":null,"category":"Footpath (pedestrian only)"},"geometry":{"type":"MultiLineString","coordinates":[[[0.1126732,51.4113903],[0.1126887,51.4111577],[0.1127137,51.4109021],[0.1127179,51.4108589],[0.1127411,51.4105101],[0.1128073,51.4099941],[0.1128242,51.4098087],[0.1128397,51.4095348],[0.112929,51.4088122],[0.1129614,51.4085114]]]}},
{"type":"Feature","properties":{"highway":"footway","name":null,"category":"Footpath (pedestrian only)"},"geometry":{"type":"MultiLineString","coordinates":[[[0.1125592,51.4108953],[0.1125913,51.4108964],[0.1126338,51.4108988],[0.112681,51.4109016],[0.1127137,51.4109021]]]}},
{"type":"Feature","properties":{"highway":"pedestrian","name":"High Street","category":"Pedestrian area/street"},"geometry":{"type":"MultiLineString","coordinates":[[[0.1147297,51.394036],[0.1147147,51.3940012],[0.1146791,51.3938781]]]}}
]
}
