{
"type": "FeatureCollection",
"name": "BROML_31_walking",
"crs": { "type": "name", "properties": { "name": "urn:ogc:def:crs:OGC:1.3:CRS84" } },
"features": [
{"type":"Feature","properties":{"highway":"footway","name":null,"category":"Footpath (pedestrian only)"},"geometry":{"type":"MultiLineString","coordinates":[[[0.084202,51.3799695],[0.0843689,51.3798277],[0.0844641,51.3797708],[0.0845647,51.3797314],[0.0847415,51.379694]]]}},
{"type":"Feature","properties":{"highway":"footway","name":null,"category":"Footpath (pedestrian only)"},"geometry":{"type":"MultiLineString","coordinates":[[[0.0904944,51.3751172],[0.0906079,51.3751664],[0.0910749,51.3753691],[0.0916286,51.3755715],[0.0924871,51.3758281],[0.0933527,51.3760869],[0.0934223,51.3761453]]]}},
{"type":"Feature","properties":{"highway":"footway","name":null,"category":"Footpath (pedestrian only)"},"geometry":{"type":"MultiLineString","coordinates":[[[0.0894181,51.3743651],[0.089302,51.3746144],[0.0893123,51.3746174],[0.0895474,51.3746854],[0.089721,51.3747604],[0.0899192,51.3748642],[0.0899742,51.3748991]]]}},
{"type":"Feature","properties":{"highway":"footway","name":null,"category":"Footpath (pedestrian only)"},"geometry":{"type":"MultiLineString","coordinates":[[[0.0852051,51.3767337],[0.0836383,51.3788819],[0.0832156,51.3792257],[0.082866,51.3795801],[0.0826385,51.3798138],[0.082566,51.3798843],[0.0816263,51.380837],[0.0812836,51.3811386]]]}},
{"type":"Feature","properties":{"highway":"footway","name":null,"category":"Footpath (pedestrian only)"},"geometry":{"type":"MultiLineString","coordinates":[[[0.0904293,51.3781345],[0.0903845,51.3781313],[0.0891957,51.3780466],[0.0883288,51.3779848],[0.0881863,51.3779746]]]}},
{"type":"Feature","properties":{"highway":"footway","name":null,"category":"Footpath (pedestrian only)"},"geometry":{"type":"MultiLineString","coordinates":[[[0.0852051,51.3767337],[0.0866745,51.3749068]]]}},
{"type":"Feature","properties":{"highway":"footway","name":null,"category":"Footpath (pedestrian only)"},"geometry":{"type":"MultiLineString","coordinates":[[[0.0885672,51.3744974],[0.0877805,51.3742013]]]}},
{"type":"Feature","properties":{"highway":"footway","name":null,"category":"Footpath (pedestrian only)"},"geometry":{"type":"MultiLineString","coordinates":[[[0.0717992,51.3707322],[0.0717841,51.3707974],[0.0713632,51.3711068],[0.0713154,51.3711426],[0.0709705,51.3714386]]]}},
{"type":"Feature","properties":{"highway":"footway","name":null,"category":"Footpath (pedestrian only)"},"geometry":{"type":"MultiLineString","coordinates":[[[0.0770081,51.3721053],[0.076336,51.3718559],[0.0756919,51.3715512]]]}},
{"type":"Feature","properties":{"highway":"footway","name":null,"category":"Footpath (pedestrian only)"},"geometry":{"type":"MultiLineString","coordinates":[[[0.0869338,51.3768755],[0.0884296,51.3771337]]]}},
{"type":"Feature","properties":{"highway":"footway","name":null,"category":"Footpath (pedestrian only)"},"geometry":{"type":"MultiLineString","coordinates":[[[0.0744893,51.3711833],[0.0735893,51.3714407],[0.0730778,51.371701]]]}},
{"type":"Feature","properties":{"highway":"footway","name":null,"category":"Footpath (pedestrian only)"},"geometry":{"type":"MultiLineString","coordinates":[[[0.0846874,51.3668769],[0.0838003,51.367461]]]}},
{"type":"Feature","properties":{"highway":"footway","name":null,"category":"Footpath (pedestrian only)"},"geometry":{"type":"MultiLineString","coordinates":[[[0.0855465,51.3735729],[0.0856756,51.3735303],[0.0861933,51.3734022],[0.0864071,51.3729127]]]}},
{"type":"Feature","properties":{"highway":"footway","name":null,"category":"Footpath (pedestrian only)"},"geometry":{"type":"MultiLineString","coordinates":[[[0.0804861,51.381233],[0.0805083,51.3811503],[0.0812836,51.3811386],[0.0814103,51.3811301]]]}},
{"type":"Feature","properties":{"highway":"footway","name":null,"category":"Footpath (pedestrian only)"},"geometry":{"type":"MultiLineString","coordinates":[[[0.0819489,51.3811517],[0.0822196,51.3811635],[0.0822243,51.3812177]]]}},
{"type":"Feature","properties":{"highway":"footway","name":null,"category":"Footpath (pedestrian only)"},"geometry":{"type":"MultiLineString","coordinates":[[[0.0814103,51.3811301],[0.0819489,51.3811517]]]}},
{"type":"Feature","properties":{"highway":"footway","name":null,"category":"Footpath (pedestrian only)"},"geometry":{"type":"MultiLineString","coordinates":[[[0.0847087,51.370098],[0.0842761,51.3703515]]]}},
{"type":"Feature","properties":{"highway":"footway","name":"Northolme Rise","category":"Footpath (pedestrian only)"},"geometry":{"type":"MultiLineString","coordinates":[[[0.0842761,51.3703515],[0.0845841,51.3705605],[0.0847894,51.3705513]]]}},
{"type":"Feature","properties":{"highway":"footway","name":null,"category":"Footpath (pedestrian only)"},"geometry":{"type":"MultiLineString","coordinates":[[[0.0877892,51.3718288],[0.0875702,51.371645],[0.0875217,51.3716372],[0.0871226,51.3713741]]]}},
{"type":"Feature","properties":{"highway":"footway","name":null,"category":"Footpath (pedestrian only)"},"geometry":{"type":"MultiLineString","coordinates":[[[0.0693346,51.3733979],[0.0693348,51.3733632],[0.0696377,51.3729122],[0.0698265,51.3724782],[0.0699563,51.3723595],[0.0700668,51.3722585],[0.070496,51.3719746],[0.0708307,51.3716531],[0.0709705,51.3714386]]]}},
{"type":"Feature","properties":{"highway":"footway","name":null,"category":"Footpath (pedestrian only)"},"geometry":{"type":"MultiLineString","coordinates":[[[0.0870238,51.3744095],[0.087363,51.3740853],[0.0874497,51.3739478],[0.0874871,51.3738758],[0.088136,51.3729774],[0.0881867,51.3728846],[0.0882056,51.3728131]]]}},
{"type":"Feature","properties":{"highway":"footway","name":null,"category":"Footpath (pedestrian only)"},"geometry":{"type":"MultiLineString","coordinates":[[[0.0820095,51.3718205],[0.0820577,51.3718571],[0.0822664,51.372406],[0.082364,51.3727228],[0.0823813,51.3727801]]]}},
{"type":"Feature","properties":{"highway":"footway","name":null,"category":"Footpath (pedestrian only)"},"geometry":{"type":"MultiLineString","coordinates":[[[0.0823052,51.3735661],[0.0823144,51.3736161],[0.0826254,51.3746007],[0.0826351,51.3746402]]]}},
{"type":"Feature","properties":{"highway":"footway","name":null,"category":"Footpath (pedestrian only)"},"geometry":{"type":"MultiLineString","coordinates":[[[0.077157,51.3770483],[0.0767424,51.3772513],[0.0767274,51.3772586],[0.0764012,51.3774277],[0.0763787,51.3774394],[0.0761051,51.37757],[0.0755874,51.3778437],[0.0748131,51.3782479],[0.0744924,51.3784245],[0.0742396,51.3785418],[0.0741417,51.3785889],[0.0739218,51.3786683],[0.0737447,51.3787301]]]}},
{"type":"Feature","properties":{"highway":"footway","name":null,"category":"Footpath (pedestrian only)"},"geometry":{"type":"MultiLineString","coordinates":[[[0.0784334,51.3805271],[0.0787357,51.3810026],[0.0780326,51.3812261],[0.0778502,51.381653],[0.0777832,51.3818037],[0.0777322,51.3819493],[0.0777644,51.382028],[0.0780873,51.3824572]]]}},
{"type":"Feature","properties":{"highway":"footway","name":null,"category":"Footpath (pedestrian only)"},"geometry":{"type":"MultiLineString","coordinates":[[[0.089952,51.3810464],[0.087843,51.38055]]]}},
{"type":"Feature","properties":{"highway":"footway","name":null,"category":"Footpath (pedestrian only)"},"geometry":{"type":"MultiLineString","coordinates":[[[0.0840148,51.3713576],[0.0844922,51.3711144],[0.0848061,51.3710357],[0.0859093,51.3704315],[0.0867047,51.3699877]]]}},
{"type":"Feature","properties":{"highway":"footway","name":null,"category":"Footpath (pedestrian only)"},"geometry":{"type":"MultiLineString","coordinates":[[[0.0836383,51.3788819],[0.083532,51.3787487],[0.0833853,51.3787509]]]}},
{"type":"Feature","properties":{"highway":"footway","name":null,"category":"Footpath (pedestrian only)"},"geometry":{"type":"MultiLineString","coordinates":[[[0.0864359,51.376967],[0.085774,51.3767024]]]}},
{"type":"Feature","properties":{"highway":"footway","name":null,"category":"Footpath (pedestrian only)"},"geometry":{"type":"MultiLineString","coordinates":[[[0.0688766,51.3734739],[0.0694112,51.3734725],[0.0699017,51.3735218],[0.0714251,51.3735332]]]}},
{"type":"Feature","properties":{"highway":"footway","name":null,"category":"Footpath (pedestrian only)"},"geometry":{"type":"MultiLineString","coordinates":[[[0.0717992,51.3707322],[0.0720515,51.370447]]]}},
{"type":"Feature","properties":{"highway":"footway","name":null,"category":"Footpath (pedestrian only)"},"geometry":{"type":"MultiLineString","coordinates":[[[0.075004,51.3733979],[0.0750171,51.3734298],[0.0755875,51.3737266],[0.0757034,51.3737719]]]}},
{"type":"Feature","properties":{"highway":"footway","name":null,"category":"Footpath (pedestrian only)"},"geometry":{"type":"MultiLineString","coordinates":[[[0.0888314,51.3729554],[0.0888965,51.3728859],[0.0889065,51.3728487],[0.0888871,51.3728244],[0.0888602,51.3727833],[0.0888612,51.3727461],[0.0888616,51.3727306],[0.088875,51.3727189],[0.088839,51.3726839]]]}},
{"type":"Feature","properties":{"highway":"footway","name":null,"category":"Footpath (pedestrian only)"},"geometry":{"type":"MultiLineString","coordinates":[[[0.0896345,51.3731974],[0.0894702,51.3731447]]]}},
{"type":"Feature","properties":{"highway":"footway","name":null,"category":"Footpath (pedestrian only)"},"geometry":{"type":"MultiLineString","coordinates":[[[0.08927,51.3731617],[0.089316,51.3731777],[0.0893253,51.3731809]]]}},
{"type":"Feature","properties":{"highway":"footway","name":null,"category":"Footpath (pedestrian only)"},"geometry":{"type":"MultiLineString","coordinates":[[[0.0890724,51.3731009],[0.0891257,51.3731181],[0.0891344,51.3731209],[0.0891819,51.3731362]]]}},
{"type":"Feature","properties":{"highway":"footway","name":null,"category":"Footpath (pedestrian only)"},"geometry":{"type":"MultiLineString","coordinates":[[[0.0888861,51.3730401],[0.0889333,51.3730558],[0.0889829,51.3730717]]]}},
{"type":"Feature","properties":{"highway":"footway","name":null,"category":"Footpath (pedestrian only)"},"geometry":{"type":"MultiLineString","coordinates":[[[0.0883359,51.3737766],[0.0883511,51.3737818],[0.0885277,51.3738421],[0.0886901,51.3738975],[0.08871,51.3739043]]]}},
{"type":"Feature","properties":{"highway":"footway","name":"Tandridge Place","category":"Footpath (pedestrian only)"},"geometry":{"type":"MultiLineString","coordinates":[[[0.0805191,51.3784128],[0.0805217,51.3780908],[0.0805915,51.378088],[0.0805914,51.3775205]]]}},
{"type":"Feature","properties":{"highway":"footway","name":null,"category":"Footpath (pedestrian only)"},"geometry":{"type":"MultiLineString","coordinates":[[[0.079913,51.3784166],[0.0799207,51.3780939],[0.0802465,51.3780895],[0.0805217,51.3780908]]]}},
{"type":"Feature","properties":{"highway":"footway","name":null,"category":"Footpath (pedestrian only)"},"geometry":{"type":"MultiLineString","coordinates":[[[0.0805083,51.3811503],[0.0805823,51.3809412],[0.0805848,51.3808491],[0.080502,51.3807192],[0.0802478,51.3805995],[0.0798309,51.3804032]]]}},
{"type":"Feature","properties":{"highway":"footway","name":null,"category":"Footpath (pedestrian only)"},"geometry":{"type":"MultiLineString","coordinates":[[[0.080502,51.3807192],[0.0811672,51.3810324],[0.0812836,51.3811386]]]}},
{"type":"Feature","properties":{"highway":"footway","name":null,"category":"Footpath (pedestrian only)"},"geometry":{"type":"MultiLineString","coordinates":[[[0.0802478,51.3805995],[0.0803853,51.380574],[0.0806476,51.3805448],[0.0807802,51.3805549],[0.0809715,51.3806241],[0.0813066,51.3807647],[0.0814237,51.3808056],[0.0816263,51.380837]]]}},
{"type":"Feature","properties":{"highway":"footway","name":null,"category":"Footpath (pedestrian only)"},"geometry":{"type":"MultiLineString","coordinates":[[[0.0798309,51.3804032],[0.0797047,51.3801444],[0.07968,51.3801173],[0.0796228,51.3801086],[0.079561,51.3801195],[0.0794125,51.3801513]]]}},
{"type":"Feature","properties":{"highway":"footway","name":"Subway","category":"Footpath (pedestrian only)"},"geometry":{"type":"MultiLineString","coordinates":[[[0.0893691,51.3731127],[0.0891855,51.3730574],[0.0889826,51.3729964]]]}},
{"type":"Feature","properties":{"highway":"footway","name":null,"category":"Footpath (pedestrian only)"},"geometry":{"type":"MultiLineString","coordinates":[[[0.0881273,51.3727839],[0.0881258,51.3727536]]]}},
{"type":"Feature","properties":{"highway":"footway","name":null,"category":"Footpath (pedestrian only)"},"geometry":{"type":"MultiLineString","coordinates":[[[0.0881286,51.3728176],[0.0881273,51.3727839]]]}},
{"type":"Feature","properties":{"highway":"footway","name":null,"category":"Footpath (pedestrian only)"},"geometry":{"type":"MultiLineString","coordinates":[[[0.0749428,51.3733976],[0.075004,51.3733979],[0.0751623,51.3733952],[0.0752085,51.3733944]]]}},
{"type":"Feature","properties":{"highway":"footway","name":null,"category":"Footpath (pedestrian only)"},"geometry":{"type":"MultiLineString","coordinates":[[[0.0765603,51.3732375],[0.0765573,51.3732128]]]}},
{"type":"Feature","properties":{"highway":"footway","name":null,"category":"Footpath (pedestrian only)"},"geometry":{"type":"MultiLineString","coordinates":[[[0.076573,51.3733361],[0.0765683,51.3733022]]]}},
{"type":"Feature","properties":{"highway":"footway","name":null,"category":"Footpath (pedestrian only)"},"geometry":{"type":"MultiLineString","coordinates":[[[0.0765683,51.3733022],[0.0765643,51.3732695],[0.0765603,51.3732375]]]}},
{"type":"Feature","properties":{"highway":"footway","name":null,"category":"Footpath (pedestrian only)"},"geometry":{"type":"MultiLineString","coordinates":[[[0.082209,51.3727524],[0.0822066,51.3727383]]]}},
{"type":"Feature","properties":{"highway":"footway","name":null,"category":"Footpath (pedestrian only)"},"geometry":{"type":"MultiLineString","coordinates":[[[0.0822312,51.3728378],[0.0822201,51.3727951],[0.082209,51.3727524]]]}},
{"type":"Feature","properties":{"highway":"footway","name":null,"category":"Footpath (pedestrian only)"},"geometry":{"type":"MultiLineString","coordinates":[[[0.082197,51.3728654],[0.0822372,51.3728616],[0.0822312,51.3728378]]]}},
{"type":"Feature","properties":{"highway":"footway","name":null,"category":"Footpath (pedestrian only)"},"geometry":{"type":"MultiLineString","coordinates":[[[0.0821122,51.3728747],[0.0821522,51.3728712]]]}},
{"type":"Feature","properties":{"highway":"footway","name":null,"category":"Footpath (pedestrian only)"},"geometry":{"type":"MultiLineString","coordinates":[[[0.0820103,51.3728841],[0.082076,51.3728778]]]}},
{"type":"Feature","properties":{"highway":"footway","name":null,"category":"Footpath (pedestrian only)"},"geometry":{"type":"MultiLineString","coordinates":[[[0.0819715,51.3728871],[0.0820103,51.3728841]]]}},
{"type":"Feature","properties":{"highway":"footway","name":null,"category":"Footpath (pedestrian only)"},"geometry":{"type":"MultiLineString","coordinates":[[[0.0822858,51.3727298],[0.0822066,51.3727383],[0.0821691,51.3727423],[0.0821701,51.3727555]]]}},
{"type":"Feature","properties":{"highway":"footway","name":null,"category":"Footpath (pedestrian only)"},"geometry":{"type":"MultiLineString","coordinates":[[[0.0821522,51.3728712],[0.082197,51.3728654],[0.0821903,51.372839]]]}},
{"type":"Feature","properties":{"highway":"footway","name":null,"category":"Footpath (pedestrian only)"},"geometry":{"type":"MultiLineString","coordinates":[[[0.0854228,51.3725596],[0.0854223,51.3725464],[0.085422,51.3725387]]]}},
{"type":"Feature","properties":{"highway":"footway","name":null,"category":"Footpath (pedestrian only)"},"geometry":{"type":"MultiLineString","coordinates":[[[0.0854264,51.372637],[0.0854253,51.372628]]]}},
{"type":"Feature","properties":{"highway":"footway","name":null,"category":"Footpath (pedestrian only)"},"geometry":{"type":"MultiLineString","coordinates":[[[0.085422,51.3725387],[0.0854213,51.3725131],[0.0852322,51.3725207],[0.0851748,51.3725376]]]}},
{"type":"Feature","properties":{"highway":"footway","name":null,"category":"Footpath (pedestrian only)"},"geometry":{"type":"MultiLineString","coordinates":[[[0.0854253,51.372628],[0.0854239,51.3725897],[0.0854228,51.3725596]]]}},
{"type":"Feature","properties":{"highway":"footway","name":null,"category":"Footpath (pedestrian only)"},"geometry":{"type":"MultiLineString","coordinates":[[[0.0822196,51.3811635],[0.0824055,51.3811708],[0.0824391,51.3811858],[0.082517,51.3811913],[0.0828682,51.3812145],[0.0832664,51.3812332],[0.0835336,51.3812316],[0.0837106,51.38122],[0.0838229,51.3812067],[0.0839034,51.381188],[0.0841211,51.3811018],[0.0842521,51.3810582],[0.0843715,51.381035],[0.0845794,51.3810052],[0.0846776,51.3810019],[0.084821,51.3810052],[0.0849068,51.381009],[0.0850059,51.381019],[0.0851289,51.381035],[0.0857411,51.3811545],[0.0859226,51.3811996],[0.0863557,51.3812829],[0.0866897,51.3813541],[0.0868318,51.3813955],[0.0870538,51.3814997],[0.0872033,51.3815855],[0.0873877,51.3817206]]]}},
{"type":"Feature","properties":{"highway":"footway","name":null,"category":"Footpath (pedestrian only)"},"geometry":{"type":"MultiLineString","coordinates":[[[0.0805793,51.3814072],[0.0805651,51.3813553],[0.0805708,51.3813216],[0.0806048,51.3812969],[0.0806445,51.3812815],[0.0806871,51.3812703],[0.0807447,51.3812739],[0.0807665,51.3812821],[0.0810615,51.3812821],[0.0811494,51.3812774],[0.0811711,51.3812691],[0.0811967,51.3812461],[0.0812307,51.3811996],[0.0812836,51.3811386]]]}},
{"type":"Feature","properties":{"highway":"footway","name":"Gleneagles Green","category":"Footpath (pedestrian only)"},"geometry":{"type":"MultiLineString","coordinates":[[[0.0792059,51.3766974],[0.0792104,51.3767769],[0.0792165,51.3768825],[0.0791238,51.3769727],[0.0791303,51.3772176],[0.0794062,51.3772147],[0.0793944,51.3767749],[0.0792104,51.3767769]]]}},
{"type":"Feature","properties":{"highway":"footway","name":null,"category":"Footpath (pedestrian only)"},"geometry":{"type":"MultiLineString","coordinates":[[[0.0809112,51.3768124],[0.0813972,51.376809],[0.0814011,51.3765483]]]}},
{"type":"Feature","properties":{"highway":"footway","name":null,"category":"Footpath (pedestrian only)"},"geometry":{"type":"MultiLineString","coordinates":[[[0.0810433,51.3770702],[0.080918,51.3770379],[0.0809112,51.3768124],[0.0809035,51.3765548]]]}},
{"type":"Feature","properties":{"highway":"footway","name":null,"category":"Footpath (pedestrian only)"},"geometry":{"type":"MultiLineString","coordinates":[[[0.0785128,51.3766003],[0.0788797,51.3765765],[0.0788274,51.3762743]]]}},
{"type":"Feature","properties":{"highway":"footway","name":null,"category":"Footpath (pedestrian only)"},"geometry":{"type":"MultiLineString","coordinates":[[[0.0714305,51.3734333],[0.0714251,51.3735332],[0.0713612,51.3737969],[0.0713796,51.3740132]]]}},
{"type":"Feature","properties":{"highway":"footway","name":null,"category":"Footpath (pedestrian only)"},"geometry":{"type":"MultiLineString","coordinates":[[[0.0803544,51.3730378],[0.0804307,51.3730041],[0.0804837,51.3729922],[0.080612,51.3729804],[0.0807041,51.3729771],[0.0807787,51.3729909]]]}},
{"type":"Feature","properties":{"highway":"footway","name":null,"category":"Footpath (pedestrian only)"},"geometry":{"type":"MultiLineString","coordinates":[[[0.072202,51.373405],[0.0722887,51.3734677],[0.0724143,51.3734867],[0.0727356,51.3734842],[0.0730373,51.3734723],[0.0734314,51.3734645],[0.0738709,51.3734471],[0.0743814,51.3734354],[0.0745037,51.3734229],[0.0746908,51.3734046],[0.0749428,51.3733976]]]}},
{"type":"Feature","properties":{"highway":"footway","name":null,"category":"Footpath (pedestrian only)"},"geometry":{"type":"MultiLineString","coordinates":[[[0.07717,51.3733261],[0.0775206,51.373315],[0.0778072,51.3733138],[0.0780027,51.3733024],[0.0782132,51.3732959],[0.0785374,51.3732712],[0.0788489,51.3732518],[0.0789707,51.3732223],[0.0793147,51.3731835],[0.0796821,51.3731323],[0.0799795,51.3730876],[0.0801732,51.3730613],[0.0803544,51.3730378],[0.0804416,51.3730265],[0.0806169,51.3730079],[0.0807787,51.3729909],[0.0809845,51.3729693],[0.0812585,51.3729454],[0.0817369,51.3729015],[0.081852,51.3728948]]]}},
{"type":"Feature","properties":{"highway":"footway","name":null,"category":"Footpath (pedestrian only)"},"geometry":{"type":"MultiLineString","coordinates":[[[0.0822372,51.3728616],[0.0826345,51.3728315],[0.0829912,51.3727982],[0.0834297,51.3727583],[0.0836025,51.3727489],[0.0838068,51.3727533],[0.0841146,51.3727511],[0.0844285,51.3727422],[0.0847234,51.3727297],[0.0849457,51.3727026],[0.0851555,51.3726751],[0.0852591,51.3726618],[0.0854272,51.3726581],[0.085534,51.3726606],[0.0857163,51.3726723],[0.0858985,51.3726861],[0.0861418,51.3727315],[0.0864211,51.3727791],[0.0866981,51.3728338],[0.0867656,51.3728442],[0.0868356,51.3728499],[0.0870697,51.3728444],[0.0874203,51.3728524],[0.0876799,51.3728419],[0.0879938,51.372837]]]}},
{"type":"Feature","properties":{"highway":"footway","name":null,"category":"Footpath (pedestrian only)"},"geometry":{"type":"MultiLineString","coordinates":[[[0.0852051,51.3767337],[0.0854195,51.3766477]]]}},
{"type":"Feature","properties":{"highway":"footway","name":null,"category":"Footpath (pedestrian only)"},"geometry":{"type":"MultiLineString","coordinates":[[[0.0866009,51.3770055],[0.0869089,51.3769027]]]}},
{"type":"Feature","properties":{"highway":"path","name":null,"category":"Shared path"},"geometry":{"type":"MultiLineString","coordinates":[[[0.0891957,51.3780466],[0.0891947,51.3780528],[0.08908,51.3786157],[0.089108,51.3788636]]]}},
{"type":"Feature","properties":{"highway":"footway","name":null,"category":"Footpath (pedestrian only)"},"geometry":{"type":"MultiLineString","coordinates":[[[0.0843865,51.3764604],[0.0852051,51.3767337]]]}},
{"type":"Feature","properties":{"highway":"path","name":null,"category":"Shared path"},"geometry":{"type":"MultiLineString","coordinates":[[[0.0856458,51.3766554],[0.085774,51.3767024]]]}},
{"type":"Feature","properties":{"highway":"footway","name":null,"category":"Footpath (pedestrian only)"},"geometry":{"type":"MultiLineString","coordinates":[[[0.0864145,51.3727972],[0.0864211,51.3727791],[0.0864323,51.3727534]]]}},
{"type":"Feature","properties":{"highway":"footway","name":null,"category":"Footpath (pedestrian only)"},"geometry":{"type":"MultiLineString","coordinates":[[[0.0888314,51.3729554],[0.0887567,51.3730124],[0.0887092,51.3730219]]]}},
{"type":"Feature","properties":{"highway":"footway","name":null,"category":"Footpath (pedestrian only)"},"geometry":{"type":"MultiLineString","coordinates":[[[0.089302,51.3746144],[0.089164,51.3745517],[0.0887482,51.3745655],[0.0885672,51.3744974]]]}},
{"type":"Feature","properties":{"highway":"footway","name":null,"category":"Footpath (pedestrian only)"},"geometry":{"type":"MultiLineString","coordinates":[[[0.0877805,51.3742013],[0.0877535,51.3741912],[0.0874105,51.3740985],[0.087363,51.3740853]]]}},
{"type":"Feature","properties":{"highway":"footway","name":null,"category":"Footpath (pedestrian only)"},"geometry":{"type":"MultiLineString","coordinates":[[[0.0854272,51.3726581],[0.0854264,51.372637]]]}},
{"type":"Feature","properties":{"highway":"footway","name":null,"category":"Footpath (pedestrian only)"},"geometry":{"type":"MultiLineString","coordinates":[[[0.0883774,51.3728307],[0.0883778,51.3728445],[0.0884572,51.3728524],[0.0885451,51.3728758],[0.0885925,51.3729006]]]}},
{"type":"Feature","properties":{"highway":"footway","name":null,"category":"Footpath (pedestrian only)"},"geometry":{"type":"MultiLineString","coordinates":[[[0.0886641,51.3731089],[0.0886465,51.3731037],[0.0887092,51.3730219],[0.0886477,51.373006],[0.0886519,51.3729994]]]}},
{"type":"Feature","properties":{"highway":"footway","name":null,"category":"Footpath (pedestrian only)"},"geometry":{"type":"MultiLineString","coordinates":[[[0.0887672,51.3727774],[0.0887946,51.3727682],[0.0888482,51.3727502]]]}},
{"type":"Feature","properties":{"highway":"footway","name":null,"category":"Footpath (pedestrian only)"},"geometry":{"type":"MultiLineString","coordinates":[[[0.0883591,51.3728061],[0.0883773,51.3728064],[0.0886403,51.3727997],[0.0887672,51.3727774]]]}},
{"type":"Feature","properties":{"highway":"footway","name":null,"category":"Footpath (pedestrian only)"},"geometry":{"type":"MultiLineString","coordinates":[[[0.0878624,51.3730976],[0.087955,51.37306],[0.0880046,51.3730257],[0.0880152,51.3729954],[0.0880384,51.3729291],[0.088071,51.3728482],[0.0880782,51.3728205]]]}},
{"type":"Feature","properties":{"highway":"footway","name":null,"category":"Footpath (pedestrian only)"},"geometry":{"type":"MultiLineString","coordinates":[[[0.0828052,51.3702081],[0.0828883,51.3702633],[0.0830103,51.3705539],[0.0830492,51.3706434]]]}},
{"type":"Feature","properties":{"highway":"footway","name":null,"category":"Footpath (pedestrian only)"},"geometry":{"type":"MultiLineString","coordinates":[[[0.0826402,51.3692017],[0.0826241,51.3692779],[0.0827207,51.3694328],[0.082726,51.3695433],[0.0826818,51.369648],[0.0825933,51.3697317],[0.0824417,51.3698179],[0.0823659,51.3698867],[0.0822419,51.369864],[0.0820434,51.3698707],[0.0818597,51.3698322],[0.0817237,51.3698075]]]}},
{"type":"Feature","properties":{"highway":"footway","name":null,"category":"Footpath (pedestrian only)"},"geometry":{"type":"MultiLineString","coordinates":[[[0.0799741,51.3675766],[0.0799084,51.3676796],[0.0802597,51.3679031],[0.0805843,51.3680589],[0.0811583,51.3682305],[0.0819589,51.3686416],[0.0821748,51.3687622],[0.0824069,51.3689077]]]}},
{"type":"Feature","properties":{"highway":"footway","name":null,"category":"Footpath (pedestrian only)"},"geometry":{"type":"MultiLineString","coordinates":[[[0.0799741,51.3675766],[0.0801685,51.3676503],[0.080642,51.3679224],[0.0812481,51.3681016],[0.0817148,51.3683352],[0.0819717,51.3684663],[0.0821185,51.3685512],[0.0823076,51.3686793],[0.0823921,51.3687831],[0.0824069,51.3689077]]]}},
{"type":"Feature","properties":{"highway":"path","name":null,"category":"Shared path"},"geometry":{"type":"MultiLineString","coordinates":[[[0.0883511,51.3737818],[0.0883469,51.3737864]]]}},
{"type":"Feature","properties":{"highway":"path","name":null,"category":"Shared path"},"geometry":{"type":"MultiLineString","coordinates":[[[0.0885277,51.3738421],[0.0885252,51.3738455]]]}},
{"type":"Feature","properties":{"highway":"path","name":null,"category":"Shared path"},"geometry":{"type":"MultiLineString","coordinates":[[[0.0886901,51.3738975],[0.0886869,51.3739013]]]}},
{"type":"Feature","properties":{"highway":"footway","name":null,"category":"Footpath (pedestrian only)"},"geometry":{"type":"MultiLineString","coordinates":[[[0.0751498,51.3732859],[0.0751536,51.3733178],[0.0751573,51.3733509]]]}},
{"type":"Feature","properties":{"highway":"footway","name":null,"category":"Footpath (pedestrian only)"},"geometry":{"type":"MultiLineString","coordinates":[[[0.0751466,51.3732544],[0.0751498,51.3732859]]]}},
{"type":"Feature","properties":{"highway":"footway","name":null,"category":"Footpath (pedestrian only)"},"geometry":{"type":"MultiLineString","coordinates":[[[0.0751573,51.3733509],[0.0751623,51.3733952]]]}},
{"type":"Feature","properties":{"highway":"footway","name":null,"category":"Footpath (pedestrian only)"},"geometry":{"type":"MultiLineString","coordinates":[[[0.0759799,51.3734843],[0.076026,51.3735094],[0.0760694,51.373533]]]}},
{"type":"Feature","properties":{"highway":"footway","name":null,"category":"Footpath (pedestrian only)"},"geometry":{"type":"MultiLineString","coordinates":[[[0.0760694,51.373533],[0.0760907,51.3735446],[0.0761204,51.3735259]]]}},
{"type":"Feature","properties":{"highway":"footway","name":null,"category":"Footpath (pedestrian only)"},"geometry":{"type":"MultiLineString","coordinates":[[[0.0759935,51.373459],[0.0759697,51.373476],[0.075968,51.3734779],[0.0759799,51.3734843]]]}},
{"type":"Feature","properties":{"highway":"footway","name":null,"category":"Footpath (pedestrian only)"},"geometry":{"type":"MultiLineString","coordinates":[[[0.0730444,51.374421],[0.0728623,51.37398]]]}},
{"type":"Feature","properties":{"highway":"footway","name":null,"category":"Footpath (pedestrian only)"},"geometry":{"type":"MultiLineString","coordinates":[[[0.0879751,51.3729894],[0.0880152,51.3729954]]]}},
{"type":"Feature","properties":{"highway":"footway","name":null,"category":"Footpath (pedestrian only)"},"geometry":{"type":"MultiLineString","coordinates":[[[0.0746858,51.3730891],[0.074751,51.3732313],[0.0747565,51.3732434]]]}},
{"type":"Feature","properties":{"highway":"footway","name":null,"category":"Footpath (pedestrian only)"},"geometry":{"type":"MultiLineString","coordinates":[[[0.0747599,51.373266],[0.0746726,51.3732718]]]}},
{"type":"Feature","properties":{"highway":"footway","name":null,"category":"Footpath (pedestrian only)"},"geometry":{"type":"MultiLineString","coordinates":[[[0.074798,51.3732634],[0.0747599,51.373266]]]}},
{"type":"Feature","properties":{"highway":"footway","name":null,"category":"Footpath (pedestrian only)"},"geometry":{"type":"MultiLineString","coordinates":[[[0.0766173,51.3733258],[0.0766669,51.3733089],[0.0769515,51.3733035],[0.0770794,51.3733074],[0.07717,51.3733261]]]}},
{"type":"Feature","properties":{"highway":"footway","name":null,"category":"Footpath (pedestrian only)"},"geometry":{"type":"MultiLineString","coordinates":[[[0.079971,51.3730665],[0.0799496,51.3730131]]]}},
{"type":"Feature","properties":{"highway":"footway","name":null,"category":"Footpath (pedestrian only)"},"geometry":{"type":"MultiLineString","coordinates":[[[0.0799795,51.3730876],[0.079971,51.3730665]]]}},
{"type":"Feature","properties":{"highway":"footway","name":null,"category":"Footpath (pedestrian only)"},"geometry":{"type":"MultiLineString","coordinates":[[[0.0819338,51.37289],[0.0819715,51.3728871]]]}},
{"type":"Feature","properties":{"highway":"footway","name":null,"category":"Footpath (pedestrian only)"},"geometry":{"type":"MultiLineString","coordinates":[[[0.0758473,51.3732254],[0.0757946,51.37323],[0.0755101,51.3732442],[0.0752555,51.3732503],[0.0751922,51.3732544]]]}},
{"type":"Feature","properties":{"highway":"footway","name":null,"category":"Footpath (pedestrian only)"},"geometry":{"type":"MultiLineString","coordinates":[[[0.082076,51.3728778],[0.0821122,51.3728747]]]}},
{"type":"Feature","properties":{"highway":"footway","name":null,"category":"Footpath (pedestrian only)"},"geometry":{"type":"MultiLineString","coordinates":[[[0.081852,51.3728948],[0.0819338,51.37289]]]}},
{"type":"Feature","properties":{"highway":"footway","name":null,"category":"Footpath (pedestrian only)"},"geometry":{"type":"MultiLineString","coordinates":[[[0.0879938,51.372837],[0.088032,51.3728232]]]}},
{"type":"Feature","properties":{"highway":"footway","name":null,"category":"Footpath (pedestrian only)"},"geometry":{"type":"MultiLineString","coordinates":[[[0.0882954,51.3728089],[0.0883591,51.3728061]]]}},
{"type":"Feature","properties":{"highway":"footway","name":null,"category":"Footpath (pedestrian only)"},"geometry":{"type":"MultiLineString","coordinates":[[[0.0886403,51.3727997],[0.0886463,51.3728327],[0.0886014,51.37287],[0.0885925,51.3729006],[0.088594,51.3729093],[0.088599,51.3729129]]]}},
{"type":"Feature","properties":{"highway":"footway","name":null,"category":"Footpath (pedestrian only)"},"geometry":{"type":"MultiLineString","coordinates":[[[0.0886736,51.3729665],[0.0886819,51.3729545],[0.0886683,51.3729495]]]}},
{"type":"Feature","properties":{"highway":"footway","name":null,"category":"Footpath (pedestrian only)"},"geometry":{"type":"MultiLineString","coordinates":[[[0.0886519,51.3729994],[0.0886631,51.3729815],[0.0886736,51.3729665]]]}},
{"type":"Feature","properties":{"highway":"footway","name":null,"category":"Footpath (pedestrian only)"},"geometry":{"type":"MultiLineString","coordinates":[[[0.0886683,51.3729495],[0.0886306,51.3729357],[0.088599,51.3729129]]]}},
{"type":"Feature","properties":{"highway":"footway","name":null,"category":"Footpath (pedestrian only)"},"geometry":{"type":"MultiLineString","coordinates":[[[0.0888482,51.3727502],[0.0888612,51.3727461]]]}},
{"type":"Feature","properties":{"highway":"footway","name":null,"category":"Footpath (pedestrian only)"},"geometry":{"type":"MultiLineString","coordinates":[[[0.0883773,51.3728064],[0.0883773,51.3728206]]]}},
{"type":"Feature","properties":{"highway":"footway","name":"Tandridge Place","category":"Footpath (pedestrian only)"},"geometry":{"type":"MultiLineString","coordinates":[[[0.0802465,51.3780895],[0.0802446,51.3777932],[0.0802435,51.3775224]]]}},
{"type":"Feature","properties":{"highway":"footway","name":null,"category":"Footpath (pedestrian only)"},"geometry":{"type":"MultiLineString","coordinates":[[[0.0799207,51.3780939],[0.0799195,51.3779075],[0.0796872,51.3779119],[0.0792223,51.3779162]]]}},
{"type":"Feature","properties":{"highway":"footway","name":null,"category":"Footpath (pedestrian only)"},"geometry":{"type":"MultiLineString","coordinates":[[[0.0796872,51.3779119],[0.0796896,51.3777932],[0.079695,51.3775276]]]}},
{"type":"Feature","properties":{"highway":"footway","name":null,"category":"Footpath (pedestrian only)"},"geometry":{"type":"MultiLineString","coordinates":[[[0.0796896,51.3777932],[0.0802446,51.3777932]]]}},
{"type":"Feature","properties":{"highway":"footway","name":null,"category":"Footpath (pedestrian only)"},"geometry":{"type":"MultiLineString","coordinates":[[[0.0805822,51.3765566],[0.0805786,51.3762901],[0.0805732,51.3758916],[0.0798609,51.3760805]]]}},
{"type":"Feature","properties":{"highway":"footway","name":null,"category":"Footpath (pedestrian only)"},"geometry":{"type":"MultiLineString","coordinates":[[[0.0805786,51.3762901],[0.0801854,51.3762874],[0.0798613,51.3762851]]]}},
{"type":"Feature","properties":{"highway":"footway","name":null,"category":"Footpath (pedestrian only)"},"geometry":{"type":"MultiLineString","coordinates":[[[0.0797428,51.3761035],[0.079766,51.3766951],[0.0797688,51.3767676],[0.0797985,51.3775266]]]}},
{"type":"Feature","properties":{"highway":"footway","name":null,"category":"Footpath (pedestrian only)"},"geometry":{"type":"MultiLineString","coordinates":[[[0.0793944,51.3767749],[0.0797688,51.3767676]]]}},
{"type":"Feature","properties":{"highway":"footway","name":null,"category":"Footpath (pedestrian only)"},"geometry":{"type":"MultiLineString","coordinates":[[[0.079766,51.3766951],[0.0802009,51.3766991]]]}},
{"type":"Feature","properties":{"highway":"footway","name":null,"category":"Footpath (pedestrian only)"},"geometry":{"type":"MultiLineString","coordinates":[[[0.0801854,51.3762874],[0.0802105,51.3766779]]]}},
{"type":"Feature","properties":{"highway":"footway","name":null,"category":"Footpath (pedestrian only)"},"geometry":{"type":"MultiLineString","coordinates":[[[0.0791303,51.3772176],[0.079135,51.3775313]]]}},
{"type":"Feature","properties":{"highway":"footway","name":null,"category":"Footpath (pedestrian only)"},"geometry":{"type":"MultiLineString","coordinates":[[[0.0758243,51.3775732],[0.0755922,51.3772752]]]}},
{"type":"Feature","properties":{"highway":"footway","name":null,"category":"Footpath (pedestrian only)"},"geometry":{"type":"MultiLineString","coordinates":[[[0.0764012,51.3774277],[0.0763135,51.3773138],[0.0761321,51.3770783]]]}},
{"type":"Feature","properties":{"highway":"footway","name":null,"category":"Footpath (pedestrian only)"},"geometry":{"type":"MultiLineString","coordinates":[[[0.0763135,51.3773138],[0.076079,51.3773906]]]}},
{"type":"Feature","properties":{"highway":"footway","name":null,"category":"Footpath (pedestrian only)"},"geometry":{"type":"MultiLineString","coordinates":[[[0.0767424,51.3772513],[0.0765262,51.3769482]]]}},
{"type":"Feature","properties":{"highway":"footway","name":null,"category":"Footpath (pedestrian only)"},"geometry":{"type":"MultiLineString","coordinates":[[[0.0825125,51.3795821],[0.0827734,51.3795806],[0.0828414,51.3795802],[0.082866,51.3795801]]]}},
{"type":"Feature","properties":{"highway":"footway","name":null,"category":"Footpath (pedestrian only)"},"geometry":{"type":"MultiLineString","coordinates":[[[0.0828498,51.379231],[0.0832156,51.3792257]]]}},
{"type":"Feature","properties":{"highway":"footway","name":null,"category":"Footpath (pedestrian only)"},"geometry":{"type":"MultiLineString","coordinates":[[[0.0826252,51.3790994],[0.0826272,51.3790328],[0.0829255,51.3790295],[0.0832577,51.3790258],[0.0832496,51.3787544],[0.0833853,51.3787509]]]}},
{"type":"Feature","properties":{"highway":"footway","name":null,"category":"Footpath (pedestrian only)"},"geometry":{"type":"MultiLineString","coordinates":[[[0.081452,51.3791926],[0.0819135,51.3791864],[0.0823015,51.3791813],[0.0823265,51.3791808]]]}},
{"type":"Feature","properties":{"highway":"footway","name":null,"category":"Footpath (pedestrian only)"},"geometry":{"type":"MultiLineString","coordinates":[[[0.0819135,51.3791864],[0.0819097,51.3786782],[0.0823053,51.3786769]]]}},
{"type":"Feature","properties":{"highway":"footway","name":null,"category":"Footpath (pedestrian only)"},"geometry":{"type":"MultiLineString","coordinates":[[[0.0823015,51.3791813],[0.0823054,51.3787031],[0.0823053,51.3786769],[0.0823109,51.3784046]]]}},
{"type":"Feature","properties":{"highway":"footway","name":null,"category":"Footpath (pedestrian only)"},"geometry":{"type":"MultiLineString","coordinates":[[[0.0823054,51.3787031],[0.0826242,51.3787009],[0.0829289,51.3786989],[0.0829255,51.3790295]]]}},
{"type":"Feature","properties":{"highway":"footway","name":null,"category":"Footpath (pedestrian only)"},"geometry":{"type":"MultiLineString","coordinates":[[[0.0826272,51.3790328],[0.0826242,51.3787009]]]}},
{"type":"Feature","properties":{"highway":"footway","name":null,"category":"Footpath (pedestrian only)"},"geometry":{"type":"MultiLineString","coordinates":[[[0.0829289,51.3786989],[0.0829307,51.3785072]]]}},
{"type":"Feature","properties":{"highway":"footway","name":null,"category":"Footpath (pedestrian only)"},"geometry":{"type":"MultiLineString","coordinates":[[[0.0822531,51.3784052],[0.0822455,51.3781296],[0.0821485,51.3781312],[0.0817949,51.378137],[0.0816385,51.3781396],[0.0814954,51.378142],[0.0815031,51.378413]]]}},
{"type":"Feature","properties":{"highway":"footway","name":null,"category":"Footpath (pedestrian only)"},"geometry":{"type":"MultiLineString","coordinates":[[[0.0821485,51.3781312],[0.082154,51.3779515],[0.0819801,51.3776913]]]}},
{"type":"Feature","properties":{"highway":"footway","name":null,"category":"Footpath (pedestrian only)"},"geometry":{"type":"MultiLineString","coordinates":[[[0.0817859,51.377761],[0.0817949,51.378137]]]}},
{"type":"Feature","properties":{"highway":"footway","name":null,"category":"Footpath (pedestrian only)"},"geometry":{"type":"MultiLineString","coordinates":[[[0.0819168,51.3777166],[0.0818953,51.3774506],[0.081789,51.3774506],[0.0816175,51.3774506],[0.0816192,51.3773455],[0.0815081,51.3773463],[0.0810515,51.3773497]]]}},
{"type":"Feature","properties":{"highway":"footway","name":null,"category":"Footpath (pedestrian only)"},"geometry":{"type":"MultiLineString","coordinates":[[[0.0814954,51.378142],[0.0814829,51.3777821]]]}},
{"type":"Feature","properties":{"highway":"footway","name":null,"category":"Footpath (pedestrian only)"},"geometry":{"type":"MultiLineString","coordinates":[[[0.0815182,51.3777819],[0.0815105,51.3774517],[0.0815081,51.3773463]]]}},
{"type":"Feature","properties":{"highway":"footway","name":null,"category":"Footpath (pedestrian only)"},"geometry":{"type":"MultiLineString","coordinates":[[[0.0816175,51.3774506],[0.0815105,51.3774517]]]}},
{"type":"Feature","properties":{"highway":"footway","name":null,"category":"Footpath (pedestrian only)"},"geometry":{"type":"MultiLineString","coordinates":[[[0.0810486,51.3772523],[0.0806984,51.3772517],[0.0802111,51.377251]]]}},
{"type":"Feature","properties":{"highway":"footway","name":null,"category":"Footpath (pedestrian only)"},"geometry":{"type":"MultiLineString","coordinates":[[[0.0806984,51.3772517],[0.0806917,51.3768279]]]}},
{"type":"Feature","properties":{"highway":"footway","name":null,"category":"Footpath (pedestrian only)"},"geometry":{"type":"MultiLineString","coordinates":[[[0.0819097,51.3786782],[0.0814412,51.3786794]]]}},
{"type":"Feature","properties":{"highway":"footway","name":null,"category":"Footpath (pedestrian only)"},"geometry":{"type":"MultiLineString","coordinates":[[[0.0803663,51.3784138],[0.0803693,51.378982],[0.0806864,51.3789802],[0.0806745,51.3784118]]]}},
{"type":"Feature","properties":{"highway":"footway","name":null,"category":"Footpath (pedestrian only)"},"geometry":{"type":"MultiLineString","coordinates":[[[0.0803693,51.378982],[0.0798856,51.3789868]]]}},
{"type":"Feature","properties":{"highway":"footway","name":null,"category":"Footpath (pedestrian only)"},"geometry":{"type":"MultiLineString","coordinates":[[[0.0806864,51.3789802],[0.0806881,51.37911],[0.0806917,51.3793734]]]}},
{"type":"Feature","properties":{"highway":"footway","name":null,"category":"Footpath (pedestrian only)"},"geometry":{"type":"MultiLineString","coordinates":[[[0.0806881,51.37911],[0.0810827,51.3791059],[0.0814501,51.379102]]]}},
{"type":"Feature","properties":{"highway":"footway","name":null,"category":"Footpath (pedestrian only)"},"geometry":{"type":"MultiLineString","coordinates":[[[0.0810827,51.3791059],[0.0810724,51.37841]]]}},
{"type":"Feature","properties":{"highway":"footway","name":null,"category":"Footpath (pedestrian only)"},"geometry":{"type":"MultiLineString","coordinates":[[[0.0794182,51.3796767],[0.0792885,51.3794347],[0.0791798,51.37923],[0.079113,51.3791041]]]}},
{"type":"Feature","properties":{"highway":"footway","name":null,"category":"Footpath (pedestrian only)"},"geometry":{"type":"MultiLineString","coordinates":[[[0.0790535,51.3794859],[0.0792885,51.3794347]]]}},
{"type":"Feature","properties":{"highway":"footway","name":null,"category":"Footpath (pedestrian only)"},"geometry":{"type":"MultiLineString","coordinates":[[[0.0789453,51.3792812],[0.0791798,51.37923],[0.0794366,51.3791739],[0.0796886,51.3791188],[0.0797068,51.3791552],[0.079753,51.3792477]]]}},
{"type":"Feature","properties":{"highway":"footway","name":null,"category":"Footpath (pedestrian only)"},"geometry":{"type":"MultiLineString","coordinates":[[[0.0814559,51.3799525],[0.0814574,51.379447]]]}},
{"type":"Feature","properties":{"highway":"footway","name":null,"category":"Footpath (pedestrian only)"},"geometry":{"type":"MultiLineString","coordinates":[[[0.0810543,51.3799508],[0.0810523,51.3795067],[0.0812423,51.3795092],[0.0812443,51.3794484]]]}},
{"type":"Feature","properties":{"highway":"footway","name":null,"category":"Footpath (pedestrian only)"},"geometry":{"type":"MultiLineString","coordinates":[[[0.0787048,51.3773626],[0.0780816,51.3773665],[0.0788725,51.378053],[0.0789568,51.3780497],[0.0793578,51.378034]]]}},
{"type":"Feature","properties":{"highway":"footway","name":null,"category":"Footpath (pedestrian only)"},"geometry":{"type":"MultiLineString","coordinates":[[[0.0799136,51.3787609],[0.0794986,51.3787652],[0.0793235,51.3787651]]]}},
{"type":"Feature","properties":{"highway":"footway","name":null,"category":"Footpath (pedestrian only)"},"geometry":{"type":"MultiLineString","coordinates":[[[0.0794986,51.3787652],[0.0795073,51.3783772]]]}},
{"type":"Feature","properties":{"highway":"footway","name":null,"category":"Footpath (pedestrian only)"},"geometry":{"type":"MultiLineString","coordinates":[[[0.0794483,51.3783108],[0.0790598,51.3783382],[0.0790054,51.3782034],[0.0788725,51.378053]]]}},
{"type":"Feature","properties":{"highway":"footway","name":null,"category":"Footpath (pedestrian only)"},"geometry":{"type":"MultiLineString","coordinates":[[[0.0794366,51.3791739],[0.0793785,51.3790516]]]}},
{"type":"Feature","properties":{"highway":"footway","name":null,"category":"Footpath (pedestrian only)"},"geometry":{"type":"MultiLineString","coordinates":[[[0.0791854,51.3797302],[0.0794182,51.3796767],[0.0794402,51.37972],[0.0798395,51.3796444]]]}},
{"type":"Feature","properties":{"highway":"footway","name":null,"category":"Footpath (pedestrian only)"},"geometry":{"type":"MultiLineString","coordinates":[[[0.0813972,51.376809],[0.081391,51.3770674]]]}},
{"type":"Feature","properties":{"highway":"footway","name":null,"category":"Footpath (pedestrian only)"},"geometry":{"type":"MultiLineString","coordinates":[[[0.0823385,51.3760729],[0.0817383,51.3761483]]]}},
{"type":"Feature","properties":{"highway":"footway","name":null,"category":"Footpath (pedestrian only)"},"geometry":{"type":"MultiLineString","coordinates":[[[0.0822537,51.3757977],[0.0816122,51.3758839]]]}},
{"type":"Feature","properties":{"highway":"footway","name":null,"category":"Footpath (pedestrian only)"},"geometry":{"type":"MultiLineString","coordinates":[[[0.0821688,51.3755226],[0.081733,51.3756049]]]}},
{"type":"Feature","properties":{"highway":"footway","name":null,"category":"Footpath (pedestrian only)"},"geometry":{"type":"MultiLineString","coordinates":[[[0.0809801,51.3760498],[0.0811302,51.3760486],[0.0811283,51.3760086],[0.0811671,51.3760098],[0.081169,51.3759663],[0.0814696,51.3759614],[0.0814773,51.3765478]]]}},
{"type":"Feature","properties":{"highway":"footway","name":null,"category":"Footpath (pedestrian only)"},"geometry":{"type":"MultiLineString","coordinates":[[[0.0817868,51.3770642],[0.0817801,51.3765457]]]}},
{"type":"Feature","properties":{"highway":"footway","name":null,"category":"Footpath (pedestrian only)"},"geometry":{"type":"MultiLineString","coordinates":[[[0.0814696,51.3759614],[0.0814694,51.3757908]]]}},
{"type":"Feature","properties":{"highway":"footway","name":null,"category":"Footpath (pedestrian only)"},"geometry":{"type":"MultiLineString","coordinates":[[[0.0825188,51.3798601],[0.082566,51.3798843]]]}},
{"type":"Feature","properties":{"highway":"footway","name":null,"category":"Footpath (pedestrian only)"},"geometry":{"type":"MultiLineString","coordinates":[[[0.0827734,51.3795806],[0.0827807,51.3794326],[0.0828473,51.3794316]]]}},
{"type":"Feature","properties":{"highway":"footway","name":null,"category":"Footpath (pedestrian only)"},"geometry":{"type":"MultiLineString","coordinates":[[[0.0833232,51.3770804],[0.0826992,51.3771652]]]}},
{"type":"Feature","properties":{"highway":"footway","name":null,"category":"Footpath (pedestrian only)"},"geometry":{"type":"MultiLineString","coordinates":[[[0.080629,51.3797036],[0.0800817,51.3797046]]]}},
{"type":"Feature","properties":{"highway":"footway","name":null,"category":"Footpath (pedestrian only)"},"geometry":{"type":"MultiLineString","coordinates":[[[0.0753995,51.3774106],[0.0753307,51.3773634],[0.0748795,51.3775112]]]}},
{"type":"Feature","properties":{"highway":"footway","name":null,"category":"Footpath (pedestrian only)"},"geometry":{"type":"MultiLineString","coordinates":[[[0.0750134,51.3776953],[0.0748795,51.3775112],[0.0747767,51.3773843]]]}},
{"type":"Feature","properties":{"highway":"footway","name":null,"category":"Footpath (pedestrian only)"},"geometry":{"type":"MultiLineString","coordinates":[[[0.0731481,51.3739745],[0.0731441,51.3737071],[0.0730906,51.3736704],[0.0730893,51.3735353],[0.072831,51.3735418],[0.0728414,51.3736778],[0.0728013,51.3737167],[0.0728166,51.3739809]]]}},
{"type":"Feature","properties":{"highway":"footway","name":null,"category":"Footpath (pedestrian only)"},"geometry":{"type":"MultiLineString","coordinates":[[[0.0728414,51.3736778],[0.0730906,51.3736704]]]}},
{"type":"Feature","properties":{"highway":"footway","name":null,"category":"Footpath (pedestrian only)"},"geometry":{"type":"MultiLineString","coordinates":[[[0.0725053,51.3756383],[0.0722637,51.3756566],[0.0721378,51.375672],[0.0719943,51.3757156],[0.0718023,51.3757289],[0.0716821,51.3757653],[0.0715153,51.3757725],[0.0713834,51.3757689],[0.0712244,51.3757023],[0.071143,51.3756309],[0.0711081,51.3755546],[0.0710596,51.3755026],[0.0709025,51.3754772],[0.070823,51.3753501],[0.0708986,51.3753331],[0.0710844,51.3752819],[0.0712399,51.3752714],[0.071461,51.3751988],[0.0715851,51.3750995]]]}},
{"type":"Feature","properties":{"highway":"footway","name":null,"category":"Footpath (pedestrian only)"},"geometry":{"type":"MultiLineString","coordinates":[[[0.0696385,51.3739607],[0.0696366,51.373726],[0.0696354,51.3735655]]]}},
{"type":"Feature","properties":{"highway":"footway","name":null,"category":"Footpath (pedestrian only)"},"geometry":{"type":"MultiLineString","coordinates":[[[0.0696366,51.373726],[0.0699014,51.3737178],[0.0698984,51.3735746]]]}},
{"type":"Feature","properties":{"highway":"footway","name":null,"category":"Footpath (pedestrian only)"},"geometry":{"type":"MultiLineString","coordinates":[[[0.0718152,51.3740015],[0.0717978,51.3737403],[0.0718405,51.3737076],[0.0718366,51.3735684],[0.07211,51.3735623]]]}},
{"type":"Feature","properties":{"highway":"footway","name":null,"category":"Footpath (pedestrian only)"},"geometry":{"type":"MultiLineString","coordinates":[[[0.072172,51.3739931],[0.0721701,51.3737318],[0.0721178,51.3737003],[0.07211,51.3735623]]]}},
{"type":"Feature","properties":{"highway":"footway","name":null,"category":"Footpath (pedestrian only)"},"geometry":{"type":"MultiLineString","coordinates":[[[0.0721178,51.3737003],[0.0718405,51.3737076]]]}}
]
}
