{
"type": "FeatureCollection",
"name": "BROML_99_walking",
"crs": { "type": "name", "properties": { "name": "urn:ogc:def:crs:OGC:1.3:CRS84" } },
"features": [
{"type":"Feature","properties":{"highway":"footway","name":null,"category":"Footpath (pedestrian only)"},"geometry":{"type":"MultiLineString","coordinates":[[[0.0055246,51.3754309],[0.0053323,51.3755884],[0.0050662,51.375808],[0.0048656,51.3759615],[0.0048001,51.3760116],[0.004371,51.376317],[0.0041478,51.3764509],[0.0039603,51.3764683]]]}},
{"type":"Feature","properties":{"highway":"footway","name":null,"category":"Footpath (pedestrian only)"},"geometry":{"type":"MultiLineString","coordinates":[[[0.0039603,51.3764683],[0.0033238,51.3764456],[0.0026887,51.3764831],[0.0019849,51.3765527],[0.0013154,51.3766117],[0.0001395,51.3766759],[-0.0000836,51.3766974],[-0.0009849,51.3767831],[-0.001826,51.3769117],[-0.0024869,51.3770403],[-0.0026414,51.377067],[-0.0033366,51.3772063],[-0.0045667,51.3774528],[-0.0048848,51.3775349],[-0.0055534,51.3776842],[-0.0061021,51.3777958],[-0.0066452,51.3779018],[-0.0072417,51.3780308],[-0.0075857,51.3781098],[-0.0078328,51.3781816],[-0.0083147,51.3783464],[-0.0083953,51.3782712],[-0.0089628,51.3778421],[-0.0090378,51.3777532]]]}},
{"type":"Feature","properties":{"highway":"footway","name":null,"category":"Footpath (pedestrian only)"},"geometry":{"type":"MultiLineString","coordinates":[[[0.0235778,51.3641205],[0.0235332,51.3645544],[0.0234141,51.3647113],[0.0234058,51.3647223],[0.0229751,51.3650256],[0.0227803,51.3651291],[0.0226217,51.3652087],[0.0223789,51.3653543],[0.022112,51.3654759],[0.0217923,51.365596],[0.0215351,51.3656639],[0.0210201,51.3658407],[0.0206081,51.3659532],[0.0203077,51.3659907],[0.0202113,51.3659962],[0.020138,51.3660003],[0.0200244,51.3660068],[0.0196468,51.3661301],[0.0191919,51.366248],[0.0186855,51.3663551],[0.0182048,51.3664837],[0.0178701,51.3665748],[0.0176128,51.3666079],[0.0170375,51.366682],[0.0164906,51.3668098],[0.0158877,51.3670489],[0.0155295,51.3673776],[0.014777,51.3675757],[0.0143339,51.3677913],[0.0136472,51.3680913]]]}},
{"type":"Feature","properties":{"highway":"footway","name":null,"category":"Footpath (pedestrian only)"},"geometry":{"type":"MultiLineString","coordinates":[[[0.0134947,51.3681874],[0.0134223,51.36821],[0.0134139,51.3682123],[0.0131112,51.3682877],[0.0131103,51.3682879],[0.0128439,51.3683183],[0.0126003,51.3683461],[0.0121436,51.3684064],[0.0113797,51.3684921],[0.0107131,51.3684836],[0.0104434,51.3684802],[0.010118,51.368476],[0.0092082,51.3684439],[0.0088679,51.3684606]]]}},
{"type":"Feature","properties":{"highway":"footway","name":null,"category":"Footpath (pedestrian only)"},"geometry":{"type":"MultiLineString","coordinates":[[[0.0107629,51.3762215],[0.0107304,51.3762412],[0.0107014,51.3762613],[0.010583,51.3763376],[0.0103136,51.376401]]]}},
{"type":"Feature","properties":{"highway":"bridleway","name":null,"category":"Bridleway"},"geometry":{"type":"MultiLineString","coordinates":[[[0.0168985,51.3717995],[0.0176664,51.3717697],[0.0189601,51.3718158],[0.0193648,51.3718407],[0.0199394,51.3718364],[0.0203443,51.3718293],[0.0207712,51.3716915],[0.0209765,51.3715454],[0.0214217,51.3713068],[0.0219643,51.3710881],[0.02224,51.3710095]]]}},
{"type":"Feature","properties":{"highway":"footway","name":null,"category":"Footpath (pedestrian only)"},"geometry":{"type":"MultiLineString","coordinates":[[[0.0150226,51.3715612],[0.0149578,51.3716089],[0.0143157,51.3720815],[0.0142523,51.3721294],[0.0134553,51.3727317],[0.0134064,51.3727686],[0.012848,51.3734138],[0.012336,51.374102],[0.0121654,51.3741482],[0.0120982,51.3742212],[0.0120873,51.374233]]]}},
{"type":"Feature","properties":{"highway":"footway","name":"Polecat Alley","category":"Footpath (pedestrian only)"},"geometry":{"type":"MultiLineString","coordinates":[[[0.0099569,51.3733144],[0.0100467,51.3733682],[0.010223,51.3734737],[0.010265,51.3734989],[0.0110355,51.3739528],[0.0111389,51.3740137],[0.0113495,51.374148],[0.0114331,51.3741775]]]}},
{"type":"Feature","properties":{"highway":"footway","name":"Polecat Alley","category":"Footpath (pedestrian only)"},"geometry":{"type":"MultiLineString","coordinates":[[[0.005102,51.3706052],[0.0051913,51.3706048],[0.0052231,51.3708024],[0.0065319,51.3716816],[0.0082853,51.3724184],[0.0091491,51.3728866]]]}},
{"type":"Feature","properties":{"highway":"footway","name":null,"category":"Footpath (pedestrian only)"},"geometry":{"type":"MultiLineString","coordinates":[[[0.0091639,51.3728663],[0.0093144,51.3729242],[0.0096922,51.3729962],[0.0098966,51.3730352],[0.0101579,51.373085],[0.0102675,51.3731098],[0.0103315,51.3731181],[0.0104622,51.37315],[0.0105401,51.3732393],[0.0106389,51.3733549],[0.0106689,51.37339],[0.0108051,51.373494],[0.0109035,51.373518],[0.0110734,51.3735596],[0.0113622,51.3736303]]]}},
{"type":"Feature","properties":{"highway":"footway","name":null,"category":"Footpath (pedestrian only)"},"geometry":{"type":"MultiLineString","coordinates":[[[0.0179149,51.3685728],[0.0176087,51.3685065],[0.0174572,51.3685257]]]}},
{"type":"Feature","properties":{"highway":"footway","name":null,"category":"Footpath (pedestrian only)"},"geometry":{"type":"MultiLineString","coordinates":[[[0.0081592,51.3686991],[0.008465,51.3689],[0.0087922,51.3689804],[0.008906,51.3689896],[0.0092053,51.3690139],[0.0093157,51.369084],[0.0095164,51.3692115]]]}},
{"type":"Feature","properties":{"highway":"footway","name":null,"category":"Footpath (pedestrian only)"},"geometry":{"type":"MultiLineString","coordinates":[[[0.0107131,51.3684836],[0.0103372,51.368756],[0.0098168,51.3689871],[0.0095164,51.3692115]]]}},
{"type":"Feature","properties":{"highway":"footway","name":null,"category":"Footpath (pedestrian only)"},"geometry":{"type":"MultiLineString","coordinates":[[[0.0121654,51.3741482],[0.0123639,51.3731977],[0.0122966,51.3731443],[0.0123035,51.3730593],[0.0122769,51.372943],[0.0124076,51.372564],[0.0124551,51.3718545],[0.0124626,51.3717419],[0.0125154,51.3717015],[0.0128488,51.3714468],[0.0129219,51.3713909],[0.0132232,51.3711606],[0.013271,51.3710769],[0.0136095,51.3704908],[0.0136113,51.3704374],[0.0136309,51.3698679],[0.013626,51.3696634],[0.0136216,51.3689263]]]}},
{"type":"Feature","properties":{"highway":"footway","name":null,"category":"Footpath (pedestrian only)"},"geometry":{"type":"MultiLineString","coordinates":[[[0.0203079,51.3673295],[0.020234,51.3673689],[0.0200469,51.3674917],[0.0196005,51.3676963],[0.0195595,51.3677165],[0.0179149,51.3685728]]]}},
{"type":"Feature","properties":{"highway":"footway","name":null,"category":"Footpath (pedestrian only)"},"geometry":{"type":"MultiLineString","coordinates":[[[0.0088679,51.3684606],[0.0086932,51.3685194],[0.0081592,51.3686991],[0.0080879,51.3687265],[0.0074102,51.3689872],[0.0072795,51.3690374],[0.0070341,51.3690501],[0.0065134,51.3690769]]]}},
{"type":"Feature","properties":{"highway":"footway","name":null,"category":"Footpath (pedestrian only)"},"geometry":{"type":"MultiLineString","coordinates":[[[0.0174572,51.3685257],[0.0173399,51.3684832],[0.0171393,51.3684948],[0.0166994,51.3685484],[0.0159221,51.3689626]]]}},
{"type":"Feature","properties":{"highway":"footway","name":null,"category":"Footpath (pedestrian only)"},"geometry":{"type":"MultiLineString","coordinates":[[[0.005102,51.3706052],[0.0048601,51.3706196],[0.0041816,51.3705715],[0.0040577,51.3705571],[0.0040065,51.3705555],[0.0039565,51.3705616],[0.0039124,51.3705715]]]}},
{"type":"Feature","properties":{"highway":"footway","name":null,"category":"Footpath (pedestrian only)"},"geometry":{"type":"MultiLineString","coordinates":[[[0.0136195,51.3752444],[0.013623,51.3753104],[0.0137587,51.3754441],[0.0138448,51.3755858],[0.0139688,51.3759649],[0.0139952,51.3761822],[0.0141277,51.3762767],[0.0142261,51.3763192],[0.0142866,51.3766546],[0.0143056,51.3769192],[0.0142488,51.3771176],[0.0141239,51.3773562],[0.0141466,51.3775522],[0.0139999,51.3776724],[0.0140039,51.3777295]]]}},
{"type":"Feature","properties":{"highway":"footway","name":null,"category":"Footpath (pedestrian only)"},"geometry":{"type":"MultiLineString","coordinates":[[[0.0065134,51.3690769],[0.006453,51.3692798],[0.0062774,51.3694335],[0.0059974,51.369603],[0.0057428,51.3697445],[0.005432,51.3698664],[0.0052131,51.3699587],[0.0049682,51.370105],[0.0046935,51.3703354],[0.0046245,51.3704094],[0.0044635,51.3704041],[0.0043502,51.370372],[0.0042302,51.3703344],[0.0040145,51.37029]]]}},
{"type":"Feature","properties":{"highway":"footway","name":null,"category":"Footpath (pedestrian only)"},"geometry":{"type":"MultiLineString","coordinates":[[[0.0095164,51.3692115],[0.0095644,51.3693253],[0.0095969,51.3694024],[0.0098032,51.3695517]]]}},
{"type":"Feature","properties":{"highway":"footway","name":null,"category":"Footpath (pedestrian only)"},"geometry":{"type":"MultiLineString","coordinates":[[[0.0088679,51.3684606],[0.0090613,51.3685863],[0.0091017,51.368639],[0.0092406,51.3688202],[0.0093851,51.369014],[0.0095164,51.3692115]]]}},
{"type":"Feature","properties":{"highway":"footway","name":null,"category":"Footpath (pedestrian only)"},"geometry":{"type":"MultiLineString","coordinates":[[[0.013647,51.3804758],[0.0136584,51.3806181],[0.013666,51.3810315],[0.0135858,51.3812373],[0.013613,51.3813102],[0.0133502,51.381932]]]}},
{"type":"Feature","properties":{"highway":"footway","name":null,"category":"Footpath (pedestrian only)"},"geometry":{"type":"MultiLineString","coordinates":[[[0.0100576,51.3697255],[0.0100369,51.3698346],[0.0100353,51.3701036],[0.0100342,51.3702844],[0.0100794,51.3705229],[0.0101961,51.3706859],[0.0102855,51.3708689],[0.0104326,51.3712324],[0.0105509,51.3716167],[0.0106823,51.3720068],[0.0107949,51.3722135],[0.0108013,51.3722986],[0.0112138,51.3728197],[0.0112406,51.3728535],[0.0116074,51.3733168],[0.0120873,51.374233]]]}},
{"type":"Feature","properties":{"highway":"bridleway","name":null,"category":"Bridleway"},"geometry":{"type":"MultiLineString","coordinates":[[[0.0224345,51.3709223],[0.0225845,51.3708082],[0.022847,51.3703903],[0.0231237,51.3700346],[0.023113,51.3685811],[0.0230654,51.3677713]]]}},
{"type":"Feature","properties":{"highway":"footway","name":null,"category":"Footpath (pedestrian only)"},"geometry":{"type":"MultiLineString","coordinates":[[[0.0272458,51.3669341],[0.0269047,51.3676891],[0.026878,51.3677483],[0.0268616,51.3677979],[0.0268566,51.3678254],[0.0268463,51.367981],[0.0265914,51.3683609],[0.026335,51.3685818],[0.0260549,51.368823],[0.0254541,51.3689168],[0.0252318,51.3690341],[0.0248318,51.369245],[0.0246526,51.3696857],[0.0244778,51.3701157],[0.0242924,51.3702017],[0.0241023,51.3702899],[0.0236146,51.3704513],[0.0232976,51.370464],[0.022868,51.3703937],[0.022847,51.3703903],[0.0228297,51.3703893],[0.022788,51.370387],[0.0224698,51.3704089],[0.0223938,51.3704232],[0.0219136,51.3705042],[0.0217738,51.3705722],[0.0212392,51.3707699],[0.0202538,51.370278],[0.0201951,51.3702468],[0.0201268,51.3702104],[0.0197356,51.3700019],[0.0188265,51.369644],[0.0187153,51.3696002],[0.0186544,51.3695766],[0.0179547,51.3693053]]]}},
{"type":"Feature","properties":{"highway":"footway","name":null,"category":"Footpath (pedestrian only)"},"geometry":{"type":"MultiLineString","coordinates":[[[0.0103315,51.3731181],[0.0103857,51.3730577],[0.010572,51.3728501],[0.0107669,51.3726329],[0.0107992,51.3723193],[0.0108013,51.3722986]]]}},
{"type":"Feature","properties":{"highway":"footway","name":null,"category":"Footpath (pedestrian only)"},"geometry":{"type":"MultiLineString","coordinates":[[[0.0132034,51.3735018],[0.0132416,51.3735093],[0.013317,51.3735034],[0.0133848,51.3734911],[0.013486,51.3735206],[0.013617,51.3734595],[0.0137318,51.3734477],[0.013759,51.3735204],[0.0139585,51.3736245]]]}},
{"type":"Feature","properties":{"highway":"footway","name":null,"category":"Footpath (pedestrian only)"},"geometry":{"type":"MultiLineString","coordinates":[[[0.0107949,51.3722135],[0.0111223,51.3721954],[0.0113276,51.3720893],[0.0114833,51.372191],[0.0115522,51.3721789],[0.0117594,51.3721424],[0.0117743,51.3719718],[0.0117934,51.3717538],[0.0116762,51.371503],[0.0118332,51.3712987],[0.0118448,51.3711656]]]}},
{"type":"Feature","properties":{"highway":"footway","name":null,"category":"Footpath (pedestrian only)"},"geometry":{"type":"MultiLineString","coordinates":[[[0.0196005,51.3676963],[0.0199748,51.3678745]]]}},
{"type":"Feature","properties":{"highway":"footway","name":null,"category":"Footpath (pedestrian only)"},"geometry":{"type":"MultiLineString","coordinates":[[[0.0161664,51.3695433],[0.0168725,51.3691257]]]}},
{"type":"Feature","properties":{"highway":"footway","name":null,"category":"Footpath (pedestrian only)"},"geometry":{"type":"MultiLineString","coordinates":[[[0.0168725,51.3691257],[0.0179547,51.3693053]]]}},
{"type":"Feature","properties":{"highway":"footway","name":null,"category":"Footpath (pedestrian only)"},"geometry":{"type":"MultiLineString","coordinates":[[[0.0110349,51.373726],[0.0112658,51.3739522],[0.0114747,51.3739649]]]}},
{"type":"Feature","properties":{"highway":"footway","name":null,"category":"Footpath (pedestrian only)"},"geometry":{"type":"MultiLineString","coordinates":[[[0.0117934,51.3717538],[0.0122353,51.371821],[0.0124551,51.3718545]]]}},
{"type":"Feature","properties":{"highway":"footway","name":null,"category":"Footpath (pedestrian only)"},"geometry":{"type":"MultiLineString","coordinates":[[[0.013244,51.3688539],[0.0135845,51.368773]]]}},
{"type":"Feature","properties":{"highway":"footway","name":null,"category":"Footpath (pedestrian only)"},"geometry":{"type":"MultiLineString","coordinates":[[[0.0104879,51.3699897],[0.0105977,51.3698556],[0.0109375,51.3698202],[0.0112348,51.3696788],[0.0112409,51.369652],[0.0115288,51.3692716],[0.0123701,51.3690425]]]}},
{"type":"Feature","properties":{"highway":"path","name":null,"category":"Shared path"},"geometry":{"type":"MultiLineString","coordinates":[[[0.0074102,51.3689872],[0.0077264,51.3690368],[0.0084234,51.3691928],[0.0086036,51.3692137]]]}},
{"type":"Feature","properties":{"highway":"path","name":null,"category":"Shared path"},"geometry":{"type":"MultiLineString","coordinates":[[[0.0176128,51.3666079],[0.0148621,51.368048]]]}},
{"type":"Feature","properties":{"highway":"path","name":null,"category":"Shared path"},"geometry":{"type":"MultiLineString","coordinates":[[[0.0107187,51.3701318],[0.010657,51.3701806],[0.0105092,51.3702975],[0.0104345,51.3704652],[0.0103767,51.3706219],[0.0102855,51.3708689]]]}},
{"type":"Feature","properties":{"highway":"footway","name":null,"category":"Footpath (pedestrian only)"},"geometry":{"type":"MultiLineString","coordinates":[[[0.0106689,51.37339],[0.010223,51.3734737]]]}},
{"type":"Feature","properties":{"highway":"path","name":null,"category":"Shared path"},"geometry":{"type":"MultiLineString","coordinates":[[[0.0175233,51.377445],[0.0176669,51.3774095],[0.0178488,51.3773726],[0.0179772,51.3773503],[0.0179956,51.3770927],[0.017998,51.3770648],[0.0177101,51.3770395],[0.0176679,51.3770416],[0.0176319,51.3770564],[0.0176442,51.3772494]]]}},
{"type":"Feature","properties":{"highway":"path","name":null,"category":"Shared path"},"geometry":{"type":"MultiLineString","coordinates":[[[0.0179772,51.3773503],[0.0180533,51.3773414],[0.0181651,51.3773548],[0.0182293,51.3774082],[0.0183031,51.3775181],[0.0182864,51.3775493]]]}},
{"type":"Feature","properties":{"highway":"path","name":null,"category":"Shared path"},"geometry":{"type":"MultiLineString","coordinates":[[[0.0182864,51.3775493],[0.0183411,51.377625],[0.0185781,51.3775815],[0.0182901,51.3771188]]]}},
{"type":"Feature","properties":{"highway":"path","name":null,"category":"Shared path"},"geometry":{"type":"MultiLineString","coordinates":[[[0.0152451,51.3776822],[0.0152062,51.3777059],[0.0151122,51.3777634],[0.0149907,51.3778427],[0.0149134,51.3778771],[0.0148748,51.3779254],[0.0149852,51.3779771],[0.0150569,51.3779977],[0.0150995,51.378042],[0.0151066,51.3780494],[0.015079,51.3781287],[0.0151122,51.3781873],[0.0150293,51.3781976],[0.0148306,51.3782596],[0.0145766,51.3782941],[0.0143723,51.3782975],[0.0142785,51.3782872],[0.0141681,51.378301],[0.0139748,51.3783389],[0.0138092,51.3783458],[0.0134614,51.3783355],[0.013235,51.3783044],[0.0132019,51.3782424],[0.0131798,51.3780839],[0.0131522,51.3779529],[0.0131431,51.3779347],[0.0131246,51.3778978],[0.0132129,51.3778564],[0.0133841,51.3778495],[0.0135649,51.3778196],[0.013881,51.3778392],[0.0139638,51.3778495],[0.0141625,51.3778806],[0.014273,51.3778978],[0.0144386,51.3779081],[0.0145987,51.3778943],[0.0147478,51.3778254],[0.0151122,51.3777634]]]}},
{"type":"Feature","properties":{"highway":"track","name":null,"category":"Track"},"geometry":{"type":"MultiLineString","coordinates":[[[0.0089166,51.3797787],[0.0087743,51.3798496],[0.0084593,51.3800065],[0.0084357,51.3800402],[0.0085102,51.3801351]]]}},
{"type":"Feature","properties":{"highway":"path","name":null,"category":"Shared path"},"geometry":{"type":"MultiLineString","coordinates":[[[0.0173687,51.3764347],[0.017316,51.3764799],[0.0173161,51.3765512],[0.0173277,51.3766023],[0.0173494,51.3768364],[0.0173393,51.3769303],[0.0174361,51.3769792]]]}},
{"type":"Feature","properties":{"highway":"footway","name":null,"category":"Footpath (pedestrian only)"},"geometry":{"type":"MultiLineString","coordinates":[[[0.0110365,51.3764057],[0.0111121,51.3763813],[0.0112205,51.3763465],[0.0112842,51.3763261]]]}},
{"type":"Feature","properties":{"highway":"footway","name":null,"category":"Footpath (pedestrian only)"},"geometry":{"type":"MultiLineString","coordinates":[[[0.0110962,51.376707],[0.0111747,51.3767105],[0.0113089,51.3767167],[0.011385,51.3767205]]]}},
{"type":"Feature","properties":{"highway":"footway","name":null,"category":"Footpath (pedestrian only)"},"geometry":{"type":"MultiLineString","coordinates":[[[0.011033,51.3769014],[0.0111136,51.3769195],[0.0112252,51.3769416],[0.0113068,51.376959]]]}},
{"type":"Feature","properties":{"highway":"footway","name":null,"category":"Footpath (pedestrian only)"},"geometry":{"type":"MultiLineString","coordinates":[[[0.0108883,51.3770931],[0.0109513,51.3771272],[0.0110356,51.3771744],[0.0111047,51.3772139]]]}},
{"type":"Feature","properties":{"highway":"footway","name":null,"category":"Footpath (pedestrian only)"},"geometry":{"type":"MultiLineString","coordinates":[[[0.010503,51.3774007],[0.0105685,51.3774337],[0.0106462,51.3774723],[0.0107184,51.3775046]]]}},
{"type":"Feature","properties":{"highway":"footway","name":null,"category":"Footpath (pedestrian only)"},"geometry":{"type":"MultiLineString","coordinates":[[[0.0101089,51.3777244],[0.0101992,51.377727],[0.0103315,51.3777342],[0.0104128,51.3777398]]]}},
{"type":"Feature","properties":{"highway":"footway","name":null,"category":"Footpath (pedestrian only)"},"geometry":{"type":"MultiLineString","coordinates":[[[0.0035487,51.3707662],[0.0036534,51.3706014],[0.0036626,51.3705785],[0.0036602,51.370553]]]}},
{"type":"Feature","properties":{"highway":"footway","name":null,"category":"Footpath (pedestrian only)"},"geometry":{"type":"MultiLineString","coordinates":[[[0.0033768,51.3701997],[0.003389,51.3702199],[0.0034434,51.3702391],[0.0036257,51.3702883],[0.003723,51.3703206]]]}},
{"type":"Feature","properties":{"highway":"footway","name":null,"category":"Footpath (pedestrian only)"},"geometry":{"type":"MultiLineString","coordinates":[[[0.0040145,51.37029],[0.0039059,51.3702618]]]}},
{"type":"Feature","properties":{"highway":"footway","name":null,"category":"Footpath (pedestrian only)"},"geometry":{"type":"MultiLineString","coordinates":[[[0.0039059,51.3702618],[0.0039097,51.3702588],[0.0039413,51.3702112],[0.0041266,51.3699551]]]}},
{"type":"Feature","properties":{"highway":"footway","name":null,"category":"Footpath (pedestrian only)"},"geometry":{"type":"MultiLineString","coordinates":[[[0.0041266,51.3699551],[0.0033994,51.3696699],[0.0027962,51.3694722],[0.0024243,51.3693547]]]}},
{"type":"Feature","properties":{"highway":"footway","name":null,"category":"Footpath (pedestrian only)"},"geometry":{"type":"MultiLineString","coordinates":[[[0.0035736,51.3705075],[0.0036149,51.3704466],[0.0036658,51.3703745],[0.003723,51.3703206]]]}},
{"type":"Feature","properties":{"highway":"footway","name":null,"category":"Footpath (pedestrian only)"},"geometry":{"type":"MultiLineString","coordinates":[[[0.003723,51.3703206],[0.0037879,51.3703239],[0.0038571,51.3703009],[0.0039059,51.3702618]]]}},
{"type":"Feature","properties":{"highway":"footway","name":null,"category":"Footpath (pedestrian only)"},"geometry":{"type":"MultiLineString","coordinates":[[[0.0035736,51.3705075],[0.0033485,51.3704492],[0.0031247,51.3703837],[0.0028443,51.3703013]]]}},
{"type":"Feature","properties":{"highway":"footway","name":null,"category":"Footpath (pedestrian only)"},"geometry":{"type":"MultiLineString","coordinates":[[[0.0039124,51.3705715],[0.0038832,51.3705856]]]}},
{"type":"Feature","properties":{"highway":"footway","name":null,"category":"Footpath (pedestrian only)"},"geometry":{"type":"MultiLineString","coordinates":[[[0.0036602,51.370553],[0.0037715,51.3705689],[0.0038832,51.3705856]]]}},
{"type":"Feature","properties":{"highway":"footway","name":null,"category":"Footpath (pedestrian only)"},"geometry":{"type":"MultiLineString","coordinates":[[[0.0036602,51.370553],[0.0036446,51.370535],[0.0036222,51.3705221],[0.0035736,51.3705075]]]}},
{"type":"Feature","properties":{"highway":"footway","name":null,"category":"Footpath (pedestrian only)"},"geometry":{"type":"MultiLineString","coordinates":[[[0.0038832,51.3705856],[0.0037926,51.3706575],[0.0037245,51.3707387]]]}},
{"type":"Feature","properties":{"highway":"footway","name":null,"category":"Footpath (pedestrian only)"},"geometry":{"type":"MultiLineString","coordinates":[[[0.0110365,51.3764057],[0.0109791,51.3763452],[0.0109532,51.3763242],[0.0109326,51.3763195],[0.0108638,51.3763277],[0.0107304,51.3762412],[0.010605,51.3761601],[0.0106015,51.376091],[0.010571,51.3760525],[0.0104658,51.3759629],[0.0104364,51.3759422]]]}},
{"type":"Feature","properties":{"highway":"footway","name":null,"category":"Footpath (pedestrian only)"},"geometry":{"type":"MultiLineString","coordinates":[[[0.0104364,51.3759422],[0.0105293,51.3759223],[0.0106615,51.3758934],[0.0107375,51.375878]]]}},
{"type":"Feature","properties":{"highway":"footway","name":null,"category":"Footpath (pedestrian only)"},"geometry":{"type":"MultiLineString","coordinates":[[[0.0107375,51.375878],[0.010742,51.3758511],[0.0107528,51.3758364],[0.0107773,51.3758197],[0.0108344,51.3758013]]]}},
{"type":"Feature","properties":{"highway":"footway","name":null,"category":"Footpath (pedestrian only)"},"geometry":{"type":"MultiLineString","coordinates":[[[0.0108344,51.3758013],[0.0108132,51.3757616],[0.0107929,51.3757271]]]}},
{"type":"Feature","properties":{"highway":"footway","name":null,"category":"Footpath (pedestrian only)"},"geometry":{"type":"MultiLineString","coordinates":[[[0.0114331,51.3741775],[0.0115266,51.3742139]]]}},
{"type":"Feature","properties":{"highway":"footway","name":null,"category":"Footpath (pedestrian only)"},"geometry":{"type":"MultiLineString","coordinates":[[[0.0115266,51.3742139],[0.012009,51.3742684]]]}},
{"type":"Feature","properties":{"highway":"footway","name":null,"category":"Footpath (pedestrian only)"},"geometry":{"type":"MultiLineString","coordinates":[[[0.0107929,51.3757271],[0.0106414,51.3757416],[0.0105351,51.3757435]]]}},
{"type":"Feature","properties":{"highway":"footway","name":null,"category":"Footpath (pedestrian only)"},"geometry":{"type":"MultiLineString","coordinates":[[[0.0108344,51.3758013],[0.0109092,51.3757809],[0.0109957,51.3757546],[0.0110876,51.3757223],[0.011166,51.3756916],[0.0112415,51.3756545],[0.0113523,51.3755852]]]}},
{"type":"Feature","properties":{"highway":"footway","name":null,"category":"Footpath (pedestrian only)"},"geometry":{"type":"MultiLineString","coordinates":[[[0.0104364,51.3759422],[0.0104039,51.3759315],[0.0103604,51.3759294],[0.009804,51.3759698]]]}},
{"type":"Feature","properties":{"highway":"footway","name":null,"category":"Footpath (pedestrian only)"},"geometry":{"type":"MultiLineString","coordinates":[[[0.012009,51.3742684],[0.0116051,51.3750505],[0.0114159,51.3753591]]]}},
{"type":"Feature","properties":{"highway":"footway","name":null,"category":"Footpath (pedestrian only)"},"geometry":{"type":"MultiLineString","coordinates":[[[0.0114159,51.3753591],[0.0112357,51.3755309],[0.0111922,51.3755677],[0.0111414,51.3756008],[0.0110414,51.3756508],[0.0109552,51.3756841],[0.0108826,51.375706],[0.0107929,51.3757271]]]}},
{"type":"Feature","properties":{"highway":"footway","name":null,"category":"Footpath (pedestrian only)"},"geometry":{"type":"MultiLineString","coordinates":[[[0.0048971,51.3692238],[0.0051826,51.3692389],[0.0053342,51.3692584],[0.0054061,51.3692835],[0.0055103,51.3693583],[0.005521,51.3695123],[0.0056068,51.3696262],[0.0057428,51.3697445]]]}},
{"type":"Feature","properties":{"highway":"footway","name":null,"category":"Footpath (pedestrian only)"},"geometry":{"type":"MultiLineString","coordinates":[[[0.0056072,51.3684756],[0.0061221,51.3682997],[0.0066318,51.3682478],[0.0068357,51.3682411],[0.0069054,51.368144],[0.0073173,51.3680476],[0.0075315,51.368048],[0.0077029,51.3680742],[0.0078832,51.3680991],[0.0080619,51.3681275],[0.0082145,51.3681517],[0.0084289,51.3681507],[0.008305,51.3683936]]]}},
{"type":"Feature","properties":{"highway":"footway","name":null,"category":"Footpath (pedestrian only)"},"geometry":{"type":"MultiLineString","coordinates":[[[0.0091017,51.368639],[0.0090844,51.3687091],[0.0091263,51.3689344],[0.0089063,51.3689478],[0.008906,51.3689896]]]}},
{"type":"Feature","properties":{"highway":"footway","name":null,"category":"Footpath (pedestrian only)"},"geometry":{"type":"MultiLineString","coordinates":[[[0.0093157,51.369084],[0.0091316,51.3691186],[0.0089761,51.3690951],[0.008906,51.3689896]]]}},
{"type":"Feature","properties":{"highway":"footway","name":null,"category":"Footpath (pedestrian only)"},"geometry":{"type":"MultiLineString","coordinates":[[[0.0128439,51.3683183],[0.0128649,51.3683518]]]}},
{"type":"Feature","properties":{"highway":"footway","name":null,"category":"Footpath (pedestrian only)"},"geometry":{"type":"MultiLineString","coordinates":[[[0.013244,51.3688539],[0.0123701,51.3690425]]]}},
{"type":"Feature","properties":{"highway":"footway","name":null,"category":"Footpath (pedestrian only)"},"geometry":{"type":"MultiLineString","coordinates":[[[0.0130749,51.3735706],[0.0131395,51.3735752],[0.0131935,51.3735507]]]}},
{"type":"Feature","properties":{"highway":"footway","name":null,"category":"Footpath (pedestrian only)"},"geometry":{"type":"MultiLineString","coordinates":[[[0.0131935,51.3735507],[0.0132034,51.3735018]]]}},
{"type":"Feature","properties":{"highway":"footway","name":null,"category":"Footpath (pedestrian only)"},"geometry":{"type":"MultiLineString","coordinates":[[[0.0189601,51.3718158],[0.0189913,51.3718966],[0.0190025,51.3719245]]]}},
{"type":"Feature","properties":{"highway":"footway","name":null,"category":"Footpath (pedestrian only)"},"geometry":{"type":"MultiLineString","coordinates":[[[0.0193648,51.3718407],[0.0193642,51.3719333]]]}},
{"type":"Feature","properties":{"highway":"footway","name":null,"category":"Footpath (pedestrian only)"},"geometry":{"type":"MultiLineString","coordinates":[[[0.0203443,51.3718293],[0.0204373,51.372056]]]}},
{"type":"Feature","properties":{"highway":"footway","name":null,"category":"Footpath (pedestrian only)"},"geometry":{"type":"MultiLineString","coordinates":[[[0.02224,51.3710095],[0.0221576,51.3709881],[0.0220674,51.3709647],[0.0218385,51.3709325],[0.0216984,51.3709092],[0.0214536,51.3708629],[0.0212392,51.3707699],[0.0208712,51.3708126],[0.0207754,51.3708685],[0.0206891,51.37083],[0.0206309,51.3708165],[0.0205844,51.3707954],[0.0204673,51.3707838],[0.0201654,51.3708723],[0.0200351,51.3708675],[0.0198511,51.3708608],[0.0197279,51.3710454],[0.019668,51.3710678],[0.0194814,51.3711377],[0.0191979,51.3711223],[0.0180764,51.371557],[0.0174571,51.3712849]]]}},
{"type":"Feature","properties":{"highway":"footway","name":null,"category":"Footpath (pedestrian only)"},"geometry":{"type":"MultiLineString","coordinates":[[[0.0196005,51.3676963],[0.0186799,51.367649],[0.0163137,51.367949],[0.0161165,51.3681875],[0.0150721,51.3684538],[0.0149911,51.3684745],[0.0137537,51.3687394],[0.0135845,51.368773]]]}},
{"type":"Feature","properties":{"highway":"path","name":null,"category":"Shared path"},"geometry":{"type":"MultiLineString","coordinates":[[[0.012009,51.3742684],[0.0120873,51.374233]]]}},
{"type":"Feature","properties":{"highway":"path","name":null,"category":"Shared path"},"geometry":{"type":"MultiLineString","coordinates":[[[0.0114159,51.3753591],[0.0115843,51.3754068]]]}},
{"type":"Feature","properties":{"highway":"footway","name":null,"category":"Footpath (pedestrian only)"},"geometry":{"type":"MultiLineString","coordinates":[[[0.0138986,51.3689027],[0.0143556,51.3692492],[0.0143108,51.3696562],[0.0142919,51.3698277],[0.0140607,51.3705457],[0.013271,51.3710769],[0.0129219,51.3713909]]]}},
{"type":"Feature","properties":{"highway":"footway","name":null,"category":"Footpath (pedestrian only)"},"geometry":{"type":"MultiLineString","coordinates":[[[0.0136309,51.3698679],[0.0139457,51.3701253],[0.0140607,51.3705457]]]}},
{"type":"Feature","properties":{"highway":"footway","name":null,"category":"Footpath (pedestrian only)"},"geometry":{"type":"MultiLineString","coordinates":[[[0.0142523,51.3721294],[0.0141952,51.3720774],[0.0139711,51.3720804],[0.0138964,51.3720308],[0.0136302,51.3720075],[0.0136021,51.3719637],[0.0134107,51.3719667],[0.013336,51.3720046],[0.0128409,51.3718471],[0.0127571,51.3718997],[0.0126623,51.3719592]]]}},
{"type":"Feature","properties":{"highway":"footway","name":null,"category":"Footpath (pedestrian only)"},"geometry":{"type":"MultiLineString","coordinates":[[[0.0127571,51.3718997],[0.0125154,51.3717015]]]}},
{"type":"Feature","properties":{"highway":"footway","name":null,"category":"Footpath (pedestrian only)"},"geometry":{"type":"MultiLineString","coordinates":[[[0.0159221,51.3689626],[0.0168725,51.3691257]]]}},
{"type":"Feature","properties":{"highway":"footway","name":null,"category":"Footpath (pedestrian only)"},"geometry":{"type":"MultiLineString","coordinates":[[[0.0128488,51.3714468],[0.0130453,51.3713949],[0.0132655,51.3713954],[0.0133272,51.3714205],[0.0134104,51.371387],[0.0136357,51.3714014],[0.0136631,51.3714068],[0.013699,51.371411],[0.0137215,51.3714155],[0.013745,51.3714296],[0.0137859,51.371454],[0.0138234,51.3715009],[0.0138717,51.3717587],[0.0138342,51.3718039],[0.0140166,51.3720032],[0.0141453,51.371963],[0.0142982,51.3720149],[0.0143157,51.3720815]]]}},
{"type":"Feature","properties":{"highway":"path","name":null,"category":"Shared path"},"geometry":{"type":"MultiLineString","coordinates":[[[0.0203549,51.3674017],[0.0205994,51.3675004],[0.0207864,51.3677546],[0.0230654,51.3677713],[0.0231535,51.3674478]]]}},
{"type":"Feature","properties":{"highway":"path","name":null,"category":"Shared path"},"geometry":{"type":"MultiLineString","coordinates":[[[0.0180764,51.371557],[0.0176664,51.3717697]]]}},
{"type":"Feature","properties":{"highway":"footway","name":null,"category":"Footpath (pedestrian only)"},"geometry":{"type":"MultiLineString","coordinates":[[[0.0020353,51.3743331],[0.0021137,51.37435],[0.0021949,51.3743674]]]}},
{"type":"Feature","properties":{"highway":"path","name":null,"category":"Shared path"},"geometry":{"type":"MultiLineString","coordinates":[[[0.0131241,51.3736256],[0.0132411,51.3736052],[0.0133322,51.3736119],[0.013402,51.373642],[0.0134503,51.3736755],[0.0135183,51.3737475]]]}},
{"type":"Feature","properties":{"highway":"path","name":null,"category":"Shared path"},"geometry":{"type":"MultiLineString","coordinates":[[[0.0182901,51.3771188],[0.017998,51.3770648]]]}},
{"type":"Feature","properties":{"highway":"path","name":null,"category":"Shared path"},"geometry":{"type":"MultiLineString","coordinates":[[[0.0176442,51.3772494],[0.0176669,51.3774095]]]}},
{"type":"Feature","properties":{"highway":"footway","name":null,"category":"Footpath (pedestrian only)"},"geometry":{"type":"MultiLineString","coordinates":[[[0.0134886,51.3684896],[0.0134636,51.3684564]]]}},
{"type":"Feature","properties":{"highway":"footway","name":null,"category":"Footpath (pedestrian only)"},"geometry":{"type":"MultiLineString","coordinates":[[[0.0140607,51.3705457],[0.0150998,51.369662],[0.0159221,51.3689626]]]}},
{"type":"Feature","properties":{"highway":"footway","name":null,"category":"Footpath (pedestrian only)"},"geometry":{"type":"MultiLineString","coordinates":[[[0.0086932,51.3685194],[0.0087604,51.3686122],[0.0089569,51.3686858],[0.0090844,51.3687091]]]}},
{"type":"Feature","properties":{"highway":"footway","name":null,"category":"Footpath (pedestrian only)"},"geometry":{"type":"MultiLineString","coordinates":[[[0.0089063,51.3689478],[0.0087604,51.3686122]]]}},
{"type":"Feature","properties":{"highway":"footway","name":null,"category":"Footpath (pedestrian only)"},"geometry":{"type":"MultiLineString","coordinates":[[[0.0086932,51.3685194],[0.0084405,51.3685364],[0.0079793,51.3684382]]]}},
{"type":"Feature","properties":{"highway":"footway","name":null,"category":"Footpath (pedestrian only)"},"geometry":{"type":"MultiLineString","coordinates":[[[0.0084405,51.3685364],[0.0081152,51.3686275],[0.0079941,51.3686748],[0.007428,51.3688959],[0.0074102,51.3689872]]]}},
{"type":"Feature","properties":{"highway":"path","name":null,"category":"Shared path"},"geometry":{"type":"MultiLineString","coordinates":[[[0.0077264,51.3690368],[0.0080879,51.3687265]]]}},
{"type":"Feature","properties":{"highway":"path","name":null,"category":"Shared path"},"geometry":{"type":"MultiLineString","coordinates":[[[0.0089761,51.3690951],[0.0088026,51.3691504],[0.0087467,51.3691681],[0.0086036,51.3692137]]]}},
{"type":"Feature","properties":{"highway":"path","name":null,"category":"Shared path"},"geometry":{"type":"MultiLineString","coordinates":[[[0.007428,51.3688959],[0.0070341,51.3690501]]]}},
{"type":"Feature","properties":{"highway":"footway","name":null,"category":"Footpath (pedestrian only)"},"geometry":{"type":"MultiLineString","coordinates":[[[0.0168927,51.3698056],[0.0169306,51.3698189],[0.0175644,51.3700113],[0.0175934,51.3700363]]]}},
{"type":"Feature","properties":{"highway":"footway","name":null,"category":"Footpath (pedestrian only)"},"geometry":{"type":"MultiLineString","coordinates":[[[0.0136584,51.3806181],[0.0138032,51.3807682],[0.0141674,51.3811485]]]}},
{"type":"Feature","properties":{"highway":"footway","name":null,"category":"Footpath (pedestrian only)"},"geometry":{"type":"MultiLineString","coordinates":[[[0.020535,51.3700856],[0.0205106,51.3701621],[0.020433,51.3701905],[0.020299,51.3701868],[0.0201951,51.3702468]]]}},
{"type":"Feature","properties":{"highway":"footway","name":null,"category":"Footpath (pedestrian only)"},"geometry":{"type":"MultiLineString","coordinates":[[[0.0191847,51.3689408],[0.0195029,51.3690835],[0.0196238,51.3691351],[0.0198214,51.3692437],[0.0199056,51.369287],[0.0200072,51.3693182],[0.0201189,51.3693549],[0.0202254,51.3694011],[0.0203125,51.3694506],[0.020428,51.3695673],[0.0204799,51.3696179],[0.020593,51.3697234],[0.0205272,51.3699593],[0.020535,51.3700856]]]}},
{"type":"Feature","properties":{"highway":"footway","name":null,"category":"Footpath (pedestrian only)"},"geometry":{"type":"MultiLineString","coordinates":[[[0.0100545,51.3748988],[0.0089942,51.3743728]]]}},
{"type":"Feature","properties":{"highway":"footway","name":null,"category":"Footpath (pedestrian only)"},"geometry":{"type":"MultiLineString","coordinates":[[[0.010124,51.3762574],[0.0102082,51.3762337],[0.0102365,51.376224],[0.0103299,51.3761568]]]}},
{"type":"Feature","properties":{"highway":"footway","name":null,"category":"Footpath (pedestrian only)"},"geometry":{"type":"MultiLineString","coordinates":[[[0.0102365,51.376224],[0.0102854,51.3762976]]]}},
{"type":"Feature","properties":{"highway":"footway","name":null,"category":"Footpath (pedestrian only)"},"geometry":{"type":"MultiLineString","coordinates":[[[0.0174408,51.3712996],[0.0174159,51.3712908],[0.0173006,51.3712546],[0.0172893,51.3712478],[0.0173137,51.3712264]]]}},
{"type":"Feature","properties":{"highway":"footway","name":null,"category":"Footpath (pedestrian only)"},"geometry":{"type":"MultiLineString","coordinates":[[[0.0172989,51.3706591],[0.0171797,51.3707259],[0.0171533,51.3707764],[0.0171527,51.3708357],[0.0171325,51.3708717],[0.0170921,51.3708877],[0.0170645,51.3708988],[0.0170418,51.3709015],[0.0170136,51.3708992],[0.0169824,51.3708992],[0.0169548,51.370903],[0.0169174,51.3709137],[0.0168856,51.3709336],[0.0168561,51.3709627],[0.0168414,51.3709857],[0.0168181,51.3710132],[0.0168028,51.3710285],[0.016782,51.37104],[0.016744,51.3710545],[0.0167134,51.371061],[0.0166564,51.3710713],[0.0166184,51.3710767],[0.0165547,51.3710694],[0.0165246,51.3710553],[0.0164909,51.3710446],[0.0164425,51.3710197],[0.0163053,51.3709367],[0.0161876,51.3708575],[0.0161086,51.3707913],[0.0161931,51.3707091],[0.0163665,51.3705936],[0.0164529,51.3705538],[0.016589,51.370527],[0.0167685,51.3704891],[0.0169076,51.3704849],[0.0170014,51.370519],[0.0170669,51.3705446],[0.0172016,51.3705693]]]}},
{"type":"Feature","properties":{"highway":"footway","name":null,"category":"Footpath (pedestrian only)"},"geometry":{"type":"MultiLineString","coordinates":[[[0.0161086,51.3707913],[0.016016,51.3708797],[0.0159584,51.3709248],[0.015683,51.3709308]]]}},
{"type":"Feature","properties":{"highway":"footway","name":null,"category":"Footpath (pedestrian only)"},"geometry":{"type":"MultiLineString","coordinates":[[[0.0175934,51.3700363],[0.0175547,51.3700895],[0.0175328,51.3700825],[0.0174088,51.3702198],[0.0173251,51.3701972],[0.0173062,51.3702252],[0.0170596,51.3701525]]]}},
{"type":"Feature","properties":{"highway":"footway","name":null,"category":"Footpath (pedestrian only)"},"geometry":{"type":"MultiLineString","coordinates":[[[0.0166671,51.371988],[0.015495,51.3717199],[0.0150226,51.3715612]]]}},
{"type":"Feature","properties":{"highway":"footway","name":null,"category":"Footpath (pedestrian only)"},"geometry":{"type":"MultiLineString","coordinates":[[[0.0168725,51.3691257],[0.0175629,51.3687261]]]}},
{"type":"Feature","properties":{"highway":"footway","name":null,"category":"Footpath (pedestrian only)"},"geometry":{"type":"MultiLineString","coordinates":[[[0.0136216,51.3689263],[0.0136061,51.3688664],[0.0136043,51.3688124],[0.0135845,51.368773],[0.0135716,51.3686299],[0.0134886,51.3684896]]]}},
{"type":"Feature","properties":{"highway":"footway","name":null,"category":"Footpath (pedestrian only)"},"geometry":{"type":"MultiLineString","coordinates":[[[0.0136472,51.3680913],[0.0135519,51.3681821],[0.0135343,51.3681837],[0.0134947,51.3681874]]]}},
{"type":"Feature","properties":{"highway":"footway","name":null,"category":"Footpath (pedestrian only)"},"geometry":{"type":"MultiLineString","coordinates":[[[0.0088679,51.3684606],[0.008305,51.3683936],[0.0082306,51.3683847],[0.0079793,51.3684382],[0.0078521,51.3684653],[0.0076547,51.3685189],[0.0073629,51.3686261],[0.0069852,51.3687439],[0.006659,51.3688404],[0.0065134,51.3690769]]]}},
{"type":"Feature","properties":{"highway":"footway","name":null,"category":"Footpath (pedestrian only)"},"geometry":{"type":"MultiLineString","coordinates":[[[0.0159221,51.3689626],[0.0155963,51.3689197],[0.0147866,51.3688132],[0.0138986,51.3689027],[0.0136216,51.3689263]]]}},
{"type":"Feature","properties":{"highway":"footway","name":null,"category":"Footpath (pedestrian only)"},"geometry":{"type":"MultiLineString","coordinates":[[[0.0203079,51.3673295],[0.0203544,51.3672558],[0.0203906,51.3672351],[0.0204451,51.3671878],[0.0204896,51.3671245],[0.0206118,51.3668088]]]}},
{"type":"Feature","properties":{"highway":"footway","name":null,"category":"Footpath (pedestrian only)"},"geometry":{"type":"MultiLineString","coordinates":[[[0.0130749,51.3735706],[0.0130382,51.373597],[0.012336,51.374102]]]}},
{"type":"Feature","properties":{"highway":"footway","name":null,"category":"Footpath (pedestrian only)"},"geometry":{"type":"MultiLineString","coordinates":[[[0.0131241,51.3736256],[0.0130382,51.373597]]]}},
{"type":"Feature","properties":{"highway":"footway","name":null,"category":"Footpath (pedestrian only)"},"geometry":{"type":"MultiLineString","coordinates":[[[0.0159797,51.3696685],[0.0150998,51.369662],[0.0143108,51.3696562],[0.013626,51.3696634],[0.0132376,51.3696661],[0.0119838,51.3696749],[0.0118493,51.3696708],[0.0113718,51.369656],[0.0112409,51.369652],[0.0102674,51.3696322],[0.0098032,51.3695517]]]}},
{"type":"Feature","properties":{"highway":"footway","name":null,"category":"Footpath (pedestrian only)"},"geometry":{"type":"MultiLineString","coordinates":[[[0.0179149,51.3685728],[0.0175629,51.3687261]]]}},
{"type":"Feature","properties":{"highway":"footway","name":null,"category":"Footpath (pedestrian only)"},"geometry":{"type":"MultiLineString","coordinates":[[[0.0179547,51.3693053],[0.0175577,51.3688364],[0.0175629,51.3687261],[0.0175586,51.3685937],[0.0174572,51.3685257]]]}},
{"type":"Feature","properties":{"highway":"footway","name":null,"category":"Footpath (pedestrian only)"},"geometry":{"type":"MultiLineString","coordinates":[[[0.0161664,51.3695433],[0.0159797,51.3696685],[0.0158643,51.3697459],[0.0157369,51.3700575],[0.0157051,51.3706485],[0.015683,51.3709308],[0.0155205,51.371159],[0.0150226,51.3715612]]]}},
{"type":"Feature","properties":{"highway":"footway","name":null,"category":"Footpath (pedestrian only)"},"geometry":{"type":"MultiLineString","coordinates":[[[0.0228646,51.3711201],[0.0229917,51.3711278],[0.0230356,51.3711378],[0.0233748,51.371217]]]}},
{"type":"Feature","properties":{"highway":"footway","name":null,"category":"Footpath (pedestrian only)"},"geometry":{"type":"MultiLineString","coordinates":[[[0.0225845,51.3708082],[0.0229917,51.3711278]]]}},
{"type":"Feature","properties":{"highway":"footway","name":null,"category":"Footpath (pedestrian only)"},"geometry":{"type":"MultiLineString","coordinates":[[[0.02224,51.3710095],[0.0222959,51.3710189],[0.0223986,51.3710362],[0.0228646,51.3711201]]]}},
{"type":"Feature","properties":{"highway":"bridleway","name":null,"category":"Bridleway"},"geometry":{"type":"MultiLineString","coordinates":[[[0.0224345,51.3709223],[0.02224,51.3710095]]]}},
{"type":"Feature","properties":{"highway":"footway","name":null,"category":"Footpath (pedestrian only)"},"geometry":{"type":"MultiLineString","coordinates":[[[0.0110349,51.373726],[0.0109035,51.373518]]]}},
{"type":"Feature","properties":{"highway":"footway","name":null,"category":"Footpath (pedestrian only)"},"geometry":{"type":"MultiLineString","coordinates":[[[0.0110355,51.3739528],[0.0112658,51.3739522]]]}},
{"type":"Feature","properties":{"highway":"footway","name":null,"category":"Footpath (pedestrian only)"},"geometry":{"type":"MultiLineString","coordinates":[[[0.0106689,51.37339],[0.0109798,51.373395],[0.0110603,51.3733581],[0.0110791,51.3731053],[0.0111381,51.3730886],[0.0111435,51.3730417],[0.0110523,51.3730467],[0.0112138,51.3728197],[0.0113446,51.3726231],[0.0114251,51.3726064],[0.0116665,51.372454],[0.011704,51.3724054],[0.0115833,51.3723803],[0.0115914,51.3723083],[0.0115522,51.3721789],[0.0117335,51.3719852],[0.0117743,51.3719718],[0.0122353,51.371821]]]}},
{"type":"Feature","properties":{"highway":"footway","name":null,"category":"Footpath (pedestrian only)"},"geometry":{"type":"MultiLineString","coordinates":[[[0.0200351,51.3708675],[0.0201268,51.3702104]]]}},
{"type":"Feature","properties":{"highway":"footway","name":null,"category":"Footpath (pedestrian only)"},"geometry":{"type":"MultiLineString","coordinates":[[[0.0191847,51.3689408],[0.0191323,51.3688603],[0.0189041,51.3688645],[0.0183361,51.3687692],[0.0179149,51.3685728]]]}},
{"type":"Feature","properties":{"highway":"footway","name":null,"category":"Footpath (pedestrian only)"},"geometry":{"type":"MultiLineString","coordinates":[[[0.0048656,51.3759615],[0.0044702,51.375729]]]}},
{"type":"Feature","properties":{"highway":"footway","name":null,"category":"Footpath (pedestrian only)"},"geometry":{"type":"MultiLineString","coordinates":[[[0.010572,51.3728501],[0.0106081,51.3726277],[0.0105419,51.3724961],[0.0107992,51.3723193]]]}},
{"type":"Feature","properties":{"highway":"footway","name":null,"category":"Footpath (pedestrian only)"},"geometry":{"type":"MultiLineString","coordinates":[[[0.0099831,51.3694984],[0.0110738,51.3690928],[0.0113606,51.3688005],[0.0115028,51.3688189],[0.0117626,51.3687194],[0.0120519,51.3686919],[0.0121859,51.3686344],[0.0123272,51.3685921],[0.0127088,51.3686154],[0.0128762,51.3683633]]]}},
{"type":"Feature","properties":{"highway":"footway","name":null,"category":"Footpath (pedestrian only)"},"geometry":{"type":"MultiLineString","coordinates":[[[0.0084289,51.3681507],[0.0104434,51.3684802]]]}},
{"type":"Feature","properties":{"highway":"footway","name":null,"category":"Footpath (pedestrian only)"},"geometry":{"type":"MultiLineString","coordinates":[[[0.0173062,51.3702252],[0.0172834,51.3702612],[0.017421,51.3703049],[0.0175107,51.3703322],[0.0175161,51.3703378]]]}},
{"type":"Feature","properties":{"highway":"footway","name":null,"category":"Footpath (pedestrian only)"},"geometry":{"type":"MultiLineString","coordinates":[[[0.0150226,51.3715612],[0.0146302,51.3712377],[0.014344,51.3710127],[0.0142021,51.3707809],[0.0141036,51.3706199],[0.0140607,51.3705457]]]}},
{"type":"Feature","properties":{"highway":"footway","name":null,"category":"Footpath (pedestrian only)"},"geometry":{"type":"MultiLineString","coordinates":[[[0.0132376,51.3696661],[0.0132094,51.3698145],[0.0131458,51.3699359],[0.0128241,51.3699911],[0.0125803,51.3701632],[0.0123541,51.3702845],[0.0120925,51.3703706],[0.0120572,51.3708295],[0.0120607,51.3709553],[0.0118448,51.3711656]]]}},
{"type":"Feature","properties":{"highway":"footway","name":null,"category":"Footpath (pedestrian only)"},"geometry":{"type":"MultiLineString","coordinates":[[[0.0118493,51.3696708],[0.0117426,51.3699513],[0.0116684,51.3700021],[0.0116083,51.3702823],[0.0113821,51.3705206],[0.0112496,51.3706277],[0.0111453,51.3706663],[0.0106398,51.3706288],[0.0103767,51.3706219]]]}},
{"type":"Feature","properties":{"highway":"footway","name":null,"category":"Footpath (pedestrian only)"},"geometry":{"type":"MultiLineString","coordinates":[[[0.0117426,51.3699513],[0.0119653,51.3701477],[0.0120925,51.3703706]]]}},
{"type":"Feature","properties":{"highway":"footway","name":null,"category":"Footpath (pedestrian only)"},"geometry":{"type":"MultiLineString","coordinates":[[[0.0100353,51.3701036],[0.0102086,51.370108],[0.0103288,51.3701455],[0.0104631,51.3702007],[0.0105621,51.3701941],[0.010657,51.3701806]]]}},
{"type":"Feature","properties":{"highway":"footway","name":null,"category":"Footpath (pedestrian only)"},"geometry":{"type":"MultiLineString","coordinates":[[[0.0107187,51.3701318],[0.0108484,51.3700639],[0.0109544,51.3699425],[0.0111382,51.3698675],[0.0113185,51.3697395],[0.0113718,51.369656]]]}},
{"type":"Feature","properties":{"highway":"footway","name":null,"category":"Footpath (pedestrian only)"},"geometry":{"type":"MultiLineString","coordinates":[[[0.0155576,51.3777719],[0.0154904,51.3777885],[0.0154276,51.377804],[0.0153645,51.3778405],[0.0153095,51.3779032],[0.0152768,51.3779682],[0.0152429,51.3780003],[0.0151699,51.3780216],[0.0150995,51.378042]]]}},
{"type":"Feature","properties":{"highway":"footway","name":null,"category":"Footpath (pedestrian only)"},"geometry":{"type":"MultiLineString","coordinates":[[[0.0131246,51.3778978],[0.0129901,51.3779065],[0.0129018,51.3779122]]]}},
{"type":"Feature","properties":{"highway":"footway","name":null,"category":"Footpath (pedestrian only)"},"geometry":{"type":"MultiLineString","coordinates":[[[0.013745,51.3714296],[0.0137687,51.3713581],[0.0138309,51.3712773],[0.0139124,51.3711665],[0.0139847,51.3710611],[0.0141453,51.3708669],[0.014178,51.370826],[0.0142021,51.3707809]]]}},
{"type":"Feature","properties":{"highway":"footway","name":null,"category":"Footpath (pedestrian only)"},"geometry":{"type":"MultiLineString","coordinates":[[[0.0138986,51.3689027],[0.0137537,51.3687394]]]}}
]
}
