{
"type": "FeatureCollection",
"name": "LEWIS_68",
"crs": { "type": "name", "properties": { "name": "urn:ogc:def:crs:OGC:1.3:CRS84" } },
"features": [
{ "type": "Feature", "properties": { "osm_id": 8818591042, "name": null, "amenity": "bench", "man_made": null, "leisure": null, "playground": null, "memorial": null }, "geometry": { "type": "Point", "coordinates": [ -0.0683635, 51.4173582 ] } },
{ "type": "Feature", "properties": { "osm_id": 8818591044, "name": null, "amenity": "bench", "man_made": null, "leisure": null, "playground": null, "memorial": null }, "geometry": { "type": "Point", "coordinates": [ -0.0681438, 51.4175384 ] } },
{ "type": "Feature", "properties": { "osm_id": 11568553848, "name": null, "amenity": "bench", "man_made": null, "leisure": null, "playground": null, "memorial": null }, "geometry": { "type": "Point", "coordinates": [ -0.067621, 51.4177143 ] } },
{ "type": "Feature", "properties": { "osm_id": 12046231507, "name": null, "amenity": null, "man_made": null, "leisure": "picnic_table", "playground": null, "memorial": null }, "geometry": { "type": "Point", "coordinates": [ -0.0664308, 51.4178175 ] } },
{ "type": "Feature", "properties": { "osm_id": 12046231508, "name": null, "amenity": null, "man_made": null, "leisure": "picnic_table", "playground": null, "memorial": null }, "geometry": { "type": "Point", "coordinates": [ -0.0663781, 51.4178218 ] } },
{ "type": "Feature", "properties": { "osm_id": 6600833607, "name": null, "amenity": "bench", "man_made": null, "leisure": null, "playground": null, "memorial": null }, "geometry": { "type": "Point", "coordinates": [ -0.0668387, 51.4179947 ] } },
{ "type": "Feature", "properties": { "osm_id": 11568553849, "name": null, "amenity": "bench", "man_made": null, "leisure": null, "playground": null, "memorial": null }, "geometry": { "type": "Point", "coordinates": [ -0.0670367, 51.418016 ] } },
{ "type": "Feature", "properties": { "osm_id": 11568553847, "name": null, "amenity": "bench", "man_made": null, "leisure": null, "playground": null, "memorial": null }, "geometry": { "type": "Point", "coordinates": [ -0.0671734, 51.4180499 ] } },
{ "type": "Feature", "properties": { "osm_id": 11813264449, "name": null, "amenity": "bench", "man_made": null, "leisure": null, "playground": null, "memorial": null }, "geometry": { "type": "Point", "coordinates": [ -0.0640892, 51.418204 ] } },
{ "type": "Feature", "properties": { "osm_id": 6699229450, "name": null, "amenity": "bench", "man_made": null, "leisure": null, "playground": null, "memorial": null }, "geometry": { "type": "Point", "coordinates": [ -0.0640135, 51.4182475 ] } },
{ "type": "Feature", "properties": { "osm_id": 13391075154, "name": null, "amenity": "bench", "man_made": null, "leisure": null, "playground": null, "memorial": null }, "geometry": { "type": "Point", "coordinates": [ -0.072445, 51.4184134 ] } },
{ "type": "Feature", "properties": { "osm_id": 8818591041, "name": null, "amenity": "bench", "man_made": null, "leisure": null, "playground": null, "memorial": null }, "geometry": { "type": "Point", "coordinates": [ -0.0637034, 51.4184243 ] } },
{ "type": "Feature", "properties": { "osm_id": 13391075155, "name": null, "amenity": "bench", "man_made": null, "leisure": null, "playground": null, "memorial": null }, "geometry": { "type": "Point", "coordinates": [ -0.0724124, 51.418445 ] } },
{ "type": "Feature", "properties": { "osm_id": 5021001658, "name": null, "amenity": "bench", "man_made": null, "leisure": null, "playground": null, "memorial": null }, "geometry": { "type": "Point", "coordinates": [ -0.0723307, 51.4185309 ] } },
{ "type": "Feature", "properties": { "osm_id": 13391075152, "name": null, "amenity": "bench", "man_made": null, "leisure": null, "playground": null, "memorial": null }, "geometry": { "type": "Point", "coordinates": [ -0.0723037, 51.4185556 ] } },
{ "type": "Feature", "properties": { "osm_id": 13391075153, "name": null, "amenity": "bench", "man_made": null, "leisure": null, "playground": null, "memorial": null }, "geometry": { "type": "Point", "coordinates": [ -0.0722784, 51.4185797 ] } },
{ "type": "Feature", "properties": { "osm_id": 6760793948, "name": null, "amenity": "bench", "man_made": null, "leisure": null, "playground": null, "memorial": null }, "geometry": { "type": "Point", "coordinates": [ -0.0634187, 51.4192455 ] } },
{ "type": "Feature", "properties": { "osm_id": 3605264910, "name": null, "amenity": "bench", "man_made": null, "leisure": null, "playground": null, "memorial": null }, "geometry": { "type": "Point", "coordinates": [ -0.0638336, 51.4192553 ] } },
{ "type": "Feature", "properties": { "osm_id": 6649559892, "name": null, "amenity": null, "man_made": null, "leisure": "picnic_table", "playground": null, "memorial": null }, "geometry": { "type": "Point", "coordinates": [ -0.0657667, 51.4193029 ] } },
{ "type": "Feature", "properties": { "osm_id": 3605264912, "name": null, "amenity": "bench", "man_made": null, "leisure": null, "playground": null, "memorial": null }, "geometry": { "type": "Point", "coordinates": [ -0.0640849, 51.419314 ] } },
{ "type": "Feature", "properties": { "osm_id": 3605264916, "name": null, "amenity": "bench", "man_made": null, "leisure": null, "playground": null, "memorial": null }, "geometry": { "type": "Point", "coordinates": [ -0.0638831, 51.4193638 ] } },
{ "type": "Feature", "properties": { "osm_id": 8790032625, "name": null, "amenity": "bench", "man_made": null, "leisure": null, "playground": null, "memorial": null }, "geometry": { "type": "Point", "coordinates": [ -0.0644293, 51.4193994 ] } },
{ "type": "Feature", "properties": { "osm_id": 3605264915, "name": null, "amenity": "bench", "man_made": null, "leisure": null, "playground": null, "memorial": null }, "geometry": { "type": "Point", "coordinates": [ -0.0640855, 51.4194134 ] } },
{ "type": "Feature", "properties": { "osm_id": 6649559893, "name": null, "amenity": null, "man_made": null, "leisure": "picnic_table", "playground": null, "memorial": null }, "geometry": { "type": "Point", "coordinates": [ -0.0658412, 51.4194284 ] } },
{ "type": "Feature", "properties": { "osm_id": 8789995512, "name": null, "amenity": "bench", "man_made": null, "leisure": null, "playground": null, "memorial": null }, "geometry": { "type": "Point", "coordinates": [ -0.0646354, 51.4194522 ] } },
{ "type": "Feature", "properties": { "osm_id": 8789995509, "name": null, "amenity": "bench", "man_made": null, "leisure": null, "playground": null, "memorial": null }, "geometry": { "type": "Point", "coordinates": [ -0.0643845, 51.4194868 ] } },
{ "type": "Feature", "properties": { "osm_id": 6649559894, "name": null, "amenity": null, "man_made": null, "leisure": "picnic_table", "playground": null, "memorial": null }, "geometry": { "type": "Point", "coordinates": [ -0.0657321, 51.4194897 ] } },
{ "type": "Feature", "properties": { "osm_id": 8790032622, "name": null, "amenity": "bench", "man_made": null, "leisure": null, "playground": null, "memorial": null }, "geometry": { "type": "Point", "coordinates": [ -0.0648602, 51.4195099 ] } },
{ "type": "Feature", "properties": { "osm_id": 6649559895, "name": null, "amenity": null, "man_made": null, "leisure": "picnic_table", "playground": null, "memorial": null }, "geometry": { "type": "Point", "coordinates": [ -0.0657624, 51.4195208 ] } },
{ "type": "Feature", "properties": { "osm_id": 8790032619, "name": null, "amenity": "bench", "man_made": null, "leisure": null, "playground": null, "memorial": null }, "geometry": { "type": "Point", "coordinates": [ -0.0645822, 51.4195352 ] } },
{ "type": "Feature", "properties": { "osm_id": 6649559896, "name": null, "amenity": null, "man_made": null, "leisure": "picnic_table", "playground": null, "memorial": null }, "geometry": { "type": "Point", "coordinates": [ -0.0657059, 51.4195621 ] } },
{ "type": "Feature", "properties": { "osm_id": 8789995508, "name": null, "amenity": "bench", "man_made": null, "leisure": null, "playground": null, "memorial": null }, "geometry": { "type": "Point", "coordinates": [ -0.0650915, 51.4195693 ] } },
{ "type": "Feature", "properties": { "osm_id": 8809152432, "name": null, "amenity": null, "man_made": null, "leisure": "picnic_table", "playground": null, "memorial": null }, "geometry": { "type": "Point", "coordinates": [ -0.0658485, 51.4195815 ] } },
{ "type": "Feature", "properties": { "osm_id": 8789995516, "name": null, "amenity": "bench", "man_made": null, "leisure": null, "playground": null, "memorial": null }, "geometry": { "type": "Point", "coordinates": [ -0.0648066, 51.4195902 ] } },
{ "type": "Feature", "properties": { "osm_id": 8789995513, "name": null, "amenity": "bench", "man_made": null, "leisure": null, "playground": null, "memorial": null }, "geometry": { "type": "Point", "coordinates": [ -0.0651903, 51.4195946 ] } },
{ "type": "Feature", "properties": { "osm_id": 8790032620, "name": null, "amenity": "bench", "man_made": null, "leisure": null, "playground": null, "memorial": null }, "geometry": { "type": "Point", "coordinates": [ -0.0653326, 51.4196311 ] } },
{ "type": "Feature", "properties": { "osm_id": 8790032624, "name": null, "amenity": "bench", "man_made": null, "leisure": null, "playground": null, "memorial": null }, "geometry": { "type": "Point", "coordinates": [ -0.0650415, 51.4196478 ] } },
{ "type": "Feature", "properties": { "osm_id": 8789995503, "name": null, "amenity": "bench", "man_made": null, "leisure": null, "playground": null, "memorial": null }, "geometry": { "type": "Point", "coordinates": [ -0.065414, 51.419652 ] } },
{ "type": "Feature", "properties": { "osm_id": 8789995515, "name": null, "amenity": "bench", "man_made": null, "leisure": null, "playground": null, "memorial": null }, "geometry": { "type": "Point", "coordinates": [ -0.0651409, 51.4196722 ] } },
{ "type": "Feature", "properties": { "osm_id": 8790032621, "name": null, "amenity": "bench", "man_made": null, "leisure": null, "playground": null, "memorial": null }, "geometry": { "type": "Point", "coordinates": [ -0.0652883, 51.4197084 ] } },
{ "type": "Feature", "properties": { "osm_id": 8789995505, "name": null, "amenity": "bench", "man_made": null, "leisure": null, "playground": null, "memorial": null }, "geometry": { "type": "Point", "coordinates": [ -0.0653638, 51.4197269 ] } },
{ "type": "Feature", "properties": { "osm_id": 6589790725, "name": null, "amenity": "bench", "man_made": null, "leisure": null, "playground": null, "memorial": null }, "geometry": { "type": "Point", "coordinates": [ -0.076756, 51.4200164 ] } },
{ "type": "Feature", "properties": { "osm_id": 12052736142, "name": null, "amenity": null, "man_made": null, "leisure": "picnic_table", "playground": null, "memorial": null }, "geometry": { "type": "Point", "coordinates": [ -0.0650315, 51.4201784 ] } },
{ "type": "Feature", "properties": { "osm_id": 12052736140, "name": null, "amenity": null, "man_made": null, "leisure": "picnic_table", "playground": null, "memorial": null }, "geometry": { "type": "Point", "coordinates": [ -0.064812, 51.4202282 ] } },
{ "type": "Feature", "properties": { "osm_id": 6589790726, "name": null, "amenity": "bench", "man_made": null, "leisure": null, "playground": null, "memorial": null }, "geometry": { "type": "Point", "coordinates": [ -0.0771515, 51.4202743 ] } },
{ "type": "Feature", "properties": { "osm_id": 6589790721, "name": null, "amenity": "bench", "man_made": null, "leisure": null, "playground": null, "memorial": null }, "geometry": { "type": "Point", "coordinates": [ -0.0771345, 51.4203052 ] } },
{ "type": "Feature", "properties": { "osm_id": 6589790723, "name": null, "amenity": "bench", "man_made": null, "leisure": null, "playground": null, "memorial": null }, "geometry": { "type": "Point", "coordinates": [ -0.0771187, 51.420335 ] } },
{ "type": "Feature", "properties": { "osm_id": 6589895522, "name": null, "amenity": "bench", "man_made": null, "leisure": null, "playground": null, "memorial": null }, "geometry": { "type": "Point", "coordinates": [ -0.0770881, 51.420417 ] } },
{ "type": "Feature", "properties": { "osm_id": 6589895520, "name": null, "amenity": "bench", "man_made": null, "leisure": null, "playground": null, "memorial": null }, "geometry": { "type": "Point", "coordinates": [ -0.077137, 51.4204265 ] } },
{ "type": "Feature", "properties": { "osm_id": 6589790727, "name": null, "amenity": "bench", "man_made": null, "leisure": null, "playground": null, "memorial": null }, "geometry": { "type": "Point", "coordinates": [ -0.0758996, 51.4204291 ] } },
{ "type": "Feature", "properties": { "osm_id": 6589895515, "name": null, "amenity": "bench", "man_made": null, "leisure": null, "playground": null, "memorial": null }, "geometry": { "type": "Point", "coordinates": [ -0.0773076, 51.4204657 ] } },
{ "type": "Feature", "properties": { "osm_id": 6589895518, "name": null, "amenity": "bench", "man_made": null, "leisure": null, "playground": null, "memorial": null }, "geometry": { "type": "Point", "coordinates": [ -0.0773565, 51.4204737 ] } },
{ "type": "Feature", "properties": { "osm_id": 11238352155, "name": null, "amenity": "bench", "man_made": null, "leisure": null, "playground": null, "memorial": null }, "geometry": { "type": "Point", "coordinates": [ -0.0754572, 51.4211116 ] } },
{ "type": "Feature", "properties": { "osm_id": 8789995039, "name": null, "amenity": "bench", "man_made": null, "leisure": null, "playground": null, "memorial": null }, "geometry": { "type": "Point", "coordinates": [ -0.0649785, 51.4213102 ] } },
{ "type": "Feature", "properties": { "osm_id": 8789995032, "name": null, "amenity": "bench", "man_made": null, "leisure": null, "playground": null, "memorial": null }, "geometry": { "type": "Point", "coordinates": [ -0.0649463, 51.4213484 ] } },
{ "type": "Feature", "properties": { "osm_id": 8789995047, "name": null, "amenity": "bench", "man_made": null, "leisure": null, "playground": null, "memorial": null }, "geometry": { "type": "Point", "coordinates": [ -0.0648739, 51.4214215 ] } },
{ "type": "Feature", "properties": { "osm_id": 8789995041, "name": null, "amenity": "bench", "man_made": null, "leisure": null, "playground": null, "memorial": null }, "geometry": { "type": "Point", "coordinates": [ -0.064792, 51.4215115 ] } },
{ "type": "Feature", "properties": { "osm_id": 11238352158, "name": null, "amenity": "bench", "man_made": null, "leisure": null, "playground": null, "memorial": null }, "geometry": { "type": "Point", "coordinates": [ -0.0756809, 51.4215437 ] } },
{ "type": "Feature", "properties": { "osm_id": 8789995035, "name": null, "amenity": "bench", "man_made": null, "leisure": null, "playground": null, "memorial": null }, "geometry": { "type": "Point", "coordinates": [ -0.0647058, 51.4216025 ] } },
{ "type": "Feature", "properties": { "osm_id": 8789995043, "name": null, "amenity": "bench", "man_made": null, "leisure": null, "playground": null, "memorial": null }, "geometry": { "type": "Point", "coordinates": [ -0.0645655, 51.421751 ] } },
{ "type": "Feature", "properties": { "osm_id": 8789995037, "name": null, "amenity": "bench", "man_made": null, "leisure": null, "playground": null, "memorial": null }, "geometry": { "type": "Point", "coordinates": [ -0.0645219, 51.4218061 ] } },
{ "type": "Feature", "properties": { "osm_id": 8789995030, "name": null, "amenity": "bench", "man_made": null, "leisure": null, "playground": null, "memorial": null }, "geometry": { "type": "Point", "coordinates": [ -0.0644587, 51.4218949 ] } },
{ "type": "Feature", "properties": { "osm_id": 11238352159, "name": null, "amenity": "bench", "man_made": null, "leisure": null, "playground": null, "memorial": null }, "geometry": { "type": "Point", "coordinates": [ -0.0748663, 51.4219721 ] } },
{ "type": "Feature", "properties": { "osm_id": 8789995046, "name": null, "amenity": "bench", "man_made": null, "leisure": null, "playground": null, "memorial": null }, "geometry": { "type": "Point", "coordinates": [ -0.06441, 51.4219804 ] } },
{ "type": "Feature", "properties": { "osm_id": 8789995040, "name": null, "amenity": "bench", "man_made": null, "leisure": null, "playground": null, "memorial": null }, "geometry": { "type": "Point", "coordinates": [ -0.0643816, 51.4220689 ] } },
{ "type": "Feature", "properties": { "osm_id": 8789995033, "name": null, "amenity": "bench", "man_made": null, "leisure": null, "playground": null, "memorial": null }, "geometry": { "type": "Point", "coordinates": [ -0.0643631, 51.4221653 ] } },
{ "type": "Feature", "properties": { "osm_id": 11238396675, "name": null, "amenity": "bench", "man_made": null, "leisure": null, "playground": null, "memorial": null }, "geometry": { "type": "Point", "coordinates": [ -0.0746534, 51.4225597 ] } },
{ "type": "Feature", "properties": { "osm_id": 6589892567, "name": null, "amenity": "bench", "man_made": null, "leisure": null, "playground": null, "memorial": null }, "geometry": { "type": "Point", "coordinates": [ -0.069893, 51.4226722 ] } },
{ "type": "Feature", "properties": { "osm_id": 6589892568, "name": null, "amenity": "bench", "man_made": null, "leisure": null, "playground": null, "memorial": null }, "geometry": { "type": "Point", "coordinates": [ -0.0699393, 51.4226771 ] } },
{ "type": "Feature", "properties": { "osm_id": 11239374426, "name": null, "amenity": "bench", "man_made": null, "leisure": null, "playground": null, "memorial": null }, "geometry": { "type": "Point", "coordinates": [ -0.0668693, 51.4233445 ] } },
{ "type": "Feature", "properties": { "osm_id": 8796071716, "name": null, "amenity": "bench", "man_made": null, "leisure": null, "playground": null, "memorial": null }, "geometry": { "type": "Point", "coordinates": [ -0.0708523, 51.4237975 ] } },
{ "type": "Feature", "properties": { "osm_id": 8796081618, "name": null, "amenity": "bench", "man_made": null, "leisure": null, "playground": null, "memorial": null }, "geometry": { "type": "Point", "coordinates": [ -0.0711422, 51.4243107 ] } },
{ "type": "Feature", "properties": { "osm_id": 8796071712, "name": null, "amenity": "bench", "man_made": null, "leisure": null, "playground": null, "memorial": null }, "geometry": { "type": "Point", "coordinates": [ -0.0710132, 51.4246558 ] } },
{ "type": "Feature", "properties": { "osm_id": 8796071709, "name": null, "amenity": "bench", "man_made": null, "leisure": null, "playground": null, "memorial": null }, "geometry": { "type": "Point", "coordinates": [ -0.0711396, 51.4247061 ] } }
]
}
