{
"type": "FeatureCollection",
"name": "042028f59247_visibility",
"crs": { "type": "name", "properties": { "name": "urn:ogc:def:crs:OGC:1.3:CRS84" } },
"features": [
{ "type": "Feature", "properties": { "visible_points": 0, "total_points": 63, "visibility_pct": 0.0 }, "geometry": { "type": "Point", "coordinates": [ 0.163010391436635, 51.568972536719869 ] } },
{ "type": "Feature", "properties": { "visible_points": 0, "total_points": 56, "visibility_pct": 0.0 }, "geometry": { "type": "Point", "coordinates": [ 0.163210171177052, 51.568968858103823 ] } },
{ "type": "Feature", "properties": { "visible_points": 0, "total_points": 49, "visibility_pct": 0.0 }, "geometry": { "type": "Point", "coordinates": [ 0.163409950874884, 51.568965179147284 ] } },
{ "type": "Feature", "properties": { "visible_points": 10, "total_points": 60, "visibility_pct": 16.666666666666664 }, "geometry": { "type": "Point", "coordinates": [ 0.161317373695801, 51.569111611924633 ] } },
{ "type": "Feature", "properties": { "visible_points": 0, "total_points": 67, "visibility_pct": 0.0 }, "geometry": { "type": "Point", "coordinates": [ 0.161517154271117, 51.569107936197604 ] } },
{ "type": "Feature", "properties": { "visible_points": 0, "total_points": 74, "visibility_pct": 0.0 }, "geometry": { "type": "Point", "coordinates": [ 0.161716934803885, 51.569104260130054 ] } },
{ "type": "Feature", "properties": { "visible_points": 0, "total_points": 80, "visibility_pct": 0.0 }, "geometry": { "type": "Point", "coordinates": [ 0.161916715294099, 51.56910058372199 ] } },
{ "type": "Feature", "properties": { "visible_points": 0, "total_points": 85, "visibility_pct": 0.0 }, "geometry": { "type": "Point", "coordinates": [ 0.162116495741766, 51.569096906973428 ] } },
{ "type": "Feature", "properties": { "visible_points": 0, "total_points": 86, "visibility_pct": 0.0 }, "geometry": { "type": "Point", "coordinates": [ 0.162316276146862, 51.569093229884338 ] } },
{ "type": "Feature", "properties": { "visible_points": 0, "total_points": 68, "visibility_pct": 0.0 }, "geometry": { "type": "Point", "coordinates": [ 0.163115397341609, 51.569078518122836 ] } },
{ "type": "Feature", "properties": { "visible_points": 0, "total_points": 60, "visibility_pct": 0.0 }, "geometry": { "type": "Point", "coordinates": [ 0.163315177533859, 51.569074839331186 ] } },
{ "type": "Feature", "properties": { "visible_points": 13, "total_points": 64, "visibility_pct": 20.3125 }, "geometry": { "type": "Point", "coordinates": [ 0.161222594958862, 51.569221270377781 ] } },
{ "type": "Feature", "properties": { "visible_points": 15, "total_points": 72, "visibility_pct": 20.833333333333336 }, "geometry": { "type": "Point", "coordinates": [ 0.161422376028577, 51.569217594815662 ] } },
{ "type": "Feature", "properties": { "visible_points": 6, "total_points": 80, "visibility_pct": 7.5 }, "geometry": { "type": "Point", "coordinates": [ 0.16162215705575, 51.569213918913022 ] } },
{ "type": "Feature", "properties": { "visible_points": 0, "total_points": 87, "visibility_pct": 0.0 }, "geometry": { "type": "Point", "coordinates": [ 0.161821938040371, 51.569210242669875 ] } },
{ "type": "Feature", "properties": { "visible_points": 0, "total_points": 93, "visibility_pct": 0.0 }, "geometry": { "type": "Point", "coordinates": [ 0.162021718982441, 51.56920656608623 ] } },
{ "type": "Feature", "properties": { "visible_points": 0, "total_points": 95, "visibility_pct": 0.0 }, "geometry": { "type": "Point", "coordinates": [ 0.162221499881951, 51.56920288916205 ] } },
{ "type": "Feature", "properties": { "visible_points": 0, "total_points": 96, "visibility_pct": 0.0 }, "geometry": { "type": "Point", "coordinates": [ 0.162421280738906, 51.569199211897349 ] } },
{ "type": "Feature", "properties": { "visible_points": 5, "total_points": 95, "visibility_pct": 5.2631578947368416 }, "geometry": { "type": "Point", "coordinates": [ 0.162621061553288, 51.569195534292135 ] } },
{ "type": "Feature", "properties": { "visible_points": 0, "total_points": 89, "visibility_pct": 0.0 }, "geometry": { "type": "Point", "coordinates": [ 0.162820842325107, 51.569191856346428 ] } },
{ "type": "Feature", "properties": { "visible_points": 5, "total_points": 80, "visibility_pct": 6.25 }, "geometry": { "type": "Point", "coordinates": [ 0.163020623054349, 51.569188178060188 ] } },
{ "type": "Feature", "properties": { "visible_points": 0, "total_points": 72, "visibility_pct": 0.0 }, "geometry": { "type": "Point", "coordinates": [ 0.163220403741018, 51.56918449943344 ] } },
{ "type": "Feature", "properties": { "visible_points": 0, "total_points": 63, "visibility_pct": 0.0 }, "geometry": { "type": "Point", "coordinates": [ 0.163420184385101, 51.569180820466158 ] } },
{ "type": "Feature", "properties": { "visible_points": 17, "total_points": 76, "visibility_pct": 22.368421052631579 }, "geometry": { "type": "Point", "coordinates": [ 0.161327597334194, 51.569327253352029 ] } },
{ "type": "Feature", "properties": { "visible_points": 17, "total_points": 85, "visibility_pct": 20.0 }, "geometry": { "type": "Point", "coordinates": [ 0.161527378855775, 51.569323577614313 ] } },
{ "type": "Feature", "properties": { "visible_points": 14, "total_points": 93, "visibility_pct": 15.053763440860216 }, "geometry": { "type": "Point", "coordinates": [ 0.161727160334804, 51.569319901536097 ] } },
{ "type": "Feature", "properties": { "visible_points": 11, "total_points": 100, "visibility_pct": 11.0 }, "geometry": { "type": "Point", "coordinates": [ 0.161926941771283, 51.569316225117348 ] } },
{ "type": "Feature", "properties": { "visible_points": 13, "total_points": 103, "visibility_pct": 12.621359223300971 }, "geometry": { "type": "Point", "coordinates": [ 0.162126723165207, 51.56931254835807 ] } },
{ "type": "Feature", "properties": { "visible_points": 16, "total_points": 104, "visibility_pct": 15.384615384615385 }, "geometry": { "type": "Point", "coordinates": [ 0.16232650451657, 51.569308871258286 ] } },
{ "type": "Feature", "properties": { "visible_points": 18, "total_points": 105, "visibility_pct": 17.142857142857142 }, "geometry": { "type": "Point", "coordinates": [ 0.162526285825369, 51.569305193817996 ] } },
{ "type": "Feature", "properties": { "visible_points": 0, "total_points": 101, "visibility_pct": 0.0 }, "geometry": { "type": "Point", "coordinates": [ 0.162726067091604, 51.569301516037193 ] } },
{ "type": "Feature", "properties": { "visible_points": 11, "total_points": 93, "visibility_pct": 11.827956989247312 }, "geometry": { "type": "Point", "coordinates": [ 0.162925848315265, 51.569297837915862 ] } },
{ "type": "Feature", "properties": { "visible_points": 12, "total_points": 84, "visibility_pct": 14.285714285714285 }, "geometry": { "type": "Point", "coordinates": [ 0.16312562949635, 51.569294159454003 ] } },
{ "type": "Feature", "properties": { "visible_points": 12, "total_points": 74, "visibility_pct": 16.216216216216218 }, "geometry": { "type": "Point", "coordinates": [ 0.16332541063486, 51.569290480651652 ] } },
{ "type": "Feature", "properties": { "visible_points": 20, "total_points": 78, "visibility_pct": 25.641025641025639 }, "geometry": { "type": "Point", "coordinates": [ 0.16123281818797, 51.569436911806733 ] } },
{ "type": "Feature", "properties": { "visible_points": 27, "total_points": 88, "visibility_pct": 30.681818181818183 }, "geometry": { "type": "Point", "coordinates": [ 0.161432600203956, 51.569433236233934 ] } },
{ "type": "Feature", "properties": { "visible_points": 25, "total_points": 98, "visibility_pct": 25.510204081632654 }, "geometry": { "type": "Point", "coordinates": [ 0.161632382177394, 51.569429560320621 ] } },
{ "type": "Feature", "properties": { "visible_points": 24, "total_points": 106, "visibility_pct": 22.641509433962266 }, "geometry": { "type": "Point", "coordinates": [ 0.161832164108285, 51.569425884066774 ] } },
{ "type": "Feature", "properties": { "visible_points": 21, "total_points": 111, "visibility_pct": 18.918918918918919 }, "geometry": { "type": "Point", "coordinates": [ 0.162031945996622, 51.569422207472421 ] } },
{ "type": "Feature", "properties": { "visible_points": 21, "total_points": 111, "visibility_pct": 18.918918918918919 }, "geometry": { "type": "Point", "coordinates": [ 0.162231727842403, 51.569418530537568 ] } },
{ "type": "Feature", "properties": { "visible_points": 28, "total_points": 111, "visibility_pct": 25.225225225225223 }, "geometry": { "type": "Point", "coordinates": [ 0.162431509645618, 51.569414853262167 ] } },
{ "type": "Feature", "properties": { "visible_points": 27, "total_points": 110, "visibility_pct": 24.545454545454547 }, "geometry": { "type": "Point", "coordinates": [ 0.16263129140627, 51.569411175646266 ] } },
{ "type": "Feature", "properties": { "visible_points": 2, "total_points": 104, "visibility_pct": 1.9230769230769231 }, "geometry": { "type": "Point", "coordinates": [ 0.162831073124354, 51.569407497689859 ] } },
{ "type": "Feature", "properties": { "visible_points": 21, "total_points": 95, "visibility_pct": 22.105263157894736 }, "geometry": { "type": "Point", "coordinates": [ 0.16303085479986, 51.569403819392903 ] } },
{ "type": "Feature", "properties": { "visible_points": 18, "total_points": 86, "visibility_pct": 20.930232558139537 }, "geometry": { "type": "Point", "coordinates": [ 0.163230636432792, 51.569400140755455 ] } },
{ "type": "Feature", "properties": { "visible_points": 0, "total_points": 75, "visibility_pct": 0.0 }, "geometry": { "type": "Point", "coordinates": [ 0.163430418023141, 51.56939646177748 ] } },
{ "type": "Feature", "properties": { "visible_points": 22, "total_points": 89, "visibility_pct": 24.719101123595504 }, "geometry": { "type": "Point", "coordinates": [ 0.161337821100285, 51.56954289477185 ] } },
{ "type": "Feature", "properties": { "visible_points": 28, "total_points": 101, "visibility_pct": 27.722772277227726 }, "geometry": { "type": "Point", "coordinates": [ 0.161537603568143, 51.569539219023447 ] } },
{ "type": "Feature", "properties": { "visible_points": 23, "total_points": 110, "visibility_pct": 20.909090909090907 }, "geometry": { "type": "Point", "coordinates": [ 0.161737385993447, 51.569535542934538 ] } },
{ "type": "Feature", "properties": { "visible_points": 31, "total_points": 116, "visibility_pct": 26.72413793103448 }, "geometry": { "type": "Point", "coordinates": [ 0.161937168376199, 51.569531866505095 ] } },
{ "type": "Feature", "properties": { "visible_points": 31, "total_points": 117, "visibility_pct": 26.495726495726498 }, "geometry": { "type": "Point", "coordinates": [ 0.162136950716395, 51.569528189735138 ] } },
{ "type": "Feature", "properties": { "visible_points": 32, "total_points": 116, "visibility_pct": 27.586206896551722 }, "geometry": { "type": "Point", "coordinates": [ 0.162336733014031, 51.569524512624682 ] } },
{ "type": "Feature", "properties": { "visible_points": 29, "total_points": 116, "visibility_pct": 25.0 }, "geometry": { "type": "Point", "coordinates": [ 0.162536515269105, 51.56952083517367 ] } },
{ "type": "Feature", "properties": { "visible_points": 30, "total_points": 112, "visibility_pct": 26.785714285714285 }, "geometry": { "type": "Point", "coordinates": [ 0.162736297481608, 51.569517157382158 ] } },
{ "type": "Feature", "properties": { "visible_points": 24, "total_points": 104, "visibility_pct": 23.076923076923077 }, "geometry": { "type": "Point", "coordinates": [ 0.162936079651539, 51.569513479250126 ] } },
{ "type": "Feature", "properties": { "visible_points": 23, "total_points": 94, "visibility_pct": 24.468085106382979 }, "geometry": { "type": "Point", "coordinates": [ 0.163135861778896, 51.569509800777574 ] } },
{ "type": "Feature", "properties": { "visible_points": 0, "total_points": 82, "visibility_pct": 0.0 }, "geometry": { "type": "Point", "coordinates": [ 0.163335643863675, 51.569506121964515 ] } },
{ "type": "Feature", "properties": { "visible_points": 29, "total_points": 83, "visibility_pct": 34.939759036144579 }, "geometry": { "type": "Point", "coordinates": [ 0.161243041544771, 51.56965255322811 ] } },
{ "type": "Feature", "properties": { "visible_points": 27, "total_points": 96, "visibility_pct": 28.125 }, "geometry": { "type": "Point", "coordinates": [ 0.161442824507035, 51.56964887764461 ] } },
{ "type": "Feature", "properties": { "visible_points": 29, "total_points": 107, "visibility_pct": 27.102803738317753 }, "geometry": { "type": "Point", "coordinates": [ 0.161642607426759, 51.569645201720611 ] } },
{ "type": "Feature", "properties": { "visible_points": 32, "total_points": 116, "visibility_pct": 27.586206896551722 }, "geometry": { "type": "Point", "coordinates": [ 0.16184239030393, 51.569641525456099 ] } },
{ "type": "Feature", "properties": { "visible_points": 33, "total_points": 120, "visibility_pct": 27.5 }, "geometry": { "type": "Point", "coordinates": [ 0.162042173138544, 51.569637848851052 ] } },
{ "type": "Feature", "properties": { "visible_points": 32, "total_points": 120, "visibility_pct": 26.666666666666668 }, "geometry": { "type": "Point", "coordinates": [ 0.162241955930606, 51.569634171905491 ] } },
{ "type": "Feature", "properties": { "visible_points": 32, "total_points": 120, "visibility_pct": 26.666666666666668 }, "geometry": { "type": "Point", "coordinates": [ 0.162441738680099, 51.569630494619403 ] } },
{ "type": "Feature", "properties": { "visible_points": 28, "total_points": 118, "visibility_pct": 23.728813559322035 }, "geometry": { "type": "Point", "coordinates": [ 0.162641521387028, 51.569626816992795 ] } },
{ "type": "Feature", "properties": { "visible_points": 26, "total_points": 111, "visibility_pct": 23.423423423423422 }, "geometry": { "type": "Point", "coordinates": [ 0.162841304051386, 51.569623139025687 ] } },
{ "type": "Feature", "properties": { "visible_points": 22, "total_points": 100, "visibility_pct": 22.0 }, "geometry": { "type": "Point", "coordinates": [ 0.16304108667317, 51.56961946071803 ] } },
{ "type": "Feature", "properties": { "visible_points": 17, "total_points": 89, "visibility_pct": 19.101123595505616 }, "geometry": { "type": "Point", "coordinates": [ 0.163240869252379, 51.56961578206986 ] } },
{ "type": "Feature", "properties": { "visible_points": 0, "total_points": 76, "visibility_pct": 0.0 }, "geometry": { "type": "Point", "coordinates": [ 0.163440651789003, 51.569612103081184 ] } },
{ "type": "Feature", "properties": { "visible_points": 21, "total_points": 73, "visibility_pct": 28.767123287671232 }, "geometry": { "type": "Point", "coordinates": [ 0.161148261537395, 51.569762211602651 ] } },
{ "type": "Feature", "properties": { "visible_points": 24, "total_points": 86, "visibility_pct": 27.906976744186046 }, "geometry": { "type": "Point", "coordinates": [ 0.161348044994081, 51.569758536184089 ] } },
{ "type": "Feature", "properties": { "visible_points": 13, "total_points": 99, "visibility_pct": 13.131313131313133 }, "geometry": { "type": "Point", "coordinates": [ 0.161547828408221, 51.569754860425 ] } },
{ "type": "Feature", "properties": { "visible_points": 0, "total_points": 111, "visibility_pct": 0.0 }, "geometry": { "type": "Point", "coordinates": [ 0.161747611779809, 51.569751184325405 ] } },
{ "type": "Feature", "properties": { "visible_points": 28, "total_points": 118, "visibility_pct": 23.728813559322035 }, "geometry": { "type": "Point", "coordinates": [ 0.161947395108853, 51.569747507885268 ] } },
{ "type": "Feature", "properties": { "visible_points": 23, "total_points": 120, "visibility_pct": 19.166666666666668 }, "geometry": { "type": "Point", "coordinates": [ 0.162147178395329, 51.569743831104617 ] } },
{ "type": "Feature", "properties": { "visible_points": 12, "total_points": 120, "visibility_pct": 10.0 }, "geometry": { "type": "Point", "coordinates": [ 0.162346961639253, 51.56974015398346 ] } },
{ "type": "Feature", "properties": { "visible_points": 23, "total_points": 120, "visibility_pct": 19.166666666666668 }, "geometry": { "type": "Point", "coordinates": [ 0.162546744840609, 51.569736476521769 ] } },
{ "type": "Feature", "properties": { "visible_points": 20, "total_points": 115, "visibility_pct": 17.391304347826086 }, "geometry": { "type": "Point", "coordinates": [ 0.162746527999395, 51.569732798719549 ] } },
{ "type": "Feature", "properties": { "visible_points": 16, "total_points": 106, "visibility_pct": 15.09433962264151 }, "geometry": { "type": "Point", "coordinates": [ 0.162946311115611, 51.569729120576831 ] } },
{ "type": "Feature", "properties": { "visible_points": 11, "total_points": 95, "visibility_pct": 11.578947368421053 }, "geometry": { "type": "Point", "coordinates": [ 0.163146094189246, 51.569725442093556 ] } },
{ "type": "Feature", "properties": { "visible_points": 0, "total_points": 82, "visibility_pct": 0.0 }, "geometry": { "type": "Point", "coordinates": [ 0.163345877220305, 51.569721763269783 ] } },
{ "type": "Feature", "properties": { "visible_points": 19, "total_points": 76, "visibility_pct": 25.0 }, "geometry": { "type": "Point", "coordinates": [ 0.161253265029265, 51.569868194641877 ] } },
{ "type": "Feature", "properties": { "visible_points": 22, "total_points": 88, "visibility_pct": 25.0 }, "geometry": { "type": "Point", "coordinates": [ 0.161453048937826, 51.569864519047712 ] } },
{ "type": "Feature", "properties": { "visible_points": 21, "total_points": 99, "visibility_pct": 21.212121212121211 }, "geometry": { "type": "Point", "coordinates": [ 0.161652832803842, 51.569860843113027 ] } },
{ "type": "Feature", "properties": { "visible_points": 30, "total_points": 109, "visibility_pct": 27.522935779816514 }, "geometry": { "type": "Point", "coordinates": [ 0.161852616627303, 51.569857166837821 ] } },
{ "type": "Feature", "properties": { "visible_points": 27, "total_points": 113, "visibility_pct": 23.893805309734514 }, "geometry": { "type": "Point", "coordinates": [ 0.162052400408212, 51.56985349022208 ] } },
{ "type": "Feature", "properties": { "visible_points": 29, "total_points": 115, "visibility_pct": 25.217391304347824 }, "geometry": { "type": "Point", "coordinates": [ 0.162252184146558, 51.569849813265826 ] } },
{ "type": "Feature", "properties": { "visible_points": 22, "total_points": 117, "visibility_pct": 18.803418803418804 }, "geometry": { "type": "Point", "coordinates": [ 0.162451967842343, 51.569846135969044 ] } },
{ "type": "Feature", "properties": { "visible_points": 25, "total_points": 116, "visibility_pct": 21.551724137931032 }, "geometry": { "type": "Point", "coordinates": [ 0.162651751495564, 51.569842458331756 ] } },
{ "type": "Feature", "properties": { "visible_points": 28, "total_points": 110, "visibility_pct": 25.454545454545453 }, "geometry": { "type": "Point", "coordinates": [ 0.162851535106209, 51.569838780353919 ] } },
{ "type": "Feature", "properties": { "visible_points": 21, "total_points": 100, "visibility_pct": 21.0 }, "geometry": { "type": "Point", "coordinates": [ 0.163051318674283, 51.569835102035576 ] } },
{ "type": "Feature", "properties": { "visible_points": 0, "total_points": 89, "visibility_pct": 0.0 }, "geometry": { "type": "Point", "coordinates": [ 0.163251102199776, 51.569831423376705 ] } },
{ "type": "Feature", "properties": { "visible_points": 0, "total_points": 76, "visibility_pct": 0.0 }, "geometry": { "type": "Point", "coordinates": [ 0.163450885682686, 51.569827744377307 ] } },
{ "type": "Feature", "properties": { "visible_points": 15, "total_points": 65, "visibility_pct": 23.076923076923077 }, "geometry": { "type": "Point", "coordinates": [ 0.161158484612592, 51.569977853017974 ] } },
{ "type": "Feature", "properties": { "visible_points": 12, "total_points": 76, "visibility_pct": 15.789473684210526 }, "geometry": { "type": "Point", "coordinates": [ 0.161358269015574, 51.56997417758874 ] } },
{ "type": "Feature", "properties": { "visible_points": 20, "total_points": 86, "visibility_pct": 23.255813953488371 }, "geometry": { "type": "Point", "coordinates": [ 0.161558053376013, 51.569970501818965 ] } },
{ "type": "Feature", "properties": { "visible_points": 24, "total_points": 96, "visibility_pct": 25.0 }, "geometry": { "type": "Point", "coordinates": [ 0.161757837693905, 51.569966825708669 ] } },
{ "type": "Feature", "properties": { "visible_points": 26, "total_points": 105, "visibility_pct": 24.761904761904763 }, "geometry": { "type": "Point", "coordinates": [ 0.161957621969238, 51.569963149257859 ] } },
{ "type": "Feature", "properties": { "visible_points": 29, "total_points": 107, "visibility_pct": 27.102803738317753 }, "geometry": { "type": "Point", "coordinates": [ 0.162157406202014, 51.569959472466522 ] } },
{ "type": "Feature", "properties": { "visible_points": 26, "total_points": 109, "visibility_pct": 23.853211009174313 }, "geometry": { "type": "Point", "coordinates": [ 0.162357190392236, 51.569955795334657 ] } },
{ "type": "Feature", "properties": { "visible_points": 25, "total_points": 111, "visibility_pct": 22.522522522522522 }, "geometry": { "type": "Point", "coordinates": [ 0.162556974539885, 51.569952117862265 ] } },
{ "type": "Feature", "properties": { "visible_points": 29, "total_points": 107, "visibility_pct": 27.102803738317753 }, "geometry": { "type": "Point", "coordinates": [ 0.162756758644967, 51.569948440049359 ] } },
{ "type": "Feature", "properties": { "visible_points": 27, "total_points": 99, "visibility_pct": 27.27272727272727 }, "geometry": { "type": "Point", "coordinates": [ 0.162956542707476, 51.569944761895904 ] } },
{ "type": "Feature", "properties": { "visible_points": 18, "total_points": 89, "visibility_pct": 20.224719101123593 }, "geometry": { "type": "Point", "coordinates": [ 0.163156326727407, 51.569941083401957 ] } },
{ "type": "Feature", "properties": { "visible_points": 15, "total_points": 78, "visibility_pct": 19.230769230769234 }, "geometry": { "type": "Point", "coordinates": [ 0.163356110704755, 51.569937404567476 ] } },
{ "type": "Feature", "properties": { "visible_points": 9, "total_points": 54, "visibility_pct": 16.666666666666664 }, "geometry": { "type": "Point", "coordinates": [ 0.161063703744046, 51.570087511312387 ] } },
{ "type": "Feature", "properties": { "visible_points": 0, "total_points": 64, "visibility_pct": 0.0 }, "geometry": { "type": "Point", "coordinates": [ 0.161263488641461, 51.57008383604807 ] } },
{ "type": "Feature", "properties": { "visible_points": 0, "total_points": 74, "visibility_pct": 0.0 }, "geometry": { "type": "Point", "coordinates": [ 0.161463273496325, 51.570080160443226 ] } },
{ "type": "Feature", "properties": { "visible_points": 11, "total_points": 83, "visibility_pct": 13.253012048192772 }, "geometry": { "type": "Point", "coordinates": [ 0.161663058308646, 51.570076484497854 ] } },
{ "type": "Feature", "properties": { "visible_points": 22, "total_points": 92, "visibility_pct": 23.913043478260871 }, "geometry": { "type": "Point", "coordinates": [ 0.16186284307841, 51.570072808211947 ] } },
{ "type": "Feature", "properties": { "visible_points": 23, "total_points": 97, "visibility_pct": 23.711340206185564 }, "geometry": { "type": "Point", "coordinates": [ 0.16206262780562, 51.570069131585527 ] } },
{ "type": "Feature", "properties": { "visible_points": 20, "total_points": 99, "visibility_pct": 20.202020202020201 }, "geometry": { "type": "Point", "coordinates": [ 0.162262412490272, 51.570065454618572 ] } },
{ "type": "Feature", "properties": { "visible_points": 21, "total_points": 101, "visibility_pct": 20.792079207920793 }, "geometry": { "type": "Point", "coordinates": [ 0.162462197132358, 51.570061777311103 ] } },
{ "type": "Feature", "properties": { "visible_points": 26, "total_points": 101, "visibility_pct": 25.742574257425744 }, "geometry": { "type": "Point", "coordinates": [ 0.162661981731876, 51.570058099663107 ] } },
{ "type": "Feature", "properties": { "visible_points": 25, "total_points": 95, "visibility_pct": 26.315789473684209 }, "geometry": { "type": "Point", "coordinates": [ 0.162861766288826, 51.570054421674577 ] } },
{ "type": "Feature", "properties": { "visible_points": 23, "total_points": 86, "visibility_pct": 26.744186046511626 }, "geometry": { "type": "Point", "coordinates": [ 0.163061550803199, 51.570050743345533 ] } },
{ "type": "Feature", "properties": { "visible_points": 13, "total_points": 77, "visibility_pct": 16.883116883116884 }, "geometry": { "type": "Point", "coordinates": [ 0.163261335274987, 51.570047064675947 ] } },
{ "type": "Feature", "properties": { "visible_points": 0, "total_points": 67, "visibility_pct": 0.0 }, "geometry": { "type": "Point", "coordinates": [ 0.163461119704198, 51.570043385665841 ] } },
{ "type": "Feature", "properties": { "visible_points": 0, "total_points": 62, "visibility_pct": 0.0 }, "geometry": { "type": "Point", "coordinates": [ 0.161368493164771, 51.570189818985789 ] } },
{ "type": "Feature", "properties": { "visible_points": 0, "total_points": 70, "visibility_pct": 0.0 }, "geometry": { "type": "Point", "coordinates": [ 0.161568278471522, 51.570186143205341 ] } },
{ "type": "Feature", "properties": { "visible_points": 11, "total_points": 79, "visibility_pct": 13.924050632911392 }, "geometry": { "type": "Point", "coordinates": [ 0.161768063735724, 51.570182467084372 ] } },
{ "type": "Feature", "properties": { "visible_points": 1, "total_points": 85, "visibility_pct": 1.1764705882352942 }, "geometry": { "type": "Point", "coordinates": [ 0.161967848957368, 51.570178790622847 ] } },
{ "type": "Feature", "properties": { "visible_points": 3, "total_points": 88, "visibility_pct": 3.4090909090909087 }, "geometry": { "type": "Point", "coordinates": [ 0.162167634136455, 51.570175113820817 ] } },
{ "type": "Feature", "properties": { "visible_points": 11, "total_points": 90, "visibility_pct": 12.222222222222221 }, "geometry": { "type": "Point", "coordinates": [ 0.162367419272978, 51.570171436678265 ] } },
{ "type": "Feature", "properties": { "visible_points": 0, "total_points": 92, "visibility_pct": 0.0 }, "geometry": { "type": "Point", "coordinates": [ 0.162567204366936, 51.570167759195172 ] } },
{ "type": "Feature", "properties": { "visible_points": 9, "total_points": 89, "visibility_pct": 10.112359550561797 }, "geometry": { "type": "Point", "coordinates": [ 0.162766989418326, 51.570164081371566 ] } },
{ "type": "Feature", "properties": { "visible_points": 15, "total_points": 82, "visibility_pct": 18.292682926829269 }, "geometry": { "type": "Point", "coordinates": [ 0.16296677442714, 51.570160403207417 ] } },
{ "type": "Feature", "properties": { "visible_points": 16, "total_points": 74, "visibility_pct": 21.621621621621621 }, "geometry": { "type": "Point", "coordinates": [ 0.163166559393375, 51.570156724702763 ] } },
{ "type": "Feature", "properties": { "visible_points": 0, "total_points": 65, "visibility_pct": 0.0 }, "geometry": { "type": "Point", "coordinates": [ 0.163366344317035, 51.570153045857566 ] } },
{ "type": "Feature", "properties": { "visible_points": 13, "total_points": 78, "visibility_pct": 16.666666666666664 }, "geometry": { "type": "Point", "coordinates": [ 0.162272640961743, 51.570281095963743 ] } },
{ "type": "Feature", "properties": { "visible_points": 18, "total_points": 80, "visibility_pct": 22.5 }, "geometry": { "type": "Point", "coordinates": [ 0.16247242655014, 51.570277418645574 ] } },
{ "type": "Feature", "properties": { "visible_points": 0, "total_points": 80, "visibility_pct": 0.0 }, "geometry": { "type": "Point", "coordinates": [ 0.162672212095978, 51.57027374098687 ] } },
{ "type": "Feature", "properties": { "visible_points": 0, "total_points": 76, "visibility_pct": 0.0 }, "geometry": { "type": "Point", "coordinates": [ 0.162871997599233, 51.570270062987639 ] } },
{ "type": "Feature", "properties": { "visible_points": 0, "total_points": 69, "visibility_pct": 0.0 }, "geometry": { "type": "Point", "coordinates": [ 0.163071783059914, 51.570266384647894 ] } },
{ "type": "Feature", "properties": { "visible_points": 4, "total_points": 62, "visibility_pct": 6.4516129032258061 }, "geometry": { "type": "Point", "coordinates": [ 0.163271568478021, 51.5702627059676 ] } },
{ "type": "Feature", "properties": { "visible_points": 0, "total_points": 54, "visibility_pct": 0.0 }, "geometry": { "type": "Point", "coordinates": [ 0.163471353853535, 51.570259026946793 ] } },
{ "type": "Feature", "properties": { "visible_points": 0, "total_points": 57, "visibility_pct": 0.0 }, "geometry": { "type": "Point", "coordinates": [ 0.163176792187159, 51.570372365995979 ] } },
{ "type": "Feature", "properties": { "visible_points": 0, "total_points": 50, "visibility_pct": 0.0 }, "geometry": { "type": "Point", "coordinates": [ 0.16337657805713, 51.570368687140082 ] } }
]
}
