{
"type": "FeatureCollection",
"name": "cedc3f97ed94_foliage",
"crs": { "type": "name", "properties": { "name": "urn:ogc:def:crs:OGC:1.3:CRS84" } },
"features": [
{ "type": "Feature", "properties": { "max_height": 0.88750076293945312, "mean_height": 0.031012443825602531, "std_height": 0.1391671746969223, "count_pixels": 42, "percent_cover": 1.4583333333333333, "percent_above_0.1m": 7.1428571428571423, "low_level_<0.5": 4.7619047619047619, "mid_level_0.5-2": 2.3809523809523809, "tall_2+": 0.0 }, "geometry": { "type": "Point", "coordinates": [ 0.202748348658753, 51.544804927452716 ] } },
{ "type": "Feature", "properties": { "max_height": 6.8395004272460938, "mean_height": 1.1507444381713867, "std_height": 2.1590895652770996, "count_pixels": 41, "percent_cover": 1.4236111111111112, "percent_above_0.1m": 29.268292682926827, "low_level_<0.5": 4.8780487804878048, "mid_level_0.5-2": 2.4390243902439024, "tall_2+": 21.951219512195124 }, "geometry": { "type": "Point", "coordinates": [ 0.202948009388003, 51.544801177243166 ] } },
{ "type": "Feature", "properties": { "max_height": 1.832000732421875, "mean_height": 0.23457995057106018, "std_height": 0.43109467625617981, "count_pixels": 41, "percent_cover": 1.4236111111111112, "percent_above_0.1m": 31.707317073170731, "low_level_<0.5": 12.195121951219512, "mid_level_0.5-2": 19.512195121951219, "tall_2+": 0.0 }, "geometry": { "type": "Point", "coordinates": [ 0.203147670073719, 51.544797426694799 ] } },
{ "type": "Feature", "properties": { "max_height": 1.9820003509521484, "mean_height": 0.25150063633918762, "std_height": 0.45827588438987732, "count_pixels": 41, "percent_cover": 1.4236111111111112, "percent_above_0.1m": 36.585365853658537, "low_level_<0.5": 17.073170731707318, "mid_level_0.5-2": 17.073170731707318, "tall_2+": 0.0 }, "geometry": { "type": "Point", "coordinates": [ 0.203347330715903, 51.544793675807568 ] } },
{ "type": "Feature", "properties": { "max_height": 4.348750114440918, "mean_height": 0.84227544069290161, "std_height": 1.167510986328125, "count_pixels": 40, "percent_cover": 1.3888888888888888, "percent_above_0.1m": 62.5, "low_level_<0.5": 12.5, "mid_level_0.5-2": 32.5, "tall_2+": 12.5 }, "geometry": { "type": "Point", "coordinates": [ 0.203546991314557, 51.544789924581501 ] } },
{ "type": "Feature", "properties": { "max_height": 0.48124980926513672, "mean_height": 0.029226575046777725, "std_height": 0.086372651159763336, "count_pixels": 42, "percent_cover": 1.4583333333333333, "percent_above_0.1m": 7.1428571428571423, "low_level_<0.5": 4.7619047619047619, "mid_level_0.5-2": 0.0, "tall_2+": 0.0 }, "geometry": { "type": "Point", "coordinates": [ 0.202853382103549, 51.54491087180925 ] } },
{ "type": "Feature", "properties": { "max_height": 0.0032501220703125, "mean_height": 9.929302177624777e-05, "std_height": 0.00056833220878615975, "count_pixels": 43, "percent_cover": 1.4930555555555556, "percent_above_0.1m": 0.0, "low_level_<0.5": 0.0, "mid_level_0.5-2": 0.0, "tall_2+": 0.0 }, "geometry": { "type": "Point", "coordinates": [ 0.203053043286787, 51.544907121405132 ] } },
{ "type": "Feature", "properties": { "max_height": 0.00050067901611328125, "mean_height": -1.687781696091406e-05, "std_height": 0.00029234561952762306, "count_pixels": 43, "percent_cover": 1.4930555555555556, "percent_above_0.1m": 0.0, "low_level_<0.5": 0.0, "mid_level_0.5-2": 0.0, "tall_2+": 0.0 }, "geometry": { "type": "Point", "coordinates": [ 0.203252704426495, 51.544903370662176 ] } },
{ "type": "Feature", "properties": { "max_height": 5.0367507934570312, "mean_height": 1.355692982673645, "std_height": 1.6757532358169556, "count_pixels": 39, "percent_cover": 1.3541666666666667, "percent_above_0.1m": 46.153846153846153, "low_level_<0.5": 0.0, "mid_level_0.5-2": 10.256410256410255, "tall_2+": 35.897435897435898 }, "geometry": { "type": "Point", "coordinates": [ 0.203452365522669, 51.544899619580363 ] } },
{ "type": "Feature", "properties": { "max_height": 0.78950023651123047, "mean_height": 0.032262615859508514, "std_height": 0.12448137998580933, "count_pixels": 41, "percent_cover": 1.4236111111111112, "percent_above_0.1m": 7.3170731707317067, "low_level_<0.5": 2.4390243902439024, "mid_level_0.5-2": 2.4390243902439024, "tall_2+": 0.0 }, "geometry": { "type": "Point", "coordinates": [ 0.202958416045887, 51.545016816053 ] } },
{ "type": "Feature", "properties": { "max_height": 0.00099945068359375, "mean_height": 3.7007215723861009e-05, "std_height": 0.00034284431603737175, "count_pixels": 41, "percent_cover": 1.4236111111111112, "percent_above_0.1m": 0.0, "low_level_<0.5": 0.0, "mid_level_0.5-2": 0.0, "tall_2+": 0.0 }, "geometry": { "type": "Point", "coordinates": [ 0.203158077683117, 51.545013065454299 ] } },
{ "type": "Feature", "properties": { "max_height": 0.053750991821289062, "mean_height": 0.001335865119472146, "std_height": 0.0082928566262125969, "count_pixels": 41, "percent_cover": 1.4236111111111112, "percent_above_0.1m": 0.0, "low_level_<0.5": 0.0, "mid_level_0.5-2": 0.0, "tall_2+": 0.0 }, "geometry": { "type": "Point", "coordinates": [ 0.203357739276817, 51.545009314516776 ] } },
{ "type": "Feature", "properties": { "max_height": 5.4944992065429688, "mean_height": 1.5427881479263306, "std_height": 1.6058502197265625, "count_pixels": 40, "percent_cover": 1.3888888888888888, "percent_above_0.1m": 72.5, "low_level_<0.5": 7.5, "mid_level_0.5-2": 35.0, "tall_2+": 30.0 }, "geometry": { "type": "Point", "coordinates": [ 0.203557400826977, 51.54500556324038 ] } },
{ "type": "Feature", "properties": { "max_height": 0.2447509765625, "mean_height": 0.026119617745280266, "std_height": 0.056251842528581619, "count_pixels": 42, "percent_cover": 1.4583333333333333, "percent_above_0.1m": 9.5238095238095237, "low_level_<0.5": 7.1428571428571423, "mid_level_0.5-2": 0.0, "tall_2+": 0.0 }, "geometry": { "type": "Point", "coordinates": [ 0.202863788351017, 51.54512651063839 ] } },
{ "type": "Feature", "properties": { "max_height": 0.59500026702880859, "mean_height": 0.051006317138671875, "std_height": 0.13237378001213074, "count_pixels": 43, "percent_cover": 1.4930555555555556, "percent_above_0.1m": 13.953488372093023, "low_level_<0.5": 4.6511627906976747, "mid_level_0.5-2": 4.6511627906976747, "tall_2+": 0.0 }, "geometry": { "type": "Point", "coordinates": [ 0.203063450485771, 51.545122760183972 ] } },
{ "type": "Feature", "properties": { "max_height": 0.80925083160400391, "mean_height": 0.087285399436950684, "std_height": 0.17773939669132233, "count_pixels": 43, "percent_cover": 1.4930555555555556, "percent_above_0.1m": 23.255813953488371, "low_level_<0.5": 13.953488372093023, "mid_level_0.5-2": 4.6511627906976747, "tall_2+": 0.0 }, "geometry": { "type": "Point", "coordinates": [ 0.203263112576998, 51.545119009390689 ] } },
{ "type": "Feature", "properties": { "max_height": 0.71899986267089844, "mean_height": 0.12176980823278427, "std_height": 0.18385230004787445, "count_pixels": 39, "percent_cover": 1.3541666666666667, "percent_above_0.1m": 35.897435897435898, "low_level_<0.5": 23.076923076923077, "mid_level_0.5-2": 5.1282051282051277, "tall_2+": 0.0 }, "geometry": { "type": "Point", "coordinates": [ 0.203462774624687, 51.545115258258555 ] } },
{ "type": "Feature", "properties": { "max_height": 3.1902503967285156, "mean_height": 0.72008770704269409, "std_height": 0.67776894569396973, "count_pixels": 43, "percent_cover": 1.4930555555555556, "percent_above_0.1m": 81.395348837209298, "low_level_<0.5": 30.232558139534881, "mid_level_0.5-2": 44.186046511627907, "tall_2+": 6.9767441860465116 }, "geometry": { "type": "Point", "coordinates": [ 0.203662436628836, 51.545111506787599 ] } },
{ "type": "Feature", "properties": { "max_height": 8.8752517700195312, "mean_height": 2.4367508888244629, "std_height": 2.6973130702972412, "count_pixels": 41, "percent_cover": 1.4236111111111112, "percent_above_0.1m": 63.414634146341463, "low_level_<0.5": 7.3170731707317067, "mid_level_0.5-2": 9.7560975609756095, "tall_2+": 46.341463414634148 }, "geometry": { "type": "Point", "coordinates": [ 0.20296882283445, 51.545232454851138 ] } },
{ "type": "Feature", "properties": { "max_height": 3.9947509765625, "mean_height": 0.91854953765869141, "std_height": 1.2849150896072388, "count_pixels": 41, "percent_cover": 1.4236111111111112, "percent_above_0.1m": 46.341463414634148, "low_level_<0.5": 2.4390243902439024, "mid_level_0.5-2": 17.073170731707318, "tall_2+": 21.951219512195124 }, "geometry": { "type": "Point", "coordinates": [ 0.203168485423207, 51.545228704202131 ] } },
{ "type": "Feature", "properties": { "max_height": 0.09600067138671875, "mean_height": 0.011963983997702599, "std_height": 0.024223851040005684, "count_pixels": 41, "percent_cover": 1.4236111111111112, "percent_above_0.1m": 0.0, "low_level_<0.5": 0.0, "mid_level_0.5-2": 0.0, "tall_2+": 0.0 }, "geometry": { "type": "Point", "coordinates": [ 0.203368147968427, 51.545224953214273 ] } },
{ "type": "Feature", "properties": { "max_height": 5.9825000762939453, "mean_height": 1.0557941198348999, "std_height": 1.5935711860656738, "count_pixels": 40, "percent_cover": 1.3888888888888888, "percent_above_0.1m": 50.0, "low_level_<0.5": 2.5, "mid_level_0.5-2": 27.5, "tall_2+": 20.0 }, "geometry": { "type": "Point", "coordinates": [ 0.203567810470114, 51.54522120188755 ] } },
{ "type": "Feature", "properties": { "max_height": 7.726750373840332, "mean_height": 2.2662100791931152, "std_height": 1.9022771120071411, "count_pixels": 43, "percent_cover": 1.4930555555555556, "percent_above_0.1m": 76.744186046511629, "low_level_<0.5": 6.9767441860465116, "mid_level_0.5-2": 9.3023255813953494, "tall_2+": 58.139534883720934 }, "geometry": { "type": "Point", "coordinates": [ 0.203073857815439, 51.545338398951088 ] } },
{ "type": "Feature", "properties": { "max_height": 3.1110010147094727, "mean_height": 0.41669261455535889, "std_height": 0.86176884174346924, "count_pixels": 43, "percent_cover": 1.4930555555555556, "percent_above_0.1m": 25.581395348837212, "low_level_<0.5": 2.3255813953488373, "mid_level_0.5-2": 11.627906976744185, "tall_2+": 11.627906976744185 }, "geometry": { "type": "Point", "coordinates": [ 0.203273520858196, 51.545334648107492 ] } },
{ "type": "Feature", "properties": { "max_height": 7.7417507171630859, "mean_height": 1.7746990919113159, "std_height": 2.2906136512756348, "count_pixels": 39, "percent_cover": 1.3541666666666667, "percent_above_0.1m": 58.974358974358978, "low_level_<0.5": 7.6923076923076925, "mid_level_0.5-2": 12.820512820512819, "tall_2+": 38.461538461538467 }, "geometry": { "type": "Point", "coordinates": [ 0.203473183857416, 51.545330896925059 ] } },
{ "type": "Feature", "properties": { "max_height": 6.0910005569458008, "mean_height": 0.76065188646316528, "std_height": 1.3806886672973633, "count_pixels": 43, "percent_cover": 1.4930555555555556, "percent_above_0.1m": 46.511627906976742, "low_level_<0.5": 18.604651162790699, "mid_level_0.5-2": 11.627906976744185, "tall_2+": 16.279069767441861 }, "geometry": { "type": "Point", "coordinates": [ 0.20367284681309, 51.545327145403753 ] } },
{ "type": "Feature", "properties": { "max_height": 1.0462503433227539, "mean_height": 0.041293282061815262, "std_height": 0.16912055015563965, "count_pixels": 41, "percent_cover": 1.4236111111111112, "percent_above_0.1m": 7.3170731707317067, "low_level_<0.5": 4.8780487804878048, "mid_level_0.5-2": 2.4390243902439024, "tall_2+": 0.0 }, "geometry": { "type": "Point", "coordinates": [ 0.202979229753693, 51.545448093637582 ] } },
{ "type": "Feature", "properties": { "max_height": 3.3922500610351562, "mean_height": 0.47884196043014526, "std_height": 1.0444355010986328, "count_pixels": 41, "percent_cover": 1.4236111111111112, "percent_above_0.1m": 21.951219512195124, "low_level_<0.5": 0.0, "mid_level_0.5-2": 4.8780487804878048, "tall_2+": 14.634146341463413 }, "geometry": { "type": "Point", "coordinates": [ 0.203178893293986, 51.545444342938254 ] } },
{ "type": "Feature", "properties": { "max_height": 2.1125011444091797, "mean_height": 0.081409081816673279, "std_height": 0.33824276924133301, "count_pixels": 41, "percent_cover": 1.4236111111111112, "percent_above_0.1m": 12.195121951219512, "low_level_<0.5": 4.8780487804878048, "mid_level_0.5-2": 2.4390243902439024, "tall_2+": 2.4390243902439024 }, "geometry": { "type": "Point", "coordinates": [ 0.20337855679074, 51.545440591900075 ] } }
]
}
