{
"type": "FeatureCollection",
"name": "d13937ba143b_foliage",
"crs": { "type": "name", "properties": { "name": "urn:ogc:def:crs:OGC:1.3:CRS84" } },
"features": [
{ "type": "Feature", "properties": { "max_height": 2.4592499732971191, "mean_height": 0.25948798656463623, "std_height": 0.5486481785774231, "count_pixels": 41, "percent_cover": 0.91517857142857151, "percent_above_0.1m": 26.829268292682929, "low_level_<0.5": 7.3170731707317067, "mid_level_0.5-2": 14.634146341463413, "tall_2+": 4.8780487804878048 }, "geometry": { "type": "Point", "coordinates": [ 0.191710576444414, 51.517340041551684 ] } },
{ "type": "Feature", "properties": { "max_height": 8.4890003204345703, "mean_height": 1.7142267227172852, "std_height": 2.1466677188873291, "count_pixels": 42, "percent_cover": 0.9375, "percent_above_0.1m": 59.523809523809526, "low_level_<0.5": 4.7619047619047619, "mid_level_0.5-2": 16.666666666666664, "tall_2+": 35.714285714285715 }, "geometry": { "type": "Point", "coordinates": [ 0.191910122134346, 51.517336312471912 ] } },
{ "type": "Feature", "properties": { "max_height": 9.6847505569458008, "mean_height": 2.7947087287902832, "std_height": 3.0033872127532959, "count_pixels": 42, "percent_cover": 0.9375, "percent_above_0.1m": 85.714285714285708, "low_level_<0.5": 9.5238095238095237, "mid_level_0.5-2": 33.333333333333329, "tall_2+": 40.476190476190474 }, "geometry": { "type": "Point", "coordinates": [ 0.192109667780437, 51.517332583050631 ] } },
{ "type": "Feature", "properties": { "max_height": 5.6990008354187012, "mean_height": 0.35503584146499634, "std_height": 1.1328791379928589, "count_pixels": 42, "percent_cover": 0.9375, "percent_above_0.1m": 16.666666666666664, "low_level_<0.5": 2.3809523809523809, "mid_level_0.5-2": 9.5238095238095237, "tall_2+": 4.7619047619047619 }, "geometry": { "type": "Point", "coordinates": [ 0.191216883113842, 51.51745717706288 ] } },
{ "type": "Feature", "properties": { "max_height": 8.4477500915527344, "mean_height": 1.725750207901001, "std_height": 2.6803951263427734, "count_pixels": 42, "percent_cover": 0.9375, "percent_above_0.1m": 52.380952380952387, "low_level_<0.5": 9.5238095238095237, "mid_level_0.5-2": 9.5238095238095237, "tall_2+": 28.571428571428569 }, "geometry": { "type": "Point", "coordinates": [ 0.191416429396961, 51.517453448854745 ] } },
{ "type": "Feature", "properties": { "max_height": 15.580000877380371, "mean_height": 7.9650764465332031, "std_height": 4.3634204864501953, "count_pixels": 43, "percent_cover": 0.9598214285714286, "percent_above_0.1m": 97.674418604651152, "low_level_<0.5": 2.3255813953488373, "mid_level_0.5-2": 13.953488372093023, "tall_2+": 81.395348837209298 }, "geometry": { "type": "Point", "coordinates": [ 0.191615975636246, 51.517449720305116 ] } },
{ "type": "Feature", "properties": { "max_height": 6.8210000991821289, "mean_height": 2.4660778045654297, "std_height": 1.6085560321807861, "count_pixels": 42, "percent_cover": 0.9375, "percent_above_0.1m": 95.238095238095227, "low_level_<0.5": 0.0, "mid_level_0.5-2": 40.476190476190474, "tall_2+": 54.761904761904766 }, "geometry": { "type": "Point", "coordinates": [ 0.191815521831698, 51.517445991414014 ] } },
{ "type": "Feature", "properties": { "max_height": 4.8102502822875977, "mean_height": 1.9820716381072998, "std_height": 1.4949899911880493, "count_pixels": 42, "percent_cover": 0.9375, "percent_above_0.1m": 92.857142857142861, "low_level_<0.5": 11.904761904761903, "mid_level_0.5-2": 35.714285714285715, "tall_2+": 42.857142857142854 }, "geometry": { "type": "Point", "coordinates": [ 0.192015067983307, 51.517442262181426 ] } },
{ "type": "Feature", "properties": { "max_height": 9.6007518768310547, "mean_height": 3.9025976657867432, "std_height": 2.8406004905700684, "count_pixels": 41, "percent_cover": 0.91517857142857151, "percent_above_0.1m": 100.0, "low_level_<0.5": 7.3170731707317067, "mid_level_0.5-2": 34.146341463414636, "tall_2+": 58.536585365853654 }, "geometry": { "type": "Point", "coordinates": [ 0.192214614091066, 51.517438532607329 ] } },
{ "type": "Feature", "properties": { "max_height": 5.5890007019042969, "mean_height": 1.0993356704711914, "std_height": 1.3553968667984009, "count_pixels": 38, "percent_cover": 0.8482142857142857, "percent_above_0.1m": 71.05263157894737, "low_level_<0.5": 18.421052631578945, "mid_level_0.5-2": 28.947368421052634, "tall_2+": 23.684210526315788 }, "geometry": { "type": "Point", "coordinates": [ 0.191321827621618, 51.517563127315519 ] } },
{ "type": "Feature", "properties": { "max_height": 6.824000358581543, "mean_height": 0.6634209156036377, "std_height": 1.4674557447433472, "count_pixels": 41, "percent_cover": 0.91517857142857151, "percent_above_0.1m": 26.829268292682929, "low_level_<0.5": 2.4390243902439024, "mid_level_0.5-2": 9.7560975609756095, "tall_2+": 14.634146341463413 }, "geometry": { "type": "Point", "coordinates": [ 0.191521374366423, 51.517559398954575 ] } },
{ "type": "Feature", "properties": { "max_height": 11.056251525878906, "mean_height": 2.060744047164917, "std_height": 3.3967223167419434, "count_pixels": 41, "percent_cover": 0.91517857142857151, "percent_above_0.1m": 34.146341463414636, "low_level_<0.5": 0.0, "mid_level_0.5-2": 2.4390243902439024, "tall_2+": 31.707317073170731 }, "geometry": { "type": "Point", "coordinates": [ 0.191720921067393, 51.517555670252136 ] } },
{ "type": "Feature", "properties": { "max_height": 8.4589996337890625, "mean_height": 2.5879826545715332, "std_height": 2.718353271484375, "count_pixels": 42, "percent_cover": 0.9375, "percent_above_0.1m": 78.571428571428569, "low_level_<0.5": 7.1428571428571423, "mid_level_0.5-2": 26.190476190476193, "tall_2+": 42.857142857142854 }, "geometry": { "type": "Point", "coordinates": [ 0.191920467724517, 51.517551941208211 ] } },
{ "type": "Feature", "properties": { "max_height": 7.6825008392333984, "mean_height": 1.242053747177124, "std_height": 1.7733393907546997, "count_pixels": 42, "percent_cover": 0.9375, "percent_above_0.1m": 61.904761904761905, "low_level_<0.5": 11.904761904761903, "mid_level_0.5-2": 16.666666666666664, "tall_2+": 28.571428571428569 }, "geometry": { "type": "Point", "coordinates": [ 0.192120014337801, 51.517548211822806 ] } },
{ "type": "Feature", "properties": { "max_height": 10.512001037597656, "mean_height": 2.2468142509460449, "std_height": 2.7660024166107178, "count_pixels": 43, "percent_cover": 0.9598214285714286, "percent_above_0.1m": 74.418604651162795, "low_level_<0.5": 4.6511627906976747, "mid_level_0.5-2": 27.906976744186046, "tall_2+": 39.534883720930232 }, "geometry": { "type": "Point", "coordinates": [ 0.192319560907239, 51.517544482095907 ] } },
{ "type": "Feature", "properties": { "max_height": 5.0377507209777832, "mean_height": 1.1463574171066284, "std_height": 1.2063593864440918, "count_pixels": 42, "percent_cover": 0.9375, "percent_above_0.1m": 61.904761904761905, "low_level_<0.5": 4.7619047619047619, "mid_level_0.5-2": 33.333333333333329, "tall_2+": 23.809523809523807 }, "geometry": { "type": "Point", "coordinates": [ 0.191027678090458, 51.517676533503085 ] } },
{ "type": "Feature", "properties": { "max_height": 3.0957503318786621, "mean_height": 0.55787521600723267, "std_height": 0.73774856328964233, "count_pixels": 42, "percent_cover": 0.9375, "percent_above_0.1m": 71.428571428571431, "low_level_<0.5": 26.190476190476193, "mid_level_0.5-2": 26.190476190476193, "tall_2+": 4.7619047619047619 }, "geometry": { "type": "Point", "coordinates": [ 0.191227225384615, 51.517672805672312 ] } },
{ "type": "Feature", "properties": { "max_height": 9.4932498931884766, "mean_height": 2.1926074028015137, "std_height": 2.8276140689849854, "count_pixels": 42, "percent_cover": 0.9375, "percent_above_0.1m": 64.285714285714292, "low_level_<0.5": 11.904761904761903, "mid_level_0.5-2": 11.904761904761903, "tall_2+": 38.095238095238095 }, "geometry": { "type": "Point", "coordinates": [ 0.191426772634936, 51.517669077500038 ] } },
{ "type": "Feature", "properties": { "max_height": 4.7037501335144043, "mean_height": 0.29619786143302917, "std_height": 0.98056173324584961, "count_pixels": 43, "percent_cover": 0.9598214285714286, "percent_above_0.1m": 13.953488372093023, "low_level_<0.5": 2.3255813953488373, "mid_level_0.5-2": 6.9767441860465116, "tall_2+": 4.6511627906976747 }, "geometry": { "type": "Point", "coordinates": [ 0.191626319841424, 51.51766534898627 ] } },
{ "type": "Feature", "properties": { "max_height": 9.9592504501342773, "mean_height": 5.230649471282959, "std_height": 3.2162566184997559, "count_pixels": 42, "percent_cover": 0.9375, "percent_above_0.1m": 92.857142857142861, "low_level_<0.5": 7.1428571428571423, "mid_level_0.5-2": 9.5238095238095237, "tall_2+": 76.19047619047619 }, "geometry": { "type": "Point", "coordinates": [ 0.191825867004074, 51.517661620131037 ] } },
{ "type": "Feature", "properties": { "max_height": 5.6500005722045898, "mean_height": 1.1027085781097412, "std_height": 1.3940683603286743, "count_pixels": 42, "percent_cover": 0.9375, "percent_above_0.1m": 80.952380952380949, "low_level_<0.5": 21.428571428571427, "mid_level_0.5-2": 23.809523809523807, "tall_2+": 21.428571428571427 }, "geometry": { "type": "Point", "coordinates": [ 0.192025414122883, 51.517657890934302 ] } },
{ "type": "Feature", "properties": { "max_height": 7.6470012664794922, "mean_height": 2.0685245990753174, "std_height": 2.2703802585601807, "count_pixels": 41, "percent_cover": 0.91517857142857151, "percent_above_0.1m": 73.170731707317074, "low_level_<0.5": 9.7560975609756095, "mid_level_0.5-2": 12.195121951219512, "tall_2+": 43.902439024390247 }, "geometry": { "type": "Point", "coordinates": [ 0.192224961197846, 51.517654161396081 ] } },
{ "type": "Feature", "properties": { "max_height": 7.4385013580322266, "mean_height": 1.830280065536499, "std_height": 2.3672008514404297, "count_pixels": 42, "percent_cover": 0.9375, "percent_above_0.1m": 64.285714285714292, "low_level_<0.5": 11.904761904761903, "mid_level_0.5-2": 9.5238095238095237, "tall_2+": 38.095238095238095 }, "geometry": { "type": "Point", "coordinates": [ 0.191132622685939, 51.517782483925103 ] } },
{ "type": "Feature", "properties": { "max_height": 7.774500846862793, "mean_height": 1.6046056747436523, "std_height": 1.8748959302902222, "count_pixels": 38, "percent_cover": 0.8482142857142857, "percent_above_0.1m": 84.210526315789465, "low_level_<0.5": 23.684210526315788, "mid_level_0.5-2": 21.052631578947366, "tall_2+": 31.578947368421051 }, "geometry": { "type": "Point", "coordinates": [ 0.19133217044178, 51.517778755941514 ] } },
{ "type": "Feature", "properties": { "max_height": 11.949750900268555, "mean_height": 2.713951587677002, "std_height": 3.1901175975799561, "count_pixels": 41, "percent_cover": 0.91517857142857151, "percent_above_0.1m": 90.243902439024396, "low_level_<0.5": 17.073170731707318, "mid_level_0.5-2": 36.585365853658537, "tall_2+": 36.585365853658537 }, "geometry": { "type": "Point", "coordinates": [ 0.191531718153794, 51.51777502761643 ] } },
{ "type": "Feature", "properties": { "max_height": 5.5345001220703125, "mean_height": 0.66043305397033691, "std_height": 1.4491661787033081, "count_pixels": 41, "percent_cover": 0.91517857142857151, "percent_above_0.1m": 26.829268292682929, "low_level_<0.5": 2.4390243902439024, "mid_level_0.5-2": 9.7560975609756095, "tall_2+": 12.195121951219512 }, "geometry": { "type": "Point", "coordinates": [ 0.191731265821969, 51.517771298949867 ] } },
{ "type": "Feature", "properties": { "max_height": 9.345001220703125, "mean_height": 4.5098752975463867, "std_height": 3.2959880828857422, "count_pixels": 42, "percent_cover": 0.9375, "percent_above_0.1m": 78.571428571428569, "low_level_<0.5": 2.3809523809523809, "mid_level_0.5-2": 9.5238095238095237, "tall_2+": 66.666666666666657 }, "geometry": { "type": "Point", "coordinates": [ 0.191930813446301, 51.51776756994181 ] } },
{ "type": "Feature", "properties": { "max_height": 0.034750461578369141, "mean_height": 0.0016907396493479609, "std_height": 0.0097614070400595665, "count_pixels": 42, "percent_cover": 0.9375, "percent_above_0.1m": 0.0, "low_level_<0.5": 0.0, "mid_level_0.5-2": 0.0, "tall_2+": 0.0 }, "geometry": { "type": "Point", "coordinates": [ 0.192130361026795, 51.517763840592259 ] } },
{ "type": "Feature", "properties": { "max_height": 7.2607507705688477, "mean_height": 2.1233434677124023, "std_height": 2.1077258586883545, "count_pixels": 43, "percent_cover": 0.9598214285714286, "percent_above_0.1m": 81.395348837209298, "low_level_<0.5": 13.953488372093023, "mid_level_0.5-2": 25.581395348837212, "tall_2+": 41.860465116279073 }, "geometry": { "type": "Point", "coordinates": [ 0.192329908563433, 51.517760110901207 ] } },
{ "type": "Feature", "properties": { "max_height": 4.2530007362365723, "mean_height": 0.28442293405532837, "std_height": 0.85272800922393799, "count_pixels": 42, "percent_cover": 0.9375, "percent_above_0.1m": 16.666666666666664, "low_level_<0.5": 4.7619047619047619, "mid_level_0.5-2": 4.7619047619047619, "tall_2+": 7.1428571428571423 }, "geometry": { "type": "Point", "coordinates": [ 0.191437116004495, 51.517884706142603 ] } },
{ "type": "Feature", "properties": { "max_height": 1.8702502250671387, "mean_height": 0.0843549445271492, "std_height": 0.34071940183639526, "count_pixels": 43, "percent_cover": 0.9598214285714286, "percent_above_0.1m": 9.3023255813953494, "low_level_<0.5": 2.3255813953488373, "mid_level_0.5-2": 4.6511627906976747, "tall_2+": 0.0 }, "geometry": { "type": "Point", "coordinates": [ 0.191636664178195, 51.517880977664703 ] } },
{ "type": "Feature", "properties": { "max_height": 4.8225011825561523, "mean_height": 0.60189312696456909, "std_height": 1.1295639276504517, "count_pixels": 42, "percent_cover": 0.9375, "percent_above_0.1m": 33.333333333333329, "low_level_<0.5": 2.3809523809523809, "mid_level_0.5-2": 9.5238095238095237, "tall_2+": 16.666666666666664 }, "geometry": { "type": "Point", "coordinates": [ 0.19183621230806, 51.517877248845338 ] } },
{ "type": "Feature", "properties": { "max_height": 6.0840010643005371, "mean_height": 1.9466074705123901, "std_height": 1.849381685256958, "count_pixels": 42, "percent_cover": 0.9375, "percent_above_0.1m": 76.19047619047619, "low_level_<0.5": 11.904761904761903, "mid_level_0.5-2": 19.047619047619047, "tall_2+": 45.238095238095241 }, "geometry": { "type": "Point", "coordinates": [ 0.192035760394081, 51.51787351968445 ] } },
{ "type": "Feature", "properties": { "max_height": 5.8472509384155273, "mean_height": 1.3280065059661865, "std_height": 1.7951961755752563, "count_pixels": 41, "percent_cover": 0.91517857142857151, "percent_above_0.1m": 60.975609756097562, "low_level_<0.5": 9.7560975609756095, "mid_level_0.5-2": 21.951219512195124, "tall_2+": 24.390243902439025 }, "geometry": { "type": "Point", "coordinates": [ 0.192235308436255, 51.51786979018209 ] } },
{ "type": "Feature", "properties": { "max_height": 7.4747509956359863, "mean_height": 2.4815249443054199, "std_height": 2.2418351173400879, "count_pixels": 41, "percent_cover": 0.91517857142857151, "percent_above_0.1m": 68.292682926829272, "low_level_<0.5": 0.0, "mid_level_0.5-2": 12.195121951219512, "tall_2+": 56.09756097560976 }, "geometry": { "type": "Point", "coordinates": [ 0.192434856434579, 51.517866060338228 ] } },
{ "type": "Feature", "properties": { "max_height": 14.983501434326172, "mean_height": 4.3193964958190918, "std_height": 4.7614479064941406, "count_pixels": 41, "percent_cover": 0.91517857142857151, "percent_above_0.1m": 70.731707317073173, "low_level_<0.5": 7.3170731707317067, "mid_level_0.5-2": 9.7560975609756095, "tall_2+": 53.658536585365859 }, "geometry": { "type": "Point", "coordinates": [ 0.191542062072755, 51.517990656275572 ] } },
{ "type": "Feature", "properties": { "max_height": 1.6800003051757812, "mean_height": 0.27154293656349182, "std_height": 0.47825208306312561, "count_pixels": 41, "percent_cover": 0.91517857142857151, "percent_above_0.1m": 31.707317073170731, "low_level_<0.5": 9.7560975609756095, "mid_level_0.5-2": 19.512195121951219, "tall_2+": 0.0 }, "geometry": { "type": "Point", "coordinates": [ 0.191741610708149, 51.517986927644863 ] } },
{ "type": "Feature", "properties": { "max_height": 2.7649998664855957, "mean_height": 0.34860149025917053, "std_height": 0.63035786151885986, "count_pixels": 42, "percent_cover": 0.9375, "percent_above_0.1m": 52.380952380952387, "low_level_<0.5": 33.333333333333329, "mid_level_0.5-2": 11.904761904761903, "tall_2+": 4.7619047619047619 }, "geometry": { "type": "Point", "coordinates": [ 0.191941159299704, 51.517983198672681 ] } },
{ "type": "Feature", "properties": { "max_height": 4.7782511711120605, "mean_height": 0.74911940097808838, "std_height": 1.1721744537353516, "count_pixels": 42, "percent_cover": 0.9375, "percent_above_0.1m": 69.047619047619051, "low_level_<0.5": 33.333333333333329, "mid_level_0.5-2": 19.047619047619047, "tall_2+": 11.904761904761903 }, "geometry": { "type": "Point", "coordinates": [ 0.192140707847414, 51.517979469358963 ] } },
{ "type": "Feature", "properties": { "max_height": 5.0267505645751953, "mean_height": 0.94538402557373047, "std_height": 1.0672774314880371, "count_pixels": 43, "percent_cover": 0.9598214285714286, "percent_above_0.1m": 81.395348837209298, "low_level_<0.5": 23.255813953488371, "mid_level_0.5-2": 44.186046511627907, "tall_2+": 9.3023255813953494 }, "geometry": { "type": "Point", "coordinates": [ 0.19234025635127, 51.517975739703772 ] } },
{ "type": "Feature", "properties": { "max_height": 4.1280002593994141, "mean_height": 0.33964315056800842, "std_height": 0.83790987730026245, "count_pixels": 42, "percent_cover": 0.9375, "percent_above_0.1m": 30.952380952380953, "low_level_<0.5": 11.904761904761903, "mid_level_0.5-2": 4.7619047619047619, "tall_2+": 9.5238095238095237 }, "geometry": { "type": "Point", "coordinates": [ 0.192539804811277, 51.517972009707108 ] } },
{ "type": "Feature", "properties": { "max_height": 8.3412504196166992, "mean_height": 2.7086732387542725, "std_height": 2.2590615749359131, "count_pixels": 42, "percent_cover": 0.9375, "percent_above_0.1m": 85.714285714285708, "low_level_<0.5": 7.1428571428571423, "mid_level_0.5-2": 23.809523809523807, "tall_2+": 54.761904761904766 }, "geometry": { "type": "Point", "coordinates": [ 0.191846557743657, 51.51809287755691 ] } },
{ "type": "Feature", "properties": { "max_height": 6.6962499618530273, "mean_height": 1.8382384777069092, "std_height": 1.8722144365310669, "count_pixels": 42, "percent_cover": 0.9375, "percent_above_0.1m": 85.714285714285708, "low_level_<0.5": 16.666666666666664, "mid_level_0.5-2": 30.952380952380953, "tall_2+": 38.095238095238095 }, "geometry": { "type": "Point", "coordinates": [ 0.192046106796905, 51.518089148431876 ] } }
]
}
