{
"type": "FeatureCollection",
"name": "SOUT6_62_toilets",
"crs": { "type": "name", "properties": { "name": "urn:ogc:def:crs:OGC:1.3:CRS84" } },
"features": [
{ "type": "Feature", "properties": { "name": "Elephant Park", "payment_info": "Free", "accessible": "True", "radar": "Unknown", "women": "True", "men": "True", "baby_change": "Unknown", "Mon": "Closed", "Tue": "Closed", "Wed": "Closed", "Thu": "Closed", "Fri": "Closed", "Sat": "Closed", "Sun": "Closed", "index_right": 153, "park_offical_id": "SOUT6_62" }, "geometry": { "type": "Point", "coordinates": [ -0.095980167, 51.493586427 ] } },
{ "type": "Feature", "properties": { "name": "Vaulty Towers", "payment_info": "Free", "accessible": "False", "radar": "False", "women": "True", "men": "True", "baby_change": "True", "Mon": "12:00-23:00", "Tue": "12:00-23:00", "Wed": "12:00-23:00", "Thu": "12:00-00:00", "Fri": "12:00-01:00", "Sat": "12:00-01:00", "Sun": "12:00-22:00", "index_right": 153, "park_offical_id": "SOUT6_62" }, "geometry": { "type": "Point", "coordinates": [ -0.111850798, 51.501085197 ] } },
{ "type": "Feature", "properties": { "name": "The Glitch  134 Lower Marsh", "payment_info": "Free", "accessible": "True", "radar": "False", "women": "True", "men": "True", "baby_change": "True", "Mon": "09:00-22:00", "Tue": "08:30-23:00", "Wed": "08:30-23:00", "Thu": "08:30-23:00", "Fri": "09:00-00:00", "Sat": "09:30-00:00", "Sun": "09:30-22:00", "index_right": 153, "park_offical_id": "SOUT6_62" }, "geometry": { "type": "Point", "coordinates": [ -0.114068985, 51.500211057 ] } },
{ "type": "Feature", "properties": { "name": "London Waterloo East", "payment_info": "Free", "accessible": "False", "radar": "True", "women": "Unknown", "men": "Unknown", "baby_change": "True", "Mon": "Unknown", "Tue": "Unknown", "Wed": "Unknown", "Thu": "Unknown", "Fri": "Unknown", "Sat": "Unknown", "Sun": "Unknown", "index_right": 153, "park_offical_id": "SOUT6_62" }, "geometry": { "type": "Point", "coordinates": [ -0.108893287, 51.504080375 ] } },
{ "type": "Feature", "properties": { "name": "the Hub cafe Oasis Centre", "payment_info": "Free", "accessible": "True", "radar": "False", "women": "True", "men": "True", "baby_change": "Unknown", "Mon": "08:00-15:00", "Tue": "08:00-15:00", "Wed": "08:00-15:00", "Thu": "08:00-15:00", "Fri": "08:00-15:00", "Sat": "Closed", "Sun": "Closed", "index_right": 153, "park_offical_id": "SOUT6_62" }, "geometry": { "type": "Point", "coordinates": [ -0.111888349, 51.498185657 ] } },
{ "type": "Feature", "properties": { "name": "The Windmill", "payment_info": "Free", "accessible": "False", "radar": "Unknown", "women": "True", "men": "True", "baby_change": "False", "Mon": "09:00-17:00", "Tue": "09:00-17:00", "Wed": "09:00-17:00", "Thu": "09:00-17:00", "Fri": "09:00-17:00", "Sat": "09:00-17:00", "Sun": "09:00-17:00", "index_right": 153, "park_offical_id": "SOUT6_62" }, "geometry": { "type": "Point", "coordinates": [ -0.120517015, 51.493122601 ] } },
{ "type": "Feature", "properties": { "name": "Walrus Social", "payment_info": "Free", "accessible": "False", "radar": "Unknown", "women": "True", "men": "True", "baby_change": "Unknown", "Mon": "09:00-17:00", "Tue": "09:00-17:00", "Wed": "09:00-17:00", "Thu": "09:00-17:00", "Fri": "09:00-17:00", "Sat": "09:00-17:00", "Sun": "09:00-17:00", "index_right": 153, "park_offical_id": "SOUT6_62" }, "geometry": { "type": "Point", "coordinates": [ -0.114428401, 51.499952251 ] } },
{ "type": "Feature", "properties": { "name": "Cubana Bar  Restaurant", "payment_info": "Free", "accessible": "False", "radar": "Unknown", "women": "True", "men": "True", "baby_change": "Unknown", "Mon": "Unknown", "Tue": "Unknown", "Wed": "Unknown", "Thu": "Unknown", "Fri": "Unknown", "Sat": "Unknown", "Sun": "Unknown", "index_right": 153, "park_offical_id": "SOUT6_62" }, "geometry": { "type": "Point", "coordinates": [ -0.110971034, 51.501495043 ] } },
{ "type": "Feature", "properties": { "name": "Garden Museum", "payment_info": "Free", "accessible": "False", "radar": "Unknown", "women": "True", "men": "True", "baby_change": "True", "Mon": "09:00-17:00", "Tue": "09:00-17:00", "Wed": "09:00-17:00", "Thu": "09:00-17:00", "Fri": "09:00-17:00", "Sat": "09:00-17:00", "Sun": "09:00-17:00", "index_right": 153, "park_offical_id": "SOUT6_62" }, "geometry": { "type": "Point", "coordinates": [ -0.120114684, 51.494959527 ] } },
{ "type": "Feature", "properties": { "name": "Castle Square ", "payment_info": "Free", "accessible": "True", "radar": "True", "women": "True", "men": "True", "baby_change": "False", "Mon": "09:00-18:00", "Tue": "09:00-18:00", "Wed": "09:00-18:00", "Thu": "09:00-18:00", "Fri": "09:00-18:00", "Sat": "09:00-18:00", "Sun": "09:00-18:00", "index_right": 153, "park_offical_id": "SOUT6_62" }, "geometry": { "type": "Point", "coordinates": [ -0.098064272, 51.493592107 ] } },
{ "type": "Feature", "properties": { "name": "Imperial War Museum", "payment_info": "Free", "accessible": "True", "radar": "Unknown", "women": "True", "men": "True", "baby_change": "Unknown", "Mon": "09:00-17:00", "Tue": "09:00-17:00", "Wed": "09:00-17:00", "Thu": "09:00-17:00", "Fri": "09:00-17:00", "Sat": "09:00-17:00", "Sun": "09:00-17:00", "index_right": 153, "park_offical_id": "SOUT6_62" }, "geometry": { "type": "Point", "coordinates": [ -0.10848999, 51.497000098 ] } },
{ "type": "Feature", "properties": { "name": "Durning Library", "payment_info": "Free", "accessible": "True", "radar": "False", "women": "True", "men": "True", "baby_change": "True", "Mon": "11:00-18:00", "Tue": "11:00-18:00", "Wed": "11:00-20:00", "Thu": "Closed", "Fri": "11:00-18:00", "Sat": "09:00-17:00", "Sun": "Closed", "index_right": 153, "park_offical_id": "SOUT6_62" }, "geometry": { "type": "Point", "coordinates": [ -0.110142231, 51.489103225 ] } },
{ "type": "Feature", "properties": { "name": "Waterloo Station  The Sidings", "payment_info": "Free", "accessible": "True", "radar": "True", "women": "True", "men": "True", "baby_change": "Unknown", "Mon": "06:00-01:00", "Tue": "06:00-01:00", "Wed": "06:00-01:00", "Thu": "06:00-01:00", "Fri": "06:00-01:00", "Sat": "06:00-01:00", "Sun": "06:00-01:00", "index_right": 153, "park_offical_id": "SOUT6_62" }, "geometry": { "type": "Point", "coordinates": [ -0.114128832, 51.5031837 ] } },
{ "type": "Feature", "properties": { "name": "Walworth Library", "payment_info": "Free", "accessible": "True", "radar": "False", "women": "True", "men": "True", "baby_change": "True", "Mon": "Unknown", "Tue": "Unknown", "Wed": "Unknown", "Thu": "Unknown", "Fri": "Unknown", "Sat": "Unknown", "Sun": "Unknown", "index_right": 153, "park_offical_id": "SOUT6_62" }, "geometry": { "type": "Point", "coordinates": [ -0.097374916, 51.49165184 ] } },
{ "type": "Feature", "properties": { "name": "Archbishops Park Toilets", "payment_info": "Free", "accessible": "True", "radar": "Unknown", "women": "True", "men": "True", "baby_change": "Unknown", "Mon": "09:00-20:45", "Tue": "09:00-20:45", "Wed": "09:00-20:45", "Thu": "09:00-20:45", "Fri": "09:00-20:45", "Sat": "09:00-17:45", "Sun": "09:00-17:45", "index_right": 153, "park_offical_id": "SOUT6_62" }, "geometry": { "type": "Point", "coordinates": [ -0.115638487, 51.497147996 ] } },
{ "type": "Feature", "properties": { "name": "Waterloo Station Main Concourse", "payment_info": "Free", "accessible": "True", "radar": "Unknown", "women": "True", "men": "True", "baby_change": "True", "Mon": "04:30-01:05", "Tue": "04:30-01:05", "Wed": "04:30-01:05", "Thu": "04:30-01:05", "Fri": "04:30-01:05", "Sat": "04:30-01:50", "Sun": "05:30-01:05", "index_right": 153, "park_offical_id": "SOUT6_62" }, "geometry": { "type": "Point", "coordinates": [ -0.1131903, 51.5035019 ] } },
{ "type": "Feature", "properties": { "name": "Pret a Manger", "payment_info": "Free", "accessible": "True", "radar": "True", "women": "Unknown", "men": "Unknown", "baby_change": "Unknown", "Mon": "Unknown", "Tue": "Unknown", "Wed": "Unknown", "Thu": "Unknown", "Fri": "Unknown", "Sat": "Unknown", "Sun": "Unknown", "index_right": 153, "park_offical_id": "SOUT6_62" }, "geometry": { "type": "Point", "coordinates": [ -0.110232658, 51.502091091 ] } },
{ "type": "Feature", "properties": { "name": "Crown  Cushion", "payment_info": "Free", "accessible": "False", "radar": "Unknown", "women": "True", "men": "True", "baby_change": "Unknown", "Mon": "Unknown", "Tue": "Unknown", "Wed": "Unknown", "Thu": "Unknown", "Fri": "Unknown", "Sat": "Unknown", "Sun": "Unknown", "index_right": 153, "park_offical_id": "SOUT6_62" }, "geometry": { "type": "Point", "coordinates": [ -0.114122629, 51.49947471 ] } },
{ "type": "Feature", "properties": { "name": "Toulouse Lautrec", "payment_info": "Free", "accessible": "False", "radar": "False", "women": "True", "men": "True", "baby_change": "False", "Mon": "12:00-22:00", "Tue": "12:00-22:00", "Wed": "12:00-22:00", "Thu": "12:00-22:00", "Fri": "12:00-22:00", "Sat": "10:00-22:00", "Sun": "10:00-21:00", "index_right": 153, "park_offical_id": "SOUT6_62" }, "geometry": { "type": "Point", "coordinates": [ -0.103586912, 51.490938232 ] } },
{ "type": "Feature", "properties": { "name": "Elephant Park ", "payment_info": "Free", "accessible": "True", "radar": "False", "women": "True", "men": "True", "baby_change": "Unknown", "Mon": "Unknown", "Tue": "Unknown", "Wed": "Unknown", "Thu": "Unknown", "Fri": "Unknown", "Sat": "Unknown", "Sun": "Unknown", "index_right": 153, "park_offical_id": "SOUT6_62" }, "geometry": { "type": "Point", "coordinates": [ -0.096935034, 51.493142266 ] } },
{ "type": "Feature", "properties": { "name": "Geraldine Mary Harmsworth Sports Facility", "payment_info": "Free", "accessible": "True", "radar": "False", "women": "True", "men": "True", "baby_change": "False", "Mon": "09:00-20:00", "Tue": "09:00-20:00", "Wed": "09:00-20:00", "Thu": "09:00-20:00", "Fri": "09:00-20:00", "Sat": "09:00-17:00", "Sun": "09:00-17:00", "index_right": 153, "park_offical_id": "SOUT6_62" }, "geometry": { "type": "Point", "coordinates": [ -0.106505156, 51.496447841 ] } },
{ "type": "Feature", "properties": { "name": "Hospital", "payment_info": "Free", "accessible": "False", "radar": "True", "women": "True", "men": "True", "baby_change": "True", "Mon": "00:00-00:00", "Tue": "00:00-00:00", "Wed": "00:00-00:00", "Thu": "00:00-00:00", "Fri": "00:00-00:00", "Sat": "00:00-00:00", "Sun": "00:00-00:00", "index_right": 153, "park_offical_id": "SOUT6_62" }, "geometry": { "type": "Point", "coordinates": [ -0.119206309, 51.499501982 ] } },
{ "type": "Feature", "properties": { "name": "The Castle Leisure Centre", "payment_info": "You need to have a subscription to enter the toilets", "accessible": "True", "radar": "False", "women": "True", "men": "True", "baby_change": "True", "Mon": "06:30-22:00", "Tue": "06:30-22:00", "Wed": "06:30-22:00", "Thu": "06:30-22:00", "Fri": "06:30-22:00", "Sat": "07:00-18:00", "Sun": "07:00-22:00", "index_right": 153, "park_offical_id": "SOUT6_62" }, "geometry": { "type": "Point", "coordinates": [ -0.102149248, 51.493422724 ] } }
]
}
