{
"type": "FeatureCollection",
"name": "WANDS_176_toilets",
"crs": { "type": "name", "properties": { "name": "urn:ogc:def:crs:OGC:1.3:CRS84" } },
"features": [
{ "type": "Feature", "properties": { "name": "Wandsworth Common Bowling Green", "payment_info": "Free", "accessible": "False", "radar": "Unknown", "women": "Unknown", "men": "Unknown", "baby_change": "Unknown", "Mon": "Unknown", "Tue": "Unknown", "Wed": "Unknown", "Thu": "Unknown", "Fri": "Unknown", "Sat": "Unknown", "Sun": "Unknown", "index_right": 21, "park_offical_id": "WANDS_176" }, "geometry": { "type": "Point", "coordinates": [ -0.170400739, 51.452342166 ] } },
{ "type": "Feature", "properties": { "name": "St Marys Cemetery", "payment_info": "Free", "accessible": "False", "radar": "False", "women": "True", "men": "True", "baby_change": "False", "Mon": "09:00-18:00", "Tue": "09:00-18:00", "Wed": "09:00-18:00", "Thu": "09:00-18:00", "Fri": "09:00-18:00", "Sat": "09:00-18:00", "Sun": "09:00-18:00", "index_right": 21, "park_offical_id": "WANDS_176" }, "geometry": { "type": "Point", "coordinates": [ -0.169817, 51.4584735 ] } },
{ "type": "Feature", "properties": { "name": "Clapham Junction Station", "payment_info": "Free", "accessible": "False", "radar": "True", "women": "True", "men": "True", "baby_change": "True", "Mon": "00:00-00:00", "Tue": "00:00-00:00", "Wed": "00:00-00:00", "Thu": "00:00-00:00", "Fri": "00:00-00:00", "Sat": "00:00-00:00", "Sun": "00:00-00:00", "index_right": 21, "park_offical_id": "WANDS_176" }, "geometry": { "type": "Point", "coordinates": [ -0.170037746, 51.463354644 ] } },
{ "type": "Feature", "properties": { "name": "Wandsworth common beyond tennis courts", "payment_info": "Cost unknown", "accessible": "False", "radar": "Unknown", "women": "True", "men": "True", "baby_change": "Unknown", "Mon": "09:00-17:00", "Tue": "09:00-17:00", "Wed": "09:00-17:00", "Thu": "09:00-17:00", "Fri": "09:00-17:00", "Sat": "09:00-17:00", "Sun": "09:00-17:00", "index_right": 21, "park_offical_id": "WANDS_176" }, "geometry": { "type": "Point", "coordinates": [ -0.170068145, 51.452723258 ] } }
]
}
