{
"type": "FeatureCollection",
"name": "WANDS_21_walking",
"crs": { "type": "name", "properties": { "name": "urn:ogc:def:crs:OGC:1.3:CRS84" } },
"features": [
{"type":"Feature","properties":{"highway":"footway","name":null,"category":"Footpath (pedestrian only)"},"geometry":{"type":"MultiLineString","coordinates":[[[-0.2276523,51.4707341],[-0.2277758,51.4706791],[-0.2277618,51.4705695],[-0.2276977,51.4705151],[-0.2275773,51.4704756],[-0.2275904,51.4703237],[-0.2274751,51.4702601]]]}},
{"type":"Feature","properties":{"highway":"footway","name":null,"category":"Footpath (pedestrian only)"},"geometry":{"type":"MultiLineString","coordinates":[[[-0.2225076,51.4711588],[-0.2225403,51.4711259],[-0.2225548,51.4710814],[-0.2226135,51.4709019],[-0.2225861,51.470856],[-0.2224771,51.4708087],[-0.2224515,51.4707667],[-0.2224802,51.4705948],[-0.2226808,51.4705661],[-0.2228527,51.4706578]]]}},
{"type":"Feature","properties":{"highway":"footway","name":"Festive Walk","category":"Footpath (pedestrian only)"},"geometry":{"type":"MultiLineString","coordinates":[[[-0.2229547,51.4700078],[-0.2227175,51.4699724],[-0.2220834,51.4698678],[-0.2220397,51.4698545],[-0.2219397,51.4698239]]]}},
{"type":"Feature","properties":{"highway":"footway","name":null,"category":"Footpath (pedestrian only)"},"geometry":{"type":"MultiLineString","coordinates":[[[-0.2265745,51.4670387],[-0.226662,51.4670311],[-0.2268682,51.467025],[-0.2271716,51.4670198],[-0.2271982,51.4670237],[-0.2271989,51.4671469],[-0.2278796,51.4671413],[-0.2281718,51.4671453]]]}},
{"type":"Feature","properties":{"highway":"footway","name":null,"category":"Footpath (pedestrian only)"},"geometry":{"type":"MultiLineString","coordinates":[[[-0.2282511,51.4665325],[-0.2282325,51.4665748],[-0.2282123,51.466802],[-0.2282257,51.4668191],[-0.2282241,51.4668766],[-0.2282226,51.4671342],[-0.2282104,51.4671404],[-0.2281718,51.4671453]]]}},
{"type":"Feature","properties":{"highway":"footway","name":null,"category":"Footpath (pedestrian only)"},"geometry":{"type":"MultiLineString","coordinates":[[[-0.2276737,51.4710301],[-0.2281134,51.4712196],[-0.228242,51.4712812],[-0.2283909,51.4713525]]]}},
{"type":"Feature","properties":{"highway":"path","name":null,"category":"Shared path"},"geometry":{"type":"MultiLineString","coordinates":[[[-0.2293065,51.4669029],[-0.2293189,51.4673519],[-0.2293288,51.4673992],[-0.2294047,51.467763],[-0.2294129,51.4679209],[-0.2294568,51.4681282],[-0.2294289,51.4682526],[-0.2292572,51.4682843],[-0.2290936,51.4682977],[-0.2290697,51.4683506]]]}},
{"type":"Feature","properties":{"highway":"footway","name":null,"category":"Footpath (pedestrian only)"},"geometry":{"type":"MultiLineString","coordinates":[[[-0.2296781,51.4687895],[-0.229704,51.4688474],[-0.2297731,51.4690552],[-0.2298488,51.4692831],[-0.2300048,51.4696676],[-0.2299522,51.469995],[-0.2298534,51.4703295],[-0.2296372,51.4708814]]]}},
{"type":"Feature","properties":{"highway":"footway","name":"Jordan Court","category":"Footpath (pedestrian only)"},"geometry":{"type":"MultiLineString","coordinates":[[[-0.221581,51.4624783],[-0.2209639,51.4622167]]]}},
{"type":"Feature","properties":{"highway":"footway","name":null,"category":"Footpath (pedestrian only)"},"geometry":{"type":"MultiLineString","coordinates":[[[-0.2226808,51.4705661],[-0.222761,51.4703942],[-0.222766,51.4703637],[-0.2228055,51.4703543],[-0.222834,51.4703105],[-0.2228206,51.4702788],[-0.2228769,51.470169]]]}},
{"type":"Feature","properties":{"highway":"footway","name":null,"category":"Footpath (pedestrian only)"},"geometry":{"type":"MultiLineString","coordinates":[[[-0.2230877,51.4706979],[-0.2230317,51.4706883],[-0.2228527,51.4706578]]]}},
{"type":"Feature","properties":{"highway":"footway","name":null,"category":"Footpath (pedestrian only)"},"geometry":{"type":"MultiLineString","coordinates":[[[-0.2158099,51.4670298],[-0.2154066,51.4673411]]]}},
{"type":"Feature","properties":{"highway":"footway","name":"Spring Passage","category":"Footpath (pedestrian only)"},"geometry":{"type":"MultiLineString","coordinates":[[[-0.2200282,51.4674445],[-0.2199889,51.4675052],[-0.2198046,51.4677901],[-0.2195904,51.468137],[-0.2194487,51.4683582],[-0.2193472,51.4685071],[-0.2193124,51.4685436]]]}},
{"type":"Feature","properties":{"highway":"path","name":null,"category":"Shared path"},"geometry":{"type":"MultiLineString","coordinates":[[[-0.2359621,51.4711253],[-0.23597,51.4711034],[-0.2357863,51.4709716],[-0.2352677,51.4705924],[-0.2351993,51.4705424],[-0.235009,51.4703888],[-0.2349606,51.4703498],[-0.2348511,51.4702615],[-0.2347759,51.4702008],[-0.2342511,51.4698075],[-0.2340122,51.4696284],[-0.2334231,51.4691424],[-0.2334076,51.4690966]]]}},
{"type":"Feature","properties":{"highway":"footway","name":null,"category":"Footpath (pedestrian only)"},"geometry":{"type":"MultiLineString","coordinates":[[[-0.2140412,51.4654586],[-0.2138113,51.4653078],[-0.2134727,51.4651981],[-0.2134358,51.4651773]]]}},
{"type":"Feature","properties":{"highway":"footway","name":"Gay Street","category":"Footpath (pedestrian only)"},"geometry":{"type":"MultiLineString","coordinates":[[[-0.2175896,51.4654949],[-0.2175573,51.4655574],[-0.2175359,51.4655988],[-0.2174926,51.4656822],[-0.2172759,51.465751],[-0.2171464,51.4659906],[-0.2170718,51.4661283],[-0.2169435,51.4661039],[-0.216917,51.4661602],[-0.2168881,51.466214]]]}},
{"type":"Feature","properties":{"highway":"footway","name":"Walker's Place","category":"Footpath (pedestrian only)"},"geometry":{"type":"MultiLineString","coordinates":[[[-0.2163614,51.4643145],[-0.2163447,51.464351],[-0.2163339,51.4643746],[-0.2160888,51.4649116],[-0.2160696,51.4649536]]]}},
{"type":"Feature","properties":{"highway":"footway","name":null,"category":"Footpath (pedestrian only)"},"geometry":{"type":"MultiLineString","coordinates":[[[-0.2339951,51.4707021],[-0.2336392,51.4707004],[-0.2333345,51.4706605],[-0.2331411,51.4706773],[-0.2330656,51.4706838],[-0.2328588,51.4706758],[-0.2327033,51.4706861],[-0.2325812,51.4707104],[-0.2324771,51.4707471],[-0.2323685,51.4707564],[-0.2320413,51.4706691],[-0.2317711,51.4706704],[-0.2316358,51.4706711],[-0.2313246,51.4706577],[-0.2311112,51.4706034],[-0.2309789,51.4707166],[-0.2309083,51.4707632],[-0.2305234,51.4707838],[-0.2304411,51.4712634]]]}},
{"type":"Feature","properties":{"highway":"footway","name":null,"category":"Footpath (pedestrian only)"},"geometry":{"type":"MultiLineString","coordinates":[[[-0.2362901,51.46837],[-0.2361217,51.4684792],[-0.2358194,51.4686355],[-0.235467,51.4687702],[-0.2346027,51.469074],[-0.2343931,51.4690738]]]}},
{"type":"Feature","properties":{"highway":"footway","name":null,"category":"Footpath (pedestrian only)"},"geometry":{"type":"MultiLineString","coordinates":[[[-0.2287809,51.4707472],[-0.2291372,51.4709176],[-0.2295075,51.4710371],[-0.2298079,51.4710878],[-0.2300114,51.4711641],[-0.2302533,51.471233],[-0.2304411,51.4712634]]]}},
{"type":"Feature","properties":{"highway":"footway","name":null,"category":"Footpath (pedestrian only)"},"geometry":{"type":"MultiLineString","coordinates":[[[-0.2334076,51.4690966],[-0.2334545,51.4689444],[-0.2335318,51.4688125],[-0.2335643,51.4687084],[-0.2337007,51.4685625],[-0.233883,51.4685516],[-0.2342505,51.4685818],[-0.2344575,51.468591],[-0.2345528,51.4686029],[-0.234738,51.4686264],[-0.235467,51.4687702],[-0.236064,51.4689056],[-0.236487,51.4689448],[-0.2366609,51.468965],[-0.2370683,51.4690892],[-0.2371933,51.4691406],[-0.2376126,51.4692174]]]}},
{"type":"Feature","properties":{"highway":"footway","name":null,"category":"Footpath (pedestrian only)"},"geometry":{"type":"MultiLineString","coordinates":[[[-0.2311492,51.4725159],[-0.2311353,51.4724624],[-0.2311002,51.4723382],[-0.2310031,51.4722007],[-0.2309649,51.4720333],[-0.230875,51.4718624],[-0.2308262,51.4717348],[-0.2308033,51.4716671],[-0.230754,51.4716159],[-0.2306265,51.471569],[-0.2305305,51.4714856],[-0.230461,51.4713511]]]}},
{"type":"Feature","properties":{"highway":"footway","name":null,"category":"Footpath (pedestrian only)"},"geometry":{"type":"MultiLineString","coordinates":[[[-0.233214,51.467601],[-0.2333279,51.4678257],[-0.2334781,51.4680196],[-0.2335099,51.4680412],[-0.2336332,51.4680469],[-0.2338419,51.4680268],[-0.2343826,51.4679982],[-0.2347031,51.4679588],[-0.2347942,51.4678929],[-0.2349533,51.4679293],[-0.235421,51.4679385],[-0.2358062,51.4679461],[-0.2363282,51.4680322]]]}},
{"type":"Feature","properties":{"highway":"footway","name":null,"category":"Footpath (pedestrian only)"},"geometry":{"type":"MultiLineString","coordinates":[[[-0.2305893,51.4705032],[-0.230157,51.4703901],[-0.2298534,51.4703295],[-0.2296668,51.4703238],[-0.2295432,51.4703052],[-0.2294398,51.4702756],[-0.2290262,51.4702217]]]}},
{"type":"Feature","properties":{"highway":"footway","name":null,"category":"Footpath (pedestrian only)"},"geometry":{"type":"MultiLineString","coordinates":[[[-0.2307617,51.4696807],[-0.230045,51.4691006],[-0.2299597,51.4690315],[-0.229692,51.4687961],[-0.2296781,51.4687895],[-0.2296176,51.4687322]]]}},
{"type":"Feature","properties":{"highway":"footway","name":null,"category":"Footpath (pedestrian only)"},"geometry":{"type":"MultiLineString","coordinates":[[[-0.2307617,51.4696807],[-0.2308829,51.4697708],[-0.2314353,51.4702492],[-0.2311112,51.4706034],[-0.2305893,51.4705032],[-0.2305234,51.4707838],[-0.2302337,51.4708139],[-0.2295803,51.470955]]]}},
{"type":"Feature","properties":{"highway":"footway","name":null,"category":"Footpath (pedestrian only)"},"geometry":{"type":"MultiLineString","coordinates":[[[-0.2317514,51.4690993],[-0.2308829,51.4697708],[-0.2307152,51.4699218],[-0.2305127,51.4701524],[-0.2303429,51.4703003],[-0.230157,51.4703901],[-0.2296372,51.4708814],[-0.2295803,51.470955],[-0.2295075,51.4710371],[-0.2292511,51.4712923],[-0.229237,51.4713063],[-0.2288919,51.4716358],[-0.2286625,51.4718286],[-0.2286075,51.4718353]]]}},
{"type":"Feature","properties":{"highway":"footway","name":null,"category":"Footpath (pedestrian only)"},"geometry":{"type":"MultiLineString","coordinates":[[[-0.2310344,51.4686886],[-0.23101,51.468755],[-0.2310062,51.4687655],[-0.2307617,51.4696807],[-0.2307152,51.4699218],[-0.2305893,51.4705032]]]}},
{"type":"Feature","properties":{"highway":"footway","name":null,"category":"Footpath (pedestrian only)"},"geometry":{"type":"MultiLineString","coordinates":[[[-0.2320413,51.4706691],[-0.2318092,51.4705614],[-0.2314353,51.4702492],[-0.2315802,51.4700821],[-0.2316821,51.4694338],[-0.2317514,51.4690993],[-0.2318688,51.4690158],[-0.2319685,51.4690234],[-0.2320326,51.468921],[-0.2319884,51.468852]]]}},
{"type":"Feature","properties":{"highway":"footway","name":null,"category":"Footpath (pedestrian only)"},"geometry":{"type":"MultiLineString","coordinates":[[[-0.2309083,51.4707632],[-0.2307238,51.470885],[-0.2305521,51.4710721],[-0.2304411,51.4712634],[-0.2304476,51.471283],[-0.230461,51.4713511],[-0.2304172,51.471457],[-0.2302996,51.4715397],[-0.2302098,51.4715829],[-0.2300515,51.4717424],[-0.2300205,51.4717897],[-0.2299872,51.4719063],[-0.2299777,51.4720476],[-0.2299323,51.4721179]]]}},
{"type":"Feature","properties":{"highway":"footway","name":"Lower Richmond Road","category":"Footpath (pedestrian only)"},"geometry":{"type":"MultiLineString","coordinates":[[[-0.215261,51.466638],[-0.2152205,51.4666193],[-0.2152014,51.4665606],[-0.2151924,51.466544],[-0.2149728,51.4664458],[-0.2144995,51.466262],[-0.2144082,51.4662167],[-0.2143775,51.4661971],[-0.214321,51.4661549],[-0.2142534,51.4661],[-0.2142371,51.4660906],[-0.2141924,51.4660776]]]}},
{"type":"Feature","properties":{"highway":"footway","name":"Putney Bridge","category":"Footpath (pedestrian only)"},"geometry":{"type":"MultiLineString","coordinates":[[[-0.2140823,51.4660911],[-0.2140578,51.4661035],[-0.2140291,51.4661204],[-0.2139921,51.4661488],[-0.2136889,51.4664136],[-0.2133128,51.4667463],[-0.2128899,51.4671211],[-0.2125252,51.4674464],[-0.2122896,51.4676638],[-0.2121511,51.4677836]]]}},
{"type":"Feature","properties":{"highway":"footway","name":"Putney Bridge","category":"Footpath (pedestrian only)"},"geometry":{"type":"MultiLineString","coordinates":[[[-0.2141924,51.4660776],[-0.2141509,51.4660741],[-0.2141197,51.4660782],[-0.21409,51.4660884]]]}},
{"type":"Feature","properties":{"highway":"footway","name":null,"category":"Footpath (pedestrian only)"},"geometry":{"type":"MultiLineString","coordinates":[[[-0.2143009,51.4659916],[-0.2142643,51.4660172],[-0.2142127,51.4660531],[-0.2141971,51.4660639]]]}},
{"type":"Feature","properties":{"highway":"footway","name":"Putney Bridge","category":"Footpath (pedestrian only)"},"geometry":{"type":"MultiLineString","coordinates":[[[-0.2119152,51.4676801],[-0.2122899,51.4673443],[-0.2126625,51.4670137],[-0.2130773,51.4666447],[-0.2136453,51.4661378],[-0.2138217,51.465981]]]}},
{"type":"Feature","properties":{"highway":"footway","name":null,"category":"Footpath (pedestrian only)"},"geometry":{"type":"MultiLineString","coordinates":[[[-0.2189377,51.4687687],[-0.2183227,51.4683581],[-0.2183406,51.4682789]]]}},
{"type":"Feature","properties":{"highway":"footway","name":null,"category":"Footpath (pedestrian only)"},"geometry":{"type":"MultiLineString","coordinates":[[[-0.2179283,51.4680178],[-0.2178265,51.4680186],[-0.2177631,51.4680008],[-0.2172373,51.4676937],[-0.2166375,51.4673888],[-0.21621,51.4671926],[-0.2158414,51.4670092],[-0.2152668,51.4667101],[-0.2152865,51.4666931],[-0.2153089,51.4666729]]]}},
{"type":"Feature","properties":{"highway":"footway","name":null,"category":"Footpath (pedestrian only)"},"geometry":{"type":"MultiLineString","coordinates":[[[-0.220906,51.4702355],[-0.2227598,51.4716623],[-0.2228709,51.4716874]]]}},
{"type":"Feature","properties":{"highway":"path","name":null,"category":"Shared path"},"geometry":{"type":"MultiLineString","coordinates":[[[-0.23261,51.4666017],[-0.2325885,51.4666568],[-0.2325755,51.4666756],[-0.2324322,51.4667271],[-0.2323471,51.4667654],[-0.2320708,51.4668874],[-0.2318026,51.4670144],[-0.2314164,51.4671681],[-0.2312125,51.4672651],[-0.2309765,51.4673784],[-0.2308789,51.4674216],[-0.2307646,51.4674722],[-0.2303998,51.4676293],[-0.2303643,51.4676394],[-0.2299063,51.4677697],[-0.2296099,51.4678805],[-0.2294129,51.4679209]]]}},
{"type":"Feature","properties":{"highway":"footway","name":null,"category":"Footpath (pedestrian only)"},"geometry":{"type":"MultiLineString","coordinates":[[[-0.2249757,51.4703416],[-0.2244576,51.4703034],[-0.2242136,51.470283],[-0.224155,51.4702891]]]}},
{"type":"Feature","properties":{"highway":"footway","name":null,"category":"Footpath (pedestrian only)"},"geometry":{"type":"MultiLineString","coordinates":[[[-0.2192681,51.468591],[-0.2191073,51.4687672]]]}},
{"type":"Feature","properties":{"highway":"footway","name":null,"category":"Footpath (pedestrian only)"},"geometry":{"type":"MultiLineString","coordinates":[[[-0.2282395,51.4673328],[-0.2283486,51.4673198],[-0.228465,51.4672686],[-0.2284769,51.4671064],[-0.2286211,51.4670513],[-0.2290414,51.4670607],[-0.2293065,51.4669029],[-0.2296107,51.466883],[-0.2299379,51.4669013],[-0.2308607,51.4668274],[-0.2311238,51.4668452],[-0.2316857,51.4667924],[-0.2324322,51.4667271]]]}},
{"type":"Feature","properties":{"highway":"path","name":null,"category":"Shared path"},"geometry":{"type":"MultiLineString","coordinates":[[[-0.2282389,51.4682703],[-0.2283584,51.4682546],[-0.2285147,51.4682144],[-0.2289874,51.4680757],[-0.2294129,51.4679209]]]}},
{"type":"Feature","properties":{"highway":"path","name":null,"category":"Shared path"},"geometry":{"type":"MultiLineString","coordinates":[[[-0.2283584,51.4682546],[-0.2283593,51.4681711],[-0.228355,51.4681365],[-0.228411,51.4680861],[-0.2285577,51.4679756],[-0.2286752,51.4678887],[-0.228836,51.467748],[-0.2290256,51.4675873],[-0.2292381,51.4674681],[-0.2293288,51.4673992]]]}},
{"type":"Feature","properties":{"highway":"footway","name":"Sherwood Close","category":"Footpath (pedestrian only)"},"geometry":{"type":"MultiLineString","coordinates":[[[-0.2333593,51.4662485],[-0.2334501,51.466307],[-0.2334924,51.4663269],[-0.2335145,51.4663551],[-0.233524,51.4663778],[-0.2335306,51.4664006],[-0.2335446,51.4664337],[-0.2335807,51.4664815],[-0.2336217,51.4665378]]]}},
{"type":"Feature","properties":{"highway":"footway","name":"Sherwood Close","category":"Footpath (pedestrian only)"},"geometry":{"type":"MultiLineString","coordinates":[[[-0.233565,51.4665503],[-0.2335887,51.4665451],[-0.2336217,51.4665378],[-0.2336325,51.4665543],[-0.2339409,51.4664816]]]}},
{"type":"Feature","properties":{"highway":"footway","name":"Putney Bridge","category":"Footpath (pedestrian only)"},"geometry":{"type":"MultiLineString","coordinates":[[[-0.2138752,51.4659341],[-0.2139947,51.4658293]]]}},
{"type":"Feature","properties":{"highway":"path","name":null,"category":"Shared path"},"geometry":{"type":"MultiLineString","coordinates":[[[-0.2290234,51.4684519],[-0.2290076,51.4685011]]]}},
{"type":"Feature","properties":{"highway":"path","name":null,"category":"Shared path"},"geometry":{"type":"MultiLineString","coordinates":[[[-0.2296714,51.4684795],[-0.2296606,51.4685268],[-0.2296604,51.4685867]]]}},
{"type":"Feature","properties":{"highway":"footway","name":null,"category":"Footpath (pedestrian only)"},"geometry":{"type":"MultiLineString","coordinates":[[[-0.2275566,51.4692487],[-0.2276557,51.4692588],[-0.2276971,51.4693082],[-0.2277829,51.4693483],[-0.2278929,51.4693801],[-0.2280173,51.4694068]]]}},
{"type":"Feature","properties":{"highway":"footway","name":null,"category":"Footpath (pedestrian only)"},"geometry":{"type":"MultiLineString","coordinates":[[[-0.2160341,51.463178],[-0.2160899,51.4631889],[-0.2163612,51.4632417],[-0.2165992,51.4632881],[-0.2166374,51.4632955],[-0.2167911,51.4633255],[-0.21686,51.4634036],[-0.2167873,51.463563],[-0.2166322,51.4639027],[-0.2165248,51.4639481],[-0.2163657,51.4639654],[-0.2157415,51.464033],[-0.2156757,51.4640401]]]}},
{"type":"Feature","properties":{"highway":"footway","name":"Putney High Street","category":"Footpath (pedestrian only)"},"geometry":{"type":"MultiLineString","coordinates":[[[-0.2145268,51.4648422],[-0.2145416,51.4648825],[-0.2145337,51.4649116],[-0.214526,51.4649397],[-0.2143235,51.4651987],[-0.2142727,51.4653151],[-0.2142035,51.4655042]]]}},
{"type":"Feature","properties":{"highway":"footway","name":null,"category":"Footpath (pedestrian only)"},"geometry":{"type":"MultiLineString","coordinates":[[[-0.2139675,51.4657909],[-0.2140247,51.465743],[-0.2141161,51.465569]]]}},
{"type":"Feature","properties":{"highway":"path","name":null,"category":"Shared path"},"geometry":{"type":"MultiLineString","coordinates":[[[-0.2361947,51.466825],[-0.2361786,51.4668549],[-0.2361027,51.4670614],[-0.236042,51.4671902],[-0.2358599,51.4672833],[-0.2357525,51.4674091],[-0.2356731,51.4675342],[-0.2356264,51.4676942],[-0.2355318,51.4678138],[-0.2355097,51.4678418],[-0.235421,51.4679385],[-0.2352948,51.4681378],[-0.2351293,51.4683279],[-0.2349343,51.468462],[-0.2347926,51.4685802],[-0.234738,51.4686264],[-0.2346305,51.4687837],[-0.2345231,51.4689364],[-0.2343931,51.4690738],[-0.2342628,51.4691335],[-0.2341758,51.4692555]]]}},
{"type":"Feature","properties":{"highway":"path","name":null,"category":"Shared path"},"geometry":{"type":"MultiLineString","coordinates":[[[-0.2341758,51.4692555],[-0.2341397,51.4693117],[-0.2341061,51.4694913],[-0.2340406,51.4695961],[-0.2340122,51.4696284],[-0.2339893,51.4696545],[-0.233869,51.4697912],[-0.2338017,51.4698915],[-0.233738,51.4700425],[-0.2336177,51.4700954],[-0.2335186,51.4701726],[-0.2333855,51.470327],[-0.2333381,51.4704559],[-0.2333345,51.4706605]]]}},
{"type":"Feature","properties":{"highway":"path","name":null,"category":"Shared path"},"geometry":{"type":"MultiLineString","coordinates":[[[-0.2334231,51.4691424],[-0.2334168,51.4692496],[-0.2334266,51.469358],[-0.2333398,51.4695086],[-0.2331802,51.4696138],[-0.2330068,51.4696733],[-0.2329724,51.4697538],[-0.2328692,51.4699609],[-0.2328922,51.4700679],[-0.2330143,51.4702994],[-0.232993,51.4704537],[-0.2330833,51.4705826],[-0.2330662,51.4706805],[-0.2330656,51.4706838],[-0.2330744,51.4707094],[-0.2329346,51.4708836],[-0.2329346,51.4708976],[-0.2329346,51.4710919],[-0.2329293,51.4712551],[-0.2328975,51.471448],[-0.2329044,51.4715343],[-0.2329081,51.4715814],[-0.2329329,51.4717555],[-0.2329093,51.4718221],[-0.2313961,51.4719563]]]}},
{"type":"Feature","properties":{"highway":"path","name":null,"category":"Shared path"},"geometry":{"type":"MultiLineString","coordinates":[[[-0.2337007,51.4685625],[-0.2336583,51.4684902],[-0.2336515,51.4683914],[-0.2336227,51.4683026],[-0.2335755,51.4681529],[-0.2334781,51.4680196]]]}},
{"type":"Feature","properties":{"highway":"footway","name":null,"category":"Footpath (pedestrian only)"},"geometry":{"type":"MultiLineString","coordinates":[[[-0.2171374,51.4662167],[-0.2170798,51.4662852],[-0.2170341,51.466278],[-0.2169461,51.4662263]]]}},
{"type":"Feature","properties":{"highway":"path","name":null,"category":"Shared path"},"geometry":{"type":"MultiLineString","coordinates":[[[-0.2329346,51.4708976],[-0.2328162,51.4710297],[-0.2326383,51.4711131],[-0.2322685,51.4710588],[-0.2320534,51.4710746],[-0.2317959,51.4710427],[-0.2316071,51.4710217],[-0.2315653,51.4712426],[-0.2315609,51.4712999],[-0.2315413,51.4714087],[-0.2309754,51.4712805],[-0.2306972,51.4712532],[-0.2305789,51.4712568],[-0.2304476,51.471283]]]}},
{"type":"Feature","properties":{"highway":"path","name":null,"category":"Shared path"},"geometry":{"type":"MultiLineString","coordinates":[[[-0.2302098,51.4715829],[-0.2300563,51.4716222],[-0.2298992,51.471632],[-0.2298076,51.4716418],[-0.229693,51.4716541],[-0.2293724,51.471701],[-0.2291186,51.4717447],[-0.2289511,51.471784],[-0.2287945,51.4718066],[-0.2286625,51.4718286]]]}},
{"type":"Feature","properties":{"highway":"path","name":null,"category":"Shared path"},"geometry":{"type":"MultiLineString","coordinates":[[[-0.222766,51.4703637],[-0.2225654,51.4703433],[-0.2221984,51.470269],[-0.2216922,51.4701665]]]}},
{"type":"Feature","properties":{"highway":"path","name":null,"category":"Shared path"},"geometry":{"type":"MultiLineString","coordinates":[[[-0.2224802,51.4705948],[-0.2222173,51.470579],[-0.2221833,51.4705852],[-0.2221095,51.4705987],[-0.2219615,51.4707491],[-0.2219227,51.4707706],[-0.2218479,51.4707706],[-0.2217994,51.4707408],[-0.2214199,51.4704364],[-0.221422,51.4703697],[-0.2215281,51.4702899],[-0.2216922,51.4701665],[-0.2220113,51.4699238],[-0.2220656,51.4698944],[-0.2220834,51.4698678]]]}},
{"type":"Feature","properties":{"highway":"path","name":null,"category":"Shared path"},"geometry":{"type":"MultiLineString","coordinates":[[[-0.2221984,51.470269],[-0.2221541,51.4703763],[-0.222127,51.4704439]]]}},
{"type":"Feature","properties":{"highway":"path","name":null,"category":"Shared path"},"geometry":{"type":"MultiLineString","coordinates":[[[-0.2221833,51.4705852],[-0.2221602,51.4705298],[-0.222127,51.4704439],[-0.2220234,51.4704092],[-0.2219361,51.4703895],[-0.2215281,51.4702899]]]}},
{"type":"Feature","properties":{"highway":"path","name":null,"category":"Shared path"},"geometry":{"type":"MultiLineString","coordinates":[[[-0.2335186,51.4701726],[-0.2333558,51.4701827],[-0.2331862,51.4702275],[-0.2330143,51.4702994]]]}},
{"type":"Feature","properties":{"highway":"path","name":null,"category":"Shared path"},"geometry":{"type":"MultiLineString","coordinates":[[[-0.232993,51.4704537],[-0.2328815,51.4705175],[-0.2328355,51.4705659],[-0.2327033,51.4706861]]]}},
{"type":"Feature","properties":{"highway":"path","name":null,"category":"Shared path"},"geometry":{"type":"MultiLineString","coordinates":[[[-0.2309789,51.4707166],[-0.2310464,51.4707792],[-0.2310848,51.4708148],[-0.2312572,51.4709527],[-0.2313854,51.4710522],[-0.2315653,51.4712426],[-0.2316611,51.4712682],[-0.2317629,51.4713117],[-0.2318596,51.4713838],[-0.2321213,51.471411],[-0.232433,51.4714433],[-0.2326802,51.4715096],[-0.2327665,51.4715191],[-0.2329044,51.4715343]]]}},
{"type":"Feature","properties":{"highway":"path","name":null,"category":"Shared path"},"geometry":{"type":"MultiLineString","coordinates":[[[-0.2327665,51.4715191],[-0.2327843,51.471454],[-0.2327169,51.4713998],[-0.2326628,51.4713563],[-0.2326383,51.4711131],[-0.2324949,51.4708869],[-0.2324137,51.4708031],[-0.2323685,51.4707564]]]}},
{"type":"Feature","properties":{"highway":"path","name":null,"category":"Shared path"},"geometry":{"type":"MultiLineString","coordinates":[[[-0.2225548,51.4710814],[-0.2226069,51.4710678],[-0.2227095,51.47108],[-0.2229325,51.471145],[-0.2229838,51.4711571],[-0.2230634,51.4711571],[-0.2229697,51.471016],[-0.2229608,51.470951],[-0.2229803,51.4708242],[-0.222982,51.4707669],[-0.2230317,51.4706883]]]}},
{"type":"Feature","properties":{"highway":"path","name":null,"category":"Shared path"},"geometry":{"type":"MultiLineString","coordinates":[[[-0.2214731,51.4674908],[-0.2222171,51.4676108]]]}},
{"type":"Feature","properties":{"highway":"footway","name":null,"category":"Footpath (pedestrian only)"},"geometry":{"type":"MultiLineString","coordinates":[[[-0.2292078,51.4685238],[-0.2291804,51.4685457],[-0.2291318,51.4685666],[-0.2290356,51.468622],[-0.2289894,51.4686514],[-0.2289017,51.4686682],[-0.2288106,51.468672],[-0.2287333,51.4686896],[-0.2286742,51.4687184],[-0.2285886,51.4687335],[-0.2285059,51.4687185],[-0.2283648,51.4686933],[-0.2283366,51.4687168],[-0.228302,51.4687296],[-0.2282639,51.4687343],[-0.2282196,51.4687265],[-0.2278902,51.4686499],[-0.2278096,51.468632],[-0.22773,51.4686213],[-0.2276769,51.4686168],[-0.2276243,51.4686015],[-0.2275829,51.4685678],[-0.2275749,51.4685264],[-0.2275795,51.4683868]]]}},
{"type":"Feature","properties":{"highway":"path","name":null,"category":"Shared path"},"geometry":{"type":"MultiLineString","coordinates":[[[-0.2283648,51.4686933],[-0.2284251,51.468561],[-0.2284349,51.4685037],[-0.2284548,51.46848]]]}},
{"type":"Feature","properties":{"highway":"path","name":null,"category":"Shared path"},"geometry":{"type":"MultiLineString","coordinates":[[[-0.2282639,51.4687343],[-0.2282251,51.4687999],[-0.2281153,51.4688388],[-0.2279943,51.4689561],[-0.227925,51.4689998],[-0.2278972,51.469064],[-0.227808,51.4692723],[-0.2277829,51.4693483],[-0.2277925,51.4694421],[-0.2277362,51.4695073],[-0.2277039,51.4695919],[-0.2276947,51.4696514],[-0.2277327,51.4696879],[-0.2277638,51.4697417],[-0.2277626,51.4698076],[-0.2277304,51.4699058],[-0.2277281,51.4699603],[-0.2277408,51.4700197],[-0.2277845,51.4700807],[-0.2278098,51.4700928]]]}},
{"type":"Feature","properties":{"highway":"path","name":null,"category":"Shared path"},"geometry":{"type":"MultiLineString","coordinates":[[[-0.227766,51.4701352],[-0.2277753,51.4701115],[-0.2278098,51.4700928],[-0.2286405,51.4701179]]]}},
{"type":"Feature","properties":{"highway":"path","name":null,"category":"Shared path"},"geometry":{"type":"MultiLineString","coordinates":[[[-0.2270616,51.4706875],[-0.2270293,51.4707268],[-0.2270263,51.4707713],[-0.2270688,51.4708239],[-0.2271241,51.4708801],[-0.2272173,51.4709479],[-0.2272637,51.4710029],[-0.227292,51.4710597],[-0.227353,51.4711069],[-0.2274173,51.4711422]]]}},
{"type":"Feature","properties":{"highway":"path","name":null,"category":"Shared path"},"geometry":{"type":"MultiLineString","coordinates":[[[-0.226217,51.4704845],[-0.2262025,51.470535],[-0.226191,51.4705945],[-0.2261422,51.4706083],[-0.2260969,51.4706196],[-0.2260099,51.4706236],[-0.2259229,51.4706494],[-0.2258358,51.470701],[-0.2257887,51.4707722],[-0.225717,51.4708224],[-0.2256365,51.4708461],[-0.2255582,51.4708891],[-0.2255364,51.470922],[-0.225506,51.4709572]]]}},
{"type":"Feature","properties":{"highway":"path","name":null,"category":"Shared path"},"geometry":{"type":"MultiLineString","coordinates":[[[-0.2261422,51.4706083],[-0.2262244,51.4706375],[-0.2262946,51.4706339],[-0.2263636,51.4706229],[-0.2264586,51.4706002],[-0.2264853,51.4705722],[-0.2264966,51.470523]]]}},
{"type":"Feature","properties":{"highway":"footway","name":null,"category":"Footpath (pedestrian only)"},"geometry":{"type":"MultiLineString","coordinates":[[[-0.2275773,51.4704756],[-0.2267377,51.470518]]]}},
{"type":"Feature","properties":{"highway":"track","name":null,"category":"Track"},"geometry":{"type":"MultiLineString","coordinates":[[[-0.2265188,51.4751074],[-0.2265443,51.4750666],[-0.2265771,51.4750336],[-0.226573,51.475005],[-0.226558,51.4749796],[-0.2264897,51.4748966],[-0.2264065,51.4748218],[-0.2263366,51.4747525],[-0.2262972,51.474661],[-0.2262685,51.4744699],[-0.2262183,51.474363],[-0.226104,51.4741875],[-0.2259641,51.4740894],[-0.2258224,51.4739754],[-0.2256696,51.4737684],[-0.2255536,51.4735814],[-0.2255174,51.4734921],[-0.2254928,51.4734152],[-0.225429,51.4733142],[-0.2253478,51.4732288],[-0.2252342,51.4731572],[-0.2251307,51.4731127],[-0.2249464,51.4730488],[-0.2247954,51.4729804],[-0.2247138,51.4729171],[-0.2246163,51.4728457],[-0.2245051,51.4727522],[-0.2243803,51.4726354],[-0.2242906,51.4725099],[-0.2242252,51.4724147],[-0.2241917,51.4723003],[-0.2241418,51.4721376],[-0.2240731,51.4718758],[-0.2239956,51.471727],[-0.2239653,51.471639],[-0.2239706,51.4715775],[-0.2239951,51.471509],[-0.2240067,51.4714732]]]}},
{"type":"Feature","properties":{"highway":"footway","name":null,"category":"Footpath (pedestrian only)"},"geometry":{"type":"MultiLineString","coordinates":[[[-0.2242725,51.4724028],[-0.2243048,51.4723837],[-0.224304,51.4723546],[-0.2242896,51.4723017],[-0.224269,51.4722518],[-0.2242066,51.4720781],[-0.2240776,51.4715265],[-0.2239951,51.471509]]]}},
{"type":"Feature","properties":{"highway":"path","name":null,"category":"Shared path"},"geometry":{"type":"MultiLineString","coordinates":[[[-0.2333381,51.4704559],[-0.2330662,51.4706805]]]}},
{"type":"Feature","properties":{"highway":"footway","name":null,"category":"Footpath (pedestrian only)"},"geometry":{"type":"MultiLineString","coordinates":[[[-0.2311824,51.4680693],[-0.2312229,51.4681938],[-0.231156,51.4683701],[-0.2311074,51.4685052],[-0.2310481,51.4686532],[-0.2310344,51.4686886]]]}},
{"type":"Feature","properties":{"highway":"footway","name":null,"category":"Footpath (pedestrian only)"},"geometry":{"type":"MultiLineString","coordinates":[[[-0.2328519,51.4676905],[-0.2327744,51.4681009],[-0.2327403,51.4682446],[-0.2326727,51.468591],[-0.2327036,51.4687835],[-0.2328592,51.4690024]]]}},
{"type":"Feature","properties":{"highway":"footway","name":null,"category":"Footpath (pedestrian only)"},"geometry":{"type":"MultiLineString","coordinates":[[[-0.231998,51.4687686],[-0.2321989,51.4684425],[-0.2323117,51.4682908],[-0.2324004,51.4681737],[-0.2327744,51.4681009],[-0.2329955,51.468018],[-0.2331819,51.4680214],[-0.2334781,51.4680196]]]}},
{"type":"Feature","properties":{"highway":"footway","name":null,"category":"Footpath (pedestrian only)"},"geometry":{"type":"MultiLineString","coordinates":[[[-0.2320291,51.4683254],[-0.2323117,51.4682908],[-0.2327403,51.4682446],[-0.2332929,51.4681872],[-0.2335755,51.4681529]]]}},
{"type":"Feature","properties":{"highway":"footway","name":null,"category":"Footpath (pedestrian only)"},"geometry":{"type":"MultiLineString","coordinates":[[[-0.2347253,51.4682637],[-0.2345821,51.468501],[-0.2345528,51.4686029],[-0.2345231,51.4689364],[-0.2346027,51.469074],[-0.2349322,51.4691849],[-0.2352576,51.4692134],[-0.2355907,51.4692203],[-0.23587,51.4691743]]]}},
{"type":"Feature","properties":{"highway":"footway","name":null,"category":"Footpath (pedestrian only)"},"geometry":{"type":"MultiLineString","coordinates":[[[-0.2343826,51.4679982],[-0.234597,51.4680715],[-0.2347253,51.4682637],[-0.2351293,51.4683279],[-0.2357098,51.4684001],[-0.2360827,51.4684196],[-0.2362901,51.46837]]]}},
{"type":"Feature","properties":{"highway":"footway","name":null,"category":"Footpath (pedestrian only)"},"geometry":{"type":"MultiLineString","coordinates":[[[-0.2327036,51.4687835],[-0.2321989,51.4684425],[-0.2320291,51.4683254],[-0.2316297,51.4683295],[-0.231156,51.4683701],[-0.2308525,51.4684092],[-0.230649,51.4684099],[-0.229889,51.4683514],[-0.2296777,51.4682925]]]}},
{"type":"Feature","properties":{"highway":"footway","name":null,"category":"Footpath (pedestrian only)"},"geometry":{"type":"MultiLineString","coordinates":[[[-0.2314872,51.4680197],[-0.2316297,51.4683295],[-0.2317058,51.4684894],[-0.2318164,51.4685702],[-0.2319297,51.4686647],[-0.231998,51.4687686],[-0.2319884,51.468852]]]}},
{"type":"Feature","properties":{"highway":"footway","name":null,"category":"Footpath (pedestrian only)"},"geometry":{"type":"MultiLineString","coordinates":[[[-0.2171464,51.4659906],[-0.2176524,51.4660946]]]}},
{"type":"Feature","properties":{"highway":"path","name":null,"category":"Shared path"},"geometry":{"type":"MultiLineString","coordinates":[[[-0.2298916,51.4716845],[-0.2298076,51.4716418],[-0.2295606,51.4715194],[-0.2294652,51.4714278],[-0.229354,51.4713577],[-0.2292511,51.4712923]]]}},
{"type":"Feature","properties":{"highway":"path","name":null,"category":"Shared path"},"geometry":{"type":"MultiLineString","coordinates":[[[-0.2275829,51.4685678],[-0.22756,51.4685639],[-0.227447,51.4685581]]]}},
{"type":"Feature","properties":{"highway":"path","name":null,"category":"Shared path"},"geometry":{"type":"MultiLineString","coordinates":[[[-0.2276769,51.4686168],[-0.2276786,51.4686281],[-0.2277443,51.4686815],[-0.2278261,51.4687375],[-0.2278909,51.4687846],[-0.227928,51.4688144],[-0.227937,51.4688433],[-0.2279396,51.4689004],[-0.227925,51.4689998]]]}},
{"type":"Feature","properties":{"highway":"path","name":null,"category":"Shared path"},"geometry":{"type":"MultiLineString","coordinates":[[[-0.229468,51.4683212],[-0.2294805,51.4683559],[-0.2294872,51.4683747],[-0.2294949,51.4684055],[-0.2294943,51.468457]]]}},
{"type":"Feature","properties":{"highway":"path","name":null,"category":"Shared path"},"geometry":{"type":"MultiLineString","coordinates":[[[-0.2324949,51.4708869],[-0.2327033,51.4706861]]]}},
{"type":"Feature","properties":{"highway":"footway","name":null,"category":"Footpath (pedestrian only)"},"geometry":{"type":"MultiLineString","coordinates":[[[-0.2321045,51.4709757],[-0.2317959,51.4710427]]]}},
{"type":"Feature","properties":{"highway":"path","name":null,"category":"Shared path"},"geometry":{"type":"MultiLineString","coordinates":[[[-0.2316358,51.4706711],[-0.2316621,51.470883],[-0.2316225,51.4709673],[-0.2316071,51.4710217],[-0.2313854,51.4710522],[-0.2311683,51.4711975],[-0.2309754,51.4712805]]]}},
{"type":"Feature","properties":{"highway":"footway","name":null,"category":"Footpath (pedestrian only)"},"geometry":{"type":"MultiLineString","coordinates":[[[-0.2317629,51.4713117],[-0.231921,51.4711897],[-0.2320534,51.4710746],[-0.2321045,51.4709757],[-0.2322931,51.4709505],[-0.2324949,51.4708869]]]}},
{"type":"Feature","properties":{"highway":"footway","name":null,"category":"Footpath (pedestrian only)"},"geometry":{"type":"MultiLineString","coordinates":[[[-0.2315653,51.4712426],[-0.2311683,51.4711975],[-0.2311053,51.4710078],[-0.2310464,51.4707792]]]}},
{"type":"Feature","properties":{"highway":"footway","name":null,"category":"Footpath (pedestrian only)"},"geometry":{"type":"MultiLineString","coordinates":[[[-0.2145563,51.4648356],[-0.2146016,51.4648266],[-0.2146706,51.4648129]]]}},
{"type":"Feature","properties":{"highway":"footway","name":null,"category":"Footpath (pedestrian only)"},"geometry":{"type":"MultiLineString","coordinates":[[[-0.2146706,51.4648129],[-0.2146859,51.4648068],[-0.2146602,51.4647864],[-0.2146685,51.4647802]]]}},
{"type":"Feature","properties":{"highway":"footway","name":null,"category":"Footpath (pedestrian only)"},"geometry":{"type":"MultiLineString","coordinates":[[[-0.2146685,51.4647802],[-0.2146965,51.464757],[-0.2147292,51.46473]]]}},
{"type":"Feature","properties":{"highway":"footway","name":"Putney High Street","category":"Footpath (pedestrian only)"},"geometry":{"type":"MultiLineString","coordinates":[[[-0.2147561,51.4647136],[-0.2147908,51.4646762],[-0.2149753,51.4644775],[-0.2152147,51.4641593],[-0.2152759,51.4640687],[-0.2153774,51.4639341],[-0.2154006,51.4638989],[-0.2154496,51.4638248],[-0.2155352,51.463671],[-0.2157524,51.463288],[-0.2157742,51.4632496],[-0.21579,51.4632232],[-0.2158127,51.4631848],[-0.2161431,51.4626331],[-0.2161674,51.4625912],[-0.216203,51.4625402],[-0.2162985,51.4623523],[-0.2163579,51.4622352],[-0.216494,51.4619696],[-0.2165854,51.4617622],[-0.2166121,51.4617015],[-0.2165509,51.4616905]]]}},
{"type":"Feature","properties":{"highway":"footway","name":null,"category":"Footpath (pedestrian only)"},"geometry":{"type":"MultiLineString","coordinates":[[[-0.2147561,51.4647136],[-0.2147993,51.4647268]]]}},
{"type":"Feature","properties":{"highway":"footway","name":"Putney High Street","category":"Footpath (pedestrian only)"},"geometry":{"type":"MultiLineString","coordinates":[[[-0.2155414,51.4641503],[-0.2154933,51.4641459],[-0.215451,51.4641509],[-0.2154077,51.4641667],[-0.2151502,51.4645459],[-0.2149429,51.4647766],[-0.2147895,51.4649741],[-0.2147777,51.4649893],[-0.2147424,51.4650347],[-0.2145735,51.4653024],[-0.2145677,51.465313]]]}},
{"type":"Feature","properties":{"highway":"footway","name":"Putney High Street","category":"Footpath (pedestrian only)"},"geometry":{"type":"MultiLineString","coordinates":[[[-0.2145677,51.465313],[-0.2145549,51.4653361]]]}},
{"type":"Feature","properties":{"highway":"footway","name":"Putney High Street","category":"Footpath (pedestrian only)"},"geometry":{"type":"MultiLineString","coordinates":[[[-0.2145353,51.4653709],[-0.2145268,51.4653867],[-0.2144981,51.4654214],[-0.2144198,51.4656386],[-0.2143743,51.465808],[-0.2143716,51.4658462],[-0.2143794,51.4658881],[-0.214447,51.4659824]]]}},
{"type":"Feature","properties":{"highway":"footway","name":null,"category":"Footpath (pedestrian only)"},"geometry":{"type":"MultiLineString","coordinates":[[[-0.2163447,51.464351],[-0.2162836,51.4643365],[-0.2162268,51.4643245]]]}},
{"type":"Feature","properties":{"highway":"footway","name":null,"category":"Footpath (pedestrian only)"},"geometry":{"type":"MultiLineString","coordinates":[[[-0.2155414,51.4641503],[-0.2155779,51.4641049],[-0.2156325,51.4640524]]]}},
{"type":"Feature","properties":{"highway":"footway","name":"Lacy Road","category":"Footpath (pedestrian only)"},"geometry":{"type":"MultiLineString","coordinates":[[[-0.2156325,51.4640524],[-0.2156808,51.4640827],[-0.2158144,51.4641302],[-0.2162177,51.4642314],[-0.2162624,51.4642401],[-0.2169059,51.4643593]]]}},
{"type":"Feature","properties":{"highway":"footway","name":"Lacy Road","category":"Footpath (pedestrian only)"},"geometry":{"type":"MultiLineString","coordinates":[[[-0.2162268,51.4643245],[-0.2155414,51.4641503]]]}},
{"type":"Feature","properties":{"highway":"footway","name":"Weimar Street","category":"Footpath (pedestrian only)"},"geometry":{"type":"MultiLineString","coordinates":[[[-0.2145735,51.4653024],[-0.2148638,51.4653994],[-0.2149285,51.4653958]]]}},
{"type":"Feature","properties":{"highway":"footway","name":"Weimar Street","category":"Footpath (pedestrian only)"},"geometry":{"type":"MultiLineString","coordinates":[[[-0.2151556,51.4655953],[-0.2145637,51.4653887],[-0.2145268,51.4653867]]]}},
{"type":"Feature","properties":{"highway":"footway","name":"Putney Bridge Road","category":"Footpath (pedestrian only)"},"geometry":{"type":"MultiLineString","coordinates":[[[-0.2136394,51.4645782],[-0.2136673,51.4645753],[-0.2142218,51.4647278],[-0.214467,51.4647952],[-0.2145268,51.4648422]]]}},
{"type":"Feature","properties":{"highway":"footway","name":null,"category":"Footpath (pedestrian only)"},"geometry":{"type":"MultiLineString","coordinates":[[[-0.2143775,51.4661971],[-0.2143593,51.4662133],[-0.2143472,51.4662212]]]}},
{"type":"Feature","properties":{"highway":"footway","name":null,"category":"Footpath (pedestrian only)"},"geometry":{"type":"MultiLineString","coordinates":[[[-0.2159408,51.4669267],[-0.2159044,51.4669576],[-0.2158737,51.466982],[-0.2158414,51.4670092],[-0.2158099,51.4670298]]]}},
{"type":"Feature","properties":{"highway":"footway","name":null,"category":"Footpath (pedestrian only)"},"geometry":{"type":"MultiLineString","coordinates":[[[-0.2160893,51.4668074],[-0.2160354,51.4668501],[-0.2160252,51.4668582]]]}},
{"type":"Feature","properties":{"highway":"footway","name":null,"category":"Footpath (pedestrian only)"},"geometry":{"type":"MultiLineString","coordinates":[[[-0.2147292,51.46473],[-0.2147421,51.4647187],[-0.2147561,51.4647136]]]}},
{"type":"Feature","properties":{"highway":"footway","name":null,"category":"Footpath (pedestrian only)"},"geometry":{"type":"MultiLineString","coordinates":[[[-0.2144158,51.465993],[-0.2143931,51.4660025],[-0.2143708,51.4660118]]]}},
{"type":"Feature","properties":{"highway":"path","name":null,"category":"Shared path"},"geometry":{"type":"MultiLineString","coordinates":[[[-0.230045,51.4691006],[-0.2297731,51.4690552],[-0.2295522,51.4690341],[-0.2291984,51.4689486],[-0.2289948,51.4687665],[-0.2288106,51.468672]]]}},
{"type":"Feature","properties":{"highway":"footway","name":null,"category":"Footpath (pedestrian only)"},"geometry":{"type":"MultiLineString","coordinates":[[[-0.2288198,51.470675],[-0.2287019,51.4705879],[-0.2286931,51.4704821],[-0.2287262,51.4703503],[-0.2287233,51.4701251]]]}},
{"type":"Feature","properties":{"highway":"path","name":null,"category":"Shared path"},"geometry":{"type":"MultiLineString","coordinates":[[[-0.2286405,51.4701179],[-0.2287233,51.4701251],[-0.2288913,51.4701989],[-0.2290262,51.4702217]]]}},
{"type":"Feature","properties":{"highway":"footway","name":"Putney High Street","category":"Footpath (pedestrian only)"},"geometry":{"type":"MultiLineString","coordinates":[[[-0.2139947,51.4658293],[-0.2140613,51.4657654],[-0.2141337,51.4656778],[-0.2141602,51.4656044],[-0.2142035,51.4655042]]]}},
{"type":"Feature","properties":{"highway":"footway","name":null,"category":"Footpath (pedestrian only)"},"geometry":{"type":"MultiLineString","coordinates":[[[-0.2162701,51.464224],[-0.2163657,51.4639654]]]}},
{"type":"Feature","properties":{"highway":"footway","name":null,"category":"Footpath (pedestrian only)"},"geometry":{"type":"MultiLineString","coordinates":[[[-0.2162701,51.464224],[-0.2162624,51.4642401]]]}},
{"type":"Feature","properties":{"highway":"footway","name":null,"category":"Footpath (pedestrian only)"},"geometry":{"type":"MultiLineString","coordinates":[[[-0.2143292,51.4658402],[-0.2143716,51.4658462]]]}},
{"type":"Feature","properties":{"highway":"footway","name":null,"category":"Footpath (pedestrian only)"},"geometry":{"type":"MultiLineString","coordinates":[[[-0.214208,51.4658268],[-0.2142602,51.4658326],[-0.2143292,51.4658402]]]}},
{"type":"Feature","properties":{"highway":"footway","name":null,"category":"Footpath (pedestrian only)"},"geometry":{"type":"MultiLineString","coordinates":[[[-0.2140858,51.4657687],[-0.2141384,51.4657765],[-0.2141838,51.4657831]]]}},
{"type":"Feature","properties":{"highway":"path","name":null,"category":"Shared path"},"geometry":{"type":"MultiLineString","coordinates":[[[-0.2180375,51.4673411],[-0.2185433,51.4673856]]]}},
{"type":"Feature","properties":{"highway":"path","name":null,"category":"Shared path"},"geometry":{"type":"MultiLineString","coordinates":[[[-0.2179236,51.4673311],[-0.2180375,51.4673411]]]}},
{"type":"Feature","properties":{"highway":"path","name":null,"category":"Shared path"},"geometry":{"type":"MultiLineString","coordinates":[[[-0.2147895,51.4649741],[-0.2148175,51.464981],[-0.2151725,51.4650666],[-0.2152427,51.4650838]]]}},
{"type":"Feature","properties":{"highway":"footway","name":null,"category":"Footpath (pedestrian only)"},"geometry":{"type":"MultiLineString","coordinates":[[[-0.2147993,51.4647268],[-0.2148407,51.4647409],[-0.2149267,51.4647703]]]}},
{"type":"Feature","properties":{"highway":"footway","name":null,"category":"Footpath (pedestrian only)"},"geometry":{"type":"MultiLineString","coordinates":[[[-0.2149267,51.4647703],[-0.2149429,51.4647766]]]}},
{"type":"Feature","properties":{"highway":"track","name":null,"category":"Track"},"geometry":{"type":"MultiLineString","coordinates":[[[-0.2225627,51.4639135],[-0.2225716,51.4638645],[-0.2225783,51.463828],[-0.2225805,51.4638158],[-0.2226405,51.4635334],[-0.2227249,51.4635169]]]}},
{"type":"Feature","properties":{"highway":"footway","name":null,"category":"Footpath (pedestrian only)"},"geometry":{"type":"MultiLineString","coordinates":[[[-0.2240543,51.4641767],[-0.2239806,51.4641624],[-0.2239049,51.4641476]]]}},
{"type":"Feature","properties":{"highway":"footway","name":null,"category":"Footpath (pedestrian only)"},"geometry":{"type":"MultiLineString","coordinates":[[[-0.2253938,51.4644288],[-0.2253233,51.4644162],[-0.2252485,51.4644028]]]}},
{"type":"Feature","properties":{"highway":"footway","name":null,"category":"Footpath (pedestrian only)"},"geometry":{"type":"MultiLineString","coordinates":[[[-0.2294767,51.4652664],[-0.2294165,51.4652867],[-0.229359,51.4653061]]]}},
{"type":"Feature","properties":{"highway":"footway","name":null,"category":"Footpath (pedestrian only)"},"geometry":{"type":"MultiLineString","coordinates":[[[-0.2291661,51.4651909],[-0.2292103,51.4651552],[-0.2292617,51.4651137]]]}},
{"type":"Feature","properties":{"highway":"footway","name":null,"category":"Footpath (pedestrian only)"},"geometry":{"type":"MultiLineString","coordinates":[[[-0.2290666,51.4652018],[-0.2290161,51.4651703],[-0.2289587,51.4651384]]]}},
{"type":"Feature","properties":{"highway":"footway","name":null,"category":"Footpath (pedestrian only)"},"geometry":{"type":"MultiLineString","coordinates":[[[-0.2290011,51.4650481],[-0.2289805,51.4650862],[-0.2289604,51.465123]]]}},
{"type":"Feature","properties":{"highway":"footway","name":null,"category":"Footpath (pedestrian only)"},"geometry":{"type":"MultiLineString","coordinates":[[[-0.2290365,51.4650271],[-0.2291204,51.4650174],[-0.2292117,51.4650067]]]}},
{"type":"Feature","properties":{"highway":"footway","name":null,"category":"Footpath (pedestrian only)"},"geometry":{"type":"MultiLineString","coordinates":[[[-0.2200653,51.4661092],[-0.2199947,51.4660954],[-0.2199274,51.4660821]]]}},
{"type":"Feature","properties":{"highway":"footway","name":null,"category":"Footpath (pedestrian only)"},"geometry":{"type":"MultiLineString","coordinates":[[[-0.2209001,51.4649233],[-0.2209142,51.4648834],[-0.2209283,51.4648436]]]}},
{"type":"Feature","properties":{"highway":"footway","name":null,"category":"Footpath (pedestrian only)"},"geometry":{"type":"MultiLineString","coordinates":[[[-0.2222271,51.4651147],[-0.2221562,51.4651048],[-0.2220803,51.4650942]]]}},
{"type":"Feature","properties":{"highway":"footway","name":null,"category":"Footpath (pedestrian only)"},"geometry":{"type":"MultiLineString","coordinates":[[[-0.2224022,51.4650445],[-0.2223244,51.4650338],[-0.2221614,51.4650115]]]}},
{"type":"Feature","properties":{"highway":"footway","name":null,"category":"Footpath (pedestrian only)"},"geometry":{"type":"MultiLineString","coordinates":[[[-0.2230868,51.4652341],[-0.2230114,51.465225],[-0.2229386,51.4652162]]]}},
{"type":"Feature","properties":{"highway":"footway","name":null,"category":"Footpath (pedestrian only)"},"geometry":{"type":"MultiLineString","coordinates":[[[-0.2239219,51.4653908],[-0.2238521,51.4653778],[-0.2237794,51.4653644]]]}},
{"type":"Feature","properties":{"highway":"footway","name":null,"category":"Footpath (pedestrian only)"},"geometry":{"type":"MultiLineString","coordinates":[[[-0.2238094,51.4652765],[-0.2237342,51.4652623],[-0.2236569,51.4652478]]]}},
{"type":"Feature","properties":{"highway":"footway","name":null,"category":"Footpath (pedestrian only)"},"geometry":{"type":"MultiLineString","coordinates":[[[-0.2266515,51.4670829],[-0.2265771,51.4670838],[-0.2265244,51.4670853]]]}},
{"type":"Feature","properties":{"highway":"footway","name":null,"category":"Footpath (pedestrian only)"},"geometry":{"type":"MultiLineString","coordinates":[[[-0.2264982,51.4671151],[-0.2265004,51.4671478],[-0.2265028,51.4671832]]]}},
{"type":"Feature","properties":{"highway":"footway","name":null,"category":"Footpath (pedestrian only)"},"geometry":{"type":"MultiLineString","coordinates":[[[-0.2269095,51.466283],[-0.2268685,51.4663183],[-0.2268271,51.466354]]]}},
{"type":"Feature","properties":{"highway":"footway","name":null,"category":"Footpath (pedestrian only)"},"geometry":{"type":"MultiLineString","coordinates":[[[-0.2256775,51.4659507],[-0.2256105,51.4659265],[-0.2255448,51.4659027]]]}},
{"type":"Feature","properties":{"highway":"footway","name":null,"category":"Footpath (pedestrian only)"},"geometry":{"type":"MultiLineString","coordinates":[[[-0.225087,51.467224],[-0.2250087,51.4672225],[-0.2249276,51.4672211]]]}},
{"type":"Feature","properties":{"highway":"footway","name":null,"category":"Footpath (pedestrian only)"},"geometry":{"type":"MultiLineString","coordinates":[[[-0.2251956,51.4671246],[-0.2251173,51.4671259],[-0.2250431,51.467127]]]}},
{"type":"Feature","properties":{"highway":"footway","name":null,"category":"Footpath (pedestrian only)"},"geometry":{"type":"MultiLineString","coordinates":[[[-0.2258711,51.467211],[-0.2257961,51.4672124],[-0.2257148,51.4672139]]]}},
{"type":"Feature","properties":{"highway":"footway","name":null,"category":"Footpath (pedestrian only)"},"geometry":{"type":"MultiLineString","coordinates":[[[-0.2243043,51.4671884],[-0.2242301,51.4671726],[-0.2241555,51.4671568]]]}},
{"type":"Feature","properties":{"highway":"footway","name":null,"category":"Footpath (pedestrian only)"},"geometry":{"type":"MultiLineString","coordinates":[[[-0.2242827,51.4670775],[-0.2242062,51.4670641],[-0.2241333,51.4670513]]]}},
{"type":"Feature","properties":{"highway":"footway","name":null,"category":"Footpath (pedestrian only)"},"geometry":{"type":"MultiLineString","coordinates":[[[-0.2178344,51.4655071],[-0.2177608,51.465489],[-0.2176804,51.4654694]]]}},
{"type":"Feature","properties":{"highway":"footway","name":null,"category":"Footpath (pedestrian only)"},"geometry":{"type":"MultiLineString","coordinates":[[[-0.2208333,51.4663057],[-0.2208547,51.4662731],[-0.2208811,51.4662327]]]}},
{"type":"Feature","properties":{"highway":"footway","name":null,"category":"Footpath (pedestrian only)"},"geometry":{"type":"MultiLineString","coordinates":[[[-0.2204579,51.4661206],[-0.2204319,51.4661618],[-0.2204112,51.4661944]]]}},
{"type":"Feature","properties":{"highway":"footway","name":null,"category":"Footpath (pedestrian only)"},"geometry":{"type":"MultiLineString","coordinates":[[[-0.2203766,51.4660962],[-0.2203211,51.466081],[-0.22025,51.4660616]]]}},
{"type":"Feature","properties":{"highway":"footway","name":null,"category":"Footpath (pedestrian only)"},"geometry":{"type":"MultiLineString","coordinates":[[[-0.2201817,51.4661362],[-0.220201,51.4660956],[-0.2202184,51.4660591]]]}},
{"type":"Feature","properties":{"highway":"footway","name":null,"category":"Footpath (pedestrian only)"},"geometry":{"type":"MultiLineString","coordinates":[[[-0.2263267,51.4684692],[-0.2263198,51.468424],[-0.2263133,51.4683816]]]}},
{"type":"Feature","properties":{"highway":"footway","name":null,"category":"Footpath (pedestrian only)"},"geometry":{"type":"MultiLineString","coordinates":[[[-0.2170937,51.467091],[-0.2170857,51.4671332],[-0.2170777,51.4671767]]]}},
{"type":"Feature","properties":{"highway":"footway","name":null,"category":"Footpath (pedestrian only)"},"geometry":{"type":"MultiLineString","coordinates":[[[-0.217026,51.4672029],[-0.2169523,51.4672001],[-0.2168829,51.4671972]]]}},
{"type":"Feature","properties":{"highway":"footway","name":null,"category":"Footpath (pedestrian only)"},"geometry":{"type":"MultiLineString","coordinates":[[[-0.2180127,51.4672102],[-0.2179424,51.4672074],[-0.2178709,51.4672045]]]}},
{"type":"Feature","properties":{"highway":"footway","name":null,"category":"Footpath (pedestrian only)"},"geometry":{"type":"MultiLineString","coordinates":[[[-0.2195263,51.4672965],[-0.2194526,51.4672839],[-0.2193769,51.467271]]]}},
{"type":"Feature","properties":{"highway":"footway","name":null,"category":"Footpath (pedestrian only)"},"geometry":{"type":"MultiLineString","coordinates":[[[-0.219688,51.4674423],[-0.2196174,51.4674283],[-0.2195432,51.4674136]]]}},
{"type":"Feature","properties":{"highway":"footway","name":null,"category":"Footpath (pedestrian only)"},"geometry":{"type":"MultiLineString","coordinates":[[[-0.2235647,51.467045],[-0.2234874,51.467029],[-0.2234137,51.4670138]]]}},
{"type":"Feature","properties":{"highway":"footway","name":null,"category":"Footpath (pedestrian only)"},"geometry":{"type":"MultiLineString","coordinates":[[[-0.222611,51.4668558],[-0.2225362,51.4668321],[-0.2224742,51.4668124]]]}},
{"type":"Feature","properties":{"highway":"footway","name":null,"category":"Footpath (pedestrian only)"},"geometry":{"type":"MultiLineString","coordinates":[[[-0.2228443,51.4668024],[-0.2227687,51.4667862],[-0.2227035,51.4667723]]]}},
{"type":"Feature","properties":{"highway":"footway","name":null,"category":"Footpath (pedestrian only)"},"geometry":{"type":"MultiLineString","coordinates":[[[-0.2203938,51.4675819],[-0.2203519,51.4675733]]]}},
{"type":"Feature","properties":{"highway":"footway","name":null,"category":"Footpath (pedestrian only)"},"geometry":{"type":"MultiLineString","coordinates":[[[-0.2212383,51.4677624],[-0.2211666,51.4677452],[-0.2210961,51.4677282]]]}},
{"type":"Feature","properties":{"highway":"footway","name":null,"category":"Footpath (pedestrian only)"},"geometry":{"type":"MultiLineString","coordinates":[[[-0.2219078,51.4666329],[-0.2218393,51.4666106],[-0.2217695,51.4665878]]]}},
{"type":"Feature","properties":{"highway":"footway","name":null,"category":"Footpath (pedestrian only)"},"geometry":{"type":"MultiLineString","coordinates":[[[-0.2218553,51.4665078],[-0.2217869,51.4664874],[-0.221721,51.4664678]]]}},
{"type":"Feature","properties":{"highway":"path","name":null,"category":"Shared path"},"geometry":{"type":"MultiLineString","coordinates":[[[-0.2309765,51.4673784],[-0.2301506,51.4673897],[-0.2300008,51.4673914],[-0.2293288,51.4673992],[-0.2286868,51.4674476],[-0.2282416,51.4673871]]]}},
{"type":"Feature","properties":{"highway":"path","name":null,"category":"Shared path"},"geometry":{"type":"MultiLineString","coordinates":[[[-0.2338017,51.4698915],[-0.2342511,51.4698075],[-0.234593,51.4697865],[-0.2348706,51.4698069],[-0.235095,51.4698995],[-0.2352372,51.4700787]]]}},
{"type":"Feature","properties":{"highway":"path","name":null,"category":"Shared path"},"geometry":{"type":"MultiLineString","coordinates":[[[-0.2317711,51.4706704],[-0.2319787,51.4707254],[-0.2321799,51.470769],[-0.2324137,51.4708031]]]}},
{"type":"Feature","properties":{"highway":"path","name":null,"category":"Shared path"},"geometry":{"type":"MultiLineString","coordinates":[[[-0.2329346,51.4708836],[-0.2327996,51.4708577],[-0.2324949,51.4708869]]]}},
{"type":"Feature","properties":{"highway":"path","name":null,"category":"Shared path"},"geometry":{"type":"MultiLineString","coordinates":[[[-0.2320413,51.4706691],[-0.2321489,51.4704495]]]}},
{"type":"Feature","properties":{"highway":"path","name":null,"category":"Shared path"},"geometry":{"type":"MultiLineString","coordinates":[[[-0.2302098,51.4715829],[-0.2301814,51.471645],[-0.2301839,51.4717124],[-0.2302344,51.4717963],[-0.2302814,51.4718839],[-0.2304321,51.4719533],[-0.2306239,51.4720474],[-0.2307377,51.4721079],[-0.2309794,51.4721998],[-0.2310031,51.4722007]]]}},
{"type":"Feature","properties":{"highway":"footway","name":null,"category":"Footpath (pedestrian only)"},"geometry":{"type":"MultiLineString","coordinates":[[[-0.2210129,51.4668355],[-0.2209973,51.4668007],[-0.221003,51.4667851]]]}},
{"type":"Feature","properties":{"highway":"footway","name":null,"category":"Footpath (pedestrian only)"},"geometry":{"type":"MultiLineString","coordinates":[[[-0.221003,51.4667851],[-0.2208797,51.4667641],[-0.2208678,51.4667911],[-0.2204804,51.466725],[-0.2205788,51.4665009],[-0.2206002,51.4664523],[-0.2211109,51.4665393],[-0.221003,51.4667851]]]}},
{"type":"Feature","properties":{"highway":"footway","name":null,"category":"Footpath (pedestrian only)"},"geometry":{"type":"MultiLineString","coordinates":[[[-0.2211109,51.4665393],[-0.2211551,51.4665248],[-0.2211829,51.4664641],[-0.2212065,51.4664683],[-0.2212484,51.4663769]]]}},
{"type":"Feature","properties":{"highway":"footway","name":null,"category":"Footpath (pedestrian only)"},"geometry":{"type":"MultiLineString","coordinates":[[[-0.2202179,51.4664453],[-0.2205788,51.4665009]]]}},
{"type":"Feature","properties":{"highway":"path","name":null,"category":"Shared path"},"geometry":{"type":"MultiLineString","coordinates":[[[-0.2293484,51.466727],[-0.2293369,51.4667609],[-0.2293052,51.4668548],[-0.2293065,51.4669029]]]}},
{"type":"Feature","properties":{"highway":"footway","name":null,"category":"Footpath (pedestrian only)"},"geometry":{"type":"MultiLineString","coordinates":[[[-0.2170008,51.4644888],[-0.2170157,51.4645064],[-0.2167182,51.4651278],[-0.2166722,51.4651804]]]}},
{"type":"Feature","properties":{"highway":"footway","name":null,"category":"Footpath (pedestrian only)"},"geometry":{"type":"MultiLineString","coordinates":[[[-0.2166722,51.4651804],[-0.2164152,51.4650881],[-0.2160888,51.4649116]]]}},
{"type":"Feature","properties":{"highway":"footway","name":null,"category":"Footpath (pedestrian only)"},"geometry":{"type":"MultiLineString","coordinates":[[[-0.2163447,51.464351],[-0.2167669,51.4644403],[-0.2170008,51.4644888]]]}},
{"type":"Feature","properties":{"highway":"footway","name":null,"category":"Footpath (pedestrian only)"},"geometry":{"type":"MultiLineString","coordinates":[[[-0.2209283,51.4648436],[-0.2208948,51.4648068],[-0.2210181,51.463791]]]}},
{"type":"Feature","properties":{"highway":"footway","name":null,"category":"Footpath (pedestrian only)"},"geometry":{"type":"MultiLineString","coordinates":[[[-0.2210181,51.463791],[-0.2209688,51.4637858],[-0.2209212,51.4637822]]]}},
{"type":"Feature","properties":{"highway":"footway","name":null,"category":"Footpath (pedestrian only)"},"geometry":{"type":"MultiLineString","coordinates":[[[-0.2209212,51.4637822],[-0.2209899,51.463443],[-0.2208502,51.4633642]]]}},
{"type":"Feature","properties":{"highway":"footway","name":null,"category":"Footpath (pedestrian only)"},"geometry":{"type":"MultiLineString","coordinates":[[[-0.2210294,51.463729],[-0.2211501,51.4632341]]]}},
{"type":"Feature","properties":{"highway":"footway","name":null,"category":"Footpath (pedestrian only)"},"geometry":{"type":"MultiLineString","coordinates":[[[-0.2210181,51.463791],[-0.2210255,51.4637481],[-0.2210294,51.463729]]]}},
{"type":"Feature","properties":{"highway":"footway","name":null,"category":"Footpath (pedestrian only)"},"geometry":{"type":"MultiLineString","coordinates":[[[-0.2169408,51.4674301],[-0.21696,51.4674072],[-0.2169208,51.4673879],[-0.2170404,51.4672035],[-0.2170573,51.4671897],[-0.217076,51.4671857],[-0.2173662,51.4671884],[-0.2178631,51.4671956],[-0.2178709,51.4672045]]]}},
{"type":"Feature","properties":{"highway":"footway","name":null,"category":"Footpath (pedestrian only)"},"geometry":{"type":"MultiLineString","coordinates":[[[-0.2180127,51.4672102],[-0.218557,51.4672481],[-0.2189022,51.4672804]]]}},
{"type":"Feature","properties":{"highway":"footway","name":null,"category":"Footpath (pedestrian only)"},"geometry":{"type":"MultiLineString","coordinates":[[[-0.2189022,51.4672804],[-0.2189732,51.4672929],[-0.2190289,51.4673027]]]}},
{"type":"Feature","properties":{"highway":"footway","name":null,"category":"Footpath (pedestrian only)"},"geometry":{"type":"MultiLineString","coordinates":[[[-0.2190289,51.4673027],[-0.2195389,51.4674016],[-0.2195432,51.4674136]]]}},
{"type":"Feature","properties":{"highway":"footway","name":null,"category":"Footpath (pedestrian only)"},"geometry":{"type":"MultiLineString","coordinates":[[[-0.219688,51.4674423],[-0.2199889,51.4675052],[-0.2202111,51.4675472],[-0.2203519,51.4675733]]]}},
{"type":"Feature","properties":{"highway":"footway","name":null,"category":"Footpath (pedestrian only)"},"geometry":{"type":"MultiLineString","coordinates":[[[-0.2210961,51.4677282],[-0.2207486,51.4676612],[-0.2205929,51.4676218]]]}},
{"type":"Feature","properties":{"highway":"footway","name":null,"category":"Footpath (pedestrian only)"},"geometry":{"type":"MultiLineString","coordinates":[[[-0.2212383,51.4677624],[-0.221821,51.4678982]]]}},
{"type":"Feature","properties":{"highway":"footway","name":null,"category":"Footpath (pedestrian only)"},"geometry":{"type":"MultiLineString","coordinates":[[[-0.2212069,51.467042],[-0.221254,51.4670055],[-0.2213064,51.4668677],[-0.2214691,51.4664928],[-0.2214948,51.4664944],[-0.2217695,51.4665878]]]}},
{"type":"Feature","properties":{"highway":"footway","name":null,"category":"Footpath (pedestrian only)"},"geometry":{"type":"MultiLineString","coordinates":[[[-0.2210079,51.4675942],[-0.2213225,51.4676604],[-0.2214117,51.4674742],[-0.2215298,51.4671786],[-0.2217001,51.4667645],[-0.2217693,51.4666056],[-0.2217695,51.4665878]]]}},
{"type":"Feature","properties":{"highway":"footway","name":null,"category":"Footpath (pedestrian only)"},"geometry":{"type":"MultiLineString","coordinates":[[[-0.2265028,51.4671832],[-0.2264619,51.4671946],[-0.2258711,51.467211]]]}},
{"type":"Feature","properties":{"highway":"footway","name":null,"category":"Footpath (pedestrian only)"},"geometry":{"type":"MultiLineString","coordinates":[[[-0.2257148,51.4672139],[-0.2255911,51.4672135],[-0.225087,51.467224]]]}},
{"type":"Feature","properties":{"highway":"footway","name":null,"category":"Footpath (pedestrian only)"},"geometry":{"type":"MultiLineString","coordinates":[[[-0.2249276,51.4672211],[-0.2243043,51.4671884]]]}},
{"type":"Feature","properties":{"highway":"footway","name":null,"category":"Footpath (pedestrian only)"},"geometry":{"type":"MultiLineString","coordinates":[[[-0.2241555,51.4671568],[-0.2235647,51.467045]]]}},
{"type":"Feature","properties":{"highway":"footway","name":null,"category":"Footpath (pedestrian only)"},"geometry":{"type":"MultiLineString","coordinates":[[[-0.2234137,51.4670138],[-0.222611,51.4668558]]]}},
{"type":"Feature","properties":{"highway":"footway","name":null,"category":"Footpath (pedestrian only)"},"geometry":{"type":"MultiLineString","coordinates":[[[-0.2224742,51.4668124],[-0.2219078,51.4666329]]]}},
{"type":"Feature","properties":{"highway":"path","name":null,"category":"Shared path"},"geometry":{"type":"MultiLineString","coordinates":[[[-0.2294568,51.4681282],[-0.2296786,51.4681301],[-0.2298829,51.4680805],[-0.2301887,51.467994],[-0.2304292,51.4679644],[-0.2306057,51.4679321],[-0.2307052,51.4678881],[-0.2307583,51.4678572],[-0.2307901,51.4677889],[-0.2308771,51.4676876],[-0.2308912,51.467632],[-0.2308789,51.4674216]]]}},
{"type":"Feature","properties":{"highway":"path","name":null,"category":"Shared path"},"geometry":{"type":"MultiLineString","coordinates":[[[-0.2310819,51.4680238],[-0.2308643,51.4679454],[-0.2307052,51.4678881],[-0.2303643,51.4676394],[-0.2300008,51.4673914]]]}},
{"type":"Feature","properties":{"highway":"footway","name":null,"category":"Footpath (pedestrian only)"},"geometry":{"type":"MultiLineString","coordinates":[[[-0.2290936,51.4682977],[-0.229257,51.4683553],[-0.2293548,51.4683868],[-0.2294805,51.4683559]]]}},
{"type":"Feature","properties":{"highway":"footway","name":"Putney High Street","category":"Footpath (pedestrian only)"},"geometry":{"type":"MultiLineString","coordinates":[[[-0.2145549,51.4653361],[-0.2145395,51.4653639],[-0.2145353,51.4653709]]]}},
{"type":"Feature","properties":{"highway":"footway","name":null,"category":"Footpath (pedestrian only)"},"geometry":{"type":"MultiLineString","coordinates":[[[-0.2170777,51.4671767],[-0.217076,51.4671857]]]}},
{"type":"Feature","properties":{"highway":"footway","name":null,"category":"Footpath (pedestrian only)"},"geometry":{"type":"MultiLineString","coordinates":[[[-0.2193769,51.467271],[-0.2190632,51.4672159],[-0.218818,51.4671819],[-0.2182168,51.4671296]]]}},
{"type":"Feature","properties":{"highway":"footway","name":null,"category":"Footpath (pedestrian only)"},"geometry":{"type":"MultiLineString","coordinates":[[[-0.2170585,51.4670746],[-0.2170086,51.4670702],[-0.2169634,51.4670662]]]}},
{"type":"Feature","properties":{"highway":"footway","name":null,"category":"Footpath (pedestrian only)"},"geometry":{"type":"MultiLineString","coordinates":[[[-0.2170404,51.4672035],[-0.217026,51.4672029]]]}},
{"type":"Feature","properties":{"highway":"footway","name":null,"category":"Footpath (pedestrian only)"},"geometry":{"type":"MultiLineString","coordinates":[[[-0.2168829,51.4671972],[-0.2168239,51.4671742],[-0.2166877,51.4671236],[-0.216088,51.4668728],[-0.2160354,51.4668501],[-0.2154441,51.4666038],[-0.2153491,51.4665751],[-0.2153227,51.4665734]]]}},
{"type":"Feature","properties":{"highway":"footway","name":null,"category":"Footpath (pedestrian only)"},"geometry":{"type":"MultiLineString","coordinates":[[[-0.2153098,51.4665693],[-0.2152425,51.4665478],[-0.215215,51.4665437]]]}},
{"type":"Feature","properties":{"highway":"footway","name":null,"category":"Footpath (pedestrian only)"},"geometry":{"type":"MultiLineString","coordinates":[[[-0.2153227,51.4665734],[-0.2153098,51.4665693]]]}},
{"type":"Feature","properties":{"highway":"footway","name":"Lower Richmond Road","category":"Footpath (pedestrian only)"},"geometry":{"type":"MultiLineString","coordinates":[[[-0.215215,51.4665437],[-0.2151924,51.466544]]]}},
{"type":"Feature","properties":{"highway":"footway","name":null,"category":"Footpath (pedestrian only)"},"geometry":{"type":"MultiLineString","coordinates":[[[-0.2169634,51.4670662],[-0.2168976,51.4670587],[-0.2168088,51.4670373],[-0.216732,51.4670118],[-0.216604,51.4669675],[-0.2164839,51.4669196],[-0.2161102,51.4667601]]]}},
{"type":"Feature","properties":{"highway":"footway","name":null,"category":"Footpath (pedestrian only)"},"geometry":{"type":"MultiLineString","coordinates":[[[-0.2161102,51.4667601],[-0.2160728,51.4667447],[-0.2160278,51.4667262]]]}},
{"type":"Feature","properties":{"highway":"footway","name":null,"category":"Footpath (pedestrian only)"},"geometry":{"type":"MultiLineString","coordinates":[[[-0.2160278,51.4667262],[-0.2154459,51.4664867]]]}},
{"type":"Feature","properties":{"highway":"footway","name":null,"category":"Footpath (pedestrian only)"},"geometry":{"type":"MultiLineString","coordinates":[[[-0.2154459,51.4664867],[-0.2154201,51.4664766],[-0.2153887,51.4664644]]]}},
{"type":"Feature","properties":{"highway":"footway","name":null,"category":"Footpath (pedestrian only)"},"geometry":{"type":"MultiLineString","coordinates":[[[-0.2153887,51.4664644],[-0.2147195,51.4661819],[-0.2146618,51.4661576],[-0.2146086,51.4661308],[-0.2145624,51.4661008],[-0.2145077,51.4660567],[-0.2144725,51.46602],[-0.214447,51.4659824]]]}},
{"type":"Feature","properties":{"highway":"footway","name":"Putney High Street","category":"Footpath (pedestrian only)"},"geometry":{"type":"MultiLineString","coordinates":[[[-0.214447,51.4659824],[-0.2144158,51.465993]]]}},
{"type":"Feature","properties":{"highway":"footway","name":"Lower Richmond Road","category":"Footpath (pedestrian only)"},"geometry":{"type":"MultiLineString","coordinates":[[[-0.2141924,51.4660776],[-0.2141971,51.4660639]]]}},
{"type":"Feature","properties":{"highway":"footway","name":null,"category":"Footpath (pedestrian only)"},"geometry":{"type":"MultiLineString","coordinates":[[[-0.2145563,51.4648356],[-0.2145268,51.4648422]]]}},
{"type":"Feature","properties":{"highway":"footway","name":null,"category":"Footpath (pedestrian only)"},"geometry":{"type":"MultiLineString","coordinates":[[[-0.2147561,51.4647136],[-0.2144854,51.4646414],[-0.2140377,51.4645331]]]}},
{"type":"Feature","properties":{"highway":"footway","name":null,"category":"Footpath (pedestrian only)"},"geometry":{"type":"MultiLineString","coordinates":[[[-0.2140377,51.4645331],[-0.2139909,51.4645221],[-0.2139521,51.4645129]]]}},
{"type":"Feature","properties":{"highway":"footway","name":null,"category":"Footpath (pedestrian only)"},"geometry":{"type":"MultiLineString","coordinates":[[[-0.2170937,51.467091],[-0.2170959,51.4670764]]]}},
{"type":"Feature","properties":{"highway":"footway","name":null,"category":"Footpath (pedestrian only)"},"geometry":{"type":"MultiLineString","coordinates":[[[-0.2195263,51.4672965],[-0.2197674,51.4673448]]]}},
{"type":"Feature","properties":{"highway":"footway","name":null,"category":"Footpath (pedestrian only)"},"geometry":{"type":"MultiLineString","coordinates":[[[-0.2197674,51.4673448],[-0.219808,51.4673516],[-0.2198394,51.467357]]]}},
{"type":"Feature","properties":{"highway":"footway","name":null,"category":"Footpath (pedestrian only)"},"geometry":{"type":"MultiLineString","coordinates":[[[-0.2198394,51.467357],[-0.2200306,51.4673925],[-0.2203693,51.4674627],[-0.2206527,51.4675196]]]}},
{"type":"Feature","properties":{"highway":"footway","name":null,"category":"Footpath (pedestrian only)"},"geometry":{"type":"MultiLineString","coordinates":[[[-0.2180915,51.4671214],[-0.2178084,51.4671095],[-0.2170959,51.4670764],[-0.2170585,51.4670746]]]}},
{"type":"Feature","properties":{"highway":"footway","name":null,"category":"Footpath (pedestrian only)"},"geometry":{"type":"MultiLineString","coordinates":[[[-0.2182168,51.4671296],[-0.218166,51.4671263],[-0.2180915,51.4671214]]]}},
{"type":"Feature","properties":{"highway":"footway","name":null,"category":"Footpath (pedestrian only)"},"geometry":{"type":"MultiLineString","coordinates":[[[-0.2213225,51.4676604],[-0.2213958,51.4676785]]]}},
{"type":"Feature","properties":{"highway":"footway","name":null,"category":"Footpath (pedestrian only)"},"geometry":{"type":"MultiLineString","coordinates":[[[-0.221821,51.4678982],[-0.2218834,51.4679134]]]}},
{"type":"Feature","properties":{"highway":"footway","name":null,"category":"Footpath (pedestrian only)"},"geometry":{"type":"MultiLineString","coordinates":[[[-0.2143708,51.4660118],[-0.2143568,51.4660181],[-0.2143154,51.4659868],[-0.2143009,51.4659916]]]}},
{"type":"Feature","properties":{"highway":"footway","name":null,"category":"Footpath (pedestrian only)"},"geometry":{"type":"MultiLineString","coordinates":[[[-0.2140108,51.4659898],[-0.213957,51.4659678],[-0.21389,51.4659403]]]}},
{"type":"Feature","properties":{"highway":"footway","name":null,"category":"Footpath (pedestrian only)"},"geometry":{"type":"MultiLineString","coordinates":[[[-0.2140626,51.4660763],[-0.2140232,51.4660589],[-0.2139857,51.4660426]]]}},
{"type":"Feature","properties":{"highway":"footway","name":null,"category":"Footpath (pedestrian only)"},"geometry":{"type":"MultiLineString","coordinates":[[[-0.2139857,51.4660426],[-0.2139739,51.4660378],[-0.2140259,51.4659959],[-0.2140108,51.4659898]]]}},
{"type":"Feature","properties":{"highway":"footway","name":null,"category":"Footpath (pedestrian only)"},"geometry":{"type":"MultiLineString","coordinates":[[[-0.21409,51.4660884],[-0.2140626,51.4660763]]]}},
{"type":"Feature","properties":{"highway":"footway","name":null,"category":"Footpath (pedestrian only)"},"geometry":{"type":"MultiLineString","coordinates":[[[-0.21389,51.4659403],[-0.2138752,51.4659341]]]}},
{"type":"Feature","properties":{"highway":"footway","name":null,"category":"Footpath (pedestrian only)"},"geometry":{"type":"MultiLineString","coordinates":[[[-0.2141838,51.4657831],[-0.2142016,51.4657845],[-0.2141918,51.4658251],[-0.214208,51.4658268]]]}},
{"type":"Feature","properties":{"highway":"footway","name":null,"category":"Footpath (pedestrian only)"},"geometry":{"type":"MultiLineString","coordinates":[[[-0.2140613,51.4657654],[-0.2140858,51.4657687]]]}},
{"type":"Feature","properties":{"highway":"footway","name":"Putney Bridge","category":"Footpath (pedestrian only)"},"geometry":{"type":"MultiLineString","coordinates":[[[-0.2138217,51.465981],[-0.2138752,51.4659341]]]}},
{"type":"Feature","properties":{"highway":"footway","name":"Putney Bridge","category":"Footpath (pedestrian only)"},"geometry":{"type":"MultiLineString","coordinates":[[[-0.21409,51.4660884],[-0.2140823,51.4660911]]]}},
{"type":"Feature","properties":{"highway":"pedestrian","name":null,"category":"Pedestrian area/street"},"geometry":{"type":"MultiLineString","coordinates":[[[-0.2251108,51.468463],[-0.225113,51.4685028],[-0.225115,51.4685404],[-0.2251171,51.468578],[-0.2251085,51.4690173],[-0.2251088,51.4693656],[-0.2251055,51.4697639],[-0.2251018,51.4700616],[-0.225107,51.4702884],[-0.2251028,51.4703041],[-0.2250882,51.470347]]]}},
{"type":"Feature","properties":{"highway":"pedestrian","name":"Modder Place","category":"Pedestrian area/street"},"geometry":{"type":"MultiLineString","coordinates":[[[-0.219376,51.4647499],[-0.2193856,51.4646854],[-0.2194659,51.4641243],[-0.2194796,51.4640286],[-0.2194705,51.4639488]]]}},
{"type":"Feature","properties":{"highway":"pedestrian","name":"Quill Lane","category":"Pedestrian area/street"},"geometry":{"type":"MultiLineString","coordinates":[[[-0.2208949,51.4633283],[-0.2208502,51.4633642],[-0.220829,51.4633813],[-0.220626,51.463522],[-0.2203861,51.4636563],[-0.2202717,51.4637031],[-0.2194705,51.4639488]]]}},
{"type":"Feature","properties":{"highway":"pedestrian","name":"Olivette Street","category":"Pedestrian area/street"},"geometry":{"type":"MultiLineString","coordinates":[[[-0.2172625,51.4654051],[-0.2174139,51.4651603],[-0.2176046,51.4645502]]]}},
{"type":"Feature","properties":{"highway":"pedestrian","name":"Quill Lane","category":"Pedestrian area/street"},"geometry":{"type":"MultiLineString","coordinates":[[[-0.2194705,51.4639488],[-0.219326,51.4639883],[-0.2192494,51.4640086]]]}}
]
}
