{
"type": "FeatureCollection",
"name": "HAMFU_3",
"crs": { "type": "name", "properties": { "name": "urn:ogc:def:crs:OGC:1.3:CRS84" } },
"features": [
{ "type": "Feature", "properties": { "osm_id": 6564329439, "name": null, "amenity": null, "man_made": null, "leisure": "picnic_table", "playground": null, "memorial": null }, "geometry": { "type": "Point", "coordinates": [ -0.1952238, 51.4765673 ] } },
{ "type": "Feature", "properties": { "osm_id": 6564329438, "name": null, "amenity": "bench", "man_made": null, "leisure": null, "playground": null, "memorial": null }, "geometry": { "type": "Point", "coordinates": [ -0.1946561, 51.4766378 ] } },
{ "type": "Feature", "properties": { "osm_id": 6564329436, "name": null, "amenity": "bench", "man_made": null, "leisure": null, "playground": null, "memorial": null }, "geometry": { "type": "Point", "coordinates": [ -0.1939864, 51.4766645 ] } },
{ "type": "Feature", "properties": { "osm_id": 6564329437, "name": null, "amenity": "bench", "man_made": null, "leisure": null, "playground": null, "memorial": null }, "geometry": { "type": "Point", "coordinates": [ -0.1943628, 51.4767358 ] } },
{ "type": "Feature", "properties": { "osm_id": 6564329434, "name": null, "amenity": "bench", "man_made": null, "leisure": null, "playground": null, "memorial": null }, "geometry": { "type": "Point", "coordinates": [ -0.1949494, 51.4767131 ] } }
]
}
