{
"type": "FeatureCollection",
"name": "6e1ef6b6216a_foliage",
"crs": { "type": "name", "properties": { "name": "urn:ogc:def:crs:OGC:1.3:CRS84" } },
"features": [
{ "type": "Feature", "properties": { "max_height": 8.5707492828369141, "mean_height": 3.3255429267883301, "std_height": 2.3323502540588379, "count_pixels": 42, "percent_cover": 0.967741935483871, "percent_above_0.1m": 90.476190476190482, "low_level_<0.5": 4.7619047619047619, "mid_level_0.5-2": 19.047619047619047, "tall_2+": 66.666666666666657 }, "geometry": { "type": "Point", "coordinates": [ -0.357150850719099, 51.491302257086929 ] } },
{ "type": "Feature", "properties": { "max_height": 11.438503265380859, "mean_height": 3.4264061450958252, "std_height": 4.0622706413269043, "count_pixels": 42, "percent_cover": 0.967741935483871, "percent_above_0.1m": 66.666666666666657, "low_level_<0.5": 4.7619047619047619, "mid_level_0.5-2": 14.285714285714285, "tall_2+": 47.619047619047613 }, "geometry": { "type": "Point", "coordinates": [ -0.356951350952501, 51.491299461978947 ] } },
{ "type": "Feature", "properties": { "max_height": 8.2730026245117188, "mean_height": 5.2215433120727539, "std_height": 1.7232084274291992, "count_pixels": 42, "percent_cover": 0.967741935483871, "percent_above_0.1m": 100.0, "low_level_<0.5": 0.0, "mid_level_0.5-2": 9.5238095238095237, "tall_2+": 90.476190476190482 }, "geometry": { "type": "Point", "coordinates": [ -0.357246723727833, 51.491411510607747 ] } },
{ "type": "Feature", "properties": { "max_height": 3.2872543334960938, "mean_height": 0.77090358734130859, "std_height": 0.86241811513900757, "count_pixels": 41, "percent_cover": 0.94470046082949299, "percent_above_0.1m": 65.853658536585371, "low_level_<0.5": 9.7560975609756095, "mid_level_0.5-2": 43.902439024390247, "tall_2+": 7.3170731707317067 }, "geometry": { "type": "Point", "coordinates": [ -0.357047223467713, 51.491408715662473 ] } },
{ "type": "Feature", "properties": { "max_height": 1.0377521514892578, "mean_height": 0.17856070399284363, "std_height": 0.26423871517181396, "count_pixels": 42, "percent_cover": 0.967741935483871, "percent_above_0.1m": 40.476190476190474, "low_level_<0.5": 16.666666666666664, "mid_level_0.5-2": 14.285714285714285, "tall_2+": 0.0 }, "geometry": { "type": "Point", "coordinates": [ -0.356847723240116, 51.491405920377744 ] } },
{ "type": "Feature", "properties": { "max_height": 2.2402515411376953, "mean_height": 0.32315239310264587, "std_height": 0.61218720674514771, "count_pixels": 38, "percent_cover": 0.87557603686635943, "percent_above_0.1m": 26.315789473684209, "low_level_<0.5": 2.6315789473684208, "mid_level_0.5-2": 21.052631578947366, "tall_2+": 2.6315789473684208 }, "geometry": { "type": "Point", "coordinates": [ -0.35664822304504, 51.491403124753568 ] } },
{ "type": "Feature", "properties": { "max_height": 11.424249649047852, "mean_height": 6.6612162590026855, "std_height": 2.8846161365509033, "count_pixels": 42, "percent_cover": 0.967741935483871, "percent_above_0.1m": 97.61904761904762, "low_level_<0.5": 0.0, "mid_level_0.5-2": 4.7619047619047619, "tall_2+": 92.857142857142861 }, "geometry": { "type": "Point", "coordinates": [ -0.357342597197567, 51.491520764048701 ] } },
{ "type": "Feature", "properties": { "max_height": 5.7745018005371094, "mean_height": 1.3901441097259521, "std_height": 1.1572433710098267, "count_pixels": 42, "percent_cover": 0.967741935483871, "percent_above_0.1m": 90.476190476190482, "low_level_<0.5": 7.1428571428571423, "mid_level_0.5-2": 69.047619047619051, "tall_2+": 14.285714285714285 }, "geometry": { "type": "Point", "coordinates": [ -0.357143096443919, 51.49151796926612 ] } },
{ "type": "Feature", "properties": { "max_height": 2.6354999542236328, "mean_height": 0.62773936986923218, "std_height": 0.65771448612213135, "count_pixels": 42, "percent_cover": 0.967741935483871, "percent_above_0.1m": 73.80952380952381, "low_level_<0.5": 11.904761904761903, "mid_level_0.5-2": 45.238095238095241, "tall_2+": 7.1428571428571423 }, "geometry": { "type": "Point", "coordinates": [ -0.356943595722793, 51.49151517414407 ] } },
{ "type": "Feature", "properties": { "max_height": 1.8722515106201172, "mean_height": 0.14009661972522736, "std_height": 0.36661180853843689, "count_pixels": 42, "percent_cover": 0.967741935483871, "percent_above_0.1m": 21.428571428571427, "low_level_<0.5": 7.1428571428571423, "mid_level_0.5-2": 7.1428571428571423, "tall_2+": 0.0 }, "geometry": { "type": "Point", "coordinates": [ -0.356744095034193, 51.4915123786826 ] } },
{ "type": "Feature", "properties": { "max_height": 2.0902519226074219, "mean_height": 0.090459413826465607, "std_height": 0.33348101377487183, "count_pixels": 42, "percent_cover": 0.967741935483871, "percent_above_0.1m": 7.1428571428571423, "low_level_<0.5": 2.3809523809523809, "mid_level_0.5-2": 2.3809523809523809, "tall_2+": 2.3809523809523809 }, "geometry": { "type": "Point", "coordinates": [ -0.356544594378121, 51.491509582881655 ] } },
{ "type": "Feature", "properties": { "max_height": 2.501251220703125, "mean_height": 0.35823941230773926, "std_height": 0.63082778453826904, "count_pixels": 42, "percent_cover": 0.967741935483871, "percent_above_0.1m": 33.333333333333329, "low_level_<0.5": 7.1428571428571423, "mid_level_0.5-2": 21.428571428571427, "tall_2+": 2.3809523809523809 }, "geometry": { "type": "Point", "coordinates": [ -0.356345093754576, 51.491506786741255 ] } },
{ "type": "Feature", "properties": { "max_height": 7.9572505950927734, "mean_height": 4.1446323394775391, "std_height": 2.3426249027252197, "count_pixels": 42, "percent_cover": 0.967741935483871, "percent_above_0.1m": 83.333333333333343, "low_level_<0.5": 2.3809523809523809, "mid_level_0.5-2": 2.3809523809523809, "tall_2+": 78.571428571428569 }, "geometry": { "type": "Point", "coordinates": [ -0.357438471128298, 51.491630017409769 ] } },
{ "type": "Feature", "properties": { "max_height": 7.7692508697509766, "mean_height": 2.599257230758667, "std_height": 2.6574797630310059, "count_pixels": 42, "percent_cover": 0.967741935483871, "percent_above_0.1m": 76.19047619047619, "low_level_<0.5": 14.285714285714285, "mid_level_0.5-2": 14.285714285714285, "tall_2+": 47.619047619047613 }, "geometry": { "type": "Point", "coordinates": [ -0.357238969881124, 51.491627222789866 ] } },
{ "type": "Feature", "properties": { "max_height": 1.7097511291503906, "mean_height": 0.26370254158973694, "std_height": 0.38089296221733093, "count_pixels": 41, "percent_cover": 0.94470046082949299, "percent_above_0.1m": 48.780487804878049, "low_level_<0.5": 19.512195121951219, "mid_level_0.5-2": 21.951219512195124, "tall_2+": 0.0 }, "geometry": { "type": "Point", "coordinates": [ -0.357039468666469, 51.49162442783053 ] } },
{ "type": "Feature", "properties": { "max_height": 1.6092510223388672, "mean_height": 0.36320337653160095, "std_height": 0.44239938259124756, "count_pixels": 42, "percent_cover": 0.967741935483871, "percent_above_0.1m": 52.380952380952387, "low_level_<0.5": 21.428571428571427, "mid_level_0.5-2": 23.809523809523807, "tall_2+": 0.0 }, "geometry": { "type": "Point", "coordinates": [ -0.35683996748434, 51.491621632531746 ] } },
{ "type": "Feature", "properties": { "max_height": 0.88175010681152344, "mean_height": 0.15781056880950928, "std_height": 0.20563125610351562, "count_pixels": 38, "percent_cover": 0.87557603686635943, "percent_above_0.1m": 39.473684210526315, "low_level_<0.5": 21.052631578947366, "mid_level_0.5-2": 13.157894736842104, "tall_2+": 0.0 }, "geometry": { "type": "Point", "coordinates": [ -0.35664046633473, 51.491618836893501 ] } },
{ "type": "Feature", "properties": { "max_height": 0.34000205993652344, "mean_height": 0.063995584845542908, "std_height": 0.078173935413360596, "count_pixels": 42, "percent_cover": 0.967741935483871, "percent_above_0.1m": 21.428571428571427, "low_level_<0.5": 14.285714285714285, "mid_level_0.5-2": 0.0, "tall_2+": 0.0 }, "geometry": { "type": "Point", "coordinates": [ -0.356440965217655, 51.491616040915801 ] } },
{ "type": "Feature", "properties": { "max_height": 6.4097499847412109, "mean_height": 0.9037635326385498, "std_height": 1.4810671806335449, "count_pixels": 41, "percent_cover": 0.94470046082949299, "percent_above_0.1m": 43.902439024390247, "low_level_<0.5": 4.8780487804878048, "mid_level_0.5-2": 17.073170731707318, "tall_2+": 19.512195121951219 }, "geometry": { "type": "Point", "coordinates": [ -0.356241464133113, 51.491613244598632 ] } },
{ "type": "Feature", "properties": { "max_height": 13.277755737304688, "mean_height": 8.3293704986572266, "std_height": 3.6675658226013184, "count_pixels": 42, "percent_cover": 0.967741935483871, "percent_above_0.1m": 100.0, "low_level_<0.5": 2.3809523809523809, "mid_level_0.5-2": 7.1428571428571423, "tall_2+": 90.476190476190482 }, "geometry": { "type": "Point", "coordinates": [ -0.356041963081109, 51.491610447942023 ] } },
{ "type": "Feature", "properties": { "max_height": 6.6497516632080078, "mean_height": 1.8970965147018433, "std_height": 1.8656109571456909, "count_pixels": 42, "percent_cover": 0.967741935483871, "percent_above_0.1m": 92.857142857142861, "low_level_<0.5": 23.809523809523807, "mid_level_0.5-2": 30.952380952380953, "tall_2+": 35.714285714285715 }, "geometry": { "type": "Point", "coordinates": [ -0.357135342071142, 51.491733681437076 ] } },
{ "type": "Feature", "properties": { "max_height": 3.0427513122558594, "mean_height": 0.69254297018051147, "std_height": 0.93252074718475342, "count_pixels": 42, "percent_cover": 0.967741935483871, "percent_above_0.1m": 54.761904761904766, "low_level_<0.5": 21.428571428571427, "mid_level_0.5-2": 19.047619047619047, "tall_2+": 14.285714285714285 }, "geometry": { "type": "Point", "coordinates": [ -0.356935840395477, 51.491730886300992 ] } },
{ "type": "Feature", "properties": { "max_height": 5.4457511901855469, "mean_height": 1.1212869882583618, "std_height": 1.5295464992523193, "count_pixels": 42, "percent_cover": 0.967741935483871, "percent_above_0.1m": 61.904761904761905, "low_level_<0.5": 7.1428571428571423, "mid_level_0.5-2": 14.285714285714285, "tall_2+": 23.809523809523807 }, "geometry": { "type": "Point", "coordinates": [ -0.356736338752339, 51.491728090825447 ] } },
{ "type": "Feature", "properties": { "max_height": 0.29250335693359375, "mean_height": 0.071108639240264893, "std_height": 0.07481035590171814, "count_pixels": 42, "percent_cover": 0.967741935483871, "percent_above_0.1m": 35.714285714285715, "low_level_<0.5": 16.666666666666664, "mid_level_0.5-2": 0.0, "tall_2+": 0.0 }, "geometry": { "type": "Point", "coordinates": [ -0.356536837141723, 51.491725295010433 ] } },
{ "type": "Feature", "properties": { "max_height": 1.0775012969970703, "mean_height": 0.35574507713317871, "std_height": 0.28966924548149109, "count_pixels": 42, "percent_cover": 0.967741935483871, "percent_above_0.1m": 76.19047619047619, "low_level_<0.5": 42.857142857142854, "mid_level_0.5-2": 26.190476190476193, "tall_2+": 0.0 }, "geometry": { "type": "Point", "coordinates": [ -0.356337335563646, 51.491722498855971 ] } },
{ "type": "Feature", "properties": { "max_height": 2.3752517700195312, "mean_height": 0.40064388513565063, "std_height": 0.69679135084152222, "count_pixels": 42, "percent_cover": 0.967741935483871, "percent_above_0.1m": 35.714285714285715, "low_level_<0.5": 11.904761904761903, "mid_level_0.5-2": 16.666666666666664, "tall_2+": 4.7619047619047619 }, "geometry": { "type": "Point", "coordinates": [ -0.3561378340181, 51.49171970236204 ] } },
{ "type": "Feature", "properties": { "max_height": 6.9072532653808594, "mean_height": 1.029572606086731, "std_height": 1.5572315454483032, "count_pixels": 42, "percent_cover": 0.967741935483871, "percent_above_0.1m": 71.428571428571431, "low_level_<0.5": 14.285714285714285, "mid_level_0.5-2": 28.571428571428569, "tall_2+": 16.666666666666664 }, "geometry": { "type": "Point", "coordinates": [ -0.356832211630943, 51.491837344677513 ] } },
{ "type": "Feature", "properties": { "max_height": 1.5932502746582031, "mean_height": 0.22983691096305847, "std_height": 0.40415802597999573, "count_pixels": 38, "percent_cover": 0.87557603686635943, "percent_above_0.1m": 44.736842105263158, "low_level_<0.5": 18.421052631578945, "mid_level_0.5-2": 13.157894736842104, "tall_2+": 0.0 }, "geometry": { "type": "Point", "coordinates": [ -0.35663270952679, 51.491834549025199 ] } },
{ "type": "Feature", "properties": { "max_height": 0.87475013732910156, "mean_height": 0.20329262316226959, "std_height": 0.1794072687625885, "count_pixels": 42, "percent_cover": 0.967741935483871, "percent_above_0.1m": 69.047619047619051, "low_level_<0.5": 45.238095238095241, "mid_level_0.5-2": 9.5238095238095237, "tall_2+": 0.0 }, "geometry": { "type": "Point", "coordinates": [ -0.356433207455173, 51.491831753033431 ] } },
{ "type": "Feature", "properties": { "max_height": 2.1062526702880859, "mean_height": 0.31745246052742004, "std_height": 0.5951077938079834, "count_pixels": 41, "percent_cover": 0.94470046082949299, "percent_above_0.1m": 26.829268292682929, "low_level_<0.5": 2.4390243902439024, "mid_level_0.5-2": 19.512195121951219, "tall_2+": 2.4390243902439024 }, "geometry": { "type": "Point", "coordinates": [ -0.356233705416083, 51.491828956702193 ] } },
{ "type": "Feature", "properties": { "max_height": 8.0332508087158203, "mean_height": 1.1965429782867432, "std_height": 1.9708828926086426, "count_pixels": 42, "percent_cover": 0.967741935483871, "percent_above_0.1m": 54.761904761904766, "low_level_<0.5": 11.904761904761903, "mid_level_0.5-2": 16.666666666666664, "tall_2+": 21.428571428571427 }, "geometry": { "type": "Point", "coordinates": [ -0.356728582372857, 51.491943802960073 ] } },
{ "type": "Feature", "properties": { "max_height": 8.3687515258789062, "mean_height": 1.4453170299530029, "std_height": 1.8473955392837524, "count_pixels": 42, "percent_cover": 0.967741935483871, "percent_above_0.1m": 76.19047619047619, "low_level_<0.5": 16.666666666666664, "mid_level_0.5-2": 33.333333333333329, "tall_2+": 21.428571428571427 }, "geometry": { "type": "Point", "coordinates": [ -0.356529079807692, 51.491941007130997 ] } },
{ "type": "Feature", "properties": { "max_height": 3.4710025787353516, "mean_height": 0.88420951366424561, "std_height": 1.0641447305679321, "count_pixels": 42, "percent_cover": 0.967741935483871, "percent_above_0.1m": 52.380952380952387, "low_level_<0.5": 0.0, "mid_level_0.5-2": 30.952380952380953, "tall_2+": 19.047619047619047 }, "geometry": { "type": "Point", "coordinates": [ -0.356329577275064, 51.491938210962481 ] } }
]
}
