{
"type": "FeatureCollection",
"name": "a73b6a43725c_foliage",
"crs": { "type": "name", "properties": { "name": "urn:ogc:def:crs:OGC:1.3:CRS84" } },
"features": [
{ "type": "Feature", "properties": { "max_height": 8.1245002746582031, "mean_height": 1.4723812341690063, "std_height": 2.3275260925292969, "count_pixels": 42, "percent_cover": 0.54873268879017512, "percent_above_0.1m": 54.761904761904766, "low_level_<0.5": 7.1428571428571423, "mid_level_0.5-2": 28.571428571428569, "tall_2+": 19.047619047619047 }, "geometry": { "type": "Point", "coordinates": [ -0.248969985983363, 51.487802985335449 ] } },
{ "type": "Feature", "properties": { "max_height": 4.3180007934570312, "mean_height": 0.39736342430114746, "std_height": 0.80857610702514648, "count_pixels": 42, "percent_cover": 0.54873268879017512, "percent_above_0.1m": 33.333333333333329, "low_level_<0.5": 4.7619047619047619, "mid_level_0.5-2": 26.190476190476193, "tall_2+": 2.3809523809523809 }, "geometry": { "type": "Point", "coordinates": [ -0.248770511745404, 51.48780000816722 ] } },
{ "type": "Feature", "properties": { "max_height": 11.407001495361328, "mean_height": 2.7962682247161865, "std_height": 2.5833868980407715, "count_pixels": 42, "percent_cover": 0.54873268879017512, "percent_above_0.1m": 95.238095238095227, "low_level_<0.5": 7.1428571428571423, "mid_level_0.5-2": 40.476190476190474, "tall_2+": 47.619047619047613 }, "geometry": { "type": "Point", "coordinates": [ -0.249065591650752, 51.487912324306436 ] } },
{ "type": "Feature", "properties": { "max_height": 8.8992509841918945, "mean_height": 2.6355657577514648, "std_height": 2.63509202003479, "count_pixels": 42, "percent_cover": 0.54873268879017512, "percent_above_0.1m": 78.571428571428569, "low_level_<0.5": 16.666666666666664, "mid_level_0.5-2": 11.904761904761903, "tall_2+": 47.619047619047613 }, "geometry": { "type": "Point", "coordinates": [ -0.248866116916437, 51.487909347290284 ] } },
{ "type": "Feature", "properties": { "max_height": 8.8742504119873047, "mean_height": 1.9233576059341431, "std_height": 2.2202425003051758, "count_pixels": 42, "percent_cover": 0.54873268879017512, "percent_above_0.1m": 73.80952380952381, "low_level_<0.5": 9.5238095238095237, "mid_level_0.5-2": 16.666666666666664, "tall_2+": 42.857142857142854 }, "geometry": { "type": "Point", "coordinates": [ -0.248666642216877, 51.487906369935303 ] } },
{ "type": "Feature", "properties": { "max_height": 16.151752471923828, "mean_height": 4.8454833030700684, "std_height": 5.6808395385742188, "count_pixels": 44, "percent_cover": 0.57486281682780249, "percent_above_0.1m": 54.54545454545454, "low_level_<0.5": 0.0, "mid_level_0.5-2": 6.8181818181818175, "tall_2+": 47.727272727272727 }, "geometry": { "type": "Point", "coordinates": [ -0.249360673045181, 51.488024639732757 ] } },
{ "type": "Feature", "properties": { "max_height": 11.163501739501953, "mean_height": 1.8835481405258179, "std_height": 3.3551628589630127, "count_pixels": 42, "percent_cover": 0.54873268879017512, "percent_above_0.1m": 40.476190476190474, "low_level_<0.5": 7.1428571428571423, "mid_level_0.5-2": 4.7619047619047619, "tall_2+": 26.190476190476193 }, "geometry": { "type": "Point", "coordinates": [ -0.249161197779742, 51.488021663207562 ] } },
{ "type": "Feature", "properties": { "max_height": 4.3619999885559082, "mean_height": 0.5177384614944458, "std_height": 1.0702692270278931, "count_pixels": 42, "percent_cover": 0.54873268879017512, "percent_above_0.1m": 35.714285714285715, "low_level_<0.5": 14.285714285714285, "mid_level_0.5-2": 9.5238095238095237, "tall_2+": 9.5238095238095237 }, "geometry": { "type": "Point", "coordinates": [ -0.248961722549059, 51.488018686343501 ] } },
{ "type": "Feature", "properties": { "max_height": 10.071000099182129, "mean_height": 2.7240359783172607, "std_height": 3.5755128860473633, "count_pixels": 42, "percent_cover": 0.54873268879017512, "percent_above_0.1m": 52.380952380952387, "low_level_<0.5": 2.3809523809523809, "mid_level_0.5-2": 11.904761904761903, "tall_2+": 38.095238095238095 }, "geometry": { "type": "Point", "coordinates": [ -0.248762247353135, 51.488015709140605 ] } },
{ "type": "Feature", "properties": { "max_height": 7.4595003128051758, "mean_height": 1.4738038778305054, "std_height": 2.0411834716796875, "count_pixels": 42, "percent_cover": 0.54873268879017512, "percent_above_0.1m": 64.285714285714292, "low_level_<0.5": 14.285714285714285, "mid_level_0.5-2": 19.047619047619047, "tall_2+": 26.190476190476193 }, "geometry": { "type": "Point", "coordinates": [ -0.248562772191975, 51.488012731598864 ] } },
{ "type": "Feature", "properties": { "max_height": 2.9935002326965332, "mean_height": 0.20140032470226288, "std_height": 0.52214604616165161, "count_pixels": 40, "percent_cover": 0.52260256075254763, "percent_above_0.1m": 25.0, "low_level_<0.5": 12.5, "mid_level_0.5-2": 10.0, "tall_2+": 2.5 }, "geometry": { "type": "Point", "coordinates": [ -0.248363297065572, 51.488009753718288 ] } },
{ "type": "Feature", "properties": { "max_height": 0.44750070571899414, "mean_height": 0.0149239432066679, "std_height": 0.075455024838447571, "count_pixels": 36, "percent_cover": 0.47034230467729293, "percent_above_0.1m": 5.5555555555555554, "low_level_<0.5": 2.7777777777777777, "mid_level_0.5-2": 0.0, "tall_2+": 0.0 }, "geometry": { "type": "Point", "coordinates": [ -0.249456280132133, 51.488133978411959 ] } },
{ "type": "Feature", "properties": { "max_height": 15.185501098632812, "mean_height": 2.9121689796447754, "std_height": 4.4708833694458008, "count_pixels": 40, "percent_cover": 0.52260256075254763, "percent_above_0.1m": 40.0, "low_level_<0.5": 2.5, "mid_level_0.5-2": 5.0, "tall_2+": 32.5 }, "geometry": { "type": "Point", "coordinates": [ -0.249256804370334, 51.488131002038827 ] } },
{ "type": "Feature", "properties": { "max_height": 0.9785003662109375, "mean_height": 0.023345550522208214, "std_height": 0.14917048811912537, "count_pixels": 42, "percent_cover": 0.54873268879017512, "percent_above_0.1m": 2.3809523809523809, "low_level_<0.5": 0.0, "mid_level_0.5-2": 2.3809523809523809, "tall_2+": 0.0 }, "geometry": { "type": "Point", "coordinates": [ -0.249057328643286, 51.488128025326866 ] } },
{ "type": "Feature", "properties": { "max_height": 0.0010008811950683594, "mean_height": 3.5955792554887012e-05, "std_height": 0.00030662148492410779, "count_pixels": 42, "percent_cover": 0.54873268879017512, "percent_above_0.1m": 0.0, "low_level_<0.5": 0.0, "mid_level_0.5-2": 0.0, "tall_2+": 0.0 }, "geometry": { "type": "Point", "coordinates": [ -0.248857852950992, 51.488125048276061 ] } },
{ "type": "Feature", "properties": { "max_height": 0.0010004043579101562, "mean_height": 2.4102982933982275e-05, "std_height": 0.00033550881198607385, "count_pixels": 42, "percent_cover": 0.54873268879017512, "percent_above_0.1m": 0.0, "low_level_<0.5": 0.0, "mid_level_0.5-2": 0.0, "tall_2+": 0.0 }, "geometry": { "type": "Point", "coordinates": [ -0.248658377293459, 51.488122070886398 ] } },
{ "type": "Feature", "properties": { "max_height": 4.6062507629394531, "mean_height": 0.81336337327957153, "std_height": 1.3998751640319824, "count_pixels": 42, "percent_cover": 0.54873268879017512, "percent_above_0.1m": 35.714285714285715, "low_level_<0.5": 9.5238095238095237, "mid_level_0.5-2": 4.7619047619047619, "tall_2+": 21.428571428571427 }, "geometry": { "type": "Point", "coordinates": [ -0.248458901670691, 51.488119093157906 ] } },
{ "type": "Feature", "properties": { "max_height": 5.2452502250671387, "mean_height": 1.0329092741012573, "std_height": 1.689471960067749, "count_pixels": 44, "percent_cover": 0.57486281682780249, "percent_above_0.1m": 40.909090909090914, "low_level_<0.5": 6.8181818181818175, "mid_level_0.5-2": 11.363636363636363, "tall_2+": 20.454545454545457 }, "geometry": { "type": "Point", "coordinates": [ -0.248259426082685, 51.488116115090577 ] } },
{ "type": "Feature", "properties": { "max_height": 3.6614999771118164, "mean_height": 0.53927868604660034, "std_height": 0.82321298122406006, "count_pixels": 44, "percent_cover": 0.57486281682780249, "percent_above_0.1m": 65.909090909090907, "low_level_<0.5": 22.727272727272727, "mid_level_0.5-2": 22.727272727272727, "tall_2+": 9.0909090909090917 }, "geometry": { "type": "Point", "coordinates": [ -0.249352411422527, 51.488240340800267 ] } },
{ "type": "Feature", "properties": { "max_height": 4.4340004920959473, "mean_height": 0.31728005409240723, "std_height": 0.86299628019332886, "count_pixels": 42, "percent_cover": 0.54873268879017512, "percent_above_0.1m": 19.047619047619047, "low_level_<0.5": 2.3809523809523809, "mid_level_0.5-2": 11.904761904761903, "tall_2+": 4.7619047619047619 }, "geometry": { "type": "Point", "coordinates": [ -0.249152935199113, 51.488237364240383 ] } },
{ "type": "Feature", "properties": { "max_height": 0.0010004043579101562, "mean_height": -0.00017236528219655156, "std_height": 0.00065121921943500638, "count_pixels": 42, "percent_cover": 0.54873268879017512, "percent_above_0.1m": 0.0, "low_level_<0.5": 0.0, "mid_level_0.5-2": 0.0, "tall_2+": 0.0 }, "geometry": { "type": "Point", "coordinates": [ -0.248953459010449, 51.488234387341663 ] } },
{ "type": "Feature", "properties": { "max_height": 0.00050067901611328125, "mean_height": -4.1348594095325097e-05, "std_height": 0.00027770173619501293, "count_pixels": 42, "percent_cover": 0.54873268879017512, "percent_above_0.1m": 0.0, "low_level_<0.5": 0.0, "mid_level_0.5-2": 0.0, "tall_2+": 0.0 }, "geometry": { "type": "Point", "coordinates": [ -0.248753982856544, 51.488231410104092 ] } },
{ "type": "Feature", "properties": { "max_height": 0.0017504692077636719, "mean_height": 8.3673570770770311e-05, "std_height": 0.00041427515679970384, "count_pixels": 42, "percent_cover": 0.54873268879017512, "percent_above_0.1m": 0.0, "low_level_<0.5": 0.0, "mid_level_0.5-2": 0.0, "tall_2+": 0.0 }, "geometry": { "type": "Point", "coordinates": [ -0.248554506737399, 51.48822843252767 ] } },
{ "type": "Feature", "properties": { "max_height": 3.6382503509521484, "mean_height": 0.17867526412010193, "std_height": 0.68286746740341187, "count_pixels": 40, "percent_cover": 0.52260256075254763, "percent_above_0.1m": 7.5, "low_level_<0.5": 0.0, "mid_level_0.5-2": 2.5, "tall_2+": 5.0 }, "geometry": { "type": "Point", "coordinates": [ -0.248355030653024, 51.488225454612426 ] } },
{ "type": "Feature", "properties": { "max_height": 10.351249694824219, "mean_height": 1.1640419960021973, "std_height": 2.5131349563598633, "count_pixels": 36, "percent_cover": 0.47034230467729293, "percent_above_0.1m": 47.222222222222221, "low_level_<0.5": 13.888888888888889, "mid_level_0.5-2": 13.888888888888889, "tall_2+": 16.666666666666664 }, "geometry": { "type": "Point", "coordinates": [ -0.248155554603413, 51.488222476358338 ] } },
{ "type": "Feature", "properties": { "max_height": 0.7532505989074707, "mean_height": 0.10185658931732178, "std_height": 0.19754372537136078, "count_pixels": 40, "percent_cover": 0.52260256075254763, "percent_above_0.1m": 22.5, "low_level_<0.5": 12.5, "mid_level_0.5-2": 10.0, "tall_2+": 0.0 }, "geometry": { "type": "Point", "coordinates": [ -0.249248542216546, 51.488346703084062 ] } },
{ "type": "Feature", "properties": { "max_height": 8.7890005111694336, "mean_height": 1.8575479984283447, "std_height": 2.7499749660491943, "count_pixels": 42, "percent_cover": 0.54873268879017512, "percent_above_0.1m": 50.0, "low_level_<0.5": 0.0, "mid_level_0.5-2": 16.666666666666664, "tall_2+": 28.571428571428569 }, "geometry": { "type": "Point", "coordinates": [ -0.249049065531512, 51.488343726337419 ] } },
{ "type": "Feature", "properties": { "max_height": 1.7332501411437988, "mean_height": 0.052393108606338501, "std_height": 0.27042514085769653, "count_pixels": 42, "percent_cover": 0.54873268879017512, "percent_above_0.1m": 4.7619047619047619, "low_level_<0.5": 2.3809523809523809, "mid_level_0.5-2": 2.3809523809523809, "tall_2+": 0.0 }, "geometry": { "type": "Point", "coordinates": [ -0.24884958888123, 51.488340749251947 ] } },
{ "type": "Feature", "properties": { "max_height": 0.0010004043579101562, "mean_height": 2.405757004453335e-05, "std_height": 0.00032185832969844341, "count_pixels": 42, "percent_cover": 0.54873268879017512, "percent_above_0.1m": 0.0, "low_level_<0.5": 0.0, "mid_level_0.5-2": 0.0, "tall_2+": 0.0 }, "geometry": { "type": "Point", "coordinates": [ -0.248650112265715, 51.488337771827617 ] } },
{ "type": "Feature", "properties": { "max_height": 0.0017504692077636719, "mean_height": 1.8085751435137354e-05, "std_height": 0.00060355744790285826, "count_pixels": 42, "percent_cover": 0.54873268879017512, "percent_above_0.1m": 0.0, "low_level_<0.5": 0.0, "mid_level_0.5-2": 0.0, "tall_2+": 0.0 }, "geometry": { "type": "Point", "coordinates": [ -0.248450635684956, 51.488334794064457 ] } },
{ "type": "Feature", "properties": { "max_height": 0.0035004615783691406, "mean_height": 7.4126503022853285e-05, "std_height": 0.000613747863098979, "count_pixels": 44, "percent_cover": 0.57486281682780249, "percent_above_0.1m": 0.0, "low_level_<0.5": 0.0, "mid_level_0.5-2": 0.0, "tall_2+": 0.0 }, "geometry": { "type": "Point", "coordinates": [ -0.248251159138968, 51.488331815962432 ] } },
{ "type": "Feature", "properties": { "max_height": 9.8867521286010742, "mean_height": 1.8816367387771606, "std_height": 2.4844546318054199, "count_pixels": 44, "percent_cover": 0.57486281682780249, "percent_above_0.1m": 63.636363636363633, "low_level_<0.5": 4.5454545454545459, "mid_level_0.5-2": 18.181818181818183, "tall_2+": 38.636363636363633 }, "geometry": { "type": "Point", "coordinates": [ -0.248051682627752, 51.488328837521593 ] } },
{ "type": "Feature", "properties": { "max_height": 0.77250051498413086, "mean_height": 0.088302545249462128, "std_height": 0.20549450814723969, "count_pixels": 43, "percent_cover": 0.5617977528089888, "percent_above_0.1m": 16.279069767441861, "low_level_<0.5": 6.9767441860465116, "mid_level_0.5-2": 9.3023255813953494, "tall_2+": 0.0 }, "geometry": { "type": "Point", "coordinates": [ -0.247852206151313, 51.488325858741888 ] } },
{ "type": "Feature", "properties": { "max_height": 3.6040000915527344, "mean_height": 0.39245858788490295, "std_height": 0.85121220350265503, "count_pixels": 42, "percent_cover": 0.54873268879017512, "percent_above_0.1m": 23.809523809523807, "low_level_<0.5": 4.7619047619047619, "mid_level_0.5-2": 11.904761904761903, "tall_2+": 7.1428571428571423 }, "geometry": { "type": "Point", "coordinates": [ -0.248945195367524, 51.488450088329948 ] } },
{ "type": "Feature", "properties": { "max_height": 2.9312500953674316, "mean_height": 0.55368483066558838, "std_height": 0.96494781970977783, "count_pixels": 42, "percent_cover": 0.54873268879017512, "percent_above_0.1m": 33.333333333333329, "low_level_<0.5": 4.7619047619047619, "mid_level_0.5-2": 11.904761904761903, "tall_2+": 16.666666666666664 }, "geometry": { "type": "Point", "coordinates": [ -0.248745718255625, 51.488447111057702 ] } },
{ "type": "Feature", "properties": { "max_height": 2.0682506561279297, "mean_height": 0.13843484222888947, "std_height": 0.47466343641281128, "count_pixels": 42, "percent_cover": 0.54873268879017512, "percent_above_0.1m": 9.5238095238095237, "low_level_<0.5": 2.3809523809523809, "mid_level_0.5-2": 4.7619047619047619, "tall_2+": 2.3809523809523809 }, "geometry": { "type": "Point", "coordinates": [ -0.248546241178492, 51.488444133446613 ] } },
{ "type": "Feature", "properties": { "max_height": 0.00050067901611328125, "mean_height": -6.2191487813834101e-05, "std_height": 0.00031991110881790519, "count_pixels": 40, "percent_cover": 0.52260256075254763, "percent_above_0.1m": 0.0, "low_level_<0.5": 0.0, "mid_level_0.5-2": 0.0, "tall_2+": 0.0 }, "geometry": { "type": "Point", "coordinates": [ -0.248346764136123, 51.488441155496695 ] } },
{ "type": "Feature", "properties": { "max_height": 0.0012502670288085938, "mean_height": -7.6108510256744921e-05, "std_height": 0.00093133212067186832, "count_pixels": 36, "percent_cover": 0.47034230467729293, "percent_above_0.1m": 0.0, "low_level_<0.5": 0.0, "mid_level_0.5-2": 0.0, "tall_2+": 0.0 }, "geometry": { "type": "Point", "coordinates": [ -0.248147287128522, 51.488438177207925 ] } },
{ "type": "Feature", "properties": { "max_height": 3.6080002784729004, "mean_height": 0.43335667252540588, "std_height": 0.91373443603515625, "count_pixels": 40, "percent_cover": 0.52260256075254763, "percent_above_0.1m": 32.5, "low_level_<0.5": 10.0, "mid_level_0.5-2": 15.0, "tall_2+": 7.5 }, "geometry": { "type": "Point", "coordinates": [ -0.247947810155696, 51.488435198580305 ] } },
{ "type": "Feature", "properties": { "max_height": 9.3017511367797852, "mean_height": 2.1280124187469482, "std_height": 2.449169397354126, "count_pixels": 41, "percent_cover": 0.53566762477136143, "percent_above_0.1m": 65.853658536585371, "low_level_<0.5": 7.3170731707317067, "mid_level_0.5-2": 14.634146341463413, "tall_2+": 43.902439024390247 }, "geometry": { "type": "Point", "coordinates": [ -0.24774833321765, 51.488432219613834 ] } },
{ "type": "Feature", "properties": { "max_height": 6.6820006370544434, "mean_height": 0.59126228094100952, "std_height": 1.3617081642150879, "count_pixels": 42, "percent_cover": 0.54873268879017512, "percent_above_0.1m": 50.0, "low_level_<0.5": 21.428571428571427, "mid_level_0.5-2": 9.5238095238095237, "tall_2+": 9.5238095238095237 }, "geometry": { "type": "Point", "coordinates": [ -0.248641847133632, 51.488553472758959 ] } },
{ "type": "Feature", "properties": { "max_height": 5.0537500381469727, "mean_height": 0.78291702270507812, "std_height": 1.3487764596939087, "count_pixels": 42, "percent_cover": 0.54873268879017512, "percent_above_0.1m": 35.714285714285715, "low_level_<0.5": 4.7619047619047619, "mid_level_0.5-2": 14.285714285714285, "tall_2+": 16.666666666666664 }, "geometry": { "type": "Point", "coordinates": [ -0.248442369594877, 51.48855049496111 ] } },
{ "type": "Feature", "properties": { "max_height": 0.0020003318786621094, "mean_height": -9.059906005859375e-05, "std_height": 0.0012236814945936203, "count_pixels": 44, "percent_cover": 0.57486281682780249, "percent_above_0.1m": 0.0, "low_level_<0.5": 0.0, "mid_level_0.5-2": 0.0, "tall_2+": 0.0 }, "geometry": { "type": "Point", "coordinates": [ -0.248242892090896, 51.488547516824426 ] } },
{ "type": "Feature", "properties": { "max_height": 0.33350038528442383, "mean_height": 0.011113947257399559, "std_height": 0.052523024380207062, "count_pixels": 44, "percent_cover": 0.57486281682780249, "percent_above_0.1m": 4.5454545454545459, "low_level_<0.5": 2.2727272727272729, "mid_level_0.5-2": 0.0, "tall_2+": 0.0 }, "geometry": { "type": "Point", "coordinates": [ -0.248043414621682, 51.48854453834889 ] } },
{ "type": "Feature", "properties": { "max_height": 1.7087507247924805, "mean_height": 0.20974443852901459, "std_height": 0.3366725742816925, "count_pixels": 43, "percent_cover": 0.5617977528089888, "percent_above_0.1m": 46.511627906976742, "low_level_<0.5": 23.255813953488371, "mid_level_0.5-2": 11.627906976744185, "tall_2+": 0.0 }, "geometry": { "type": "Point", "coordinates": [ -0.247843937187245, 51.488541559534511 ] } },
{ "type": "Feature", "properties": { "max_height": 6.0167512893676758, "mean_height": 1.8382562398910522, "std_height": 1.9323328733444214, "count_pixels": 42, "percent_cover": 0.54873268879017512, "percent_above_0.1m": 69.047619047619051, "low_level_<0.5": 11.904761904761903, "mid_level_0.5-2": 19.047619047619047, "tall_2+": 38.095238095238095 }, "geometry": { "type": "Point", "coordinates": [ -0.247644459787591, 51.488538580381274 ] } },
{ "type": "Feature", "properties": { "max_height": 8.9477510452270508, "mean_height": 1.0662801265716553, "std_height": 2.0063004493713379, "count_pixels": 42, "percent_cover": 0.54873268879017512, "percent_above_0.1m": 45.238095238095241, "low_level_<0.5": 11.904761904761903, "mid_level_0.5-2": 11.904761904761903, "tall_2+": 19.047619047619047 }, "geometry": { "type": "Point", "coordinates": [ -0.24744498242272, 51.488535600889193 ] } },
{ "type": "Feature", "properties": { "max_height": 2.2467503547668457, "mean_height": 0.1462065726518631, "std_height": 0.38095265626907349, "count_pixels": 40, "percent_cover": 0.52260256075254763, "percent_above_0.1m": 25.0, "low_level_<0.5": 15.0, "mid_level_0.5-2": 7.5, "tall_2+": 2.5 }, "geometry": { "type": "Point", "coordinates": [ -0.248338497514869, 51.488656856371087 ] } },
{ "type": "Feature", "properties": { "max_height": 1.5147504806518555, "mean_height": 0.057569675147533417, "std_height": 0.24942925572395325, "count_pixels": 36, "percent_cover": 0.47034230467729293, "percent_above_0.1m": 11.111111111111111, "low_level_<0.5": 0.0, "mid_level_0.5-2": 2.7777777777777777, "tall_2+": 0.0 }, "geometry": { "type": "Point", "coordinates": [ -0.24813901954927, 51.488653878047636 ] } },
{ "type": "Feature", "properties": { "max_height": 0.00075054168701171875, "mean_height": 6.9046021963004023e-05, "std_height": 0.000306074129184708, "count_pixels": 40, "percent_cover": 0.52260256075254763, "percent_above_0.1m": 0.0, "low_level_<0.5": 0.0, "mid_level_0.5-2": 0.0, "tall_2+": 0.0 }, "geometry": { "type": "Point", "coordinates": [ -0.247939541618437, 51.488650899385327 ] } },
{ "type": "Feature", "properties": { "max_height": 2.6332502365112305, "mean_height": 0.1235247477889061, "std_height": 0.54600644111633301, "count_pixels": 41, "percent_cover": 0.53566762477136143, "percent_above_0.1m": 4.8780487804878048, "low_level_<0.5": 0.0, "mid_level_0.5-2": 0.0, "tall_2+": 4.8780487804878048 }, "geometry": { "type": "Point", "coordinates": [ -0.247740063722396, 51.488647920384182 ] } },
{ "type": "Feature", "properties": { "max_height": 12.042499542236328, "mean_height": 5.4424352645874023, "std_height": 3.6257326602935791, "count_pixels": 42, "percent_cover": 0.54873268879017512, "percent_above_0.1m": 92.857142857142861, "low_level_<0.5": 0.0, "mid_level_0.5-2": 14.285714285714285, "tall_2+": 78.571428571428569 }, "geometry": { "type": "Point", "coordinates": [ -0.247540585861127, 51.488644941044186 ] } },
{ "type": "Feature", "properties": { "max_height": 0.051250457763671875, "mean_height": 0.003125309944152832, "std_height": 0.008921746164560318, "count_pixels": 44, "percent_cover": 0.57486281682780249, "percent_above_0.1m": 0.0, "low_level_<0.5": 0.0, "mid_level_0.5-2": 0.0, "tall_2+": 0.0 }, "geometry": { "type": "Point", "coordinates": [ -0.248234624938463, 51.488763217676535 ] } },
{ "type": "Feature", "properties": { "max_height": 0.045000076293945312, "mean_height": 0.0037276095245033503, "std_height": 0.0099454103037714958, "count_pixels": 44, "percent_cover": 0.57486281682780249, "percent_above_0.1m": 0.0, "low_level_<0.5": 0.0, "mid_level_0.5-2": 0.0, "tall_2+": 0.0 }, "geometry": { "type": "Point", "coordinates": [ -0.248035146511241, 51.488760239166318 ] } },
{ "type": "Feature", "properties": { "max_height": 4.1752505302429199, "mean_height": 0.23063401877880096, "std_height": 0.66616541147232056, "count_pixels": 43, "percent_cover": 0.5617977528089888, "percent_above_0.1m": 27.906976744186046, "low_level_<0.5": 13.953488372093023, "mid_level_0.5-2": 9.3023255813953494, "tall_2+": 2.3255813953488373 }, "geometry": { "type": "Point", "coordinates": [ -0.247835668118801, 51.488757260317243 ] } },
{ "type": "Feature", "properties": { "max_height": 14.961751937866211, "mean_height": 8.1811380386352539, "std_height": 4.7928485870361328, "count_pixels": 42, "percent_cover": 0.54873268879017512, "percent_above_0.1m": 92.857142857142861, "low_level_<0.5": 4.7619047619047619, "mid_level_0.5-2": 2.3809523809523809, "tall_2+": 83.333333333333343 }, "geometry": { "type": "Point", "coordinates": [ -0.247636189761135, 51.488754281129346 ] } },
{ "type": "Feature", "properties": { "max_height": 0.094750404357910156, "mean_height": 0.0082190157845616341, "std_height": 0.02062343992292881, "count_pixels": 40, "percent_cover": 0.52260256075254763, "percent_above_0.1m": 0.0, "low_level_<0.5": 0.0, "mid_level_0.5-2": 0.0, "tall_2+": 0.0 }, "geometry": { "type": "Point", "coordinates": [ -0.247931272976809, 51.488866600180479 ] } },
{ "type": "Feature", "properties": { "max_height": 11.420751571655273, "mean_height": 1.7573480606079102, "std_height": 3.1406943798065186, "count_pixels": 41, "percent_cover": 0.53566762477136143, "percent_above_0.1m": 51.219512195121951, "low_level_<0.5": 9.7560975609756095, "mid_level_0.5-2": 17.073170731707318, "tall_2+": 21.951219512195124 }, "geometry": { "type": "Point", "coordinates": [ -0.247731794122752, 51.488863621144638 ] } },
{ "type": "Feature", "properties": { "max_height": 12.982751846313477, "mean_height": 2.790583610534668, "std_height": 3.6092598438262939, "count_pixels": 42, "percent_cover": 0.54873268879017512, "percent_above_0.1m": 83.333333333333343, "low_level_<0.5": 11.904761904761903, "mid_level_0.5-2": 45.238095238095241, "tall_2+": 26.190476190476193 }, "geometry": { "type": "Point", "coordinates": [ -0.247532315303468, 51.488860641769982 ] } },
{ "type": "Feature", "properties": { "max_height": 3.2712507247924805, "mean_height": 0.66989314556121826, "std_height": 0.9888882040977478, "count_pixels": 42, "percent_cover": 0.54873268879017512, "percent_above_0.1m": 54.761904761904766, "low_level_<0.5": 14.285714285714285, "mid_level_0.5-2": 21.428571428571427, "tall_2+": 11.904761904761903 }, "geometry": { "type": "Point", "coordinates": [ -0.247627919630288, 51.488969981867506 ] } }
]
}
