{
"type": "FeatureCollection",
"name": "cceda7536b89_foliage",
"crs": { "type": "name", "properties": { "name": "urn:ogc:def:crs:OGC:1.3:CRS84" } },
"features": [
{ "type": "Feature", "properties": { "max_height": 17.324752807617188, "mean_height": 0.74083161354064941, "std_height": 2.6201694011688232, "count_pixels": 43, "percent_cover": 1.1008704557091653, "percent_above_0.1m": 48.837209302325576, "low_level_<0.5": 16.279069767441861, "mid_level_0.5-2": 23.255813953488371, "tall_2+": 4.6511627906976747 }, "geometry": { "type": "Point", "coordinates": [ -0.278223688002135, 51.487372026838742 ] } },
{ "type": "Feature", "properties": { "max_height": 1.1172504425048828, "mean_height": 0.24144662916660309, "std_height": 0.30303138494491577, "count_pixels": 42, "percent_cover": 1.0752688172043012, "percent_above_0.1m": 47.619047619047613, "low_level_<0.5": 26.190476190476193, "mid_level_0.5-2": 19.047619047619047, "tall_2+": 0.0 }, "geometry": { "type": "Point", "coordinates": [ -0.278024212647736, 51.487369099103923 ] } },
{ "type": "Feature", "properties": { "max_height": 4.4467506408691406, "mean_height": 0.76481574773788452, "std_height": 1.3284379243850708, "count_pixels": 42, "percent_cover": 1.0752688172043012, "percent_above_0.1m": 50.0, "low_level_<0.5": 16.666666666666664, "mid_level_0.5-2": 14.285714285714285, "tall_2+": 16.666666666666664 }, "geometry": { "type": "Point", "coordinates": [ -0.277824737327041, 51.487366171029947 ] } },
{ "type": "Feature", "properties": { "max_height": 4.289250373840332, "mean_height": 0.48078680038452148, "std_height": 1.0649315118789673, "count_pixels": 41, "percent_cover": 1.0496671786994367, "percent_above_0.1m": 39.024390243902438, "low_level_<0.5": 12.195121951219512, "mid_level_0.5-2": 17.073170731707318, "tall_2+": 7.3170731707317067 }, "geometry": { "type": "Point", "coordinates": [ -0.277625262040055, 51.487363242616823 ] } },
{ "type": "Feature", "properties": { "max_height": 0.99075031280517578, "mean_height": 0.10795863717794418, "std_height": 0.21943171322345734, "count_pixels": 36, "percent_cover": 0.92165898617511521, "percent_above_0.1m": 22.222222222222221, "low_level_<0.5": 11.111111111111111, "mid_level_0.5-2": 8.3333333333333321, "tall_2+": 0.0 }, "geometry": { "type": "Point", "coordinates": [ -0.278518839302636, 51.487484270342591 ] } },
{ "type": "Feature", "properties": { "max_height": 1.3354997634887695, "mean_height": 0.39525026082992554, "std_height": 0.36140903830528259, "count_pixels": 41, "percent_cover": 1.0496671786994367, "percent_above_0.1m": 65.853658536585371, "low_level_<0.5": 21.951219512195124, "mid_level_0.5-2": 41.463414634146339, "tall_2+": 0.0 }, "geometry": { "type": "Point", "coordinates": [ -0.278319363427416, 51.48748134310506 ] } },
{ "type": "Feature", "properties": { "max_height": 1.0122504234313965, "mean_height": 0.14046972990036011, "std_height": 0.26658275723457336, "count_pixels": 41, "percent_cover": 1.0496671786994367, "percent_above_0.1m": 26.829268292682929, "low_level_<0.5": 7.3170731707317067, "mid_level_0.5-2": 14.634146341463413, "tall_2+": 0.0 }, "geometry": { "type": "Point", "coordinates": [ -0.278119887585897, 51.487478415528358 ] } },
{ "type": "Feature", "properties": { "max_height": 2.6440005302429199, "mean_height": 0.45678591728210449, "std_height": 0.69572663307189941, "count_pixels": 42, "percent_cover": 1.0752688172043012, "percent_above_0.1m": 38.095238095238095, "low_level_<0.5": 0.0, "mid_level_0.5-2": 33.333333333333329, "tall_2+": 4.7619047619047619 }, "geometry": { "type": "Point", "coordinates": [ -0.277920411778082, 51.487475487612521 ] } },
{ "type": "Feature", "properties": { "max_height": 1.569000244140625, "mean_height": 0.3329407274723053, "std_height": 0.4051564633846283, "count_pixels": 42, "percent_cover": 1.0752688172043012, "percent_above_0.1m": 54.761904761904766, "low_level_<0.5": 23.809523809523807, "mid_level_0.5-2": 26.190476190476193, "tall_2+": 0.0 }, "geometry": { "type": "Point", "coordinates": [ -0.27772093600397, 51.487472559357499 ] } },
{ "type": "Feature", "properties": { "max_height": 0.9850001335144043, "mean_height": 0.2121514230966568, "std_height": 0.32213675975799561, "count_pixels": 43, "percent_cover": 1.1008704557091653, "percent_above_0.1m": 34.883720930232556, "low_level_<0.5": 4.6511627906976747, "mid_level_0.5-2": 25.581395348837212, "tall_2+": 0.0 }, "geometry": { "type": "Point", "coordinates": [ -0.277521460263571, 51.487469630763307 ] } },
{ "type": "Feature", "properties": { "max_height": 0.83799982070922852, "mean_height": 0.13666301965713501, "std_height": 0.24838189780712128, "count_pixels": 43, "percent_cover": 1.1008704557091653, "percent_above_0.1m": 25.581395348837212, "low_level_<0.5": 11.627906976744185, "mid_level_0.5-2": 13.953488372093023, "tall_2+": 0.0 }, "geometry": { "type": "Point", "coordinates": [ -0.278813992064486, 51.487596513115477 ] } },
{ "type": "Feature", "properties": { "max_height": 1.2610001564025879, "mean_height": 0.34289553761482239, "std_height": 0.35756105184555054, "count_pixels": 43, "percent_cover": 1.1008704557091653, "percent_above_0.1m": 62.790697674418603, "low_level_<0.5": 37.209302325581397, "mid_level_0.5-2": 23.255813953488371, "tall_2+": 0.0 }, "geometry": { "type": "Point", "coordinates": [ -0.278614515668451, 51.487593586375247 ] } },
{ "type": "Feature", "properties": { "max_height": 1.0842504501342773, "mean_height": 0.21791888773441315, "std_height": 0.34512355923652649, "count_pixels": 43, "percent_cover": 1.1008704557091653, "percent_above_0.1m": 37.209302325581397, "low_level_<0.5": 16.279069767441861, "mid_level_0.5-2": 16.279069767441861, "tall_2+": 0.0 }, "geometry": { "type": "Point", "coordinates": [ -0.278415039306113, 51.487590659295847 ] } },
{ "type": "Feature", "properties": { "max_height": 1.3435001373291016, "mean_height": 0.05025024339556694, "std_height": 0.23276787996292114, "count_pixels": 43, "percent_cover": 1.1008704557091653, "percent_above_0.1m": 4.6511627906976747, "low_level_<0.5": 0.0, "mid_level_0.5-2": 4.6511627906976747, "tall_2+": 0.0 }, "geometry": { "type": "Point", "coordinates": [ -0.278215562977469, 51.487587731877262 ] } },
{ "type": "Feature", "properties": { "max_height": 1.5862503051757812, "mean_height": 0.065541893243789673, "std_height": 0.26497384905815125, "count_pixels": 42, "percent_cover": 1.0752688172043012, "percent_above_0.1m": 9.5238095238095237, "low_level_<0.5": 2.3809523809523809, "mid_level_0.5-2": 4.7619047619047619, "tall_2+": 0.0 }, "geometry": { "type": "Point", "coordinates": [ -0.278016086682528, 51.487584804119528 ] } },
{ "type": "Feature", "properties": { "max_height": 2.4997501373291016, "mean_height": 0.10960741341114044, "std_height": 0.41344106197357178, "count_pixels": 42, "percent_cover": 1.0752688172043012, "percent_above_0.1m": 14.285714285714285, "low_level_<0.5": 2.3809523809523809, "mid_level_0.5-2": 4.7619047619047619, "tall_2+": 2.3809523809523809 }, "geometry": { "type": "Point", "coordinates": [ -0.277816610421289, 51.487581876022631 ] } },
{ "type": "Feature", "properties": { "max_height": 3.5935006141662598, "mean_height": 0.52168917655944824, "std_height": 0.69615387916564941, "count_pixels": 41, "percent_cover": 1.0496671786994367, "percent_above_0.1m": 73.170731707317074, "low_level_<0.5": 26.829268292682929, "mid_level_0.5-2": 34.146341463414636, "tall_2+": 4.8780487804878048 }, "geometry": { "type": "Point", "coordinates": [ -0.277617134193766, 51.487578947586556 ] } },
{ "type": "Feature", "properties": { "max_height": 1.0972499847412109, "mean_height": 0.1602136641740799, "std_height": 0.3161187469959259, "count_pixels": 41, "percent_cover": 1.0496671786994367, "percent_above_0.1m": 24.390243902439025, "low_level_<0.5": 7.3170731707317067, "mid_level_0.5-2": 14.634146341463413, "tall_2+": 0.0 }, "geometry": { "type": "Point", "coordinates": [ -0.278710192487686, 51.48770290233233 ] } },
{ "type": "Feature", "properties": { "max_height": 1.1377501487731934, "mean_height": 0.32306277751922607, "std_height": 0.32271859049797058, "count_pixels": 36, "percent_cover": 0.92165898617511521, "percent_above_0.1m": 63.888888888888886, "low_level_<0.5": 27.777777777777779, "mid_level_0.5-2": 30.555555555555557, "tall_2+": 0.0 }, "geometry": { "type": "Point", "coordinates": [ -0.278510715638221, 51.487699975411061 ] } },
{ "type": "Feature", "properties": { "max_height": 0.83975028991699219, "mean_height": 0.020506288856267929, "std_height": 0.12953411042690277, "count_pixels": 41, "percent_cover": 1.0496671786994367, "percent_above_0.1m": 2.4390243902439024, "low_level_<0.5": 0.0, "mid_level_0.5-2": 2.4390243902439024, "tall_2+": 0.0 }, "geometry": { "type": "Point", "coordinates": [ -0.278311238822456, 51.487697048150594 ] } },
{ "type": "Feature", "properties": { "max_height": 0.0020003318786621094, "mean_height": 6.3151846916298382e-06, "std_height": 0.0004701229918282479, "count_pixels": 41, "percent_cover": 1.0496671786994367, "percent_above_0.1m": 0.0, "low_level_<0.5": 0.0, "mid_level_0.5-2": 0.0, "tall_2+": 0.0 }, "geometry": { "type": "Point", "coordinates": [ -0.278111762040386, 51.487694120550984 ] } },
{ "type": "Feature", "properties": { "max_height": 0.0010004043579101562, "mean_height": -1.1693863598338794e-05, "std_height": 0.0004497020854614675, "count_pixels": 42, "percent_cover": 1.0752688172043012, "percent_above_0.1m": 0.0, "low_level_<0.5": 0.0, "mid_level_0.5-2": 0.0, "tall_2+": 0.0 }, "geometry": { "type": "Point", "coordinates": [ -0.277912285292024, 51.487691192612203 ] } },
{ "type": "Feature", "properties": { "max_height": 1.4872503280639648, "mean_height": 0.23183947801589966, "std_height": 0.40879949927330017, "count_pixels": 42, "percent_cover": 1.0752688172043012, "percent_above_0.1m": 28.571428571428569, "low_level_<0.5": 0.0, "mid_level_0.5-2": 26.190476190476193, "tall_2+": 0.0 }, "geometry": { "type": "Point", "coordinates": [ -0.277712808577363, 51.487688264334246 ] } },
{ "type": "Feature", "properties": { "max_height": 5.1070008277893066, "mean_height": 0.53902930021286011, "std_height": 0.91129738092422485, "count_pixels": 43, "percent_cover": 1.1008704557091653, "percent_above_0.1m": 53.488372093023251, "low_level_<0.5": 16.279069767441861, "mid_level_0.5-2": 30.232558139534881, "tall_2+": 4.6511627906976747 }, "geometry": { "type": "Point", "coordinates": [ -0.277513331896417, 51.487685335717146 ] } },
{ "type": "Feature", "properties": { "max_height": 2.671750545501709, "mean_height": 0.37762230634689331, "std_height": 0.55969607830047607, "count_pixels": 43, "percent_cover": 1.1008704557091653, "percent_above_0.1m": 55.813953488372093, "low_level_<0.5": 27.906976744186046, "mid_level_0.5-2": 20.930232558139537, "tall_2+": 2.3255813953488373 }, "geometry": { "type": "Point", "coordinates": [ -0.27820743785166, 51.487803436906894 ] } },
{ "type": "Feature", "properties": { "max_height": 0.71750020980834961, "mean_height": 0.023232379928231239, "std_height": 0.11537662893533707, "count_pixels": 42, "percent_cover": 1.0752688172043012, "percent_above_0.1m": 4.7619047619047619, "low_level_<0.5": 2.3809523809523809, "mid_level_0.5-2": 2.3809523809523809, "tall_2+": 0.0 }, "geometry": { "type": "Point", "coordinates": [ -0.278007960616163, 51.487800509126224 ] } },
{ "type": "Feature", "properties": { "max_height": 0.002750396728515625, "mean_height": 4.7899426135700196e-05, "std_height": 0.00051245285430923104, "count_pixels": 42, "percent_cover": 1.0752688172043012, "percent_above_0.1m": 0.0, "low_level_<0.5": 0.0, "mid_level_0.5-2": 0.0, "tall_2+": 0.0 }, "geometry": { "type": "Point", "coordinates": [ -0.277808483414375, 51.487797581006397 ] } },
{ "type": "Feature", "properties": { "max_height": 2.010500431060791, "mean_height": 0.34715276956558228, "std_height": 0.48280864953994751, "count_pixels": 41, "percent_cover": 1.0496671786994367, "percent_above_0.1m": 51.219512195121951, "low_level_<0.5": 12.195121951219512, "mid_level_0.5-2": 29.268292682926827, "tall_2+": 2.4390243902439024 }, "geometry": { "type": "Point", "coordinates": [ -0.277609006246294, 51.487794652547379 ] } },
{ "type": "Feature", "properties": { "max_height": 0.79925012588500977, "mean_height": 0.13351213932037354, "std_height": 0.23141328990459442, "count_pixels": 42, "percent_cover": 1.0752688172043012, "percent_above_0.1m": 33.333333333333329, "low_level_<0.5": 11.904761904761903, "mid_level_0.5-2": 11.904761904761903, "tall_2+": 0.0 }, "geometry": { "type": "Point", "coordinates": [ -0.277904158704803, 51.487906897602976 ] } },
{ "type": "Feature", "properties": { "max_height": 4.4320001602172852, "mean_height": 0.87824428081512451, "std_height": 1.2251961231231689, "count_pixels": 42, "percent_cover": 1.0752688172043012, "percent_above_0.1m": 54.761904761904766, "low_level_<0.5": 7.1428571428571423, "mid_level_0.5-2": 28.571428571428569, "tall_2+": 16.666666666666664 }, "geometry": { "type": "Point", "coordinates": [ -0.277704681049578, 51.487903969302096 ] } },
{ "type": "Feature", "properties": { "max_height": 1.0085005760192871, "mean_height": 0.26352345943450928, "std_height": 0.27076166868209839, "count_pixels": 43, "percent_cover": 1.1008704557091653, "percent_above_0.1m": 62.790697674418603, "low_level_<0.5": 37.209302325581397, "mid_level_0.5-2": 23.255813953488371, "tall_2+": 0.0 }, "geometry": { "type": "Point", "coordinates": [ -0.277505203428076, 51.487901040662038 ] } },
{ "type": "Feature", "properties": { "max_height": 2.8590006828308105, "mean_height": 0.37889903783798218, "std_height": 0.50247776508331299, "count_pixels": 42, "percent_cover": 1.0752688172043012, "percent_above_0.1m": 64.285714285714292, "low_level_<0.5": 30.952380952380953, "mid_level_0.5-2": 23.809523809523807, "tall_2+": 2.3809523809523809 }, "geometry": { "type": "Point", "coordinates": [ -0.277800356306286, 51.488013285981232 ] } },
{ "type": "Feature", "properties": { "max_height": 2.7037506103515625, "mean_height": 0.34928074479103088, "std_height": 0.58163702487945557, "count_pixels": 41, "percent_cover": 1.0496671786994367, "percent_above_0.1m": 48.780487804878049, "low_level_<0.5": 29.268292682926827, "mid_level_0.5-2": 14.634146341463413, "tall_2+": 4.8780487804878048 }, "geometry": { "type": "Point", "coordinates": [ -0.277600878197639, 51.488010357499299 ] } },
{ "type": "Feature", "properties": { "max_height": 0.84850025177001953, "mean_height": 0.1846805065870285, "std_height": 0.26121950149536133, "count_pixels": 43, "percent_cover": 1.1008704557091653, "percent_above_0.1m": 39.534883720930232, "low_level_<0.5": 18.604651162790699, "mid_level_0.5-2": 18.604651162790699, "tall_2+": 0.0 }, "geometry": { "type": "Point", "coordinates": [ -0.277497074858546, 51.488116745598035 ] } }
]
}
