{
"type": "FeatureCollection",
"name": "RICUP_52_cycling",
"crs": { "type": "name", "properties": { "name": "urn:ogc:def:crs:OGC:1.3:CRS84" } },
"features": [
{"type":"Feature","properties":{"highway":"cycleway","name":"Thames Tow Path","category":"Dedicated cycleway"},"geometry":{"type":"MultiLineString","coordinates":[[[-0.2267998,51.4763876],[-0.2268644,51.4768641],[-0.2269036,51.4770997],[-0.2269102,51.4773592],[-0.2269139,51.4777328],[-0.2269142,51.4781846],[-0.2268842,51.4782888],[-0.2268311,51.4785254],[-0.2268229,51.4787484],[-0.2268349,51.4790501],[-0.2268066,51.4793787],[-0.2268255,51.4795268],[-0.2267898,51.4797089],[-0.2267915,51.4798681],[-0.2268219,51.4800579],[-0.226835,51.480427],[-0.2268592,51.4806504],[-0.2269504,51.4809696],[-0.2270308,51.4811379],[-0.2270711,51.4817524],[-0.2271286,51.4819278],[-0.2272403,51.4826214],[-0.2272521,51.4826879],[-0.2272672,51.4827734],[-0.2272854,51.4829514],[-0.2272936,51.4831352],[-0.227323,51.4832601],[-0.2274272,51.4834917],[-0.2274646,51.4836056],[-0.2274782,51.4837228],[-0.2274925,51.483787],[-0.2276604,51.4843075],[-0.2278756,51.4846806],[-0.2281614,51.4851214],[-0.2283148,51.485358],[-0.2283335,51.485384],[-0.2284361,51.485539],[-0.2286028,51.4857065],[-0.229094,51.4862076],[-0.2297607,51.4868],[-0.2302039,51.4871359],[-0.2306436,51.4874544],[-0.2307079,51.4874848],[-0.2308304,51.4875565]]]}},
{"type":"Feature","properties":{"highway":"cycleway","name":null,"category":"Dedicated cycleway"},"geometry":{"type":"MultiLineString","coordinates":[[[-0.2329184,51.4857969],[-0.2328,51.4857111],[-0.2327685,51.4856883]]]}},
{"type":"Feature","properties":{"highway":"path","name":null,"category":"Shared path"},"geometry":{"type":"MultiLineString","coordinates":[[[-0.2311753,51.4877233],[-0.2316583,51.4879798],[-0.2325911,51.4883427],[-0.2331171,51.4884932],[-0.2337751,51.4886591],[-0.2341301,51.4887358],[-0.2344962,51.488795],[-0.2348792,51.4888341],[-0.2356444,51.4889043],[-0.2359529,51.4889319],[-0.2359887,51.4889315],[-0.2376517,51.4889288],[-0.2377159,51.4889266],[-0.237777,51.4889218],[-0.2386728,51.4888467],[-0.2392168,51.4887924]]]}},
{"type":"Feature","properties":{"highway":"cycleway","name":null,"category":"Dedicated cycleway"},"geometry":{"type":"MultiLineString","coordinates":[[[-0.2324881,51.4863838],[-0.2324784,51.4863802],[-0.2324316,51.4863629]]]}},
{"type":"Feature","properties":{"highway":"cycleway","name":"Hammersmith Bridge","category":"Dedicated cycleway"},"geometry":{"type":"MultiLineString","coordinates":[[[-0.2311106,51.4875644],[-0.2302402,51.4884063]]]}},
{"type":"Feature","properties":{"highway":"cycleway","name":"Castelnau","category":"Dedicated cycleway"},"geometry":{"type":"MultiLineString","coordinates":[[[-0.231268,51.4874003],[-0.2312788,51.4873752],[-0.2312859,51.4873587],[-0.2313119,51.4873308],[-0.2313519,51.4872879],[-0.2313952,51.4872414]]]}},
{"type":"Feature","properties":{"highway":"cycleway","name":"Castelnau","category":"Dedicated cycleway"},"geometry":{"type":"MultiLineString","coordinates":[[[-0.2314679,51.4872583],[-0.2314393,51.4872836],[-0.2314078,51.4873117],[-0.2313477,51.4873724],[-0.231304,51.4873877],[-0.231268,51.4874003]]]}},
{"type":"Feature","properties":{"highway":"cycleway","name":"Castelnau","category":"Dedicated cycleway"},"geometry":{"type":"MultiLineString","coordinates":[[[-0.2320454,51.4866475],[-0.2320427,51.4866743],[-0.2320373,51.4866948],[-0.2320266,51.4867178],[-0.2319042,51.4868362],[-0.2316867,51.4870397]]]}},
{"type":"Feature","properties":{"highway":"cycleway","name":"Hammersmith Bridge","category":"Dedicated cycleway"},"geometry":{"type":"MultiLineString","coordinates":[[[-0.2302402,51.4884063],[-0.2293541,51.4892537]]]}},
{"type":"Feature","properties":{"highway":"track","name":null,"category":"Track"},"geometry":{"type":"MultiLineString","coordinates":[[[-0.2328869,51.4843812],[-0.2329723,51.4843056],[-0.2335922,51.4836765],[-0.2338014,51.4834777],[-0.2338201,51.4834376],[-0.2338336,51.4833808],[-0.2338631,51.4833307],[-0.233973,51.4832221],[-0.2348275,51.4824604]]]}},
{"type":"Feature","properties":{"highway":"cycleway","name":null,"category":"Dedicated cycleway"},"geometry":{"type":"MultiLineString","coordinates":[[[-0.229612,51.4892092],[-0.2296234,51.489197],[-0.2296553,51.489163]]]}},
{"type":"Feature","properties":{"highway":"path","name":null,"category":"Shared path"},"geometry":{"type":"MultiLineString","coordinates":[[[-0.2308806,51.487574],[-0.2310504,51.48766],[-0.2311753,51.4877233]]]}},
{"type":"Feature","properties":{"highway":"cycleway","name":null,"category":"Dedicated cycleway"},"geometry":{"type":"MultiLineString","coordinates":[[[-0.2312888,51.4872584],[-0.231331,51.4872773]]]}},
{"type":"Feature","properties":{"highway":"cycleway","name":"Castelnau","category":"Dedicated cycleway"},"geometry":{"type":"MultiLineString","coordinates":[[[-0.2316867,51.4870397],[-0.23163,51.4870928],[-0.2316101,51.4871158]]]}},
{"type":"Feature","properties":{"highway":"path","name":null,"category":"Shared path"},"geometry":{"type":"MultiLineString","coordinates":[[[-0.2308304,51.4875565],[-0.2308538,51.4875676],[-0.2308806,51.487574]]]}},
{"type":"Feature","properties":{"highway":"cycleway","name":null,"category":"Dedicated cycleway"},"geometry":{"type":"MultiLineString","coordinates":[[[-0.2317393,51.4870374],[-0.2317185,51.4870383],[-0.2316867,51.4870397]]]}},
{"type":"Feature","properties":{"highway":"cycleway","name":"Castelnau","category":"Dedicated cycleway"},"geometry":{"type":"MultiLineString","coordinates":[[[-0.231268,51.4874003],[-0.2311106,51.4875644]]]}},
{"type":"Feature","properties":{"highway":"cycleway","name":null,"category":"Dedicated cycleway"},"geometry":{"type":"MultiLineString","coordinates":[[[-0.2324316,51.4863629],[-0.2323613,51.4863369]]]}},
{"type":"Feature","properties":{"highway":"cycleway","name":"Boileau Road","category":"Dedicated cycleway"},"geometry":{"type":"MultiLineString","coordinates":[[[-0.2350329,51.4860412],[-0.2350766,51.4859648],[-0.2351515,51.4859566]]]}},
{"type":"Feature","properties":{"highway":"cycleway","name":"Boileau Road","category":"Dedicated cycleway"},"geometry":{"type":"MultiLineString","coordinates":[[[-0.2351515,51.4859566],[-0.2351839,51.4859786],[-0.2351451,51.486048]]]}},
{"type":"Feature","properties":{"highway":"track","name":null,"category":"Track"},"geometry":{"type":"MultiLineString","coordinates":[[[-0.234893,51.4824853],[-0.2348275,51.4824604],[-0.2347821,51.4824453]]]}},
{"type":"Feature","properties":{"highway":"path","name":null,"category":"Shared path"},"geometry":{"type":"MultiLineString","coordinates":[[[-0.2285624,51.4844045],[-0.2284601,51.4844448]]]}},
{"type":"Feature","properties":{"highway":"path","name":null,"category":"Shared path"},"geometry":{"type":"MultiLineString","coordinates":[[[-0.2287476,51.4842687],[-0.2287739,51.4842112],[-0.2286806,51.4841947],[-0.2286543,51.4842521],[-0.2287476,51.4842687]]]}},
{"type":"Feature","properties":{"highway":"path","name":null,"category":"Shared path"},"geometry":{"type":"MultiLineString","coordinates":[[[-0.2285944,51.4843782],[-0.2286708,51.4844557],[-0.2288633,51.4843855],[-0.2290757,51.484308],[-0.2289261,51.4841538],[-0.2287739,51.4842112]]]}},
{"type":"Feature","properties":{"highway":"path","name":null,"category":"Shared path"},"geometry":{"type":"MultiLineString","coordinates":[[[-0.2286543,51.4842521],[-0.2285057,51.4843136],[-0.2283587,51.4841634],[-0.2285737,51.4840825],[-0.2287727,51.4840076],[-0.2288242,51.4840663]]]}},
{"type":"Feature","properties":{"highway":"path","name":null,"category":"Shared path"},"geometry":{"type":"MultiLineString","coordinates":[[[-0.2287476,51.4842687],[-0.2288633,51.4843855]]]}},
{"type":"Feature","properties":{"highway":"path","name":null,"category":"Shared path"},"geometry":{"type":"MultiLineString","coordinates":[[[-0.2286806,51.4841947],[-0.2285737,51.4840825]]]}},
{"type":"Feature","properties":{"highway":"path","name":null,"category":"Shared path"},"geometry":{"type":"MultiLineString","coordinates":[[[-0.2290451,51.4889801],[-0.2288733,51.4891433]]]}},
{"type":"Feature","properties":{"highway":"cycleway","name":null,"category":"Dedicated cycleway"},"geometry":{"type":"MultiLineString","coordinates":[[[-0.2313519,51.4872879],[-0.2314078,51.4873117]]]}},
{"type":"Feature","properties":{"highway":"track","name":null,"category":"Track"},"geometry":{"type":"MultiLineString","coordinates":[[[-0.2357139,51.4808642],[-0.2361739,51.4798319],[-0.2364595,51.4792013],[-0.237244,51.477347],[-0.2373337,51.4770828],[-0.2374184,51.4768369],[-0.237424,51.476675],[-0.2373482,51.4763962],[-0.2372411,51.4762044],[-0.237156,51.4761689]]]}},
{"type":"Feature","properties":{"highway":"cycleway","name":null,"category":"Dedicated cycleway"},"geometry":{"type":"MultiLineString","coordinates":[[[-0.231331,51.4872773],[-0.2313519,51.4872879]]]}},
{"type":"Feature","properties":{"highway":"cycleway","name":null,"category":"Dedicated cycleway"},"geometry":{"type":"MultiLineString","coordinates":[[[-0.2314279,51.4873207],[-0.2314426,51.4873273]]]}},
{"type":"Feature","properties":{"highway":"cycleway","name":null,"category":"Dedicated cycleway"},"geometry":{"type":"MultiLineString","coordinates":[[[-0.2314078,51.4873117],[-0.2314279,51.4873207]]]}},
{"type":"Feature","properties":{"highway":"cycleway","name":"Castelnau","category":"Dedicated cycleway"},"geometry":{"type":"MultiLineString","coordinates":[[[-0.2316101,51.4871158],[-0.2314823,51.4872455],[-0.2314679,51.4872583]]]}},
{"type":"Feature","properties":{"highway":"cycleway","name":"Hammersmith Bridge","category":"Dedicated cycleway"},"geometry":{"type":"MultiLineString","coordinates":[[[-0.2293541,51.4892537],[-0.2292937,51.4893055],[-0.2292785,51.489316],[-0.2292344,51.4893474]]]}}
]
}
