{
"type": "FeatureCollection",
"name": "RICUP_186_toilets",
"crs": { "type": "name", "properties": { "name": "urn:ogc:def:crs:OGC:1.3:CRS84" } },
"features": [
{ "type": "Feature", "properties": { "name": "The National Archives", "payment_info": "Free", "accessible": "True", "radar": "Unknown", "women": "True", "men": "True", "baby_change": "Unknown", "Mon": "Closed", "Tue": "09:00-19:00", "Wed": "09:00-17:00", "Thu": "09:00-19:00", "Fri": "09:00-17:00", "Sat": "09:00-17:00", "Sun": "Closed", "index_right": 52, "park_offical_id": "RICUP_186" }, "geometry": { "type": "Point", "coordinates": [ -0.279303789, 51.480938314 ] } },
{ "type": "Feature", "properties": { "name": "Marks  Spencer", "payment_info": "Free", "accessible": "True", "radar": "Unknown", "women": "Unknown", "men": "Unknown", "baby_change": "True", "Mon": "09:00-17:00", "Tue": "09:00-17:00", "Wed": "09:00-17:00", "Thu": "09:00-17:00", "Fri": "09:00-17:00", "Sat": "09:00-17:00", "Sun": "09:00-17:00", "index_right": 52, "park_offical_id": "RICUP_186" }, "geometry": { "type": "Point", "coordinates": [ -0.278324783, 51.477049682 ] } },
{ "type": "Feature", "properties": { "name": "Kew Gardens", "payment_info": "Free", "accessible": "False", "radar": "False", "women": "True", "men": "True", "baby_change": "False", "Mon": "Unknown", "Tue": "Unknown", "Wed": "Unknown", "Thu": "Unknown", "Fri": "Unknown", "Sat": "Unknown", "Sun": "Unknown", "index_right": 52, "park_offical_id": "RICUP_186" }, "geometry": { "type": "Point", "coordinates": [ -0.285105407, 51.477066388 ] } }
]
}
