{
"type": "FeatureCollection",
"name": "EALIN_42_walking",
"crs": { "type": "name", "properties": { "name": "urn:ogc:def:crs:OGC:1.3:CRS84" } },
"features": [
{"type":"Feature","properties":{"highway":"footway","name":null,"category":"Footpath (pedestrian only)"},"geometry":{"type":"MultiLineString","coordinates":[[[-0.2980924,51.5278378],[-0.29815,51.5277711],[-0.2980883,51.5275491],[-0.2979993,51.5273294]]]}},
{"type":"Feature","properties":{"highway":"footway","name":null,"category":"Footpath (pedestrian only)"},"geometry":{"type":"MultiLineString","coordinates":[[[-0.2970681,51.5239733],[-0.2970574,51.5241056],[-0.296996,51.5242038],[-0.2967777,51.5245427],[-0.2965561,51.5249514],[-0.2964812,51.5251223],[-0.2964435,51.5252084],[-0.2963842,51.5254781],[-0.2956321,51.5257893],[-0.2949412,51.5257997],[-0.2928088,51.5258519],[-0.2927151,51.5258278],[-0.2924885,51.5256897],[-0.2924708,51.5256239],[-0.2924872,51.5255818],[-0.2926398,51.5251389],[-0.292683,51.525095],[-0.2931444,51.5250382],[-0.293595,51.5250382],[-0.2940778,51.5250682],[-0.2944908,51.5250816],[-0.2948824,51.5250115]]]}},
{"type":"Feature","properties":{"highway":"footway","name":null,"category":"Footpath (pedestrian only)"},"geometry":{"type":"MultiLineString","coordinates":[[[-0.2903046,51.53312],[-0.2903746,51.5331509]]]}},
{"type":"Feature","properties":{"highway":"footway","name":null,"category":"Footpath (pedestrian only)"},"geometry":{"type":"MultiLineString","coordinates":[[[-0.2916666,51.5323788],[-0.2917165,51.5324078],[-0.2917462,51.532425],[-0.2918021,51.5324574]]]}},
{"type":"Feature","properties":{"highway":"track","name":null,"category":"Track"},"geometry":{"type":"MultiLineString","coordinates":[[[-0.2908083,51.5317356],[-0.2908512,51.5317129]]]}},
{"type":"Feature","properties":{"highway":"path","name":null,"category":"Shared path"},"geometry":{"type":"MultiLineString","coordinates":[[[-0.3087223,51.5282872],[-0.3086545,51.5281092],[-0.3086281,51.5278632],[-0.3085838,51.5276206],[-0.3085471,51.5274529],[-0.3084655,51.5272868],[-0.3083574,51.527262],[-0.3083075,51.5270947],[-0.3083163,51.526977],[-0.3083221,51.5269107]]]}},
{"type":"Feature","properties":{"highway":"path","name":null,"category":"Shared path"},"geometry":{"type":"MultiLineString","coordinates":[[[-0.3083574,51.527262],[-0.3083177,51.5272674],[-0.3082655,51.5275541],[-0.3084388,51.5278067],[-0.3086415,51.5280897],[-0.3086545,51.5281092]]]}},
{"type":"Feature","properties":{"highway":"footway","name":null,"category":"Footpath (pedestrian only)"},"geometry":{"type":"MultiLineString","coordinates":[[[-0.2837697,51.5272917],[-0.2836872,51.5272689],[-0.2836033,51.5272428],[-0.2834316,51.5271897],[-0.2833659,51.5271673],[-0.2833471,51.5271478],[-0.2833524,51.5271347]]]}},
{"type":"Feature","properties":{"highway":"footway","name":null,"category":"Footpath (pedestrian only)"},"geometry":{"type":"MultiLineString","coordinates":[[[-0.2985063,51.5305645],[-0.2984983,51.5305001]]]}},
{"type":"Feature","properties":{"highway":"footway","name":null,"category":"Footpath (pedestrian only)"},"geometry":{"type":"MultiLineString","coordinates":[[[-0.2928821,51.5294918],[-0.2927931,51.529519]]]}},
{"type":"Feature","properties":{"highway":"footway","name":null,"category":"Footpath (pedestrian only)"},"geometry":{"type":"MultiLineString","coordinates":[[[-0.2949539,51.5277928],[-0.2950248,51.5277663],[-0.2952652,51.5276568],[-0.2953016,51.5276169]]]}},
{"type":"Feature","properties":{"highway":"path","name":null,"category":"Shared path"},"geometry":{"type":"MultiLineString","coordinates":[[[-0.3055069,51.5288511],[-0.305519,51.5288649],[-0.3055845,51.5289458],[-0.305809,51.5292232],[-0.3063647,51.5301924],[-0.3064934,51.5304444],[-0.3066812,51.5307047],[-0.3067589,51.5307381],[-0.3069467,51.5307231]]]}},
{"type":"Feature","properties":{"highway":"footway","name":null,"category":"Footpath (pedestrian only)"},"geometry":{"type":"MultiLineString","coordinates":[[[-0.3059912,51.5281675],[-0.3061873,51.5284767],[-0.30614,51.528505]]]}},
{"type":"Feature","properties":{"highway":"path","name":null,"category":"Shared path"},"geometry":{"type":"MultiLineString","coordinates":[[[-0.3015916,51.5298001],[-0.3017054,51.5300004],[-0.3019529,51.5302406]]]}},
{"type":"Feature","properties":{"highway":"footway","name":null,"category":"Footpath (pedestrian only)"},"geometry":{"type":"MultiLineString","coordinates":[[[-0.3065351,51.5269108],[-0.3055315,51.5271883],[-0.3054051,51.5272233],[-0.3052339,51.5272706],[-0.3047629,51.5274116],[-0.3044196,51.5273003],[-0.3041925,51.5273562],[-0.3039302,51.5274207]]]}},
{"type":"Feature","properties":{"highway":"footway","name":null,"category":"Footpath (pedestrian only)"},"geometry":{"type":"MultiLineString","coordinates":[[[-0.3050892,51.5225318],[-0.3051377,51.5226164],[-0.3051626,51.5226577],[-0.3050016,51.5230265],[-0.304838,51.5233937],[-0.3048297,51.5235123],[-0.3048347,51.5235504]]]}},
{"type":"Feature","properties":{"highway":"footway","name":null,"category":"Footpath (pedestrian only)"},"geometry":{"type":"MultiLineString","coordinates":[[[-0.3035597,51.5227754],[-0.3042449,51.5227633],[-0.3046929,51.5227215],[-0.3051626,51.5226577],[-0.3052296,51.5227445],[-0.3053005,51.5228512],[-0.30529,51.5229496],[-0.3053492,51.5230442],[-0.3054572,51.5231185],[-0.3054677,51.5232139],[-0.3054263,51.5232644],[-0.3051959,51.5233454],[-0.3048297,51.5235123]]]}},
{"type":"Feature","properties":{"highway":"footway","name":"Augusta Walk","category":"Footpath (pedestrian only)"},"geometry":{"type":"MultiLineString","coordinates":[[[-0.3030424,51.5240984],[-0.3030222,51.5240746],[-0.3027996,51.5240996],[-0.3021102,51.5240712],[-0.3014292,51.5239465],[-0.3010535,51.5238663],[-0.3009007,51.5238329],[-0.3007671,51.5238266],[-0.3006914,51.5238305],[-0.3006402,51.5238355],[-0.3004552,51.5238589],[-0.3002407,51.5238962],[-0.3000418,51.5239481],[-0.2998151,51.5240229],[-0.2996719,51.524057],[-0.2995292,51.524095],[-0.2994379,51.5241623]]]}},
{"type":"Feature","properties":{"highway":"footway","name":null,"category":"Footpath (pedestrian only)"},"geometry":{"type":"MultiLineString","coordinates":[[[-0.2970574,51.5241056],[-0.296014,51.5241546],[-0.2959714,51.5242806],[-0.2957783,51.5244842],[-0.2954403,51.5247679],[-0.2951024,51.5249648],[-0.2948824,51.5250115],[-0.2948938,51.5256715],[-0.2949412,51.5257997]]]}},
{"type":"Feature","properties":{"highway":"footway","name":null,"category":"Footpath (pedestrian only)"},"geometry":{"type":"MultiLineString","coordinates":[[[-0.2910916,51.5185119],[-0.2912946,51.5184737],[-0.2913476,51.518466]]]}},
{"type":"Feature","properties":{"highway":"footway","name":null,"category":"Footpath (pedestrian only)"},"geometry":{"type":"MultiLineString","coordinates":[[[-0.308342,51.5269119],[-0.308234,51.5258351]]]}},
{"type":"Feature","properties":{"highway":"footway","name":null,"category":"Footpath (pedestrian only)"},"geometry":{"type":"MultiLineString","coordinates":[[[-0.2984914,51.530445],[-0.2983428,51.5295282]]]}},
{"type":"Feature","properties":{"highway":"footway","name":null,"category":"Footpath (pedestrian only)"},"geometry":{"type":"MultiLineString","coordinates":[[[-0.2974917,51.529892],[-0.2973445,51.5301755],[-0.2967571,51.5300698],[-0.2960892,51.5299508],[-0.2962318,51.5296494]]]}},
{"type":"Feature","properties":{"highway":"footway","name":null,"category":"Footpath (pedestrian only)"},"geometry":{"type":"MultiLineString","coordinates":[[[-0.287803,51.5309666],[-0.2878946,51.5309711],[-0.2880931,51.5310295],[-0.2882433,51.5311196],[-0.2882969,51.5312047],[-0.2883881,51.5312431],[-0.2885169,51.5312548],[-0.288592,51.5312815]]]}},
{"type":"Feature","properties":{"highway":"footway","name":null,"category":"Footpath (pedestrian only)"},"geometry":{"type":"MultiLineString","coordinates":[[[-0.3005324,51.5307637],[-0.3004463,51.5307775],[-0.3004259,51.5307808]]]}},
{"type":"Feature","properties":{"highway":"footway","name":null,"category":"Footpath (pedestrian only)"},"geometry":{"type":"MultiLineString","coordinates":[[[-0.2997748,51.530999],[-0.2997634,51.5310311]]]}},
{"type":"Feature","properties":{"highway":"footway","name":null,"category":"Footpath (pedestrian only)"},"geometry":{"type":"MultiLineString","coordinates":[[[-0.2930211,51.5317314],[-0.2930678,51.5317661]]]}},
{"type":"Feature","properties":{"highway":"footway","name":null,"category":"Footpath (pedestrian only)"},"geometry":{"type":"MultiLineString","coordinates":[[[-0.2924962,51.5316637],[-0.2925701,51.5316459]]]}},
{"type":"Feature","properties":{"highway":"footway","name":null,"category":"Footpath (pedestrian only)"},"geometry":{"type":"MultiLineString","coordinates":[[[-0.2922288,51.5290553],[-0.2922971,51.5290716],[-0.2922937,51.5291727],[-0.2922864,51.5292739],[-0.2922524,51.529325],[-0.2922461,51.5293694]]]}},
{"type":"Feature","properties":{"highway":"footway","name":null,"category":"Footpath (pedestrian only)"},"geometry":{"type":"MultiLineString","coordinates":[[[-0.2924363,51.5299495],[-0.2923036,51.5299481],[-0.2922589,51.5299559]]]}},
{"type":"Feature","properties":{"highway":"footway","name":null,"category":"Footpath (pedestrian only)"},"geometry":{"type":"MultiLineString","coordinates":[[[-0.292793,51.529981],[-0.2928035,51.530022]]]}},
{"type":"Feature","properties":{"highway":"footway","name":null,"category":"Footpath (pedestrian only)"},"geometry":{"type":"MultiLineString","coordinates":[[[-0.2949361,51.5311662],[-0.2948983,51.5311644],[-0.2946844,51.5311543]]]}},
{"type":"Feature","properties":{"highway":"footway","name":null,"category":"Footpath (pedestrian only)"},"geometry":{"type":"MultiLineString","coordinates":[[[-0.298597,51.5308562],[-0.2986218,51.5307996]]]}},
{"type":"Feature","properties":{"highway":"track","name":null,"category":"Track"},"geometry":{"type":"MultiLineString","coordinates":[[[-0.2920824,51.5314916],[-0.2921517,51.5314851]]]}},
{"type":"Feature","properties":{"highway":"track","name":null,"category":"Track"},"geometry":{"type":"MultiLineString","coordinates":[[[-0.2908512,51.5317129],[-0.2910309,51.5316179],[-0.2920824,51.5314916]]]}},
{"type":"Feature","properties":{"highway":"footway","name":null,"category":"Footpath (pedestrian only)"},"geometry":{"type":"MultiLineString","coordinates":[[[-0.3019529,51.5302406],[-0.3026593,51.5299316],[-0.3033284,51.5297189],[-0.3040552,51.5293565],[-0.3046307,51.5291683],[-0.3055069,51.5288511],[-0.30614,51.528505]]]}},
{"type":"Feature","properties":{"highway":"footway","name":null,"category":"Footpath (pedestrian only)"},"geometry":{"type":"MultiLineString","coordinates":[[[-0.3030709,51.5309632],[-0.3030063,51.5309373]]]}},
{"type":"Feature","properties":{"highway":"footway","name":null,"category":"Footpath (pedestrian only)"},"geometry":{"type":"MultiLineString","coordinates":[[[-0.3061657,51.5285983],[-0.3060201,51.5287285],[-0.3057626,51.5288554],[-0.3055845,51.5289458]]]}},
{"type":"Feature","properties":{"highway":"footway","name":null,"category":"Footpath (pedestrian only)"},"geometry":{"type":"MultiLineString","coordinates":[[[-0.3030457,51.5310526],[-0.3030467,51.5310268],[-0.3030709,51.5309632],[-0.3031003,51.5309484],[-0.3033015,51.53093],[-0.3041625,51.530935],[-0.3047713,51.530945],[-0.3049215,51.53094],[-0.3050449,51.5309567],[-0.3052246,51.5309951],[-0.3054311,51.5310268],[-0.3058162,51.5310534],[-0.306437,51.5311219],[-0.3068393,51.5311703],[-0.3071504,51.5312187],[-0.3075608,51.5313121],[-0.3078771,51.5313616],[-0.308056,51.5313741],[-0.3082302,51.531385]]]}},
{"type":"Feature","properties":{"highway":"footway","name":null,"category":"Footpath (pedestrian only)"},"geometry":{"type":"MultiLineString","coordinates":[[[-0.3069467,51.5307231],[-0.3068784,51.5306074],[-0.3068087,51.530207],[-0.3067175,51.5298699],[-0.3065565,51.5295228],[-0.3064117,51.529139],[-0.3062132,51.5287653],[-0.3061657,51.5285983],[-0.3061374,51.5285358],[-0.30614,51.528505]]]}},
{"type":"Feature","properties":{"highway":"footway","name":null,"category":"Footpath (pedestrian only)"},"geometry":{"type":"MultiLineString","coordinates":[[[-0.2960892,51.5299508],[-0.2957401,51.5298975],[-0.2954173,51.5298482],[-0.2955333,51.5295247]]]}},
{"type":"Feature","properties":{"highway":"footway","name":null,"category":"Footpath (pedestrian only)"},"geometry":{"type":"MultiLineString","coordinates":[[[-0.2967309,51.5301267],[-0.2967105,51.5301711]]]}},
{"type":"Feature","properties":{"highway":"footway","name":null,"category":"Footpath (pedestrian only)"},"geometry":{"type":"MultiLineString","coordinates":[[[-0.2957161,51.529961],[-0.2956958,51.5300146]]]}},
{"type":"Feature","properties":{"highway":"footway","name":null,"category":"Footpath (pedestrian only)"},"geometry":{"type":"MultiLineString","coordinates":[[[-0.2859525,51.5320083],[-0.2859951,51.5319671],[-0.2860653,51.5319239],[-0.2861887,51.5319139],[-0.2863175,51.5319272],[-0.2864677,51.5319739],[-0.2866554,51.5319906],[-0.286929,51.5319673],[-0.2871328,51.5319172],[-0.2872884,51.5318438],[-0.2873226,51.5318185],[-0.2874011,51.5317604],[-0.2874708,51.5316602],[-0.2874493,51.5315368],[-0.2874654,51.5314567],[-0.2875566,51.5313599],[-0.2876156,51.5312865],[-0.287621,51.5311964],[-0.2876787,51.5311169],[-0.2877594,51.5310383],[-0.287803,51.5309666],[-0.2877229,51.5308827],[-0.2876478,51.5308059],[-0.2875137,51.5307258],[-0.2874601,51.5306458],[-0.2874118,51.5305623],[-0.2873099,51.530529],[-0.2871489,51.530549],[-0.2870095,51.530529],[-0.2868593,51.5304489],[-0.2867359,51.5303588],[-0.2866822,51.530292],[-0.2866715,51.5302319],[-0.2866661,51.5301485],[-0.2866393,51.5301018],[-0.2865589,51.5300651],[-0.2862853,51.5300117],[-0.286178,51.529965],[-0.2861136,51.5298915],[-0.2861136,51.529738],[-0.2860814,51.5296579],[-0.286001,51.5295912],[-0.2858615,51.5295078],[-0.2857381,51.529431],[-0.2856845,51.5293542],[-0.2856201,51.5292875],[-0.2854777,51.5292153],[-0.2852218,51.5292535],[-0.2851794,51.5292797]]]}},
{"type":"Feature","properties":{"highway":"footway","name":null,"category":"Footpath (pedestrian only)"},"geometry":{"type":"MultiLineString","coordinates":[[[-0.2924708,51.5256239],[-0.2923566,51.5256098],[-0.2922448,51.525593]]]}},
{"type":"Feature","properties":{"highway":"path","name":null,"category":"Shared path"},"geometry":{"type":"MultiLineString","coordinates":[[[-0.3031659,51.5237038],[-0.3030525,51.5238227],[-0.3030102,51.5238719]]]}},
{"type":"Feature","properties":{"highway":"footway","name":null,"category":"Footpath (pedestrian only)"},"geometry":{"type":"MultiLineString","coordinates":[[[-0.292683,51.525095],[-0.2925334,51.5250494],[-0.2924024,51.5250451]]]}},
{"type":"Feature","properties":{"highway":"path","name":null,"category":"Shared path"},"geometry":{"type":"MultiLineString","coordinates":[[[-0.3040939,51.5241366],[-0.3040551,51.5241024],[-0.3040093,51.5240574]]]}},
{"type":"Feature","properties":{"highway":"footway","name":null,"category":"Footpath (pedestrian only)"},"geometry":{"type":"MultiLineString","coordinates":[[[-0.3041702,51.5235634],[-0.3040001,51.5235981],[-0.3039529,51.5236085]]]}},
{"type":"Feature","properties":{"highway":"footway","name":null,"category":"Footpath (pedestrian only)"},"geometry":{"type":"MultiLineString","coordinates":[[[-0.3044871,51.5234615],[-0.3045055,51.5235117],[-0.304476,51.5235734],[-0.3044088,51.523603],[-0.3043338,51.5236161],[-0.3042364,51.5236015],[-0.3041702,51.5235634],[-0.304028,51.5233147]]]}},
{"type":"Feature","properties":{"highway":"footway","name":null,"category":"Footpath (pedestrian only)"},"geometry":{"type":"MultiLineString","coordinates":[[[-0.3054263,51.5232644],[-0.3054593,51.5232909]]]}},
{"type":"Feature","properties":{"highway":"footway","name":null,"category":"Footpath (pedestrian only)"},"geometry":{"type":"MultiLineString","coordinates":[[[-0.3054677,51.5232139],[-0.3055619,51.5231445],[-0.3056703,51.5230914],[-0.3057953,51.5230735],[-0.3059075,51.5230814],[-0.3060319,51.5230684],[-0.3061452,51.5230328],[-0.306328,51.5229547],[-0.306567,51.5229393],[-0.3067616,51.5229928],[-0.3069463,51.5229743],[-0.3071151,51.5229762],[-0.3071653,51.5230014],[-0.3071972,51.5230632],[-0.3072555,51.5231608]]]}},
{"type":"Feature","properties":{"highway":"footway","name":null,"category":"Footpath (pedestrian only)"},"geometry":{"type":"MultiLineString","coordinates":[[[-0.3035597,51.5227754],[-0.3038202,51.5228667],[-0.3040103,51.5229945],[-0.3041577,51.5231492],[-0.3043416,51.5233301],[-0.3044871,51.5234615],[-0.3046917,51.523534],[-0.3048347,51.5235504],[-0.3048985,51.5235891]]]}},
{"type":"Feature","properties":{"highway":"footway","name":null,"category":"Footpath (pedestrian only)"},"geometry":{"type":"MultiLineString","coordinates":[[[-0.2932947,51.5302077],[-0.2928905,51.529905]]]}},
{"type":"Feature","properties":{"highway":"footway","name":null,"category":"Footpath (pedestrian only)"},"geometry":{"type":"MultiLineString","coordinates":[[[-0.2912835,51.5201407],[-0.2912889,51.5202157],[-0.291305,51.5202925],[-0.2913104,51.5204177],[-0.2912862,51.5205679],[-0.2912755,51.5207097],[-0.2912755,51.5208366],[-0.2912408,51.5209312],[-0.2913238,51.5210102],[-0.2913426,51.5210686],[-0.2913158,51.521147],[-0.2912487,51.5212521],[-0.2912353,51.5213473],[-0.2912621,51.5214608],[-0.2913077,51.5215425],[-0.2913318,51.521641],[-0.2913233,51.5217232],[-0.2912943,51.5218379],[-0.2912728,51.5220482],[-0.2912997,51.5222357],[-0.2913238,51.5223169],[-0.2913453,51.5225072],[-0.2913292,51.5226707],[-0.2913372,51.5227976],[-0.2913694,51.5229461]]]}},
{"type":"Feature","properties":{"highway":"footway","name":null,"category":"Footpath (pedestrian only)"},"geometry":{"type":"MultiLineString","coordinates":[[[-0.2909514,51.5231231],[-0.2910207,51.5231897],[-0.2911039,51.5232365],[-0.2912406,51.5232532],[-0.2913399,51.5233278],[-0.2913265,51.523421],[-0.2912916,51.5235061],[-0.2912085,51.5235986],[-0.2910663,51.5237558],[-0.2909885,51.5239357],[-0.2909027,51.5241443],[-0.290841,51.5243663],[-0.290833,51.5245482],[-0.2908383,51.524775],[-0.2908866,51.5250138],[-0.2909429,51.525214],[-0.291069,51.525421],[-0.2912299,51.5255928],[-0.2914579,51.5257848],[-0.2916993,51.5259633],[-0.2918361,51.5260634],[-0.2918656,51.5261502],[-0.2918254,51.5262954],[-0.2916441,51.5265242]]]}},
{"type":"Feature","properties":{"highway":"footway","name":null,"category":"Footpath (pedestrian only)"},"geometry":{"type":"MultiLineString","coordinates":[[[-0.2910663,51.5237558],[-0.2912916,51.5238706],[-0.2914633,51.5240308],[-0.2915706,51.5242244],[-0.2916506,51.5243849]]]}},
{"type":"Feature","properties":{"highway":"footway","name":null,"category":"Footpath (pedestrian only)"},"geometry":{"type":"MultiLineString","coordinates":[[[-0.2914287,51.524462],[-0.291592,51.5247117],[-0.2917208,51.5249721],[-0.2918066,51.5252791],[-0.2917637,51.5255528],[-0.2917637,51.5258465],[-0.2918361,51.5260634]]]}},
{"type":"Feature","properties":{"highway":"footway","name":null,"category":"Footpath (pedestrian only)"},"geometry":{"type":"MultiLineString","coordinates":[[[-0.2911617,51.5169638],[-0.2912228,51.5168877],[-0.2912361,51.5168163],[-0.2912396,51.5168063],[-0.2912584,51.5167532],[-0.2912887,51.5166287],[-0.2913142,51.5165244],[-0.2913292,51.5164627],[-0.2913479,51.5163722]]]}},
{"type":"Feature","properties":{"highway":"footway","name":null,"category":"Footpath (pedestrian only)"},"geometry":{"type":"MultiLineString","coordinates":[[[-0.2967589,51.5256637],[-0.2970384,51.525803],[-0.2973271,51.5259934],[-0.2974363,51.5260753],[-0.2975528,51.5261685],[-0.2976711,51.5262766],[-0.2977153,51.5263397],[-0.2977551,51.5264004],[-0.2977957,51.5264948],[-0.2978318,51.5266397],[-0.2978315,51.5267441],[-0.297855,51.5269246],[-0.297935,51.5271537],[-0.2979993,51.5273294]]]}},
{"type":"Feature","properties":{"highway":"footway","name":null,"category":"Footpath (pedestrian only)"},"geometry":{"type":"MultiLineString","coordinates":[[[-0.2840552,51.5268456],[-0.2839591,51.5268627],[-0.283963,51.5268714]]]}},
{"type":"Feature","properties":{"highway":"footway","name":null,"category":"Footpath (pedestrian only)"},"geometry":{"type":"MultiLineString","coordinates":[[[-0.284129,51.5268283],[-0.284204,51.5268149],[-0.284208,51.5268236]]]}},
{"type":"Feature","properties":{"highway":"footway","name":null,"category":"Footpath (pedestrian only)"},"geometry":{"type":"MultiLineString","coordinates":[[[-0.2842774,51.5271138],[-0.2843253,51.5270524]]]}},
{"type":"Feature","properties":{"highway":"footway","name":null,"category":"Footpath (pedestrian only)"},"geometry":{"type":"MultiLineString","coordinates":[[[-0.2846515,51.5271547],[-0.2846064,51.5270613]]]}},
{"type":"Feature","properties":{"highway":"footway","name":null,"category":"Footpath (pedestrian only)"},"geometry":{"type":"MultiLineString","coordinates":[[[-0.2833524,51.5271347],[-0.2835182,51.5271962],[-0.2837499,51.5272655],[-0.2838293,51.5272837],[-0.2839052,51.5272975],[-0.2840558,51.5273229],[-0.2842345,51.527375]]]}},
{"type":"Feature","properties":{"highway":"footway","name":null,"category":"Footpath (pedestrian only)"},"geometry":{"type":"MultiLineString","coordinates":[[[-0.2921072,51.531204],[-0.2912493,51.5312939],[-0.2905319,51.5314471],[-0.2902613,51.5314965]]]}},
{"type":"Feature","properties":{"highway":"footway","name":null,"category":"Footpath (pedestrian only)"},"geometry":{"type":"MultiLineString","coordinates":[[[-0.3054724,51.5233076],[-0.3055087,51.5233504]]]}},
{"type":"Feature","properties":{"highway":"path","name":null,"category":"Shared path"},"geometry":{"type":"MultiLineString","coordinates":[[[-0.2933909,51.5290971],[-0.2933876,51.5290793],[-0.2933844,51.5290614]]]}},
{"type":"Feature","properties":{"highway":"footway","name":null,"category":"Footpath (pedestrian only)"},"geometry":{"type":"MultiLineString","coordinates":[[[-0.2960109,51.5241022],[-0.296039,51.5241018],[-0.2960379,51.5240739],[-0.2960093,51.5240743]]]}},
{"type":"Feature","properties":{"highway":"footway","name":null,"category":"Footpath (pedestrian only)"},"geometry":{"type":"MultiLineString","coordinates":[[[-0.296014,51.5241546],[-0.2960109,51.5241022],[-0.2960102,51.5240891]]]}},
{"type":"Feature","properties":{"highway":"path","name":null,"category":"Shared path"},"geometry":{"type":"MultiLineString","coordinates":[[[-0.3069467,51.5307231],[-0.3071689,51.53075],[-0.3074452,51.5308551],[-0.3076658,51.5310034],[-0.3078747,51.5312069],[-0.308056,51.5313741],[-0.3081027,51.5314172],[-0.3080765,51.5314988],[-0.3080627,51.5315255]]]}},
{"type":"Feature","properties":{"highway":"footway","name":null,"category":"Footpath (pedestrian only)"},"geometry":{"type":"MultiLineString","coordinates":[[[-0.3069467,51.5307231],[-0.3066906,51.5307709],[-0.3064117,51.530851],[-0.3060737,51.5309545],[-0.3058162,51.5310534]]]}},
{"type":"Feature","properties":{"highway":"footway","name":null,"category":"Footpath (pedestrian only)"},"geometry":{"type":"MultiLineString","coordinates":[[[-0.3082302,51.531385],[-0.3084716,51.5311847],[-0.3085843,51.5309778],[-0.3085897,51.5307409],[-0.3085467,51.5305106],[-0.3085897,51.530277],[-0.308536,51.5301803],[-0.3083912,51.5301569],[-0.3079245,51.5304172],[-0.3073988,51.5306274],[-0.3069467,51.5307231]]]}},
{"type":"Feature","properties":{"highway":"footway","name":null,"category":"Footpath (pedestrian only)"},"geometry":{"type":"MultiLineString","coordinates":[[[-0.2950957,51.5319501],[-0.2951077,51.5319666]]]}},
{"type":"Feature","properties":{"highway":"footway","name":null,"category":"Footpath (pedestrian only)"},"geometry":{"type":"MultiLineString","coordinates":[[[-0.2932134,51.5302315],[-0.2930284,51.5301995],[-0.2930172,51.5301245]]]}},
{"type":"Feature","properties":{"highway":"footway","name":null,"category":"Footpath (pedestrian only)"},"geometry":{"type":"MultiLineString","coordinates":[[[-0.2930172,51.5301245],[-0.2930016,51.5300239],[-0.2928873,51.5299656],[-0.2928673,51.5299555]]]}},
{"type":"Feature","properties":{"highway":"path","name":null,"category":"Shared path"},"geometry":{"type":"MultiLineString","coordinates":[[[-0.2901781,51.5269495],[-0.2901062,51.5269922],[-0.2893873,51.5275496],[-0.2893526,51.5275784]]]}},
{"type":"Feature","properties":{"highway":"footway","name":null,"category":"Footpath (pedestrian only)"},"geometry":{"type":"MultiLineString","coordinates":[[[-0.2843253,51.5270524],[-0.2843415,51.5270324]]]}},
{"type":"Feature","properties":{"highway":"path","name":null,"category":"Shared path"},"geometry":{"type":"MultiLineString","coordinates":[[[-0.2900048,51.5288156],[-0.2900818,51.5288684],[-0.2901554,51.5289403],[-0.2902184,51.5289825],[-0.2903107,51.529026],[-0.2903446,51.5290965]]]}},
{"type":"Feature","properties":{"highway":"footway","name":null,"category":"Footpath (pedestrian only)"},"geometry":{"type":"MultiLineString","coordinates":[[[-0.2921595,51.5294351],[-0.2917509,51.5293531],[-0.2917149,51.529334]]]}},
{"type":"Feature","properties":{"highway":"footway","name":null,"category":"Footpath (pedestrian only)"},"geometry":{"type":"MultiLineString","coordinates":[[[-0.2922524,51.529325],[-0.2921922,51.5293582],[-0.2921595,51.5294351],[-0.2921303,51.5294715],[-0.2920906,51.5294729],[-0.2917345,51.5293981],[-0.2917089,51.5293719],[-0.2917509,51.5293531]]]}},
{"type":"Feature","properties":{"highway":"footway","name":null,"category":"Footpath (pedestrian only)"},"geometry":{"type":"MultiLineString","coordinates":[[[-0.2842345,51.527375],[-0.2845736,51.5274739]]]}},
{"type":"Feature","properties":{"highway":"footway","name":null,"category":"Footpath (pedestrian only)"},"geometry":{"type":"MultiLineString","coordinates":[[[-0.2845736,51.5274739],[-0.2848508,51.5275539],[-0.2850073,51.5276156],[-0.28511,51.5276636],[-0.2852023,51.5276955],[-0.2854451,51.5278285],[-0.2855257,51.5278829],[-0.2855537,51.5279294],[-0.2855443,51.5279839]]]}},
{"type":"Feature","properties":{"highway":"footway","name":null,"category":"Footpath (pedestrian only)"},"geometry":{"type":"MultiLineString","coordinates":[[[-0.2839052,51.5272975],[-0.2838958,51.5273149]]]}},
{"type":"Feature","properties":{"highway":"footway","name":null,"category":"Footpath (pedestrian only)"},"geometry":{"type":"MultiLineString","coordinates":[[[-0.2855443,51.5279839],[-0.2856138,51.5280064],[-0.285674,51.5280254]]]}},
{"type":"Feature","properties":{"highway":"footway","name":null,"category":"Footpath (pedestrian only)"},"geometry":{"type":"MultiLineString","coordinates":[[[-0.2859086,51.5282599],[-0.2858902,51.5282781],[-0.2858356,51.5283346]]]}},
{"type":"Feature","properties":{"highway":"footway","name":null,"category":"Footpath (pedestrian only)"},"geometry":{"type":"MultiLineString","coordinates":[[[-0.285674,51.5280254],[-0.2858224,51.5281392]]]}},
{"type":"Feature","properties":{"highway":"footway","name":null,"category":"Footpath (pedestrian only)"},"geometry":{"type":"MultiLineString","coordinates":[[[-0.2858224,51.5281392],[-0.2858675,51.5281826],[-0.2859077,51.5282225]]]}},
{"type":"Feature","properties":{"highway":"footway","name":null,"category":"Footpath (pedestrian only)"},"geometry":{"type":"MultiLineString","coordinates":[[[-0.2859077,51.5282225],[-0.285927,51.5282417],[-0.2859086,51.5282599]]]}},
{"type":"Feature","properties":{"highway":"footway","name":null,"category":"Footpath (pedestrian only)"},"geometry":{"type":"MultiLineString","coordinates":[[[-0.2853114,51.5281952],[-0.2856448,51.5282844],[-0.2858356,51.5283346],[-0.2859329,51.5283707],[-0.2861039,51.5284761],[-0.2862718,51.5285624],[-0.2864813,51.52864],[-0.2867,51.5287004],[-0.2871591,51.5287905],[-0.2892527,51.529238],[-0.2895485,51.5293214],[-0.2908656,51.5296051],[-0.2911907,51.5296866],[-0.2913863,51.5297297],[-0.2915157,51.5297498],[-0.2916005,51.5297479],[-0.2919147,51.5298131],[-0.2920811,51.5298533],[-0.292172,51.5298907],[-0.2923036,51.5299481]]]}},
{"type":"Feature","properties":{"highway":"footway","name":null,"category":"Footpath (pedestrian only)"},"geometry":{"type":"MultiLineString","coordinates":[[[-0.2951647,51.5318171],[-0.2952273,51.5318358],[-0.29533,51.5318452],[-0.2955486,51.5318218],[-0.295841,51.5317876],[-0.29603,51.5317693],[-0.2961655,51.5317693],[-0.2963984,51.5317799],[-0.2965987,51.5317868],[-0.2968012,51.5317693],[-0.2974598,51.5316672]]]}},
{"type":"Feature","properties":{"highway":"footway","name":null,"category":"Footpath (pedestrian only)"},"geometry":{"type":"MultiLineString","coordinates":[[[-0.2903357,51.533361],[-0.2904793,51.5332735],[-0.2906542,51.5331825],[-0.2907211,51.5331365],[-0.2917165,51.5324078]]]}},
{"type":"Feature","properties":{"highway":"footway","name":null,"category":"Footpath (pedestrian only)"},"geometry":{"type":"MultiLineString","coordinates":[[[-0.2904793,51.5332735],[-0.290473,51.5332679],[-0.2904668,51.5332639]]]}},
{"type":"Feature","properties":{"highway":"footway","name":null,"category":"Footpath (pedestrian only)"},"geometry":{"type":"MultiLineString","coordinates":[[[-0.2906542,51.5331825],[-0.2906255,51.5331659]]]}},
{"type":"Feature","properties":{"highway":"footway","name":null,"category":"Footpath (pedestrian only)"},"geometry":{"type":"MultiLineString","coordinates":[[[-0.2913547,51.5171579],[-0.2913373,51.5171558],[-0.2912765,51.517154],[-0.2911994,51.5171507]]]}},
{"type":"Feature","properties":{"highway":"footway","name":null,"category":"Footpath (pedestrian only)"},"geometry":{"type":"MultiLineString","coordinates":[[[-0.2951077,51.5319666],[-0.2951227,51.5319832],[-0.2951394,51.531998]]]}},
{"type":"Feature","properties":{"highway":"footway","name":null,"category":"Footpath (pedestrian only)"},"geometry":{"type":"MultiLineString","coordinates":[[[-0.2951394,51.531998],[-0.295116,51.5320299],[-0.2950887,51.532086],[-0.2951038,51.532153],[-0.295308,51.5327515],[-0.2953994,51.5330752],[-0.2954718,51.5335145],[-0.2955408,51.5337979],[-0.2956105,51.5338892],[-0.2958054,51.5341005],[-0.2958491,51.5341362],[-0.2959516,51.534159],[-0.2960458,51.534159],[-0.2962223,51.5340826],[-0.2965763,51.5338828],[-0.2967352,51.533756]]]}},
{"type":"Feature","properties":{"highway":"footway","name":null,"category":"Footpath (pedestrian only)"},"geometry":{"type":"MultiLineString","coordinates":[[[-0.2951394,51.531998],[-0.2952059,51.5319802],[-0.2953417,51.5319597],[-0.2955362,51.5319416],[-0.2956015,51.5319329],[-0.2956317,51.5319118],[-0.2956717,51.5318981],[-0.2960735,51.531862]]]}},
{"type":"Feature","properties":{"highway":"footway","name":null,"category":"Footpath (pedestrian only)"},"geometry":{"type":"MultiLineString","coordinates":[[[-0.2960735,51.531862],[-0.2961722,51.5318546],[-0.2963124,51.5318598],[-0.2965144,51.5318726],[-0.2966099,51.5318826],[-0.2967058,51.5318774],[-0.2967461,51.5318754],[-0.2968436,51.5318637],[-0.2973603,51.5317832],[-0.2976026,51.5317406],[-0.2979158,51.5316833],[-0.2981326,51.5316393],[-0.2982304,51.531677],[-0.2985955,51.5317373],[-0.2988559,51.5317978]]]}},
{"type":"Feature","properties":{"highway":"footway","name":null,"category":"Footpath (pedestrian only)"},"geometry":{"type":"MultiLineString","coordinates":[[[-0.3024981,51.5188828],[-0.3024914,51.5189778]]]}},
{"type":"Feature","properties":{"highway":"footway","name":null,"category":"Footpath (pedestrian only)"},"geometry":{"type":"MultiLineString","coordinates":[[[-0.3038177,51.5195655],[-0.3035406,51.5195799],[-0.3034883,51.5196178],[-0.3034448,51.5196349],[-0.3033549,51.5196527]]]}},
{"type":"Feature","properties":{"highway":"footway","name":null,"category":"Footpath (pedestrian only)"},"geometry":{"type":"MultiLineString","coordinates":[[[-0.3025168,51.5190069],[-0.3024893,51.5190056]]]}},
{"type":"Feature","properties":{"highway":"footway","name":null,"category":"Footpath (pedestrian only)"},"geometry":{"type":"MultiLineString","coordinates":[[[-0.3024913,51.5189818],[-0.3024898,51.519001]]]}},
{"type":"Feature","properties":{"highway":"footway","name":null,"category":"Footpath (pedestrian only)"},"geometry":{"type":"MultiLineString","coordinates":[[[-0.2964812,51.5251223],[-0.2964533,51.5251261],[-0.2963919,51.5251156],[-0.2963644,51.5250663],[-0.2964264,51.5249493],[-0.2964661,51.5248886],[-0.2964671,51.5248336],[-0.2964223,51.5247571],[-0.296464,51.5247109],[-0.296527,51.5246913]]]}},
{"type":"Feature","properties":{"highway":"footway","name":null,"category":"Footpath (pedestrian only)"},"geometry":{"type":"MultiLineString","coordinates":[[[-0.296527,51.5246913],[-0.2965626,51.5245984]]]}},
{"type":"Feature","properties":{"highway":"footway","name":null,"category":"Footpath (pedestrian only)"},"geometry":{"type":"MultiLineString","coordinates":[[[-0.2949035,51.5307014],[-0.2949322,51.5304606]]]}},
{"type":"Feature","properties":{"highway":"footway","name":null,"category":"Footpath (pedestrian only)"},"geometry":{"type":"MultiLineString","coordinates":[[[-0.2949322,51.5304606],[-0.2950121,51.5304069],[-0.2951275,51.530356],[-0.2952428,51.5303368],[-0.2954064,51.5303543],[-0.2965651,51.5305187],[-0.2967288,51.5305554],[-0.2973993,51.5307231]]]}},
{"type":"Feature","properties":{"highway":"footway","name":null,"category":"Footpath (pedestrian only)"},"geometry":{"type":"MultiLineString","coordinates":[[[-0.2949445,51.5315296],[-0.2948807,51.5314764],[-0.2948633,51.5313563],[-0.2948713,51.5312896],[-0.2948983,51.5311644],[-0.294925,51.5309241],[-0.2949116,51.5307615],[-0.2949035,51.5307014]]]}},
{"type":"Feature","properties":{"highway":"footway","name":null,"category":"Footpath (pedestrian only)"},"geometry":{"type":"MultiLineString","coordinates":[[[-0.2921623,51.5283407],[-0.2921678,51.528311]]]}},
{"type":"Feature","properties":{"highway":"footway","name":null,"category":"Footpath (pedestrian only)"},"geometry":{"type":"MultiLineString","coordinates":[[[-0.2921678,51.528311],[-0.2921703,51.5282973],[-0.2922267,51.5282965],[-0.2922682,51.5282769],[-0.2922931,51.528251],[-0.2922227,51.5275677]]]}},
{"type":"Feature","properties":{"highway":"footway","name":null,"category":"Footpath (pedestrian only)"},"geometry":{"type":"MultiLineString","coordinates":[[[-0.292218,51.5275072],[-0.2922227,51.5275677]]]}},
{"type":"Feature","properties":{"highway":"footway","name":null,"category":"Footpath (pedestrian only)"},"geometry":{"type":"MultiLineString","coordinates":[[[-0.2923424,51.5300317],[-0.2923517,51.5300666],[-0.2923913,51.5304135],[-0.2924173,51.5305706]]]}},
{"type":"Feature","properties":{"highway":"footway","name":null,"category":"Footpath (pedestrian only)"},"geometry":{"type":"MultiLineString","coordinates":[[[-0.2923036,51.5299481],[-0.2923264,51.5299955],[-0.2923424,51.5300317]]]}},
{"type":"Feature","properties":{"highway":"footway","name":null,"category":"Footpath (pedestrian only)"},"geometry":{"type":"MultiLineString","coordinates":[[[-0.2924173,51.5305706],[-0.2924453,51.5306624],[-0.2924654,51.5307639],[-0.2924852,51.5309347]]]}},
{"type":"Feature","properties":{"highway":"footway","name":null,"category":"Footpath (pedestrian only)"},"geometry":{"type":"MultiLineString","coordinates":[[[-0.2922934,51.5310435],[-0.2922912,51.5310313],[-0.2922865,51.5310053]]]}},
{"type":"Feature","properties":{"highway":"footway","name":null,"category":"Footpath (pedestrian only)"},"geometry":{"type":"MultiLineString","coordinates":[[[-0.2923031,51.5310964],[-0.2923001,51.5310799],[-0.2922957,51.5310556]]]}},
{"type":"Feature","properties":{"highway":"footway","name":null,"category":"Footpath (pedestrian only)"},"geometry":{"type":"MultiLineString","coordinates":[[[-0.2922957,51.5310556],[-0.2922934,51.5310435]]]}},
{"type":"Feature","properties":{"highway":"footway","name":null,"category":"Footpath (pedestrian only)"},"geometry":{"type":"MultiLineString","coordinates":[[[-0.2924416,51.5311763],[-0.2924094,51.5311433],[-0.2923755,51.5311278],[-0.2923194,51.5311143],[-0.2923076,51.531111],[-0.2923031,51.5310964]]]}},
{"type":"Feature","properties":{"highway":"footway","name":null,"category":"Footpath (pedestrian only)"},"geometry":{"type":"MultiLineString","coordinates":[[[-0.292273,51.5309643],[-0.2924852,51.5309347]]]}},
{"type":"Feature","properties":{"highway":"footway","name":null,"category":"Footpath (pedestrian only)"},"geometry":{"type":"MultiLineString","coordinates":[[[-0.292273,51.5309643],[-0.2922865,51.5310053]]]}},
{"type":"Feature","properties":{"highway":"footway","name":null,"category":"Footpath (pedestrian only)"},"geometry":{"type":"MultiLineString","coordinates":[[[-0.2911994,51.5171507],[-0.291175,51.5170963]]]}},
{"type":"Feature","properties":{"highway":"footway","name":null,"category":"Footpath (pedestrian only)"},"geometry":{"type":"MultiLineString","coordinates":[[[-0.291175,51.5170963],[-0.2911672,51.5170212],[-0.2911617,51.5169638]]]}},
{"type":"Feature","properties":{"highway":"footway","name":null,"category":"Footpath (pedestrian only)"},"geometry":{"type":"MultiLineString","coordinates":[[[-0.2912396,51.5168063],[-0.2913196,51.5168129],[-0.2913688,51.5168161],[-0.2913889,51.5168172]]]}},
{"type":"Feature","properties":{"highway":"footway","name":null,"category":"Footpath (pedestrian only)"},"geometry":{"type":"MultiLineString","coordinates":[[[-0.2913677,51.5169003],[-0.2913924,51.5169028],[-0.2914665,51.5169082],[-0.2915361,51.5169152]]]}},
{"type":"Feature","properties":{"highway":"footway","name":null,"category":"Footpath (pedestrian only)"},"geometry":{"type":"MultiLineString","coordinates":[[[-0.2913889,51.5168172],[-0.2913677,51.5169003]]]}},
{"type":"Feature","properties":{"highway":"footway","name":null,"category":"Footpath (pedestrian only)"},"geometry":{"type":"MultiLineString","coordinates":[[[-0.291469,51.5172299],[-0.291405,51.5172257],[-0.2913631,51.5172244],[-0.2913444,51.5172238]]]}},
{"type":"Feature","properties":{"highway":"footway","name":null,"category":"Footpath (pedestrian only)"},"geometry":{"type":"MultiLineString","coordinates":[[[-0.2913444,51.5172238],[-0.2913547,51.5171579]]]}},
{"type":"Feature","properties":{"highway":"pedestrian","name":"Garth Mews","category":"Pedestrian area/street"},"geometry":{"type":"MultiLineString","coordinates":[[[-0.2937843,51.5259261],[-0.293789,51.5259794],[-0.293855,51.5267308]]]}}
]
}
