{
"type": "FeatureCollection",
"name": "EALIN_265_walking",
"crs": { "type": "name", "properties": { "name": "urn:ogc:def:crs:OGC:1.3:CRS84" } },
"features": [
{"type":"Feature","properties":{"highway":"footway","name":null,"category":"Footpath (pedestrian only)"},"geometry":{"type":"MultiLineString","coordinates":[[[-0.2796572,51.5623381],[-0.2798436,51.5623385],[-0.2798438,51.5623497]]]}},
{"type":"Feature","properties":{"highway":"footway","name":null,"category":"Footpath (pedestrian only)"},"geometry":{"type":"MultiLineString","coordinates":[[[-0.2796436,51.5614591],[-0.2798765,51.5614584]]]}},
{"type":"Feature","properties":{"highway":"footway","name":null,"category":"Footpath (pedestrian only)"},"geometry":{"type":"MultiLineString","coordinates":[[[-0.2787632,51.5573054],[-0.2784013,51.5571875],[-0.2780458,51.5570783],[-0.2777696,51.556879],[-0.2775791,51.5566939],[-0.2774423,51.5565121],[-0.2773458,51.5563004],[-0.2773029,51.5560269],[-0.2773136,51.5558334],[-0.277378,51.5556466],[-0.2774893,51.5554224],[-0.2775872,51.5552964],[-0.2777347,51.555173],[-0.2778943,51.5550704],[-0.2780727,51.5549854],[-0.2783248,51.5548928],[-0.2786011,51.554832],[-0.278872,51.5547936],[-0.2790865,51.5547694],[-0.2795371,51.5547361],[-0.2799931,51.5547394],[-0.2804652,51.5547794],[-0.2808353,51.5548561],[-0.2811331,51.5549562],[-0.281361,51.555078],[-0.2815649,51.5552414],[-0.2817124,51.5554465],[-0.2818063,51.555645],[-0.2818653,51.5558434],[-0.2818733,51.5560969],[-0.2818465,51.5562553],[-0.2817902,51.5564079],[-0.2817205,51.5565622],[-0.2815475,51.5567498],[-0.2813798,51.5568899],[-0.2811545,51.5570358],[-0.2808903,51.557165],[-0.2804166,51.5573135]]]}},
{"type":"Feature","properties":{"highway":"footway","name":null,"category":"Footpath (pedestrian only)"},"geometry":{"type":"MultiLineString","coordinates":[[[-0.2848604,51.5549939],[-0.2852207,51.5544484]]]}},
{"type":"Feature","properties":{"highway":"path","name":null,"category":"Shared path"},"geometry":{"type":"MultiLineString","coordinates":[[[-0.2862817,51.5556641],[-0.2864511,51.5560402],[-0.2864895,51.5561439],[-0.2864988,51.556169],[-0.286501,51.5562202]]]}},
{"type":"Feature","properties":{"highway":"footway","name":null,"category":"Footpath (pedestrian only)"},"geometry":{"type":"MultiLineString","coordinates":[[[-0.2795195,51.5625245],[-0.2795358,51.562524],[-0.279554,51.5625235],[-0.27954,51.5622289],[-0.279525,51.5622214],[-0.2795241,51.562202],[-0.2795225,51.5621646],[-0.2795125,51.562146]]]}},
{"type":"Feature","properties":{"highway":"footway","name":null,"category":"Footpath (pedestrian only)"},"geometry":{"type":"MultiLineString","coordinates":[[[-0.2795503,51.5620683],[-0.2796532,51.5620652]]]}},
{"type":"Feature","properties":{"highway":"footway","name":null,"category":"Footpath (pedestrian only)"},"geometry":{"type":"MultiLineString","coordinates":[[[-0.279525,51.5622214],[-0.2795076,51.5622277]]]}},
{"type":"Feature","properties":{"highway":"footway","name":null,"category":"Footpath (pedestrian only)"},"geometry":{"type":"MultiLineString","coordinates":[[[-0.2795146,51.5623923],[-0.2795195,51.5625245]]]}},
{"type":"Feature","properties":{"highway":"footway","name":null,"category":"Footpath (pedestrian only)"},"geometry":{"type":"MultiLineString","coordinates":[[[-0.2795092,51.5622573],[-0.2795146,51.5623923]]]}},
{"type":"Feature","properties":{"highway":"footway","name":null,"category":"Footpath (pedestrian only)"},"geometry":{"type":"MultiLineString","coordinates":[[[-0.2798436,51.5624564],[-0.2798504,51.5624939],[-0.2798528,51.562551]]]}},
{"type":"Feature","properties":{"highway":"footway","name":null,"category":"Footpath (pedestrian only)"},"geometry":{"type":"MultiLineString","coordinates":[[[-0.2795503,51.5620683],[-0.2795502,51.5620759]]]}},
{"type":"Feature","properties":{"highway":"footway","name":null,"category":"Footpath (pedestrian only)"},"geometry":{"type":"MultiLineString","coordinates":[[[-0.2794934,51.5625631],[-0.279492,51.5625387],[-0.2794833,51.5623925],[-0.2795146,51.5623923]]]}},
{"type":"Feature","properties":{"highway":"footway","name":null,"category":"Footpath (pedestrian only)"},"geometry":{"type":"MultiLineString","coordinates":[[[-0.2795495,51.5621441],[-0.2795225,51.5621646]]]}},
{"type":"Feature","properties":{"highway":"footway","name":null,"category":"Footpath (pedestrian only)"},"geometry":{"type":"MultiLineString","coordinates":[[[-0.2814069,51.5617327],[-0.2814067,51.5617387],[-0.2814462,51.5617396],[-0.2814722,51.5617629],[-0.2815019,51.561782],[-0.281559,51.5618188]]]}},
{"type":"Feature","properties":{"highway":"footway","name":null,"category":"Footpath (pedestrian only)"},"geometry":{"type":"MultiLineString","coordinates":[[[-0.2861889,51.5564255],[-0.2862811,51.556467],[-0.2863677,51.5565209],[-0.2863759,51.5565322],[-0.2864045,51.5566173],[-0.2864762,51.5567579],[-0.2864902,51.556822],[-0.2865082,51.5568815],[-0.286535,51.5569249],[-0.2866202,51.557019],[-0.2867346,51.5570542]]]}},
{"type":"Feature","properties":{"highway":"footway","name":null,"category":"Footpath (pedestrian only)"},"geometry":{"type":"MultiLineString","coordinates":[[[-0.2848327,51.5544079],[-0.2847783,51.554406],[-0.2847858,51.5543331]]]}},
{"type":"Feature","properties":{"highway":"footway","name":null,"category":"Footpath (pedestrian only)"},"geometry":{"type":"MultiLineString","coordinates":[[[-0.2858644,51.5544374],[-0.2859174,51.5544387],[-0.2859218,51.5543804]]]}},
{"type":"Feature","properties":{"highway":"footway","name":null,"category":"Footpath (pedestrian only)"},"geometry":{"type":"MultiLineString","coordinates":[[[-0.2853334,51.5541538],[-0.2852275,51.5541513],[-0.2852251,51.5542048]]]}},
{"type":"Feature","properties":{"highway":"footway","name":null,"category":"Footpath (pedestrian only)"},"geometry":{"type":"MultiLineString","coordinates":[[[-0.2841374,51.5568942],[-0.2843485,51.5568933],[-0.2844806,51.5568927],[-0.2847374,51.5568917],[-0.2850601,51.5568903]]]}},
{"type":"Feature","properties":{"highway":"footway","name":null,"category":"Footpath (pedestrian only)"},"geometry":{"type":"MultiLineString","coordinates":[[[-0.2834128,51.5569539],[-0.2834124,51.5569218],[-0.2834122,51.5568985],[-0.283412,51.5568767],[-0.283411,51.5567807]]]}},
{"type":"Feature","properties":{"highway":"footway","name":null,"category":"Footpath (pedestrian only)"},"geometry":{"type":"MultiLineString","coordinates":[[[-0.2833658,51.5568366],[-0.2833661,51.5568765],[-0.2833664,51.5568984]]]}},
{"type":"Feature","properties":{"highway":"footway","name":null,"category":"Footpath (pedestrian only)"},"geometry":{"type":"MultiLineString","coordinates":[[[-0.2864762,51.5567579],[-0.2866998,51.5567105],[-0.2867264,51.5567044]]]}},
{"type":"Feature","properties":{"highway":"footway","name":null,"category":"Footpath (pedestrian only)"},"geometry":{"type":"MultiLineString","coordinates":[[[-0.2864902,51.556822],[-0.2864485,51.5568354],[-0.2864304,51.5568523],[-0.286409,51.5568919],[-0.2863996,51.5569378],[-0.2864009,51.5569874],[-0.2864116,51.5570383],[-0.2864541,51.5571559],[-0.2864774,51.5572192]]]}},
{"type":"Feature","properties":{"highway":"footway","name":null,"category":"Footpath (pedestrian only)"},"geometry":{"type":"MultiLineString","coordinates":[[[-0.2862117,51.5561679],[-0.2862111,51.5561542],[-0.2861905,51.5561227],[-0.2862179,51.5559155],[-0.2862817,51.5556641],[-0.2862773,51.555572],[-0.2863193,51.5555628],[-0.2881383,51.5557926],[-0.2884112,51.5558247],[-0.2886875,51.5558505],[-0.2896491,51.5559164],[-0.2902083,51.5559743]]]}},
{"type":"Feature","properties":{"highway":"footway","name":null,"category":"Footpath (pedestrian only)"},"geometry":{"type":"MultiLineString","coordinates":[[[-0.2902332,51.5558898],[-0.2902234,51.5559336],[-0.2902083,51.5559743],[-0.2901862,51.5560089],[-0.2900172,51.5562086],[-0.2900018,51.5562437],[-0.2899978,51.5562728],[-0.2900063,51.556285],[-0.2900125,51.5562941],[-0.2900393,51.556317],[-0.2900876,51.5563308],[-0.2901379,51.5563358],[-0.2901862,51.556332],[-0.2902251,51.5563174],[-0.2902573,51.5562941],[-0.2904329,51.5560744],[-0.2904564,51.5560214],[-0.2904381,51.5559579],[-0.2904135,51.555878],[-0.2903853,51.5552551],[-0.2903753,51.5552297],[-0.290335,51.555218],[-0.2895009,51.5551592],[-0.2888739,51.5551167],[-0.2886955,51.5551017],[-0.2885386,51.5550809],[-0.2864961,51.5548245],[-0.28648,51.5548044],[-0.2864874,51.5547757],[-0.2864879,51.5547741],[-0.2865846,51.5544509]]]}},
{"type":"Feature","properties":{"highway":"path","name":null,"category":"Shared path"},"geometry":{"type":"MultiLineString","coordinates":[[[-0.2821565,51.5585941],[-0.2821571,51.55865],[-0.2821572,51.5586574],[-0.2821619,51.5591117],[-0.2821637,51.559283],[-0.2821647,51.5593358]]]}},
{"type":"Feature","properties":{"highway":"path","name":null,"category":"Shared path"},"geometry":{"type":"MultiLineString","coordinates":[[[-0.2821091,51.5591124],[-0.2821619,51.5591117],[-0.2823428,51.5590951]]]}},
{"type":"Feature","properties":{"highway":"footway","name":null,"category":"Footpath (pedestrian only)"},"geometry":{"type":"MultiLineString","coordinates":[[[-0.2799533,51.5630167],[-0.2799882,51.5630165],[-0.280019,51.5630163]]]}},
{"type":"Feature","properties":{"highway":"footway","name":null,"category":"Footpath (pedestrian only)"},"geometry":{"type":"MultiLineString","coordinates":[[[-0.2798498,51.5630172],[-0.2798856,51.563017],[-0.27992,51.5630168]]]}},
{"type":"Feature","properties":{"highway":"footway","name":null,"category":"Footpath (pedestrian only)"},"geometry":{"type":"MultiLineString","coordinates":[[[-0.2797179,51.5630178],[-0.2797477,51.5630177],[-0.2797641,51.5630176],[-0.2797796,51.5630175],[-0.2798149,51.5630174]]]}},
{"type":"Feature","properties":{"highway":"footway","name":null,"category":"Footpath (pedestrian only)"},"geometry":{"type":"MultiLineString","coordinates":[[[-0.2826819,51.5610229],[-0.2826499,51.5610484],[-0.2825893,51.5610513]]]}},
{"type":"Feature","properties":{"highway":"footway","name":null,"category":"Footpath (pedestrian only)"},"geometry":{"type":"MultiLineString","coordinates":[[[-0.2826055,51.5618942],[-0.2825779,51.561921],[-0.2825736,51.5619501]]]}},
{"type":"Feature","properties":{"highway":"footway","name":null,"category":"Footpath (pedestrian only)"},"geometry":{"type":"MultiLineString","coordinates":[[[-0.2848402,51.55867],[-0.2848648,51.5586354],[-0.2848895,51.5585975]]]}},
{"type":"Feature","properties":{"highway":"footway","name":null,"category":"Footpath (pedestrian only)"},"geometry":{"type":"MultiLineString","coordinates":[[[-0.2856173,51.5541403],[-0.2856041,51.5542206]]]}},
{"type":"Feature","properties":{"highway":"footway","name":null,"category":"Footpath (pedestrian only)"},"geometry":{"type":"MultiLineString","coordinates":[[[-0.2805985,51.5630174],[-0.2804893,51.5629847],[-0.2803356,51.5629386]]]}},
{"type":"Feature","properties":{"highway":"footway","name":null,"category":"Footpath (pedestrian only)"},"geometry":{"type":"MultiLineString","coordinates":[[[-0.2795509,51.5627183],[-0.2795577,51.5626955],[-0.2795581,51.5626251]]]}},
{"type":"Feature","properties":{"highway":"footway","name":null,"category":"Footpath (pedestrian only)"},"geometry":{"type":"MultiLineString","coordinates":[[[-0.279645,51.5617447],[-0.2795532,51.5617453],[-0.2795531,51.561759]]]}},
{"type":"Feature","properties":{"highway":"path","name":null,"category":"Shared path"},"geometry":{"type":"MultiLineString","coordinates":[[[-0.2808432,51.5628081],[-0.2807705,51.5627915],[-0.280642,51.5629149]]]}},
{"type":"Feature","properties":{"highway":"footway","name":null,"category":"Footpath (pedestrian only)"},"geometry":{"type":"MultiLineString","coordinates":[[[-0.2864096,51.554438],[-0.2863996,51.5544634],[-0.2863774,51.5544855],[-0.2863292,51.5545322],[-0.2863137,51.5545555],[-0.2863098,51.5545697],[-0.2862809,51.5546744],[-0.2862793,51.5547037],[-0.2862923,51.5547369],[-0.2862903,51.5547507],[-0.2862775,51.5547607],[-0.2862601,51.5547678],[-0.2860583,51.5548082],[-0.2857639,51.554867],[-0.2855426,51.5548912],[-0.2848604,51.5549939],[-0.2847232,51.5550146],[-0.2843764,51.5550776],[-0.2841653,51.5551205],[-0.2841177,51.5551055],[-0.2838944,51.5551505],[-0.2838562,51.5551822],[-0.2837133,51.5551997],[-0.2836798,51.555201],[-0.2836082,51.5552043],[-0.2834699,51.5552089],[-0.2833378,51.5552009],[-0.2832312,51.5551897],[-0.2831239,51.5551726],[-0.283024,51.5551484],[-0.2829181,51.5551109],[-0.2824876,51.5549329],[-0.2821771,51.554832],[-0.2820252,51.554789],[-0.2820018,51.5547571],[-0.2818308,51.5547181],[-0.2817513,51.5547315],[-0.2816467,51.5547144],[-0.2810372,51.5546481],[-0.2807106,51.5546243],[-0.2801125,51.5545831],[-0.2799482,51.5545735],[-0.2797839,51.5545706],[-0.2795921,51.5545797],[-0.2783637,51.5546569]]]}},
{"type":"Feature","properties":{"highway":"footway","name":null,"category":"Footpath (pedestrian only)"},"geometry":{"type":"MultiLineString","coordinates":[[[-0.2746295,51.5632608],[-0.2745153,51.5632099],[-0.2744338,51.5632077],[-0.274353,51.5631233],[-0.2742661,51.5629722],[-0.2740772,51.5628953],[-0.2740516,51.5628866]]]}},
{"type":"Feature","properties":{"highway":"footway","name":null,"category":"Footpath (pedestrian only)"},"geometry":{"type":"MultiLineString","coordinates":[[[-0.2728548,51.562898],[-0.2727549,51.5628911],[-0.2726937,51.5628796],[-0.2726139,51.5628564],[-0.2725358,51.5628404],[-0.2724721,51.5628349],[-0.2723344,51.5628367],[-0.2724204,51.5627906],[-0.2725021,51.5627706],[-0.2727073,51.5627461],[-0.2728708,51.5627445],[-0.2729739,51.5626991],[-0.2730176,51.5626023],[-0.2730919,51.5625293],[-0.2732046,51.5624802],[-0.2732353,51.5624816],[-0.2733579,51.5624873],[-0.2738558,51.5625954],[-0.2742528,51.5626551],[-0.2744793,51.5626646],[-0.274617,51.5626946],[-0.2747076,51.5627318],[-0.2747549,51.5627597],[-0.2747502,51.5627892],[-0.2747616,51.5629219],[-0.2745153,51.5632099]]]}},
{"type":"Feature","properties":{"highway":"footway","name":null,"category":"Footpath (pedestrian only)"},"geometry":{"type":"MultiLineString","coordinates":[[[-0.2735997,51.5629453],[-0.2735656,51.5629847],[-0.2735374,51.5630465],[-0.2734816,51.5630815],[-0.2734852,51.5630919],[-0.2735067,51.5631189],[-0.2733987,51.5631547],[-0.2733434,51.563152],[-0.2733086,51.5631399]]]}},
{"type":"Feature","properties":{"highway":"footway","name":null,"category":"Footpath (pedestrian only)"},"geometry":{"type":"MultiLineString","coordinates":[[[-0.2809636,51.557482],[-0.2808614,51.5573898],[-0.2808247,51.5573567]]]}},
{"type":"Feature","properties":{"highway":"footway","name":null,"category":"Footpath (pedestrian only)"},"geometry":{"type":"MultiLineString","coordinates":[[[-0.2812411,51.5601089],[-0.2812988,51.5600536],[-0.28151,51.5598612],[-0.2816571,51.5597239],[-0.2818156,51.559576],[-0.2820456,51.5593613],[-0.2820588,51.5593345]]]}},
{"type":"Feature","properties":{"highway":"footway","name":null,"category":"Footpath (pedestrian only)"},"geometry":{"type":"MultiLineString","coordinates":[[[-0.28151,51.5598612],[-0.2816581,51.5599284],[-0.2820536,51.5601076]]]}},
{"type":"Feature","properties":{"highway":"footway","name":"Elvin Gardens","category":"Footpath (pedestrian only)"},"geometry":{"type":"MultiLineString","coordinates":[[[-0.2820535,51.559881],[-0.2820569,51.5597561],[-0.2820577,51.5597232],[-0.2820578,51.5596965],[-0.2820588,51.5593345]]]}},
{"type":"Feature","properties":{"highway":"footway","name":null,"category":"Footpath (pedestrian only)"},"geometry":{"type":"MultiLineString","coordinates":[[[-0.2820577,51.5597232],[-0.2816571,51.5597239]]]}},
{"type":"Feature","properties":{"highway":"footway","name":null,"category":"Footpath (pedestrian only)"},"geometry":{"type":"MultiLineString","coordinates":[[[-0.2820578,51.5596965],[-0.2818156,51.559576],[-0.2814216,51.5593374]]]}},
{"type":"Feature","properties":{"highway":"footway","name":null,"category":"Footpath (pedestrian only)"},"geometry":{"type":"MultiLineString","coordinates":[[[-0.2820569,51.5597561],[-0.2816581,51.5599284]]]}},
{"type":"Feature","properties":{"highway":"footway","name":null,"category":"Footpath (pedestrian only)"},"geometry":{"type":"MultiLineString","coordinates":[[[-0.2783487,51.5718777],[-0.2782752,51.5718814],[-0.2782174,51.5718728],[-0.2781575,51.5718542],[-0.2781216,51.5718381],[-0.2780937,51.5717959],[-0.2781356,51.5717401],[-0.2781675,51.5716831],[-0.2781647,51.5716586],[-0.277982,51.5713868],[-0.2779353,51.5712895],[-0.2778496,51.5711475],[-0.2776448,51.5708354],[-0.2775395,51.5707135],[-0.2774698,51.5706469],[-0.2773955,51.570592],[-0.2772798,51.5705127],[-0.2770445,51.5704036],[-0.2766355,51.5702362],[-0.2762505,51.5700738],[-0.276075,51.5699919],[-0.2759832,51.5699386],[-0.2759074,51.5698803],[-0.2757915,51.5697276],[-0.2757382,51.5696103],[-0.2756894,51.5693702],[-0.2755273,51.5689838],[-0.2754519,51.5687727],[-0.275423,51.5686402],[-0.275403,51.5684705],[-0.275403,51.568327],[-0.2754163,51.5680786],[-0.2754408,51.567942],[-0.2754829,51.5678247],[-0.2756139,51.5675859],[-0.2757671,51.5673624],[-0.275907,51.5671733],[-0.275998,51.5670146],[-0.2761379,51.5666917],[-0.27624,51.5664709],[-0.2763998,51.5661148],[-0.2764825,51.5659665],[-0.2765854,51.5658711],[-0.2769668,51.5655177],[-0.2769504,51.5654993]]]}},
{"type":"Feature","properties":{"highway":"footway","name":null,"category":"Footpath (pedestrian only)"},"geometry":{"type":"MultiLineString","coordinates":[[[-0.2769504,51.5654993],[-0.2770619,51.5654215],[-0.277168,51.5653572],[-0.2771548,51.565335],[-0.2771542,51.5652887]]]}},
{"type":"Feature","properties":{"highway":"footway","name":null,"category":"Footpath (pedestrian only)"},"geometry":{"type":"MultiLineString","coordinates":[[[-0.2771542,51.5652887],[-0.2772457,51.5652454],[-0.277296,51.5652179],[-0.2773545,51.5651875],[-0.2774655,51.5650936],[-0.277694,51.5648482],[-0.2777374,51.5647931],[-0.2782492,51.5641538]]]}},
{"type":"Feature","properties":{"highway":"footway","name":null,"category":"Footpath (pedestrian only)"},"geometry":{"type":"MultiLineString","coordinates":[[[-0.2783535,51.5640365],[-0.2785998,51.5637041],[-0.278691,51.563581],[-0.2787509,51.5635065],[-0.278783,51.5634606]]]}},
{"type":"Feature","properties":{"highway":"footway","name":null,"category":"Footpath (pedestrian only)"},"geometry":{"type":"MultiLineString","coordinates":[[[-0.2782492,51.5641538],[-0.2782902,51.5641072],[-0.2783535,51.5640365]]]}},
{"type":"Feature","properties":{"highway":"footway","name":null,"category":"Footpath (pedestrian only)"},"geometry":{"type":"MultiLineString","coordinates":[[[-0.2789993,51.5631796],[-0.2790843,51.5632038],[-0.2791591,51.5632272],[-0.2791779,51.5632324]]]}},
{"type":"Feature","properties":{"highway":"footway","name":null,"category":"Footpath (pedestrian only)"},"geometry":{"type":"MultiLineString","coordinates":[[[-0.2834632,51.5552968],[-0.2834667,51.5552508],[-0.2834699,51.5552089]]]}},
{"type":"Feature","properties":{"highway":"footway","name":null,"category":"Footpath (pedestrian only)"},"geometry":{"type":"MultiLineString","coordinates":[[[-0.2844201,51.5551647],[-0.2844162,51.555157],[-0.2843995,51.5551239],[-0.2843817,51.5550883],[-0.2843764,51.5550776]]]}},
{"type":"Feature","properties":{"highway":"footway","name":null,"category":"Footpath (pedestrian only)"},"geometry":{"type":"MultiLineString","coordinates":[[[-0.2861112,51.5549233],[-0.2860831,51.5548593],[-0.2860583,51.5548082]]]}},
{"type":"Feature","properties":{"highway":"footway","name":null,"category":"Footpath (pedestrian only)"},"geometry":{"type":"MultiLineString","coordinates":[[[-0.2863206,51.5555495],[-0.286331,51.5555207],[-0.2863465,51.5554822]]]}},
{"type":"Feature","properties":{"highway":"footway","name":null,"category":"Footpath (pedestrian only)"},"geometry":{"type":"MultiLineString","coordinates":[[[-0.2888558,51.5552047],[-0.2886587,51.5551868],[-0.2885064,51.5551676],[-0.2864666,51.5549137],[-0.2863969,51.5552068],[-0.2863565,51.5553661],[-0.2863392,51.5554478],[-0.2863707,51.5554753],[-0.2881618,51.5557092],[-0.2884293,51.5557371],[-0.2887143,51.5557663],[-0.2896678,51.5558342],[-0.2902332,51.5558898],[-0.2902573,51.5558922],[-0.2902713,51.5558897],[-0.2902807,51.5558764],[-0.2902526,51.5553152],[-0.2902325,51.5552998],[-0.2888558,51.5552047]]]}},
{"type":"Feature","properties":{"highway":"footway","name":null,"category":"Footpath (pedestrian only)"},"geometry":{"type":"MultiLineString","coordinates":[[[-0.2860834,51.5541679],[-0.2858709,51.554163],[-0.2856286,51.5541619]]]}},
{"type":"Feature","properties":{"highway":"footway","name":null,"category":"Footpath (pedestrian only)"},"geometry":{"type":"MultiLineString","coordinates":[[[-0.2856219,51.554434],[-0.2852382,51.5544236],[-0.2850145,51.5544144]]]}},
{"type":"Feature","properties":{"highway":"footway","name":null,"category":"Footpath (pedestrian only)"},"geometry":{"type":"MultiLineString","coordinates":[[[-0.2860205,51.5561378],[-0.2861198,51.5561455],[-0.2862111,51.5561542],[-0.286242,51.5561611],[-0.2864988,51.556169],[-0.2866068,51.5561824],[-0.2877018,51.5563237],[-0.2880136,51.5563825],[-0.2882221,51.5564333]]]}},
{"type":"Feature","properties":{"highway":"footway","name":null,"category":"Footpath (pedestrian only)"},"geometry":{"type":"MultiLineString","coordinates":[[[-0.2859872,51.5564104],[-0.2860811,51.5564174],[-0.2861653,51.5564237],[-0.2861889,51.5564255]]]}},
{"type":"Feature","properties":{"highway":"footway","name":null,"category":"Footpath (pedestrian only)"},"geometry":{"type":"MultiLineString","coordinates":[[[-0.2862811,51.556467],[-0.2862789,51.5564],[-0.2862312,51.5562939],[-0.2861938,51.5562487],[-0.2862534,51.5562562],[-0.286512,51.5562667],[-0.2866443,51.5562766],[-0.2876709,51.5564096],[-0.2879754,51.5564655],[-0.2881678,51.5565121]]]}},
{"type":"Feature","properties":{"highway":"footway","name":null,"category":"Footpath (pedestrian only)"},"geometry":{"type":"MultiLineString","coordinates":[[[-0.2841311,51.559991],[-0.2843128,51.5597781],[-0.284613,51.559406],[-0.2849571,51.5589377],[-0.2849803,51.558906],[-0.2850259,51.5588536],[-0.2851926,51.5586037],[-0.2852918,51.5584499],[-0.2853133,51.5584382],[-0.2853389,51.5583973],[-0.2853602,51.5583674],[-0.2853555,51.5583519],[-0.285688,51.5578005],[-0.2857738,51.5576567],[-0.2858819,51.5574623],[-0.2859107,51.5574198],[-0.285955,51.5573793],[-0.2860053,51.5573426],[-0.286073,51.5573064],[-0.2861528,51.5572776],[-0.2862346,51.557258],[-0.2864774,51.5572192],[-0.2866973,51.557185],[-0.2867576,51.5571809],[-0.2868462,51.557185],[-0.2869045,51.5571959],[-0.2869555,51.5572105],[-0.2870071,51.5572376],[-0.2870913,51.5572943],[-0.2876293,51.557652]]]}},
{"type":"Feature","properties":{"highway":"footway","name":null,"category":"Footpath (pedestrian only)"},"geometry":{"type":"MultiLineString","coordinates":[[[-0.2864904,51.5548417],[-0.2864848,51.5548588],[-0.2864721,51.554897]]]}},
{"type":"Feature","properties":{"highway":"footway","name":null,"category":"Footpath (pedestrian only)"},"geometry":{"type":"MultiLineString","coordinates":[[[-0.2862903,51.5547507],[-0.2863894,51.5547624],[-0.2864879,51.5547741]]]}},
{"type":"Feature","properties":{"highway":"footway","name":null,"category":"Footpath (pedestrian only)"},"geometry":{"type":"MultiLineString","coordinates":[[[-0.2843118,51.5569404],[-0.2843699,51.5569405]]]}},
{"type":"Feature","properties":{"highway":"footway","name":null,"category":"Footpath (pedestrian only)"},"geometry":{"type":"MultiLineString","coordinates":[[[-0.2843789,51.5569757],[-0.2844078,51.5569905]]]}},
{"type":"Feature","properties":{"highway":"footway","name":null,"category":"Footpath (pedestrian only)"},"geometry":{"type":"MultiLineString","coordinates":[[[-0.2843857,51.5569981],[-0.2843789,51.5569757],[-0.2843611,51.5569549],[-0.2843061,51.5568974],[-0.2836738,51.5568952],[-0.2835232,51.5568947]]]}},
{"type":"Feature","properties":{"highway":"footway","name":null,"category":"Footpath (pedestrian only)"},"geometry":{"type":"MultiLineString","coordinates":[[[-0.2844918,51.5571316],[-0.2844771,51.5571131]]]}},
{"type":"Feature","properties":{"highway":"footway","name":null,"category":"Footpath (pedestrian only)"},"geometry":{"type":"MultiLineString","coordinates":[[[-0.2845181,51.5571292],[-0.2844996,51.5571054]]]}},
{"type":"Feature","properties":{"highway":"footway","name":null,"category":"Footpath (pedestrian only)"},"geometry":{"type":"MultiLineString","coordinates":[[[-0.2847037,51.5571121],[-0.2846682,51.5569011],[-0.2844803,51.5569014],[-0.2834122,51.5568985],[-0.2829482,51.5569036],[-0.2829496,51.5570049],[-0.2842914,51.5570012],[-0.2844147,51.5571388],[-0.2844918,51.5571316],[-0.2845181,51.5571292],[-0.2847037,51.5571121]]]}},
{"type":"Feature","properties":{"highway":"footway","name":null,"category":"Footpath (pedestrian only)"},"geometry":{"type":"MultiLineString","coordinates":[[[-0.2831742,51.5570113],[-0.2831742,51.5569591],[-0.2831742,51.5569466],[-0.2831742,51.5568981]]]}},
{"type":"Feature","properties":{"highway":"footway","name":null,"category":"Footpath (pedestrian only)"},"geometry":{"type":"MultiLineString","coordinates":[[[-0.2843716,51.5570076],[-0.2831742,51.5570113],[-0.2827728,51.5570126],[-0.2825379,51.5570133]]]}},
{"type":"Feature","properties":{"highway":"footway","name":null,"category":"Footpath (pedestrian only)"},"geometry":{"type":"MultiLineString","coordinates":[[[-0.2836993,51.5569509],[-0.2837112,51.5569513]]]}},
{"type":"Feature","properties":{"highway":"footway","name":null,"category":"Footpath (pedestrian only)"},"geometry":{"type":"MultiLineString","coordinates":[[[-0.2836738,51.5568952],[-0.2836746,51.5569533],[-0.2836983,51.5569523],[-0.2837112,51.5569513]]]}},
{"type":"Feature","properties":{"highway":"footway","name":null,"category":"Footpath (pedestrian only)"},"geometry":{"type":"MultiLineString","coordinates":[[[-0.2843701,51.5569532],[-0.2844506,51.5569518]]]}},
{"type":"Feature","properties":{"highway":"footway","name":null,"category":"Footpath (pedestrian only)"},"geometry":{"type":"MultiLineString","coordinates":[[[-0.2843778,51.5572305],[-0.2843716,51.5570076],[-0.2843701,51.5569532],[-0.2843699,51.5569405],[-0.2843691,51.5568999],[-0.2834122,51.5568985],[-0.2833664,51.5568984],[-0.2831742,51.5568981],[-0.2829576,51.5568978],[-0.2829378,51.5568886],[-0.2827934,51.5568217]]]}},
{"type":"Feature","properties":{"highway":"footway","name":null,"category":"Footpath (pedestrian only)"},"geometry":{"type":"MultiLineString","coordinates":[[[-0.2844506,51.5569518],[-0.2844249,51.5569505]]]}},
{"type":"Feature","properties":{"highway":"footway","name":null,"category":"Footpath (pedestrian only)"},"geometry":{"type":"MultiLineString","coordinates":[[[-0.2843611,51.5569549],[-0.284427,51.5569531],[-0.2844506,51.5569518]]]}},
{"type":"Feature","properties":{"highway":"footway","name":null,"category":"Footpath (pedestrian only)"},"geometry":{"type":"MultiLineString","coordinates":[[[-0.2839857,51.555985],[-0.2843464,51.5559852]]]}},
{"type":"Feature","properties":{"highway":"footway","name":null,"category":"Footpath (pedestrian only)"},"geometry":{"type":"MultiLineString","coordinates":[[[-0.2837013,51.5559849],[-0.2839857,51.555985]]]}},
{"type":"Feature","properties":{"highway":"footway","name":null,"category":"Footpath (pedestrian only)"},"geometry":{"type":"MultiLineString","coordinates":[[[-0.2836188,51.5560732],[-0.2839636,51.5560723]]]}},
{"type":"Feature","properties":{"highway":"footway","name":null,"category":"Footpath (pedestrian only)"},"geometry":{"type":"MultiLineString","coordinates":[[[-0.2801581,51.5577979],[-0.2802526,51.5577654],[-0.2803445,51.5577837],[-0.280518,51.5577214],[-0.2808313,51.557609],[-0.2808548,51.5575411],[-0.2810761,51.5574243],[-0.2813966,51.5572363],[-0.2815744,51.5571226],[-0.2815817,51.5571179],[-0.2817019,51.5570296],[-0.281707,51.5570258],[-0.2817761,51.5569691],[-0.2818479,51.5568945],[-0.281929,51.5568002],[-0.281982,51.5567273],[-0.2820209,51.5566672],[-0.2820779,51.5565447],[-0.2821114,51.5564659],[-0.282157,51.556267],[-0.2821711,51.5561265],[-0.2821751,51.5561171],[-0.2821805,51.5561044],[-0.2821999,51.5560906],[-0.2822301,51.5560815],[-0.2822797,51.5560769],[-0.2829194,51.5560751],[-0.2836188,51.5560732]]]}},
{"type":"Feature","properties":{"highway":"footway","name":null,"category":"Footpath (pedestrian only)"},"geometry":{"type":"MultiLineString","coordinates":[[[-0.2829194,51.5560751],[-0.2829179,51.5560242],[-0.2829167,51.5559846]]]}},
{"type":"Feature","properties":{"highway":"footway","name":null,"category":"Footpath (pedestrian only)"},"geometry":{"type":"MultiLineString","coordinates":[[[-0.2821102,51.5559781],[-0.2825473,51.5559844],[-0.2826838,51.5559845],[-0.2829167,51.5559846],[-0.2834298,51.5559848],[-0.2837013,51.5559849]]]}},
{"type":"Feature","properties":{"highway":"footway","name":null,"category":"Footpath (pedestrian only)"},"geometry":{"type":"MultiLineString","coordinates":[[[-0.2815962,51.5578603],[-0.2816708,51.5578046],[-0.281707,51.5577825],[-0.2817533,51.5577662],[-0.2818217,51.5577612],[-0.2820364,51.5577611],[-0.2837613,51.55776],[-0.2854233,51.5577587],[-0.2854588,51.5577649],[-0.2854816,51.5577729],[-0.285495,51.5577866],[-0.2854943,51.5578083],[-0.2854671,51.5578618],[-0.2852107,51.558279],[-0.2850404,51.5585316],[-0.2850095,51.5585595],[-0.2849747,51.5585837],[-0.2849405,51.5585958],[-0.2848895,51.5585975],[-0.2848097,51.5585804],[-0.2845066,51.558502],[-0.2844141,51.5584812],[-0.2842862,51.5584621],[-0.2841338,51.5584591],[-0.2839004,51.5584828],[-0.2835558,51.5585433],[-0.2834257,51.5585537],[-0.2832802,51.5585566],[-0.2817747,51.5585622],[-0.2817493,51.5585623],[-0.2817017,51.5585625]]]}},
{"type":"Feature","properties":{"highway":"footway","name":null,"category":"Footpath (pedestrian only)"},"geometry":{"type":"MultiLineString","coordinates":[[[-0.2817017,51.5585625],[-0.2817013,51.5585777],[-0.2817008,51.5585971],[-0.281703,51.5586533]]]}},
{"type":"Feature","properties":{"highway":"footway","name":null,"category":"Footpath (pedestrian only)"},"geometry":{"type":"MultiLineString","coordinates":[[[-0.2804095,51.5586511],[-0.2804092,51.5586061],[-0.280409,51.558574],[-0.2804089,51.558559]]]}},
{"type":"Feature","properties":{"highway":"footway","name":null,"category":"Footpath (pedestrian only)"},"geometry":{"type":"MultiLineString","coordinates":[[[-0.2766055,51.5556775],[-0.2765445,51.55568],[-0.2764781,51.5556917],[-0.2764164,51.5557142],[-0.2763071,51.5557775],[-0.2763111,51.5559055],[-0.2763037,51.5559193],[-0.2762883,51.5559331],[-0.2762635,51.5559393],[-0.2760912,51.5559393],[-0.2760737,51.5559293],[-0.275992,51.5559849],[-0.2758927,51.5560577],[-0.2758095,51.5561294],[-0.2757418,51.5562057],[-0.2756795,51.5563037],[-0.2756459,51.5563804],[-0.2755976,51.5565272],[-0.2755849,51.5566335],[-0.2755782,51.5566948],[-0.2755731,51.557091],[-0.2755728,51.5571138],[-0.275573,51.5579084],[-0.275581,51.558299],[-0.2755836,51.5584249],[-0.2755916,51.5584766],[-0.2756077,51.5585158],[-0.2756412,51.5585433],[-0.2756868,51.5585608],[-0.2757244,51.5585612],[-0.275768,51.5585345],[-0.2761086,51.5585308],[-0.2761763,51.5585625],[-0.2762593,51.5585625],[-0.2763855,51.5585624],[-0.2773109,51.5585604],[-0.2780743,51.5585596],[-0.2792255,51.5585559],[-0.2793121,51.5585561],[-0.2794158,51.5585564],[-0.2796171,51.5585558],[-0.2799254,51.5585573],[-0.2799627,51.5585571],[-0.2801635,51.5585584],[-0.2804089,51.558559],[-0.2806718,51.5585597],[-0.2807824,51.55856],[-0.2808756,51.5585603],[-0.2817017,51.5585625]]]}},
{"type":"Feature","properties":{"highway":"footway","name":null,"category":"Footpath (pedestrian only)"},"geometry":{"type":"MultiLineString","coordinates":[[[-0.2829368,51.5586838],[-0.2828851,51.5586835],[-0.2824822,51.5586809],[-0.2824514,51.5586508],[-0.2822598,51.55865],[-0.2821571,51.55865],[-0.281703,51.5586533],[-0.2806981,51.5586516],[-0.2804095,51.5586511],[-0.2800447,51.5586505],[-0.2799878,51.5586503],[-0.2796205,51.5586491],[-0.2794185,51.5586494],[-0.2793121,51.5586492],[-0.278766,51.5586483],[-0.2786884,51.5586613],[-0.2786578,51.5586979],[-0.2786549,51.5593263],[-0.278675,51.5607084],[-0.2786794,51.5607365],[-0.2786896,51.5607436],[-0.2787233,51.5607515],[-0.2787589,51.5607592],[-0.2796445,51.5607636],[-0.2806335,51.5607661],[-0.2814793,51.5607678],[-0.2820766,51.5607716],[-0.282214,51.560774],[-0.2822569,51.5607807],[-0.2823722,51.5608061],[-0.2824426,51.5608316],[-0.2826338,51.560927],[-0.2827008,51.5609608],[-0.2827484,51.560972],[-0.2827886,51.5609737],[-0.2828329,51.5609608],[-0.2828845,51.5609187],[-0.2831635,51.5606986],[-0.2834532,51.5604451],[-0.2837137,51.5602058],[-0.2838193,51.5601183],[-0.2840111,51.5599048],[-0.284164,51.5597189],[-0.2842921,51.5595565],[-0.2847956,51.5589001],[-0.2848157,51.5588526],[-0.2848023,51.5588193],[-0.2847661,51.5587751],[-0.2846971,51.5587496],[-0.2843678,51.5586717],[-0.2842256,51.5586533],[-0.2840956,51.5586442],[-0.2840728,51.5586358],[-0.2829891,51.5586433],[-0.2829596,51.5586471],[-0.2829415,51.5586596],[-0.2829368,51.5586838],[-0.2829267,51.5593207]]]}},
{"type":"Feature","properties":{"highway":"footway","name":null,"category":"Footpath (pedestrian only)"},"geometry":{"type":"MultiLineString","coordinates":[[[-0.281492,51.5578392],[-0.2813511,51.5577733],[-0.2808548,51.5575411]]]}},
{"type":"Feature","properties":{"highway":"footway","name":null,"category":"Footpath (pedestrian only)"},"geometry":{"type":"MultiLineString","coordinates":[[[-0.2810761,51.5574243],[-0.2815189,51.5576378],[-0.2816601,51.5577058]]]}},
{"type":"Feature","properties":{"highway":"footway","name":null,"category":"Footpath (pedestrian only)"},"geometry":{"type":"MultiLineString","coordinates":[[[-0.2801635,51.5585584],[-0.2801622,51.5583755],[-0.2801581,51.5577979]]]}},
{"type":"Feature","properties":{"highway":"footway","name":null,"category":"Footpath (pedestrian only)"},"geometry":{"type":"MultiLineString","coordinates":[[[-0.2859972,51.5559852],[-0.285992,51.5560235],[-0.2859865,51.5560836]]]}},
{"type":"Feature","properties":{"highway":"footway","name":null,"category":"Footpath (pedestrian only)"},"geometry":{"type":"MultiLineString","coordinates":[[[-0.2847956,51.5589001],[-0.2848612,51.5589154],[-0.2849571,51.5589377]]]}},
{"type":"Feature","properties":{"highway":"footway","name":null,"category":"Footpath (pedestrian only)"},"geometry":{"type":"MultiLineString","coordinates":[[[-0.2850095,51.5585595],[-0.2850905,51.5585805],[-0.2851926,51.5586037]]]}},
{"type":"Feature","properties":{"highway":"footway","name":null,"category":"Footpath (pedestrian only)"},"geometry":{"type":"MultiLineString","coordinates":[[[-0.2836119,51.5563517],[-0.2834723,51.5562879]]]}},
{"type":"Feature","properties":{"highway":"footway","name":null,"category":"Footpath (pedestrian only)"},"geometry":{"type":"MultiLineString","coordinates":[[[-0.2844965,51.5563474],[-0.2836119,51.5563517]]]}},
{"type":"Feature","properties":{"highway":"footway","name":null,"category":"Footpath (pedestrian only)"},"geometry":{"type":"MultiLineString","coordinates":[[[-0.2844803,51.5569014],[-0.2844806,51.5568927],[-0.2844965,51.5563474]]]}},
{"type":"Feature","properties":{"highway":"footway","name":null,"category":"Footpath (pedestrian only)"},"geometry":{"type":"MultiLineString","coordinates":[[[-0.278066,51.560847],[-0.2782339,51.5608474],[-0.2793456,51.5608504],[-0.2796463,51.5608507],[-0.2809616,51.5608544],[-0.2821228,51.560857]]]}},
{"type":"Feature","properties":{"highway":"footway","name":null,"category":"Footpath (pedestrian only)"},"geometry":{"type":"MultiLineString","coordinates":[[[-0.2818223,51.5578121],[-0.281822,51.5577851],[-0.2818217,51.5577612]]]}},
{"type":"Feature","properties":{"highway":"footway","name":null,"category":"Footpath (pedestrian only)"},"geometry":{"type":"MultiLineString","coordinates":[[[-0.2818217,51.5577612],[-0.2818224,51.5577287],[-0.2818392,51.5577084],[-0.2819183,51.5576395]]]}},
{"type":"Feature","properties":{"highway":"footway","name":null,"category":"Footpath (pedestrian only)"},"geometry":{"type":"MultiLineString","coordinates":[[[-0.2817483,51.5581097],[-0.2818843,51.5581092],[-0.2819498,51.5581089]]]}},
{"type":"Feature","properties":{"highway":"footway","name":null,"category":"Footpath (pedestrian only)"},"geometry":{"type":"MultiLineString","coordinates":[[[-0.2818226,51.5578418],[-0.2818225,51.5578275]]]}},
{"type":"Feature","properties":{"highway":"footway","name":null,"category":"Footpath (pedestrian only)"},"geometry":{"type":"MultiLineString","coordinates":[[[-0.281823,51.5578722],[-0.2818228,51.5578541]]]}},
{"type":"Feature","properties":{"highway":"footway","name":null,"category":"Footpath (pedestrian only)"},"geometry":{"type":"MultiLineString","coordinates":[[[-0.281748,51.5579375],[-0.2818237,51.5579367],[-0.2818232,51.5578905]]]}},
{"type":"Feature","properties":{"highway":"footway","name":null,"category":"Footpath (pedestrian only)"},"geometry":{"type":"MultiLineString","coordinates":[[[-0.2816371,51.5578945],[-0.2816478,51.5578862]]]}},
{"type":"Feature","properties":{"highway":"footway","name":null,"category":"Footpath (pedestrian only)"},"geometry":{"type":"MultiLineString","coordinates":[[[-0.2814842,51.5580135],[-0.2816249,51.557904]]]}},
{"type":"Feature","properties":{"highway":"footway","name":null,"category":"Footpath (pedestrian only)"},"geometry":{"type":"MultiLineString","coordinates":[[[-0.2813328,51.5581315],[-0.2814742,51.5580214]]]}},
{"type":"Feature","properties":{"highway":"footway","name":null,"category":"Footpath (pedestrian only)"},"geometry":{"type":"MultiLineString","coordinates":[[[-0.2811835,51.5582477],[-0.2813223,51.5581397]]]}},
{"type":"Feature","properties":{"highway":"footway","name":null,"category":"Footpath (pedestrian only)"},"geometry":{"type":"MultiLineString","coordinates":[[[-0.281046,51.5583549],[-0.2811729,51.5582559]]]}},
{"type":"Feature","properties":{"highway":"footway","name":null,"category":"Footpath (pedestrian only)"},"geometry":{"type":"MultiLineString","coordinates":[[[-0.2807824,51.55856],[-0.2808756,51.5584874],[-0.2810366,51.5583621]]]}},
{"type":"Feature","properties":{"highway":"footway","name":null,"category":"Footpath (pedestrian only)"},"geometry":{"type":"MultiLineString","coordinates":[[[-0.2817745,51.5585266],[-0.2825905,51.5585262]]]}},
{"type":"Feature","properties":{"highway":"footway","name":null,"category":"Footpath (pedestrian only)"},"geometry":{"type":"MultiLineString","coordinates":[[[-0.2817492,51.5585266],[-0.2817745,51.5585266]]]}},
{"type":"Feature","properties":{"highway":"footway","name":null,"category":"Footpath (pedestrian only)"},"geometry":{"type":"MultiLineString","coordinates":[[[-0.2817491,51.5584632],[-0.2817742,51.5584633]]]}},
{"type":"Feature","properties":{"highway":"footway","name":null,"category":"Footpath (pedestrian only)"},"geometry":{"type":"MultiLineString","coordinates":[[[-0.2825905,51.5585262],[-0.2826606,51.5585258],[-0.2829335,51.5584643]]]}},
{"type":"Feature","properties":{"highway":"footway","name":null,"category":"Footpath (pedestrian only)"},"geometry":{"type":"MultiLineString","coordinates":[[[-0.2818616,51.5584633],[-0.2829335,51.5584643],[-0.2835182,51.5584628]]]}},
{"type":"Feature","properties":{"highway":"footway","name":null,"category":"Footpath (pedestrian only)"},"geometry":{"type":"MultiLineString","coordinates":[[[-0.2811101,51.5576208],[-0.2810669,51.5576001]]]}},
{"type":"Feature","properties":{"highway":"footway","name":null,"category":"Footpath (pedestrian only)"},"geometry":{"type":"MultiLineString","coordinates":[[[-0.281213,51.5576702],[-0.2811703,51.5576497]]]}},
{"type":"Feature","properties":{"highway":"footway","name":null,"category":"Footpath (pedestrian only)"},"geometry":{"type":"MultiLineString","coordinates":[[[-0.2813162,51.5577198],[-0.2812711,51.5576982]]]}},
{"type":"Feature","properties":{"highway":"footway","name":null,"category":"Footpath (pedestrian only)"},"geometry":{"type":"MultiLineString","coordinates":[[[-0.281163,51.5575789],[-0.2811207,51.5575585]]]}},
{"type":"Feature","properties":{"highway":"footway","name":null,"category":"Footpath (pedestrian only)"},"geometry":{"type":"MultiLineString","coordinates":[[[-0.2812652,51.5576283],[-0.2812229,51.5576078]]]}},
{"type":"Feature","properties":{"highway":"footway","name":null,"category":"Footpath (pedestrian only)"},"geometry":{"type":"MultiLineString","coordinates":[[[-0.2813681,51.557678],[-0.2813251,51.5576572]]]}},
{"type":"Feature","properties":{"highway":"footway","name":null,"category":"Footpath (pedestrian only)"},"geometry":{"type":"MultiLineString","coordinates":[[[-0.2812115,51.5575405],[-0.2811704,51.5575201]]]}},
{"type":"Feature","properties":{"highway":"footway","name":null,"category":"Footpath (pedestrian only)"},"geometry":{"type":"MultiLineString","coordinates":[[[-0.2813125,51.5575904],[-0.2812707,51.5575697]]]}},
{"type":"Feature","properties":{"highway":"footway","name":null,"category":"Footpath (pedestrian only)"},"geometry":{"type":"MultiLineString","coordinates":[[[-0.2814142,51.5576407],[-0.2813735,51.5576205]]]}},
{"type":"Feature","properties":{"highway":"footway","name":null,"category":"Footpath (pedestrian only)"},"geometry":{"type":"MultiLineString","coordinates":[[[-0.2855396,51.5576705],[-0.285509,51.557728],[-0.2854816,51.5577729]]]}},
{"type":"Feature","properties":{"highway":"footway","name":null,"category":"Footpath (pedestrian only)"},"geometry":{"type":"MultiLineString","coordinates":[[[-0.2819183,51.5576395],[-0.2819397,51.5576507],[-0.2819739,51.5576566],[-0.2820366,51.5576566],[-0.2823589,51.5576568],[-0.2826277,51.557657],[-0.2838882,51.5576577],[-0.2843739,51.557658],[-0.2854574,51.5576586],[-0.2855057,51.5576699],[-0.2855396,51.5576705],[-0.2855721,51.5576566],[-0.2855952,51.5576353],[-0.2857163,51.5574239],[-0.2858725,51.5571821],[-0.2859121,51.5571004],[-0.2859242,51.557052],[-0.2859289,51.5568964],[-0.2859389,51.5567027],[-0.285951,51.5566143],[-0.2859872,51.5564104],[-0.2860205,51.5561378],[-0.2860234,51.5561127],[-0.2859865,51.5560836],[-0.2859563,51.5560711],[-0.2859215,51.5560669],[-0.2839636,51.5560723]]]}},
{"type":"Feature","properties":{"highway":"footway","name":null,"category":"Footpath (pedestrian only)"},"geometry":{"type":"MultiLineString","coordinates":[[[-0.2816732,51.5578994],[-0.2816478,51.5578862],[-0.2816251,51.5578748],[-0.2815962,51.5578603],[-0.2815161,51.5578206],[-0.2813796,51.5577503]]]}},
{"type":"Feature","properties":{"highway":"footway","name":null,"category":"Footpath (pedestrian only)"},"geometry":{"type":"MultiLineString","coordinates":[[[-0.2817493,51.5585623],[-0.2817492,51.5585266],[-0.2817491,51.5584632],[-0.2817483,51.5581097],[-0.281748,51.5579375],[-0.2817325,51.5579295]]]}},
{"type":"Feature","properties":{"highway":"footway","name":null,"category":"Footpath (pedestrian only)"},"geometry":{"type":"MultiLineString","coordinates":[[[-0.2838819,51.5584606],[-0.2841338,51.5584591]]]}},
{"type":"Feature","properties":{"highway":"footway","name":null,"category":"Footpath (pedestrian only)"},"geometry":{"type":"MultiLineString","coordinates":[[[-0.2835182,51.5584628],[-0.283774,51.5584613],[-0.2838819,51.5584606]]]}},
{"type":"Feature","properties":{"highway":"footway","name":null,"category":"Footpath (pedestrian only)"},"geometry":{"type":"MultiLineString","coordinates":[[[-0.2795526,51.5618099],[-0.2795525,51.5618201]]]}},
{"type":"Feature","properties":{"highway":"footway","name":null,"category":"Footpath (pedestrian only)"},"geometry":{"type":"MultiLineString","coordinates":[[[-0.2795125,51.562146],[-0.2795127,51.5618208],[-0.2795525,51.5618201],[-0.2795503,51.5620683]]]}},
{"type":"Feature","properties":{"highway":"footway","name":null,"category":"Footpath (pedestrian only)"},"geometry":{"type":"MultiLineString","coordinates":[[[-0.2798528,51.562551],[-0.2797101,51.5626257],[-0.2795858,51.562698]]]}},
{"type":"Feature","properties":{"highway":"footway","name":null,"category":"Footpath (pedestrian only)"},"geometry":{"type":"MultiLineString","coordinates":[[[-0.2795858,51.562698],[-0.279573,51.5627055],[-0.2795509,51.5627183],[-0.2794255,51.5628076],[-0.2792312,51.5629459]]]}},
{"type":"Feature","properties":{"highway":"footway","name":null,"category":"Footpath (pedestrian only)"},"geometry":{"type":"MultiLineString","coordinates":[[[-0.2794185,51.5586494],[-0.2794173,51.5586077],[-0.2794158,51.5585564]]]}},
{"type":"Feature","properties":{"highway":"footway","name":null,"category":"Footpath (pedestrian only)"},"geometry":{"type":"MultiLineString","coordinates":[[[-0.2808903,51.557165],[-0.2806744,51.5573009],[-0.2804786,51.557401],[-0.2801889,51.5575061],[-0.2800213,51.5575511],[-0.2798684,51.5575903],[-0.2796364,51.5576061],[-0.279454,51.5576061],[-0.279159,51.5575644],[-0.2788934,51.557491],[-0.2786292,51.5573818],[-0.2783677,51.5572517],[-0.2780458,51.5570783]]]}},
{"type":"Feature","properties":{"highway":"footway","name":null,"category":"Footpath (pedestrian only)"},"geometry":{"type":"MultiLineString","coordinates":[[[-0.277044,51.5550867],[-0.2767872,51.5552535],[-0.2766001,51.5553881],[-0.2765472,51.5554244],[-0.27647,51.5554515],[-0.2763822,51.5554719],[-0.2762816,51.5554819],[-0.2744434,51.5554822],[-0.2744047,51.5554762]]]}},
{"type":"Feature","properties":{"highway":"footway","name":null,"category":"Footpath (pedestrian only)"},"geometry":{"type":"MultiLineString","coordinates":[[[-0.2769039,51.5553264],[-0.2768482,51.5552897],[-0.2767872,51.5552535]]]}},
{"type":"Feature","properties":{"highway":"footway","name":null,"category":"Footpath (pedestrian only)"},"geometry":{"type":"MultiLineString","coordinates":[[[-0.2765839,51.5557316],[-0.2766692,51.5557429],[-0.276692,51.5556921]]]}},
{"type":"Feature","properties":{"highway":"footway","name":null,"category":"Footpath (pedestrian only)"},"geometry":{"type":"MultiLineString","coordinates":[[[-0.2765612,51.5558543],[-0.276757,51.5558626],[-0.2767678,51.5558155]]]}},
{"type":"Feature","properties":{"highway":"footway","name":null,"category":"Footpath (pedestrian only)"},"geometry":{"type":"MultiLineString","coordinates":[[[-0.2766008,51.5561052],[-0.2767523,51.556094],[-0.2767611,51.556128]]]}},
{"type":"Feature","properties":{"highway":"footway","name":null,"category":"Footpath (pedestrian only)"},"geometry":{"type":"MultiLineString","coordinates":[[[-0.2859972,51.5559852],[-0.2860321,51.5559722],[-0.2860495,51.5559514],[-0.2860869,51.5555946],[-0.2861091,51.5554379],[-0.2862259,51.5549921],[-0.2862205,51.5549616],[-0.2862132,51.5549483],[-0.2861971,51.5549358],[-0.2861763,51.5549262],[-0.2861441,51.5549224],[-0.2861112,51.5549233],[-0.2859134,51.5549437],[-0.2857927,51.5549858],[-0.2855654,51.5550221],[-0.2854534,51.5550058],[-0.2848942,51.55508],[-0.28463,51.5551272],[-0.2844201,51.5551647],[-0.2839688,51.5552581],[-0.2838434,51.5552789],[-0.2838029,51.5552828],[-0.2837281,51.5552901],[-0.2835893,51.5552977],[-0.2834632,51.5552968],[-0.2833097,51.5552877],[-0.2831849,51.5552727],[-0.2830824,51.555256],[-0.282967,51.5552272],[-0.2828866,51.5551984],[-0.2824306,51.5550212],[-0.2822898,51.5549757],[-0.2820651,51.5548987],[-0.2818425,51.5548445],[-0.2816567,51.5548103],[-0.2813463,51.5547619],[-0.2809909,51.5547261],[-0.2804719,51.5546877],[-0.2800106,51.5546635],[-0.2797196,51.5546627],[-0.2794393,51.5546785],[-0.2791496,51.5546927],[-0.2783757,51.5547411],[-0.2781933,51.5547591]]]}},
{"type":"Feature","properties":{"highway":"footway","name":null,"category":"Footpath (pedestrian only)"},"geometry":{"type":"MultiLineString","coordinates":[[[-0.2816112,51.5568641],[-0.2817044,51.5567523],[-0.2817728,51.5566572],[-0.2817205,51.5565622]]]}},
{"type":"Feature","properties":{"highway":"footway","name":null,"category":"Footpath (pedestrian only)"},"geometry":{"type":"MultiLineString","coordinates":[[[-0.2771397,51.5553283],[-0.2770159,51.5554365],[-0.2769606,51.5555003]]]}},
{"type":"Feature","properties":{"highway":"footway","name":null,"category":"Footpath (pedestrian only)"},"geometry":{"type":"MultiLineString","coordinates":[[[-0.2772142,51.5552159],[-0.2770319,51.5553018],[-0.2769279,51.5553869]]]}},
{"type":"Feature","properties":{"highway":"footway","name":null,"category":"Footpath (pedestrian only)"},"geometry":{"type":"MultiLineString","coordinates":[[[-0.2774893,51.5554224],[-0.2771397,51.5553283],[-0.2770319,51.5553018]]]}},
{"type":"Feature","properties":{"highway":"footway","name":null,"category":"Footpath (pedestrian only)"},"geometry":{"type":"MultiLineString","coordinates":[[[-0.2773287,51.5567863],[-0.2769615,51.5564655]]]}},
{"type":"Feature","properties":{"highway":"footway","name":null,"category":"Footpath (pedestrian only)"},"geometry":{"type":"MultiLineString","coordinates":[[[-0.2772331,51.556824],[-0.2769143,51.5565692]]]}},
{"type":"Feature","properties":{"highway":"footway","name":null,"category":"Footpath (pedestrian only)"},"geometry":{"type":"MultiLineString","coordinates":[[[-0.2775791,51.5566939],[-0.2773287,51.5567863],[-0.2772331,51.556824],[-0.2774819,51.5570097]]]}},
{"type":"Feature","properties":{"highway":"footway","name":null,"category":"Footpath (pedestrian only)"},"geometry":{"type":"MultiLineString","coordinates":[[[-0.2781933,51.5547591],[-0.2780874,51.5547711],[-0.2778339,51.5548253],[-0.2776596,51.5548794],[-0.2775134,51.5549462],[-0.277374,51.5550204],[-0.2771681,51.5551538],[-0.2769039,51.5553264]]]}},
{"type":"Feature","properties":{"highway":"footway","name":null,"category":"Footpath (pedestrian only)"},"geometry":{"type":"MultiLineString","coordinates":[[[-0.2769039,51.5553264],[-0.2767691,51.5554365],[-0.2766886,51.5555374],[-0.2766055,51.5556775],[-0.2765839,51.5557316],[-0.2765612,51.5558543],[-0.2765652,51.55599],[-0.2766008,51.5561052],[-0.2766907,51.5562468]]]}},
{"type":"Feature","properties":{"highway":"footway","name":null,"category":"Footpath (pedestrian only)"},"geometry":{"type":"MultiLineString","coordinates":[[[-0.2813463,51.5547619],[-0.2813316,51.5547812],[-0.2811331,51.5549562]]]}},
{"type":"Feature","properties":{"highway":"footway","name":null,"category":"Footpath (pedestrian only)"},"geometry":{"type":"MultiLineString","coordinates":[[[-0.2754293,51.5583007],[-0.2754983,51.5582999],[-0.275581,51.558299]]]}},
{"type":"Feature","properties":{"highway":"footway","name":null,"category":"Footpath (pedestrian only)"},"geometry":{"type":"MultiLineString","coordinates":[[[-0.2757981,51.5559785],[-0.275713,51.5560531],[-0.2756245,51.5561523],[-0.2755212,51.5562987],[-0.2754699,51.5564269],[-0.2754421,51.5565434],[-0.2754334,51.556651],[-0.2754316,51.5573741],[-0.2754311,51.5575876],[-0.27543,51.5580167],[-0.2754293,51.5583007],[-0.2754287,51.5583982],[-0.2754243,51.5584109],[-0.2754126,51.5584228],[-0.2753975,51.5584295],[-0.2753733,51.5584355],[-0.2753459,51.5584389]]]}},
{"type":"Feature","properties":{"highway":"footway","name":null,"category":"Footpath (pedestrian only)"},"geometry":{"type":"MultiLineString","coordinates":[[[-0.2785273,51.5587179],[-0.2785253,51.5586913],[-0.2785166,51.5586763],[-0.2784958,51.5586613],[-0.2784569,51.5586513],[-0.2780776,51.5586518],[-0.2778451,51.5586524],[-0.2763857,51.558643],[-0.2758524,51.5586506],[-0.2757757,51.5586596],[-0.2757017,51.5586826],[-0.2755893,51.5587295],[-0.2755092,51.5587832],[-0.2754321,51.5588493],[-0.2753413,51.5589077],[-0.2751348,51.5590044],[-0.2749561,51.5590695],[-0.274782,51.5591366],[-0.2747404,51.5591682],[-0.2747256,51.5592079],[-0.2747363,51.5598108],[-0.2747469,51.5598438],[-0.2747752,51.5598801],[-0.274807,51.5599065],[-0.275378,51.5601385],[-0.2754808,51.5601834],[-0.2756175,51.5602432],[-0.2764697,51.5606166],[-0.2766108,51.5606555],[-0.2767665,51.560689],[-0.2769334,51.5607058],[-0.277436,51.5607264],[-0.2776986,51.5607371],[-0.2779261,51.5607479],[-0.2781357,51.5607591],[-0.2784511,51.5607566],[-0.2785005,51.5607394],[-0.2785382,51.5607114],[-0.2785421,51.5604629],[-0.2785355,51.5600575],[-0.2785358,51.5593269],[-0.2785273,51.5587179]]]}},
{"type":"Feature","properties":{"highway":"footway","name":null,"category":"Footpath (pedestrian only)"},"geometry":{"type":"MultiLineString","coordinates":[[[-0.278783,51.5634606],[-0.2789993,51.5631796]]]}},
{"type":"Feature","properties":{"highway":"footway","name":null,"category":"Footpath (pedestrian only)"},"geometry":{"type":"MultiLineString","coordinates":[[[-0.2792312,51.5629459],[-0.2791004,51.5630628],[-0.2789993,51.5631796]]]}},
{"type":"Feature","properties":{"highway":"footway","name":null,"category":"Footpath (pedestrian only)"},"geometry":{"type":"MultiLineString","coordinates":[[[-0.2821751,51.5561171],[-0.2822694,51.5561034],[-0.2827899,51.5561041],[-0.2830908,51.5561778]]]}},
{"type":"Feature","properties":{"highway":"footway","name":null,"category":"Footpath (pedestrian only)"},"geometry":{"type":"MultiLineString","coordinates":[[[-0.2847168,51.5587211],[-0.2847355,51.5586963],[-0.2847541,51.5586718]]]}},
{"type":"Feature","properties":{"highway":"footway","name":null,"category":"Footpath (pedestrian only)"},"geometry":{"type":"MultiLineString","coordinates":[[[-0.2847541,51.5586718],[-0.2847589,51.5586629],[-0.2848313,51.5586825],[-0.2848402,51.55867]]]}},
{"type":"Feature","properties":{"highway":"footway","name":null,"category":"Footpath (pedestrian only)"},"geometry":{"type":"MultiLineString","coordinates":[[[-0.2846971,51.5587496],[-0.2847168,51.5587211]]]}},
{"type":"Feature","properties":{"highway":"footway","name":null,"category":"Footpath (pedestrian only)"},"geometry":{"type":"MultiLineString","coordinates":[[[-0.2852207,51.5544484],[-0.2852382,51.5544236],[-0.2858709,51.554163],[-0.2859385,51.554137]]]}},
{"type":"Feature","properties":{"highway":"footway","name":null,"category":"Footpath (pedestrian only)"},"geometry":{"type":"MultiLineString","coordinates":[[[-0.2735997,51.5629453],[-0.2734524,51.5629075],[-0.2733769,51.5628807],[-0.2733514,51.5628768],[-0.2731907,51.562852],[-0.2731236,51.5628644],[-0.2729751,51.5628979],[-0.2728548,51.562898],[-0.2728633,51.562937],[-0.2730705,51.5629914],[-0.2731508,51.5630379],[-0.2731861,51.5630682],[-0.2732447,51.5631063],[-0.2732618,51.5631153],[-0.2733086,51.5631399],[-0.2732598,51.5631855],[-0.2731308,51.5632177]]]}},
{"type":"Feature","properties":{"highway":"footway","name":null,"category":"Footpath (pedestrian only)"},"geometry":{"type":"MultiLineString","coordinates":[[[-0.2740587,51.5628465],[-0.2740636,51.5628601],[-0.2740611,51.562874],[-0.2740516,51.5628866],[-0.2740358,51.5628966],[-0.2740157,51.5629029],[-0.2739933,51.5629048],[-0.2739712,51.5629021],[-0.273964,51.5628995],[-0.2739517,51.562895],[-0.2739392,51.562886],[-0.2739286,51.5628714],[-0.2739275,51.5628573],[-0.2739339,51.5628439],[-0.2739468,51.5628325],[-0.273965,51.5628243],[-0.2739864,51.5628203],[-0.2740088,51.5628207],[-0.2740298,51.5628257],[-0.2740471,51.5628346],[-0.2740587,51.5628465]]]}},
{"type":"Feature","properties":{"highway":"footway","name":null,"category":"Footpath (pedestrian only)"},"geometry":{"type":"MultiLineString","coordinates":[[[-0.2749716,51.5628038],[-0.2748515,51.5627825],[-0.2747502,51.5627892],[-0.2746838,51.5627935],[-0.2745871,51.5627847],[-0.2744993,51.562761],[-0.2743848,51.5627538],[-0.2743174,51.5627659],[-0.2742615,51.5627637],[-0.2742047,51.5627499],[-0.2741222,51.5627284],[-0.2740344,51.5627075],[-0.2739403,51.5627058],[-0.2738622,51.562718],[-0.2737593,51.5627339]]]}},
{"type":"Feature","properties":{"highway":"footway","name":null,"category":"Footpath (pedestrian only)"},"geometry":{"type":"MultiLineString","coordinates":[[[-0.2742615,51.5627637],[-0.2740801,51.5628378],[-0.2740587,51.5628465]]]}},
{"type":"Feature","properties":{"highway":"footway","name":null,"category":"Footpath (pedestrian only)"},"geometry":{"type":"MultiLineString","coordinates":[[[-0.2727102,51.5622547],[-0.2729954,51.5623368],[-0.2731395,51.5623659],[-0.2731702,51.5623721],[-0.2732784,51.5623947],[-0.2733733,51.5623964],[-0.2736422,51.5624499],[-0.2738418,51.5625017],[-0.273927,51.5625238],[-0.274478,51.5626429],[-0.2748205,51.5627444],[-0.2748515,51.5627825]]]}},
{"type":"Feature","properties":{"highway":"footway","name":null,"category":"Footpath (pedestrian only)"},"geometry":{"type":"MultiLineString","coordinates":[[[-0.2738622,51.562718],[-0.2738558,51.5625954]]]}},
{"type":"Feature","properties":{"highway":"footway","name":null,"category":"Footpath (pedestrian only)"},"geometry":{"type":"MultiLineString","coordinates":[[[-0.2731395,51.5623659],[-0.2732353,51.5624816],[-0.2733831,51.56266]]]}},
{"type":"Feature","properties":{"highway":"footway","name":null,"category":"Footpath (pedestrian only)"},"geometry":{"type":"MultiLineString","coordinates":[[[-0.2740341,51.5629573],[-0.2740345,51.5630593],[-0.2740347,51.5631156],[-0.2740349,51.5631967],[-0.2740351,51.5632551],[-0.2740066,51.5632547],[-0.2739489,51.5632538],[-0.2739514,51.5631944],[-0.2739546,51.5631175],[-0.273957,51.5630612],[-0.2739614,51.5629566]]]}},
{"type":"Feature","properties":{"highway":"footway","name":null,"category":"Footpath (pedestrian only)"},"geometry":{"type":"MultiLineString","coordinates":[[[-0.2740347,51.5631156],[-0.2739546,51.5631175]]]}},
{"type":"Feature","properties":{"highway":"footway","name":null,"category":"Footpath (pedestrian only)"},"geometry":{"type":"MultiLineString","coordinates":[[[-0.2740345,51.5630593],[-0.2740009,51.5630603],[-0.273957,51.5630612]]]}},
{"type":"Feature","properties":{"highway":"footway","name":null,"category":"Footpath (pedestrian only)"},"geometry":{"type":"MultiLineString","coordinates":[[[-0.2740066,51.5632547],[-0.2740056,51.5633377]]]}},
{"type":"Feature","properties":{"highway":"footway","name":null,"category":"Footpath (pedestrian only)"},"geometry":{"type":"MultiLineString","coordinates":[[[-0.2739339,51.5628439],[-0.2739167,51.5628359],[-0.2737344,51.562751]]]}},
{"type":"Feature","properties":{"highway":"footway","name":null,"category":"Footpath (pedestrian only)"},"geometry":{"type":"MultiLineString","coordinates":[[[-0.2744338,51.5632077],[-0.2740349,51.5631967],[-0.2739514,51.5631944],[-0.2739223,51.5631936],[-0.2735067,51.5631189],[-0.2735564,51.5630738],[-0.2739191,51.5628959],[-0.2739392,51.562886]]]}},
{"type":"Feature","properties":{"highway":"footway","name":null,"category":"Footpath (pedestrian only)"},"geometry":{"type":"MultiLineString","coordinates":[[[-0.2814216,51.5593374],[-0.2813181,51.5597015]]]}},
{"type":"Feature","properties":{"highway":"footway","name":null,"category":"Footpath (pedestrian only)"},"geometry":{"type":"MultiLineString","coordinates":[[[-0.2813009,51.5597627],[-0.2812988,51.5600536]]]}},
{"type":"Feature","properties":{"highway":"footway","name":null,"category":"Footpath (pedestrian only)"},"geometry":{"type":"MultiLineString","coordinates":[[[-0.2755241,51.5638566],[-0.2755164,51.5641757]]]}},
{"type":"Feature","properties":{"highway":"footway","name":null,"category":"Footpath (pedestrian only)"},"geometry":{"type":"MultiLineString","coordinates":[[[-0.2755077,51.5637303],[-0.2755184,51.563714],[-0.2755373,51.5636854]]]}},
{"type":"Feature","properties":{"highway":"footway","name":null,"category":"Footpath (pedestrian only)"},"geometry":{"type":"MultiLineString","coordinates":[[[-0.2755241,51.5638566],[-0.2755407,51.5637679]]]}},
{"type":"Feature","properties":{"highway":"footway","name":null,"category":"Footpath (pedestrian only)"},"geometry":{"type":"MultiLineString","coordinates":[[[-0.2749288,51.5645436],[-0.2742128,51.5645393]]]}},
{"type":"Feature","properties":{"highway":"footway","name":null,"category":"Footpath (pedestrian only)"},"geometry":{"type":"MultiLineString","coordinates":[[[-0.277168,51.5653572],[-0.2772811,51.5653672]]]}},
{"type":"Feature","properties":{"highway":"footway","name":null,"category":"Footpath (pedestrian only)"},"geometry":{"type":"MultiLineString","coordinates":[[[-0.2772811,51.5653672],[-0.2775342,51.5653863]]]}},
{"type":"Feature","properties":{"highway":"footway","name":null,"category":"Footpath (pedestrian only)"},"geometry":{"type":"MultiLineString","coordinates":[[[-0.2775342,51.5653863],[-0.2774978,51.5654669]]]}},
{"type":"Feature","properties":{"highway":"footway","name":null,"category":"Footpath (pedestrian only)"},"geometry":{"type":"MultiLineString","coordinates":[[[-0.2775342,51.5653863],[-0.2776722,51.5653578]]]}},
{"type":"Feature","properties":{"highway":"footway","name":null,"category":"Footpath (pedestrian only)"},"geometry":{"type":"MultiLineString","coordinates":[[[-0.2776722,51.5653578],[-0.2776418,51.5652947],[-0.2776838,51.5652076],[-0.2778776,51.5649761],[-0.2783458,51.5644339],[-0.278675,51.564005],[-0.2788698,51.5637216],[-0.278965,51.5635433]]]}},
{"type":"Feature","properties":{"highway":"footway","name":null,"category":"Footpath (pedestrian only)"},"geometry":{"type":"MultiLineString","coordinates":[[[-0.2803411,51.5625208],[-0.2804029,51.5624933],[-0.2804628,51.562462]]]}},
{"type":"Feature","properties":{"highway":"footway","name":null,"category":"Footpath (pedestrian only)"},"geometry":{"type":"MultiLineString","coordinates":[[[-0.279925,51.5627221],[-0.2802138,51.5625614],[-0.2803411,51.5625208],[-0.2803924,51.5625556],[-0.2804321,51.5626449],[-0.2804473,51.5628873],[-0.2804656,51.5629298],[-0.2804893,51.5629847]]]}},
{"type":"Feature","properties":{"highway":"footway","name":null,"category":"Footpath (pedestrian only)"},"geometry":{"type":"MultiLineString","coordinates":[[[-0.278965,51.5635433],[-0.279044,51.5633968],[-0.2791537,51.5632582],[-0.2791779,51.5632324],[-0.279267,51.563137],[-0.2793767,51.5630383]]]}},
{"type":"Feature","properties":{"highway":"footway","name":null,"category":"Footpath (pedestrian only)"},"geometry":{"type":"MultiLineString","coordinates":[[[-0.2793767,51.5630383],[-0.2794584,51.5629976],[-0.2795285,51.5629345],[-0.279619,51.562882]]]}},
{"type":"Feature","properties":{"highway":"footway","name":null,"category":"Footpath (pedestrian only)"},"geometry":{"type":"MultiLineString","coordinates":[[[-0.279619,51.562882],[-0.2796487,51.5628612],[-0.279925,51.5627221]]]}},
{"type":"Feature","properties":{"highway":"footway","name":null,"category":"Footpath (pedestrian only)"},"geometry":{"type":"MultiLineString","coordinates":[[[-0.2798528,51.562551],[-0.2800339,51.5624388],[-0.2804052,51.5622914],[-0.2807017,51.5621514],[-0.2807415,51.5621383],[-0.2808138,51.5621158]]]}},
{"type":"Feature","properties":{"highway":"footway","name":"Walters Walk","category":"Footpath (pedestrian only)"},"geometry":{"type":"MultiLineString","coordinates":[[[-0.2780743,51.5585596],[-0.2780605,51.558354],[-0.2780291,51.5582922],[-0.2779896,51.5582475],[-0.2779065,51.5581571],[-0.2777265,51.5580226],[-0.2774527,51.5578475],[-0.2774253,51.55783],[-0.2773682,51.557774],[-0.2772345,51.5576355],[-0.2771138,51.557491],[-0.2770547,51.5574353],[-0.2768993,51.5571585],[-0.2768035,51.5570885]]]}},
{"type":"Feature","properties":{"highway":"footway","name":"Hudson Walk","category":"Footpath (pedestrian only)"},"geometry":{"type":"MultiLineString","coordinates":[[[-0.2762593,51.5585625],[-0.2765194,51.5583559],[-0.2767323,51.5582324],[-0.2768073,51.5582109],[-0.2768182,51.558067],[-0.2768194,51.5580509],[-0.276814,51.5578037],[-0.2768113,51.5576854],[-0.2768073,51.5574724],[-0.2768074,51.5572196],[-0.2768035,51.5570885]]]}},
{"type":"Feature","properties":{"highway":"footway","name":"Canada Lane","category":"Footpath (pedestrian only)"},"geometry":{"type":"MultiLineString","coordinates":[[[-0.2755731,51.557091],[-0.2768035,51.5570885]]]}},
{"type":"Feature","properties":{"highway":"footway","name":null,"category":"Footpath (pedestrian only)"},"geometry":{"type":"MultiLineString","coordinates":[[[-0.276814,51.5578037],[-0.2768933,51.557791],[-0.2769389,51.5577832],[-0.2771062,51.5577959],[-0.2772648,51.5578296],[-0.2773669,51.5578472],[-0.2774527,51.5578475]]]}},
{"type":"Feature","properties":{"highway":"footway","name":null,"category":"Footpath (pedestrian only)"},"geometry":{"type":"MultiLineString","coordinates":[[[-0.2809988,51.5632051],[-0.2809667,51.5632329],[-0.2806985,51.5634649]]]}},
{"type":"Feature","properties":{"highway":"footway","name":"Zig-a-Zag Allée Footpath","category":"Footpath (pedestrian only)"},"geometry":{"type":"MultiLineString","coordinates":[[[-0.2818894,51.557121],[-0.2817285,51.5571877],[-0.2816811,51.5571685],[-0.2817399,51.5570678],[-0.2816141,51.5571255],[-0.2815744,51.5571226]]]}},
{"type":"Feature","properties":{"highway":"footway","name":null,"category":"Footpath (pedestrian only)"},"geometry":{"type":"MultiLineString","coordinates":[[[-0.2810537,51.5575261],[-0.2810054,51.5575024]]]}},
{"type":"Feature","properties":{"highway":"footway","name":null,"category":"Footpath (pedestrian only)"},"geometry":{"type":"MultiLineString","coordinates":[[[-0.2810054,51.5575024],[-0.2809636,51.557482]]]}},
{"type":"Feature","properties":{"highway":"footway","name":"Tippatone Walk","category":"Footpath (pedestrian only)"},"geometry":{"type":"MultiLineString","coordinates":[[[-0.2774188,51.5600592],[-0.2766418,51.5594852],[-0.2764602,51.5593842],[-0.2763988,51.5593501],[-0.2758637,51.559044],[-0.2759994,51.5589409],[-0.276359,51.5586953],[-0.2763857,51.558643]]]}},
{"type":"Feature","properties":{"highway":"footway","name":null,"category":"Footpath (pedestrian only)"},"geometry":{"type":"MultiLineString","coordinates":[[[-0.2764602,51.5593842],[-0.2766384,51.5593797],[-0.2769175,51.559412],[-0.2772615,51.559366],[-0.2773667,51.5593419]]]}},
{"type":"Feature","properties":{"highway":"footway","name":null,"category":"Footpath (pedestrian only)"},"geometry":{"type":"MultiLineString","coordinates":[[[-0.2773654,51.5588875],[-0.2770574,51.5588273],[-0.276359,51.5586953]]]}},
{"type":"Feature","properties":{"highway":"footway","name":null,"category":"Footpath (pedestrian only)"},"geometry":{"type":"MultiLineString","coordinates":[[[-0.2770574,51.5588273],[-0.2773616,51.5592252]]]}},
{"type":"Feature","properties":{"highway":"footway","name":null,"category":"Footpath (pedestrian only)"},"geometry":{"type":"MultiLineString","coordinates":[[[-0.2766384,51.5593797],[-0.2763875,51.5591019],[-0.2763847,51.5588801],[-0.276315,51.5588717],[-0.2759994,51.5589409]]]}},
{"type":"Feature","properties":{"highway":"footway","name":null,"category":"Footpath (pedestrian only)"},"geometry":{"type":"MultiLineString","coordinates":[[[-0.2768182,51.558067],[-0.2769402,51.5580643],[-0.2770622,51.5580691],[-0.2771435,51.5580772],[-0.2772224,51.5580925],[-0.2772773,51.5581193],[-0.2773914,51.5581846],[-0.2774712,51.5582134],[-0.2775426,51.5582279],[-0.2776129,51.5582407],[-0.2776922,51.5582559],[-0.2777714,51.5582692],[-0.2778888,51.5582813],[-0.2780291,51.5582922]]]}},
{"type":"Feature","properties":{"highway":"footway","name":null,"category":"Footpath (pedestrian only)"},"geometry":{"type":"MultiLineString","coordinates":[[[-0.2739482,51.5655675],[-0.2739449,51.5654779],[-0.2739343,51.5653949],[-0.2739367,51.5652278],[-0.2739464,51.564538],[-0.2739632,51.5633375]]]}},
{"type":"Feature","properties":{"highway":"footway","name":"Zig-a-Zag Allée","category":"Footpath (pedestrian only)"},"geometry":{"type":"MultiLineString","coordinates":[[[-0.2818894,51.557121],[-0.2820418,51.5572246]]]}},
{"type":"Feature","properties":{"highway":"footway","name":null,"category":"Footpath (pedestrian only)"},"geometry":{"type":"MultiLineString","coordinates":[[[-0.2755077,51.5637303],[-0.2754618,51.5637226],[-0.2753992,51.5636982],[-0.2753441,51.5636654],[-0.2752268,51.56357],[-0.275126,51.5634869],[-0.2750611,51.563453],[-0.274992,51.5634272],[-0.2749786,51.5634418],[-0.2750745,51.5634881],[-0.2751274,51.5635259],[-0.2752854,51.5636742],[-0.2753522,51.5637185],[-0.2754098,51.563744],[-0.2754654,51.5637564],[-0.2755407,51.5637679]]]}},
{"type":"Feature","properties":{"highway":"footway","name":null,"category":"Footpath (pedestrian only)"},"geometry":{"type":"MultiLineString","coordinates":[[[-0.279186,51.5622029],[-0.2794873,51.5622021]]]}},
{"type":"Feature","properties":{"highway":"footway","name":null,"category":"Footpath (pedestrian only)"},"geometry":{"type":"MultiLineString","coordinates":[[[-0.2794873,51.5622021],[-0.2795241,51.562202]]]}},
{"type":"Feature","properties":{"highway":"footway","name":null,"category":"Footpath (pedestrian only)"},"geometry":{"type":"MultiLineString","coordinates":[[[-0.2823745,51.5592381],[-0.2825466,51.5592381],[-0.282549,51.5591049],[-0.2825526,51.5588932],[-0.2825514,51.5588551],[-0.2823757,51.5588558],[-0.2823755,51.558894],[-0.2823745,51.5591049],[-0.282549,51.5591049],[-0.2826826,51.5591042],[-0.2826826,51.5592374],[-0.2825466,51.5592381]]]}},
{"type":"Feature","properties":{"highway":"footway","name":null,"category":"Footpath (pedestrian only)"},"geometry":{"type":"MultiLineString","coordinates":[[[-0.2823745,51.5591049],[-0.2823745,51.5592381]]]}},
{"type":"Feature","properties":{"highway":"footway","name":null,"category":"Footpath (pedestrian only)"},"geometry":{"type":"MultiLineString","coordinates":[[[-0.2825514,51.5588551],[-0.2825526,51.5587174],[-0.2823757,51.5587159],[-0.2823757,51.5588558]]]}},
{"type":"Feature","properties":{"highway":"footway","name":null,"category":"Footpath (pedestrian only)"},"geometry":{"type":"MultiLineString","coordinates":[[[-0.2825526,51.5587174],[-0.2827283,51.5587159],[-0.2827247,51.5588573],[-0.2825514,51.5588551]]]}},
{"type":"Feature","properties":{"highway":"footway","name":null,"category":"Footpath (pedestrian only)"},"geometry":{"type":"MultiLineString","coordinates":[[[-0.2825526,51.5588932],[-0.2823755,51.558894]]]}},
{"type":"Feature","properties":{"highway":"footway","name":null,"category":"Footpath (pedestrian only)"},"geometry":{"type":"MultiLineString","coordinates":[[[-0.2823745,51.5591049],[-0.2823428,51.5590951]]]}},
{"type":"Feature","properties":{"highway":"footway","name":null,"category":"Footpath (pedestrian only)"},"geometry":{"type":"MultiLineString","coordinates":[[[-0.2863465,51.5554822],[-0.2863707,51.5554753]]]}},
{"type":"Feature","properties":{"highway":"footway","name":null,"category":"Footpath (pedestrian only)"},"geometry":{"type":"MultiLineString","coordinates":[[[-0.2863193,51.5555628],[-0.2863206,51.5555495]]]}},
{"type":"Feature","properties":{"highway":"footway","name":null,"category":"Footpath (pedestrian only)"},"geometry":{"type":"MultiLineString","coordinates":[[[-0.2861889,51.5564255],[-0.2861668,51.5562916],[-0.2861938,51.5562487],[-0.2861998,51.5562356]]]}},
{"type":"Feature","properties":{"highway":"footway","name":null,"category":"Footpath (pedestrian only)"},"geometry":{"type":"MultiLineString","coordinates":[[[-0.2861998,51.5562356],[-0.2862051,51.5562048],[-0.2862117,51.5561679]]]}},
{"type":"Feature","properties":{"highway":"footway","name":null,"category":"Footpath (pedestrian only)"},"geometry":{"type":"MultiLineString","coordinates":[[[-0.2864721,51.554897],[-0.2864666,51.5549137]]]}},
{"type":"Feature","properties":{"highway":"footway","name":null,"category":"Footpath (pedestrian only)"},"geometry":{"type":"MultiLineString","coordinates":[[[-0.2864961,51.5548245],[-0.2864904,51.5548417]]]}},
{"type":"Feature","properties":{"highway":"footway","name":null,"category":"Footpath (pedestrian only)"},"geometry":{"type":"MultiLineString","coordinates":[[[-0.281703,51.5586533],[-0.2817028,51.5586646],[-0.2817035,51.5587335]]]}},
{"type":"Feature","properties":{"highway":"footway","name":null,"category":"Footpath (pedestrian only)"},"geometry":{"type":"MultiLineString","coordinates":[[[-0.2779421,51.5592054],[-0.2779425,51.5593275],[-0.2779432,51.5594925]]]}},
{"type":"Feature","properties":{"highway":"pedestrian","name":null,"category":"Pedestrian area/street"},"geometry":{"type":"MultiLineString","coordinates":[[[-0.2809195,51.5573134],[-0.281157,51.5571854],[-0.2812389,51.5571359],[-0.2814752,51.5569842],[-0.2816112,51.5568641]]]}},
{"type":"Feature","properties":{"highway":"pedestrian","name":null,"category":"Pedestrian area/street"},"geometry":{"type":"MultiLineString","coordinates":[[[-0.2781784,51.5547139],[-0.2781933,51.5547591],[-0.2781659,51.5547994],[-0.278127,51.554817],[-0.278007,51.5548512],[-0.277775,51.5549296],[-0.2775899,51.5549946],[-0.2774263,51.555073],[-0.2772922,51.5551497],[-0.2772142,51.5552159]]]}},
{"type":"Feature","properties":{"highway":"pedestrian","name":"Olympic Way","category":"Pedestrian area/street"},"geometry":{"type":"MultiLineString","coordinates":[[[-0.2801415,51.5574039],[-0.2796077,51.557537]]]}},
{"type":"Feature","properties":{"highway":"pedestrian","name":"Wembley Park Boulevard","category":"Pedestrian area/street"},"geometry":{"type":"MultiLineString","coordinates":[[[-0.2838029,51.5552828],[-0.2838019,51.555946],[-0.2837757,51.5560142],[-0.2836959,51.5561186],[-0.2834723,51.5562879],[-0.2832688,51.556442],[-0.2831908,51.5565048],[-0.2827934,51.5568217],[-0.2825379,51.5570133],[-0.2816792,51.5576902],[-0.2816601,51.5577058],[-0.2815734,51.5577766],[-0.2815161,51.5578206],[-0.281492,51.5578392],[-0.2806987,51.5584489],[-0.2806737,51.5584953],[-0.2806718,51.5585597],[-0.2806713,51.5585747],[-0.2806704,51.5586049]]]}},
{"type":"Feature","properties":{"highway":"pedestrian","name":"Wembley Splay","category":"Pedestrian area/street"},"geometry":{"type":"MultiLineString","coordinates":[[[-0.2804095,51.5586511],[-0.2804096,51.5586633],[-0.2804048,51.5591123],[-0.2800542,51.5594503],[-0.2796308,51.5596678]]]}},
{"type":"Feature","properties":{"highway":"pedestrian","name":"Wembley Park Boulevard","category":"Pedestrian area/street"},"geometry":{"type":"MultiLineString","coordinates":[[[-0.2843735,51.557703],[-0.2843739,51.557658],[-0.2843778,51.5572305]]]}},
{"type":"Feature","properties":{"highway":"pedestrian","name":"Olympic Way","category":"Pedestrian area/street"},"geometry":{"type":"MultiLineString","coordinates":[[[-0.2798363,51.5628679],[-0.279811,51.5628146],[-0.2796918,51.5625635],[-0.27967,51.5624711],[-0.2796572,51.5623381],[-0.2796532,51.5620652],[-0.279645,51.5617447],[-0.2796436,51.5614591],[-0.2796463,51.5608635],[-0.2796463,51.5608507],[-0.279645,51.5608045],[-0.2796445,51.5607636],[-0.2796459,51.5607453],[-0.2796386,51.5601068],[-0.2796308,51.5596678],[-0.2796251,51.559325],[-0.2796205,51.5586491],[-0.2796188,51.5586074],[-0.2796171,51.5585558],[-0.2796126,51.5584242]]]}},
{"type":"Feature","properties":{"highway":"pedestrian","name":null,"category":"Pedestrian area/street"},"geometry":{"type":"MultiLineString","coordinates":[[[-0.2809195,51.5573134],[-0.2808247,51.5573567],[-0.2807344,51.557398],[-0.2804126,51.5575307],[-0.2801685,51.5576156],[-0.2798744,51.5577016],[-0.2797727,51.5577227],[-0.2796793,51.5577342],[-0.2796134,51.5577415],[-0.2795204,51.5577428],[-0.2794553,51.5577383],[-0.2793554,51.5577273]]]}},
{"type":"Feature","properties":{"highway":"pedestrian","name":"Weaver Walk","category":"Pedestrian area/street"},"geometry":{"type":"MultiLineString","coordinates":[[[-0.2806307,51.5601089],[-0.2806416,51.5594185]]]}},
{"type":"Feature","properties":{"highway":"pedestrian","name":null,"category":"Pedestrian area/street"},"geometry":{"type":"MultiLineString","coordinates":[[[-0.280005,51.5601083],[-0.2798643,51.5601106],[-0.2796386,51.5601068]]]}},
{"type":"Feature","properties":{"highway":"pedestrian","name":null,"category":"Pedestrian area/street"},"geometry":{"type":"MultiLineString","coordinates":[[[-0.2806416,51.5594185],[-0.2806949,51.5593414]]]}},
{"type":"Feature","properties":{"highway":"pedestrian","name":null,"category":"Pedestrian area/street"},"geometry":{"type":"MultiLineString","coordinates":[[[-0.2795826,51.5584242],[-0.2795809,51.5583775]]]}},
{"type":"Feature","properties":{"highway":"pedestrian","name":null,"category":"Pedestrian area/street"},"geometry":{"type":"MultiLineString","coordinates":[[[-0.2795165,51.5584244],[-0.2795149,51.5583777]]]}},
{"type":"Feature","properties":{"highway":"pedestrian","name":null,"category":"Pedestrian area/street"},"geometry":{"type":"MultiLineString","coordinates":[[[-0.2794504,51.5584246],[-0.2794488,51.5583779]]]}},
{"type":"Feature","properties":{"highway":"pedestrian","name":null,"category":"Pedestrian area/street"},"geometry":{"type":"MultiLineString","coordinates":[[[-0.2793876,51.5584247],[-0.2793868,51.5583779]]]}},
{"type":"Feature","properties":{"highway":"pedestrian","name":null,"category":"Pedestrian area/street"},"geometry":{"type":"MultiLineString","coordinates":[[[-0.2798423,51.5584236],[-0.2797729,51.5584238],[-0.2797081,51.5584239],[-0.2796473,51.5584241],[-0.2796126,51.5584242],[-0.2795826,51.5584242],[-0.2795165,51.5584244],[-0.2794504,51.5584246],[-0.2793876,51.5584247],[-0.2793158,51.5584249],[-0.2793119,51.5578492]]]}},
{"type":"Feature","properties":{"highway":"pedestrian","name":"Olympic Way","category":"Pedestrian area/street"},"geometry":{"type":"MultiLineString","coordinates":[[[-0.2796077,51.557537],[-0.2793986,51.5575001]]]}},
{"type":"Feature","properties":{"highway":"pedestrian","name":null,"category":"Pedestrian area/street"},"geometry":{"type":"MultiLineString","coordinates":[[[-0.2798423,51.5584236],[-0.279841,51.5583764]]]}},
{"type":"Feature","properties":{"highway":"pedestrian","name":null,"category":"Pedestrian area/street"},"geometry":{"type":"MultiLineString","coordinates":[[[-0.2797729,51.5584238],[-0.2797716,51.5583766]]]}},
{"type":"Feature","properties":{"highway":"pedestrian","name":null,"category":"Pedestrian area/street"},"geometry":{"type":"MultiLineString","coordinates":[[[-0.2797081,51.5584239],[-0.2797069,51.5583769]]]}},
{"type":"Feature","properties":{"highway":"pedestrian","name":null,"category":"Pedestrian area/street"},"geometry":{"type":"MultiLineString","coordinates":[[[-0.2796473,51.5584241],[-0.2796463,51.5583771]]]}},
{"type":"Feature","properties":{"highway":"pedestrian","name":null,"category":"Pedestrian area/street"},"geometry":{"type":"MultiLineString","coordinates":[[[-0.2796129,51.5580531],[-0.2796134,51.5577415]]]}},
{"type":"Feature","properties":{"highway":"pedestrian","name":null,"category":"Pedestrian area/street"},"geometry":{"type":"MultiLineString","coordinates":[[[-0.2793879,51.5580539],[-0.2794467,51.5580537],[-0.2795122,51.5580534],[-0.2795777,51.5580532],[-0.2796129,51.5580531],[-0.2796452,51.5580529],[-0.2797053,51.5580527],[-0.2797695,51.5580525],[-0.2798383,51.5580522]]]}},
{"type":"Feature","properties":{"highway":"pedestrian","name":null,"category":"Pedestrian area/street"},"geometry":{"type":"MultiLineString","coordinates":[[[-0.279388,51.5580934],[-0.2793879,51.5580539]]]}},
{"type":"Feature","properties":{"highway":"pedestrian","name":null,"category":"Pedestrian area/street"},"geometry":{"type":"MultiLineString","coordinates":[[[-0.2794468,51.5580931],[-0.2794467,51.5580537]]]}},
{"type":"Feature","properties":{"highway":"pedestrian","name":null,"category":"Pedestrian area/street"},"geometry":{"type":"MultiLineString","coordinates":[[[-0.2795123,51.5580927],[-0.2795122,51.5580534]]]}},
{"type":"Feature","properties":{"highway":"pedestrian","name":null,"category":"Pedestrian area/street"},"geometry":{"type":"MultiLineString","coordinates":[[[-0.2795779,51.5580924],[-0.2795777,51.5580532]]]}},
{"type":"Feature","properties":{"highway":"pedestrian","name":null,"category":"Pedestrian area/street"},"geometry":{"type":"MultiLineString","coordinates":[[[-0.2796453,51.558092],[-0.2796452,51.5580529]]]}},
{"type":"Feature","properties":{"highway":"pedestrian","name":null,"category":"Pedestrian area/street"},"geometry":{"type":"MultiLineString","coordinates":[[[-0.2797055,51.5580917],[-0.2797053,51.5580527]]]}},
{"type":"Feature","properties":{"highway":"pedestrian","name":null,"category":"Pedestrian area/street"},"geometry":{"type":"MultiLineString","coordinates":[[[-0.2797697,51.5580913],[-0.2797695,51.5580525]]]}},
{"type":"Feature","properties":{"highway":"pedestrian","name":null,"category":"Pedestrian area/street"},"geometry":{"type":"MultiLineString","coordinates":[[[-0.2798386,51.5580909],[-0.2798383,51.5580522]]]}},
{"type":"Feature","properties":{"highway":"pedestrian","name":"Olympic Way","category":"Pedestrian area/street"},"geometry":{"type":"MultiLineString","coordinates":[[[-0.2796077,51.557537],[-0.2798335,51.5574902]]]}},
{"type":"Feature","properties":{"highway":"pedestrian","name":null,"category":"Pedestrian area/street"},"geometry":{"type":"MultiLineString","coordinates":[[[-0.2793554,51.5577273],[-0.2791791,51.5577012],[-0.278872,51.5576328],[-0.2786467,51.5575628],[-0.2783785,51.5574694],[-0.2781344,51.5573627],[-0.277901,51.5572543],[-0.2776891,51.5571425],[-0.2774819,51.5570097]]]}},
{"type":"Feature","properties":{"highway":"pedestrian","name":"Wellers Way","category":"Pedestrian area/street"},"geometry":{"type":"MultiLineString","coordinates":[[[-0.2806307,51.5601089],[-0.2806335,51.5607661],[-0.2806339,51.5608116]]]}},
{"type":"Feature","properties":{"highway":"pedestrian","name":"Marley Street","category":"Pedestrian area/street"},"geometry":{"type":"MultiLineString","coordinates":[[[-0.2786185,51.5593264],[-0.2785358,51.5593269],[-0.2779425,51.5593275],[-0.2775631,51.5593279],[-0.2773667,51.5593419]]]}},
{"type":"Feature","properties":{"highway":"pedestrian","name":"Allegro Walk","category":"Pedestrian area/street"},"geometry":{"type":"MultiLineString","coordinates":[[[-0.2785355,51.5600575],[-0.2774188,51.5600592]]]}},
{"type":"Feature","properties":{"highway":"pedestrian","name":"Tippatone Walk","category":"Pedestrian area/street"},"geometry":{"type":"MultiLineString","coordinates":[[[-0.2779261,51.5607479],[-0.2779274,51.5606052],[-0.2778748,51.5604462],[-0.2774188,51.5600592]]]}},
{"type":"Feature","properties":{"highway":"pedestrian","name":"Marshalls Walk","category":"Pedestrian area/street"},"geometry":{"type":"MultiLineString","coordinates":[[[-0.2774188,51.5600592],[-0.2773883,51.5599545],[-0.2773667,51.5593419],[-0.2773616,51.5592252],[-0.2773654,51.5588875],[-0.2780337,51.5586903],[-0.2780776,51.5586518]]]}},
{"type":"Feature","properties":{"highway":"pedestrian","name":null,"category":"Pedestrian area/street"},"geometry":{"type":"MultiLineString","coordinates":[[[-0.2786185,51.5593264],[-0.2786549,51.5593263],[-0.2793223,51.5593254],[-0.2796251,51.559325]]]}}
]
}
