{
"type": "FeatureCollection",
"name": "City of London_15_min",
"crs": { "type": "name", "properties": { "name": "urn:ogc:def:crs:OGC:1.3:CRS84" } },
"features": [
{ "type": "Feature", "properties": { "park_offical_id": "CITOF_0" }, "geometry": { "type": "Polygon", "coordinates": [ [ [ -0.1044545, 51.511263 ], [ -0.1045229, 51.5112708 ], [ -0.1048108, 51.511396 ], [ -0.1102876, 51.5151329 ], [ -0.1108132, 51.5155007 ], [ -0.1113076, 51.5159816 ], [ -0.1135638, 51.518181 ], [ -0.1135798, 51.5182689 ], [ -0.1098898, 51.5245672 ], [ -0.1052661, 51.5265991 ], [ -0.104023, 51.526914 ], [ -0.100601, 51.5263301 ], [ -0.0945781, 51.5246313 ], [ -0.090951, 51.52306 ], [ -0.089772, 51.522308 ], [ -0.0885458, 51.5209242 ], [ -0.0886081, 51.5205665 ], [ -0.0893554, 51.5175314 ], [ -0.089373, 51.5174875 ], [ -0.0894369, 51.5173683 ], [ -0.0908335, 51.5149682 ], [ -0.0921497, 51.5138016 ], [ -0.0944844, 51.5125211 ], [ -0.0956401, 51.512105 ], [ -0.0960292, 51.5119885 ], [ -0.102113, 51.5113609 ], [ -0.1044545, 51.511263 ] ] ] } },
{ "type": "Feature", "properties": { "park_offical_id": "CITOF_1" }, "geometry": { "type": "Polygon", "coordinates": [ [ [ -0.0960118, 51.5103436 ], [ -0.0983362, 51.5112039 ], [ -0.0995218, 51.5119335 ], [ -0.100105536661078, 51.512397308845983 ], [ -0.1002519, 51.5124717 ], [ -0.101297, 51.5131489 ], [ -0.1035868, 51.5147719 ], [ -0.1051399, 51.5172452 ], [ -0.1050117, 51.517723 ], [ -0.1033671, 51.5203703 ], [ -0.0988108, 51.5233958 ], [ -0.0907561, 51.5252887 ], [ -0.0861022, 51.5234991 ], [ -0.0836866, 51.5217065 ], [ -0.081593, 51.5199006 ], [ -0.0815116, 51.5198298 ], [ -0.0799983, 51.5181153 ], [ -0.0793086, 51.516487 ], [ -0.0789779, 51.5155544 ], [ -0.0790733, 51.5149148 ], [ -0.0791041, 51.5148861 ], [ -0.081419953921695, 51.513474921618652 ], [ -0.0838564, 51.5116853 ], [ -0.0853116, 51.5107226 ], [ -0.085901, 51.5104345 ], [ -0.0867099, 51.5102283 ], [ -0.0897578, 51.5102359 ], [ -0.0960118, 51.5103436 ] ] ] } },
{ "type": "Feature", "properties": { "park_offical_id": "CITOF_10" }, "geometry": { "type": "Polygon", "coordinates": [ [ [ -0.0961367, 51.5025357 ], [ -0.0981039, 51.5038024 ], [ -0.1009806, 51.5058767 ], [ -0.1054781, 51.5111562 ], [ -0.1049992, 51.5125379 ], [ -0.1049778, 51.5125936 ], [ -0.1035904, 51.5142103 ], [ -0.1010429, 51.516173 ], [ -0.0986225, 51.51709 ], [ -0.0964719, 51.5177006 ], [ -0.0932425, 51.5181982 ], [ -0.0883758, 51.5181492 ], [ -0.0882846, 51.518132 ], [ -0.0881888, 51.5181139 ], [ -0.0833914, 51.5164585 ], [ -0.0824194, 51.5153175 ], [ -0.0800514, 51.5121316 ], [ -0.0800141, 51.5120721 ], [ -0.0790857, 51.5099799 ], [ -0.0789306, 51.5095038 ], [ -0.0788122, 51.5082059 ], [ -0.0865225, 51.5050096 ], [ -0.0956223, 51.502511 ], [ -0.0957283, 51.5024958 ], [ -0.0961367, 51.5025357 ] ] ] } },
{ "type": "Feature", "properties": { "park_offical_id": "CITOF_11" }, "geometry": { "type": "Polygon", "coordinates": [ [ [ -0.0766638, 51.5037412 ], [ -0.086238, 51.5094679 ], [ -0.086393, 51.5097066 ], [ -0.0868309, 51.5109689 ], [ -0.0870943, 51.5126497 ], [ -0.0830228, 51.5175657 ], [ -0.081071, 51.5179829 ], [ -0.078114, 51.5185293 ], [ -0.0763745, 51.5188392 ], [ -0.0763098, 51.5188345 ], [ -0.0744694, 51.5186564 ], [ -0.067351, 51.5172255 ], [ -0.0641893, 51.5148976 ], [ -0.0625763, 51.5131969 ], [ -0.0629818, 51.5104683 ], [ -0.066815, 51.5065955 ], [ -0.0674598, 51.5062093 ], [ -0.0698085, 51.5052159 ], [ -0.076588, 51.5036977 ], [ -0.0766638, 51.5037412 ] ] ] } },
{ "type": "Feature", "properties": { "park_offical_id": "CITOF_119" }, "geometry": { "type": "Polygon", "coordinates": [ [ [ -0.091528, 51.5033154 ], [ -0.0916255, 51.5033421 ], [ -0.095481, 51.5050253 ], [ -0.1021569, 51.5112583 ], [ -0.1008211, 51.5138514 ], [ -0.0984911, 51.515321 ], [ -0.0971039, 51.515836 ], [ -0.0939822, 51.5169692 ], [ -0.0927299, 51.51742 ], [ -0.092355, 51.5175534 ], [ -0.0886022, 51.518548 ], [ -0.0880583, 51.5185346 ], [ -0.0810161, 51.516876 ], [ -0.0768521, 51.5134597 ], [ -0.0758053, 51.5093995 ], [ -0.0768992, 51.5075612 ], [ -0.0835346, 51.50469 ], [ -0.0859727, 51.5037852 ], [ -0.091528, 51.5033154 ] ] ] } },
{ "type": "Feature", "properties": { "park_offical_id": "CITOF_12" }, "geometry": { "type": "Polygon", "coordinates": [ [ [ -0.0801998, 51.5244763 ], [ -0.0776569, 51.5231046 ], [ -0.077393, 51.5228838 ], [ -0.0736531, 51.5189809 ], [ -0.0736258, 51.5187777 ], [ -0.0735957, 51.5179624 ], [ -0.0748605, 51.5140945 ], [ -0.07568, 51.5130876 ], [ -0.07867266445849, 51.512425466190962 ], [ -0.085901, 51.5104345 ], [ -0.0867099, 51.5102283 ], [ -0.089159032821977, 51.510559170304155 ], [ -0.089432, 51.5105495 ], [ -0.0911986, 51.510581 ], [ -0.093873, 51.5119138 ], [ -0.0943427, 51.51218 ], [ -0.0987625, 51.5160266 ], [ -0.0997008, 51.5174492 ], [ -0.0995889, 51.51813 ], [ -0.0963283, 51.5216712 ], [ -0.0948865, 51.5227814 ], [ -0.0934909, 51.5238318 ], [ -0.0907289, 51.5251833 ], [ -0.0881629, 51.5258666 ], [ -0.0875609, 51.5259683 ], [ -0.0866054, 51.525897 ], [ -0.0847046, 51.5255192 ], [ -0.083984830598654, 51.525133154164095 ], [ -0.083984830598643, 51.525133154164088 ], [ -0.082741487965568, 51.524604235012625 ], [ -0.0803804, 51.5244941 ], [ -0.0801998, 51.5244763 ] ] ] } },
{ "type": "Feature", "properties": { "park_offical_id": "CITOF_125" }, "geometry": { "type": "Polygon", "coordinates": [ [ [ -0.0985166, 51.5107509 ], [ -0.1045418, 51.5107612 ], [ -0.1062168, 51.5112011 ], [ -0.1100764, 51.5139287 ], [ -0.1100978, 51.5139709 ], [ -0.1117825, 51.5181033 ], [ -0.1116486, 51.5183084 ], [ -0.1080501, 51.5230523 ], [ -0.1079884, 51.5231093 ], [ -0.1056791, 51.5243583 ], [ -0.1047373, 51.5247527 ], [ -0.1019492, 51.5248818 ], [ -0.0993147, 51.524649 ], [ -0.0959015, 51.5242036 ], [ -0.0926386, 51.5226646 ], [ -0.0909151, 51.5218292 ], [ -0.0896874, 51.5207251 ], [ -0.0867975, 51.5169994 ], [ -0.0903019, 51.513452 ], [ -0.0907098, 51.5131684 ], [ -0.0958169, 51.5110477 ], [ -0.0985166, 51.5107509 ] ] ] } },
{ "type": "Feature", "properties": { "park_offical_id": "CITOF_13" }, "geometry": { "type": "Polygon", "coordinates": [ [ [ -0.0660233, 51.5109817 ], [ -0.0670562, 51.5083865 ], [ -0.0676818, 51.507462 ], [ -0.0696878, 51.5064143 ], [ -0.0707562, 51.5061172 ], [ -0.071372, 51.5059791 ], [ -0.0735163, 51.5059721 ], [ -0.0879288, 51.5063727 ], [ -0.0907932, 51.5092795 ], [ -0.0922482, 51.5108139 ], [ -0.0921477, 51.5117016 ], [ -0.0921291, 51.5117592 ], [ -0.0920263, 51.511952 ], [ -0.0903019, 51.513452 ], [ -0.0857789, 51.5157025 ], [ -0.083394, 51.5167933 ], [ -0.0810517, 51.517521 ], [ -0.0804191, 51.5176704 ], [ -0.0783747, 51.5176598 ], [ -0.0711292, 51.5162749 ], [ -0.0699802, 51.5158023 ], [ -0.0670106, 51.5123789 ], [ -0.066728153993771, 51.51169215154566 ], [ -0.0660233, 51.5109817 ] ] ] } },
{ "type": "Feature", "properties": { "park_offical_id": "CITOF_130" }, "geometry": { "type": "Polygon", "coordinates": [ [ [ -0.0910223, 51.5104985 ], [ -0.0958622, 51.5109546 ], [ -0.0983398, 51.5119379 ], [ -0.0984797, 51.5120196 ], [ -0.1002078, 51.5130651 ], [ -0.1014235, 51.513906 ], [ -0.1033094, 51.5152951 ], [ -0.1041485, 51.5170008 ], [ -0.1031891, 51.5201464 ], [ -0.0988108, 51.5233958 ], [ -0.0907561, 51.5252887 ], [ -0.090588, 51.5253057 ], [ -0.0861022, 51.5234991 ], [ -0.0844641, 51.5221464 ], [ -0.0826903, 51.5205455 ], [ -0.0817588, 51.5196582 ], [ -0.0801609, 51.517653 ], [ -0.0793245, 51.5157227 ], [ -0.086565, 51.5108368 ], [ -0.0867248, 51.5107644 ], [ -0.0910223, 51.5104985 ] ] ] } },
{ "type": "Feature", "properties": { "park_offical_id": "CITOF_138" }, "geometry": { "type": "Polygon", "coordinates": [ [ [ -0.0881558, 51.5173268 ], [ -0.0882103, 51.517225 ], [ -0.0898995, 51.5147368 ], [ -0.0911542, 51.5136522 ], [ -0.0926444, 51.5127462 ], [ -0.0935164, 51.5122691 ], [ -0.0985166, 51.5107509 ], [ -0.1045418, 51.5107612 ], [ -0.1063545, 51.5111837 ], [ -0.1104408, 51.5138625 ], [ -0.1104636, 51.5139031 ], [ -0.1129078, 51.5182877 ], [ -0.108522, 51.5236307 ], [ -0.1042042, 51.5257929 ], [ -0.1040422, 51.525817 ], [ -0.1035003, 51.5258637 ], [ -0.0959693, 51.5245629 ], [ -0.0957158, 51.5244982 ], [ -0.093134, 51.5234867 ], [ -0.090914, 51.5221521 ], [ -0.0896874, 51.5207251 ], [ -0.0881558, 51.5173268 ] ] ] } },
{ "type": "Feature", "properties": { "park_offical_id": "CITOF_139" }, "geometry": { "type": "Polygon", "coordinates": [ [ [ -0.0935493, 51.5099715 ], [ -0.0960118, 51.5103436 ], [ -0.0984285, 51.5110895 ], [ -0.099739, 51.5119474 ], [ -0.101297, 51.5131489 ], [ -0.1020263, 51.5137247 ], [ -0.1022824, 51.5140231 ], [ -0.1033411, 51.5152948 ], [ -0.1041485, 51.5170008 ], [ -0.103703, 51.5181185 ], [ -0.1030011, 51.5192653 ], [ -0.1024361, 51.5200924 ], [ -0.1024049, 51.5201304 ], [ -0.1018862, 51.5206967 ], [ -0.1018034, 51.5207717 ], [ -0.0986257, 51.5231764 ], [ -0.098307, 51.5233477 ], [ -0.09055, 51.5247401 ], [ -0.0903005, 51.5247821 ], [ -0.0882576, 51.524019 ], [ -0.0863296, 51.5232606 ], [ -0.0845262, 51.5220539 ], [ -0.0817588, 51.5196582 ], [ -0.0801609, 51.517653 ], [ -0.0793896, 51.5164156 ], [ -0.0792862, 51.5157448 ], [ -0.0793392, 51.5150708 ], [ -0.0836201, 51.5116447 ], [ -0.0852678, 51.5106641 ], [ -0.085309, 51.5106489 ], [ -0.085901, 51.5104345 ], [ -0.0867099, 51.5102283 ], [ -0.0886448, 51.51004 ], [ -0.0935493, 51.5099715 ] ] ] } },
{ "type": "Feature", "properties": { "park_offical_id": "CITOF_14" }, "geometry": { "type": "Polygon", "coordinates": [ [ [ -0.0956377, 51.5049224 ], [ -0.0958692, 51.504946 ], [ -0.1042465, 51.5081256 ], [ -0.1043535, 51.5081724 ], [ -0.1084557, 51.5108928 ], [ -0.1088084, 51.5124997 ], [ -0.108827, 51.512626 ], [ -0.1080127, 51.5141493 ], [ -0.1079549, 51.5142159 ], [ -0.1063181, 51.515733 ], [ -0.1047714, 51.5171577 ], [ -0.1010618, 51.5190077 ], [ -0.1009388, 51.5190481 ], [ -0.0975051, 51.5199185 ], [ -0.0973326, 51.5199604 ], [ -0.0928144, 51.5196215 ], [ -0.0884456, 51.5180197 ], [ -0.0840084, 51.5158489 ], [ -0.0827585, 51.5151025 ], [ -0.0818676, 51.5135549 ], [ -0.0818614, 51.5134952 ], [ -0.0818583, 51.513448 ], [ -0.0825901, 51.5104162 ], [ -0.0828118, 51.5099465 ], [ -0.0832333, 51.5092783 ], [ -0.0928169, 51.505899 ], [ -0.0954363, 51.5049835 ], [ -0.0956377, 51.5049224 ] ] ] } },
{ "type": "Feature", "properties": { "park_offical_id": "CITOF_143" }, "geometry": { "type": "Polygon", "coordinates": [ [ [ -0.106673091611592, 51.509400146675638 ], [ -0.1124348, 51.5134617 ], [ -0.1124686, 51.513506 ], [ -0.1125495, 51.513631 ], [ -0.111093958415114, 51.516139425741841 ], [ -0.1104293, 51.5179324 ], [ -0.1082149, 51.51938 ], [ -0.1060204, 51.5206602 ], [ -0.1029195, 51.5221782 ], [ -0.100006750017736, 51.52219404267597 ], [ -0.0976376, 51.5226308 ], [ -0.0899718, 51.5199949 ], [ -0.0892698, 51.5194461 ], [ -0.0844056, 51.5154066 ], [ -0.0836599, 51.514391 ], [ -0.0833432, 51.5134372 ], [ -0.0833372, 51.5133872 ], [ -0.083879808186984, 51.512621854328195 ], [ -0.0839158, 51.5106484 ], [ -0.0839338, 51.510584 ], [ -0.0848195, 51.509706 ], [ -0.094326706565017, 51.507013311130677 ], [ -0.0965653, 51.5062255 ], [ -0.0977522, 51.5061194 ], [ -0.0985365, 51.5061665 ], [ -0.1045468, 51.5076977 ], [ -0.106673091611592, 51.509400146675638 ] ] ] } },
{ "type": "Feature", "properties": { "park_offical_id": "CITOF_144" }, "geometry": { "type": "Polygon", "coordinates": [ [ [ -0.1044205, 51.5061058 ], [ -0.1185478, 51.5115496 ], [ -0.1186329, 51.5116807 ], [ -0.1186401, 51.5116979 ], [ -0.1187238, 51.5124589 ], [ -0.118793, 51.5132802 ], [ -0.1147225, 51.5181775 ], [ -0.1119978, 51.5196759 ], [ -0.1087755, 51.5211924 ], [ -0.1066835, 51.5216098 ], [ -0.1065756, 51.521612 ], [ -0.1041766, 51.5212109 ], [ -0.101748, 51.5206807 ], [ -0.0980897, 51.5198309 ], [ -0.0961368, 51.517654 ], [ -0.0927726, 51.5138418 ], [ -0.0924198, 51.5126007 ], [ -0.0946402, 51.5111683 ], [ -0.1042955, 51.5061113 ], [ -0.1044205, 51.5061058 ] ] ] } },
{ "type": "Feature", "properties": { "park_offical_id": "CITOF_148" }, "geometry": { "type": "Polygon", "coordinates": [ [ [ -0.0882058, 51.5022335 ], [ -0.0920446, 51.5026311 ], [ -0.0937395, 51.5037574 ], [ -0.0946304, 51.5047387 ], [ -0.0995213, 51.5113753 ], [ -0.099739, 51.5119474 ], [ -0.0921388, 51.5165503 ], [ -0.0914259, 51.5168462 ], [ -0.0887796, 51.5174889 ], [ -0.0817391, 51.5172433 ], [ -0.0804375, 51.5169157 ], [ -0.0758767, 51.5139584 ], [ -0.0728378, 51.5102532 ], [ -0.0736446, 51.5068706 ], [ -0.0739805, 51.5064728 ], [ -0.0840937, 51.5029465 ], [ -0.0855227, 51.5025386 ], [ -0.0882058, 51.5022335 ] ] ] } },
{ "type": "Feature", "properties": { "park_offical_id": "CITOF_15" }, "geometry": { "type": "Polygon", "coordinates": [ [ [ -0.0952853, 51.506053 ], [ -0.0953949, 51.5060637 ], [ -0.098415, 51.5066596 ], [ -0.1013245, 51.5075563 ], [ -0.1082926, 51.5108915 ], [ -0.1100764, 51.5139287 ], [ -0.1100978, 51.5139709 ], [ -0.1099552, 51.5143417 ], [ -0.108519593177843, 51.516111171287342 ], [ -0.1077312, 51.5176946 ], [ -0.1076376, 51.517797 ], [ -0.1074622, 51.5179619 ], [ -0.101748, 51.5206807 ], [ -0.0974051, 51.5215929 ], [ -0.0972162, 51.521628 ], [ -0.0901946, 51.5195083 ], [ -0.0840084, 51.5158489 ], [ -0.0827122, 51.5136445 ], [ -0.0826298, 51.513268 ], [ -0.0825901, 51.5104162 ], [ -0.0843449, 51.5093855 ], [ -0.0951725, 51.5060422 ], [ -0.0952853, 51.506053 ] ] ] } },
{ "type": "Feature", "properties": { "park_offical_id": "CITOF_150" }, "geometry": { "type": "Polygon", "coordinates": [ [ [ -0.0960118, 51.5103436 ], [ -0.0983362, 51.5112039 ], [ -0.1014949, 51.5127498 ], [ -0.1042874, 51.5146721 ], [ -0.1045385, 51.5151612 ], [ -0.1052985, 51.5171982 ], [ -0.1053618, 51.5174084 ], [ -0.105408, 51.5178787 ], [ -0.1044079, 51.5201601 ], [ -0.0991528, 51.5242092 ], [ -0.0946369, 51.5247751 ], [ -0.0934727, 51.5248834 ], [ -0.0904632, 51.524754 ], [ -0.0883163, 51.5238711 ], [ -0.0863874, 51.5227985 ], [ -0.084683, 51.521646 ], [ -0.0836592, 51.5206519 ], [ -0.0811495, 51.5178277 ], [ -0.0801195, 51.5162363 ], [ -0.0801436, 51.5161737 ], [ -0.0804872, 51.5157565 ], [ -0.0805606, 51.5157052 ], [ -0.0870075, 51.5112961 ], [ -0.0909826, 51.5105811 ], [ -0.0960118, 51.5103436 ] ] ] } },
{ "type": "Feature", "properties": { "park_offical_id": "CITOF_151" }, "geometry": { "type": "Polygon", "coordinates": [ [ [ -0.0910223, 51.5104985 ], [ -0.0958622, 51.5109546 ], [ -0.0983398, 51.5119379 ], [ -0.0984797, 51.5120196 ], [ -0.1002078, 51.5130651 ], [ -0.1014235, 51.513906 ], [ -0.1033094, 51.5152951 ], [ -0.1041485, 51.5170008 ], [ -0.1031891, 51.5201464 ], [ -0.0988108, 51.5233958 ], [ -0.0907561, 51.5252887 ], [ -0.090588, 51.5253057 ], [ -0.0861022, 51.5234991 ], [ -0.0844641, 51.5221464 ], [ -0.0826903, 51.5205455 ], [ -0.0817588, 51.5196582 ], [ -0.0801609, 51.517653 ], [ -0.0793245, 51.5157227 ], [ -0.086565, 51.5108368 ], [ -0.0867248, 51.5107644 ], [ -0.0910223, 51.5104985 ] ] ] } },
{ "type": "Feature", "properties": { "park_offical_id": "CITOF_153" }, "geometry": { "type": "Polygon", "coordinates": [ [ [ -0.0810619, 51.5088236 ], [ -0.0844905, 51.509569 ], [ -0.0845995, 51.5096046 ], [ -0.0853913, 51.5099392 ], [ -0.0866313, 51.5106646 ], [ -0.0868025, 51.5107783 ], [ -0.0894393, 51.5126051 ], [ -0.0903019, 51.513452 ], [ -0.0912846, 51.5169234 ], [ -0.0912864, 51.5169463 ], [ -0.091202, 51.5181164 ], [ -0.0900473, 51.52002 ], [ -0.0899655, 51.5200527 ], [ -0.0792802, 51.5237216 ], [ -0.0773507, 51.5239004 ], [ -0.0772319, 51.5238954 ], [ -0.0770723, 51.5238885 ], [ -0.075872812840833, 51.523288912328134 ], [ -0.0731204, 51.5222148 ], [ -0.066199, 51.5186141 ], [ -0.0660553, 51.5184264 ], [ -0.066306, 51.5149637 ], [ -0.0664944, 51.5145693 ], [ -0.0690356, 51.5119572 ], [ -0.0730973, 51.5088407 ], [ -0.0739787, 51.5086734 ], [ -0.0810619, 51.5088236 ] ] ] } },
{ "type": "Feature", "properties": { "park_offical_id": "CITOF_16" }, "geometry": { "type": "Polygon", "coordinates": [ [ [ -0.1188074, 51.5114247 ], [ -0.1196526, 51.5118668 ], [ -0.1218654, 51.5173188 ], [ -0.1218615, 51.5173878 ], [ -0.1202374, 51.5193989 ], [ -0.118218, 51.5212809 ], [ -0.1172772, 51.5221138 ], [ -0.1148601, 51.5235593 ], [ -0.1120971, 51.5237017 ], [ -0.1093302, 51.5236433 ], [ -0.1018318, 51.5219323 ], [ -0.0995641, 51.5210548 ], [ -0.0985544, 51.5205937 ], [ -0.098409, 51.516669 ], [ -0.0984281, 51.5160848 ], [ -0.098452283079979, 51.515791608944639 ], [ -0.0983832, 51.5141789 ], [ -0.0984285, 51.5132224 ], [ -0.1030572, 51.5108413 ], [ -0.1045418, 51.5107612 ], [ -0.1059832, 51.5107142 ], [ -0.1157198, 51.5105609 ], [ -0.1188074, 51.5114247 ] ] ] } },
{ "type": "Feature", "properties": { "park_offical_id": "CITOF_17" }, "geometry": { "type": "Polygon", "coordinates": [ [ [ -0.1097298, 51.5108918 ], [ -0.1120262, 51.5110439 ], [ -0.1122432, 51.5110959 ], [ -0.1139291, 51.5115848 ], [ -0.1161094, 51.5125147 ], [ -0.117899, 51.514151 ], [ -0.1179409, 51.5141955 ], [ -0.1197522, 51.5164016 ], [ -0.1205552, 51.5174973 ], [ -0.1205979, 51.5175882 ], [ -0.1206258, 51.517649 ], [ -0.1205297, 51.5180558 ], [ -0.1171269, 51.5216672 ], [ -0.1159389, 51.5228219 ], [ -0.1148601, 51.5235593 ], [ -0.1132877, 51.5243139 ], [ -0.1108515, 51.5251204 ], [ -0.1104296, 51.525112 ], [ -0.1095269, 51.5250568 ], [ -0.1027927, 51.5240126 ], [ -0.1000929, 51.5232118 ], [ -0.0996803, 51.5230672 ], [ -0.0974779, 51.5221893 ], [ -0.0963283, 51.5216712 ], [ -0.0962971, 51.5216181 ], [ -0.0946575, 51.5142905 ], [ -0.0947411, 51.5142176 ], [ -0.0961651, 51.513378 ], [ -0.096972068126872, 51.512956259763179 ], [ -0.097938, 51.5122902 ], [ -0.0983228, 51.5121001 ], [ -0.0987499, 51.5119637 ], [ -0.1022553, 51.5108724 ], [ -0.1023796, 51.5108588 ], [ -0.1045418, 51.5107612 ], [ -0.1059832, 51.5107142 ], [ -0.1097298, 51.5108918 ] ] ] } },
{ "type": "Feature", "properties": { "park_offical_id": "CITOF_18" }, "geometry": { "type": "Polygon", "coordinates": [ [ [ -0.1084557, 51.5108928 ], [ -0.1120262, 51.5110439 ], [ -0.1122432, 51.5110959 ], [ -0.1138452, 51.5116018 ], [ -0.1161094, 51.5125147 ], [ -0.121242, 51.51756 ], [ -0.1197664, 51.5191555 ], [ -0.1153059, 51.5238163 ], [ -0.1151924, 51.5238653 ], [ -0.1151794, 51.5238709 ], [ -0.1106886, 51.5252355 ], [ -0.1101131, 51.5253266 ], [ -0.106692, 51.5249679 ], [ -0.102957, 51.5245681 ], [ -0.1028324, 51.5245478 ], [ -0.1014139, 51.5241927 ], [ -0.0986621, 51.5234122 ], [ -0.0954471, 51.5217731 ], [ -0.0954233, 51.5217294 ], [ -0.0941158, 51.5142059 ], [ -0.0941507, 51.5141225 ], [ -0.0941705, 51.5140752 ], [ -0.0958709, 51.5130735 ], [ -0.0962467, 51.5129531 ], [ -0.1030572, 51.5108413 ], [ -0.1045418, 51.5107612 ], [ -0.1084557, 51.5108928 ] ] ] } },
{ "type": "Feature", "properties": { "park_offical_id": "CITOF_19" }, "geometry": { "type": "Polygon", "coordinates": [ [ [ -0.0965393, 51.5130352 ], [ -0.0974621, 51.5131728 ], [ -0.1025526, 51.5139969 ], [ -0.1039643, 51.5147248 ], [ -0.1077932, 51.517442 ], [ -0.1078949, 51.5176293 ], [ -0.1082149, 51.51938 ], [ -0.1068273, 51.5221928 ], [ -0.101917, 51.5275925 ], [ -0.1008474, 51.5281924 ], [ -0.1007369, 51.5282183 ], [ -0.097069, 51.5282867 ], [ -0.0905848, 51.5263065 ], [ -0.0886221, 51.5254277 ], [ -0.0859015, 51.5237593 ], [ -0.0855832, 51.5233275 ], [ -0.0836592, 51.5206519 ], [ -0.0833363, 51.5197433 ], [ -0.0865104, 51.5173464 ], [ -0.0868847, 51.517096 ], [ -0.0899789, 51.5157179 ], [ -0.0959555, 51.5131591 ], [ -0.096413, 51.5130169 ], [ -0.0965393, 51.5130352 ] ] ] } },
{ "type": "Feature", "properties": { "park_offical_id": "CITOF_2" }, "geometry": { "type": "Polygon", "coordinates": [ [ [ -0.0945309, 51.5138607 ], [ -0.0946481, 51.5138675 ], [ -0.0970133, 51.5143764 ], [ -0.097209, 51.5144208 ], [ -0.102358, 51.5159508 ], [ -0.104909, 51.5169571 ], [ -0.1059857, 51.5183413 ], [ -0.1057709, 51.519797 ], [ -0.1053831, 51.5208682 ], [ -0.1052144, 51.5211203 ], [ -0.1002024, 51.5264921 ], [ -0.0999714, 51.5265463 ], [ -0.0938361, 51.5256054 ], [ -0.0904632, 51.524754 ], [ -0.0883163, 51.5238711 ], [ -0.08474, 51.5213898 ], [ -0.0835922, 51.5198494 ], [ -0.0830758, 51.5181124 ], [ -0.0830818, 51.5180761 ], [ -0.0831297, 51.518025 ], [ -0.0836574, 51.5177508 ], [ -0.0855397, 51.5168821 ], [ -0.0856937, 51.5168111 ], [ -0.0879422, 51.5158554 ], [ -0.0904883, 51.514871 ], [ -0.0923459, 51.5143301 ], [ -0.0945309, 51.5138607 ] ] ] } },
{ "type": "Feature", "properties": { "park_offical_id": "CITOF_20" }, "geometry": { "type": "Polygon", "coordinates": [ [ [ -0.1044453, 51.5051668 ], [ -0.1046727, 51.5052072 ], [ -0.1056841, 51.5055583 ], [ -0.108147, 51.5070004 ], [ -0.1138828, 51.5110551 ], [ -0.1139034, 51.5110994 ], [ -0.1145651, 51.5126613 ], [ -0.1145211, 51.5129033 ], [ -0.1142123, 51.5137949 ], [ -0.1129664, 51.5153502 ], [ -0.1106697, 51.5181988 ], [ -0.106815, 51.5204225 ], [ -0.1067933, 51.5204316 ], [ -0.1061058, 51.520662 ], [ -0.1014175, 51.5210079 ], [ -0.0973541, 51.5200668 ], [ -0.0936913, 51.517454 ], [ -0.0890599, 51.5133827 ], [ -0.0890097, 51.5132341 ], [ -0.0892453, 51.5113533 ], [ -0.0908648, 51.5104399 ], [ -0.102258, 51.5058797 ], [ -0.104337, 51.505167 ], [ -0.1044453, 51.5051668 ] ] ] } },
{ "type": "Feature", "properties": { "park_offical_id": "CITOF_22" }, "geometry": { "type": "Polygon", "coordinates": [ [ [ -0.0974295, 51.5052824 ], [ -0.1044466, 51.5073202 ], [ -0.1049092, 51.5075798 ], [ -0.1050146, 51.5076421 ], [ -0.1107212, 51.5110718 ], [ -0.1118635, 51.5137974 ], [ -0.1091468, 51.5165349 ], [ -0.1077981, 51.5178059 ], [ -0.1076608, 51.5179076 ], [ -0.1057714, 51.5186241 ], [ -0.1017606, 51.5199929 ], [ -0.097638, 51.5207356 ], [ -0.097523, 51.5207032 ], [ -0.0963377, 51.5202483 ], [ -0.0930553, 51.5189112 ], [ -0.091202, 51.5181164 ], [ -0.0896028, 51.5173889 ], [ -0.0854368, 51.5148681 ], [ -0.0841383, 51.5134164 ], [ -0.0842078, 51.5107521 ], [ -0.0843347, 51.5106369 ], [ -0.0853559, 51.5099248 ], [ -0.090735655523776, 51.50796523959437 ], [ -0.0972612, 51.5052371 ], [ -0.0974295, 51.5052824 ] ] ] } },
{ "type": "Feature", "properties": { "park_offical_id": "CITOF_24" }, "geometry": { "type": "Polygon", "coordinates": [ [ [ -0.0985899, 51.5086018 ], [ -0.1038231, 51.5111096 ], [ -0.1045317, 51.5114654 ], [ -0.1051273, 51.5120125 ], [ -0.107243, 51.514278 ], [ -0.1078782, 51.5174513 ], [ -0.1078949, 51.5176293 ], [ -0.1078802, 51.5177094 ], [ -0.1078019, 51.517869 ], [ -0.1050065, 51.5208319 ], [ -0.1029195, 51.5221782 ], [ -0.099092, 51.5240511 ], [ -0.0967239, 51.5238799 ], [ -0.092627, 51.5226414 ], [ -0.0873015, 51.5206003 ], [ -0.0871171, 51.5204743 ], [ -0.0841078, 51.5177 ], [ -0.0828329, 51.5151333 ], [ -0.0838662, 51.513368 ], [ -0.0849702, 51.5117749 ], [ -0.0858702, 51.5108454 ], [ -0.0862839, 51.5106581 ], [ -0.0985899, 51.5086018 ] ] ] } },
{ "type": "Feature", "properties": { "park_offical_id": "CITOF_25" }, "geometry": { "type": "Polygon", "coordinates": [ [ [ -0.0834291, 51.5144205 ], [ -0.085144, 51.5117785 ], [ -0.086565, 51.5108368 ], [ -0.0867248, 51.5107644 ], [ -0.0985899, 51.5086018 ], [ -0.1040021, 51.5111939 ], [ -0.1045317, 51.5114654 ], [ -0.1051273, 51.5120125 ], [ -0.1073934, 51.5142794 ], [ -0.1089154, 51.517751 ], [ -0.1055179, 51.5209898 ], [ -0.1032776, 51.5226617 ], [ -0.0991114, 51.5243901 ], [ -0.0960667, 51.5240828 ], [ -0.094195170178156, 51.523307479781096 ], [ -0.092055993676872, 51.52280864092404 ], [ -0.091287709094757, 51.52264023647222 ], [ -0.0898585, 51.5223481 ], [ -0.089772, 51.522308 ], [ -0.0871997, 51.5208666 ], [ -0.0840437, 51.5182172 ], [ -0.0837, 51.5176376 ], [ -0.083317, 51.5167549 ], [ -0.083415666667238, 51.516074707131281 ], [ -0.0834291, 51.5144205 ] ] ] } },
{ "type": "Feature", "properties": { "park_offical_id": "CITOF_28" }, "geometry": { "type": "Polygon", "coordinates": [ [ [ -0.0778008, 51.5172786 ], [ -0.0773509, 51.5173039 ], [ -0.0772756, 51.5172951 ], [ -0.0728474, 51.5166447 ], [ -0.0724629, 51.516575 ], [ -0.0697908, 51.5160568 ], [ -0.0634208, 51.5111826 ], [ -0.0634211, 51.5111173 ], [ -0.064642, 51.5082549 ], [ -0.0664008, 51.5066816 ], [ -0.0684099, 51.505115 ], [ -0.0770009, 51.502898 ], [ -0.0770614, 51.5029145 ], [ -0.0771404, 51.5029361 ], [ -0.0771991, 51.5029522 ], [ -0.081231181336538, 51.504944070260244 ], [ -0.0879362, 51.5067439 ], [ -0.0907554, 51.5092442 ], [ -0.0907932, 51.5092795 ], [ -0.0912889, 51.5104459 ], [ -0.0916273, 51.5119004 ], [ -0.0915905, 51.5119642 ], [ -0.0897356, 51.5132346 ], [ -0.0894513, 51.5133708 ], [ -0.0891246, 51.5135182 ], [ -0.08615295107365, 51.514649291053239 ], [ -0.0829098, 51.5162559 ], [ -0.0810191, 51.5170397 ], [ -0.0778008, 51.5172786 ] ] ] } },
{ "type": "Feature", "properties": { "park_offical_id": "CITOF_29" }, "geometry": { "type": "Polygon", "coordinates": [ [ [ -0.0957788, 51.5109415 ], [ -0.0984285, 51.5110895 ], [ -0.1021265, 51.5128138 ], [ -0.104401, 51.5142738 ], [ -0.1052985, 51.5171982 ], [ -0.1053618, 51.5174084 ], [ -0.1056774, 51.5185091 ], [ -0.1049261, 51.5207257 ], [ -0.0994103, 51.5246568 ], [ -0.0993147, 51.524649 ], [ -0.096453619551434, 51.524403514125297 ], [ -0.0939229, 51.5246892 ], [ -0.0903109, 51.5241787 ], [ -0.0866214, 51.5222433 ], [ -0.0847904, 51.5210241 ], [ -0.083729190238555, 51.519671493236011 ], [ -0.0829771, 51.5189521 ], [ -0.0820045, 51.5176842 ], [ -0.081311, 51.5164896 ], [ -0.0813487, 51.5161548 ], [ -0.0814654, 51.5159758 ], [ -0.0874862, 51.5117199 ], [ -0.0903941, 51.5111756 ], [ -0.0932732, 51.510817 ], [ -0.0957788, 51.5109415 ] ] ] } },
{ "type": "Feature", "properties": { "park_offical_id": "CITOF_3" }, "geometry": { "type": "Polygon", "coordinates": [ [ [ -0.0981082, 51.5106299 ], [ -0.0985166, 51.5107509 ], [ -0.1016753, 51.5122195 ], [ -0.1029578, 51.5132875 ], [ -0.1035373, 51.5139473 ], [ -0.1047878, 51.5170453 ], [ -0.1047714, 51.5171577 ], [ -0.1024361, 51.5200924 ], [ -0.1024049, 51.5201304 ], [ -0.1018862, 51.5206967 ], [ -0.101849, 51.5207252 ], [ -0.0985722, 51.5231661 ], [ -0.0982248, 51.523282 ], [ -0.0900806, 51.5236964 ], [ -0.0891573, 51.5234823 ], [ -0.0866214, 51.5222433 ], [ -0.0847904, 51.5210241 ], [ -0.0821538, 51.5188491 ], [ -0.081403, 51.5178781 ], [ -0.0813185, 51.517747 ], [ -0.0803127, 51.5161543 ], [ -0.0804872, 51.5157565 ], [ -0.0836286, 51.5116165 ], [ -0.0848549, 51.5107945 ], [ -0.0853662, 51.5104531 ], [ -0.0860556, 51.5100683 ], [ -0.0871036, 51.5098103 ], [ -0.0907554, 51.5092442 ], [ -0.091817, 51.5093544 ], [ -0.0981082, 51.5106299 ] ] ] } },
{ "type": "Feature", "properties": { "park_offical_id": "CITOF_30" }, "geometry": { "type": "Polygon", "coordinates": [ [ [ -0.0911344, 51.5107256 ], [ -0.0958622, 51.5109546 ], [ -0.0983398, 51.5119379 ], [ -0.1002185, 51.51301 ], [ -0.1015386, 51.5138034 ], [ -0.1033411, 51.5152948 ], [ -0.1041485, 51.5170008 ], [ -0.1033713, 51.5201871 ], [ -0.099134, 51.5238647 ], [ -0.0934727, 51.5248834 ], [ -0.0908623, 51.5252752 ], [ -0.0907561, 51.5252887 ], [ -0.090588, 51.5253057 ], [ -0.0861022, 51.5234991 ], [ -0.0844641, 51.5221464 ], [ -0.0826903, 51.5205455 ], [ -0.0805268, 51.5176222 ], [ -0.0798539, 51.5162155 ], [ -0.0797768, 51.5160538 ], [ -0.0797035, 51.5155428 ], [ -0.0798222, 51.5154051 ], [ -0.0798584, 51.5153797 ], [ -0.0799011, 51.5153508 ], [ -0.0868841, 51.5111242 ], [ -0.0870873, 51.5110305 ], [ -0.0911344, 51.5107256 ] ] ] } },
{ "type": "Feature", "properties": { "park_offical_id": "CITOF_31" }, "geometry": { "type": "Polygon", "coordinates": [ [ [ -0.0958622, 51.5109546 ], [ -0.0983398, 51.5119379 ], [ -0.1002185, 51.51301 ], [ -0.1015386, 51.5138034 ], [ -0.1033411, 51.5152948 ], [ -0.1041485, 51.5170008 ], [ -0.1033713, 51.5201871 ], [ -0.099134, 51.5238647 ], [ -0.094167465359006, 51.524758383224487 ], [ -0.0909431, 51.5257804 ], [ -0.0908697, 51.5257952 ], [ -0.0908269, 51.5257848 ], [ -0.0857146, 51.5240331 ], [ -0.0849194, 51.5233933 ], [ -0.0833099, 51.5220469 ], [ -0.0818812, 51.5205693 ], [ -0.0802711, 51.5176654 ], [ -0.0794291, 51.515733 ], [ -0.0798222, 51.5154051 ], [ -0.0798584, 51.5153797 ], [ -0.0799011, 51.5153508 ], [ -0.0868841, 51.5111242 ], [ -0.0870873, 51.5110305 ], [ -0.0911344, 51.5107256 ], [ -0.0958622, 51.5109546 ] ] ] } },
{ "type": "Feature", "properties": { "park_offical_id": "CITOF_4" }, "geometry": { "type": "Polygon", "coordinates": [ [ [ -0.1071436, 51.5111167 ], [ -0.110965, 51.5137741 ], [ -0.1110819, 51.5139094 ], [ -0.1126945, 51.5182813 ], [ -0.1068145, 51.5221087 ], [ -0.106314816770685, 51.522259131164859 ], [ -0.1062456, 51.5223104 ], [ -0.1040661, 51.5234793 ], [ -0.102641, 51.5237184 ], [ -0.102547, 51.5237288 ], [ -0.099134, 51.5238647 ], [ -0.0967484, 51.5237791 ], [ -0.0967014, 51.5237705 ], [ -0.0945424, 51.5229702 ], [ -0.0921412, 51.5217182 ], [ -0.0888818, 51.5196927 ], [ -0.0867695, 51.5173761 ], [ -0.0855141, 51.5148396 ], [ -0.0860711, 51.5133669 ], [ -0.0866871, 51.5124611 ], [ -0.0867037, 51.5124383 ], [ -0.0874862, 51.5117199 ], [ -0.0883053, 51.511308 ], [ -0.0908648, 51.5104399 ], [ -0.093356, 51.5097843 ], [ -0.0985899, 51.5086018 ], [ -0.1059832, 51.5107142 ], [ -0.1071436, 51.5111167 ] ] ] } },
{ "type": "Feature", "properties": { "park_offical_id": "CITOF_40" }, "geometry": { "type": "Polygon", "coordinates": [ [ [ -0.0905241, 51.5047508 ], [ -0.095762, 51.5109661 ], [ -0.0958111, 51.5112275 ], [ -0.0951139, 51.512704 ], [ -0.0930761, 51.5140283 ], [ -0.0914349, 51.5149804 ], [ -0.0913608, 51.5150167 ], [ -0.090102, 51.5154944 ], [ -0.0893903, 51.5157541 ], [ -0.085754380800529, 51.516229142150635 ], [ -0.0811317, 51.5169554 ], [ -0.0809333, 51.5169829 ], [ -0.0779422, 51.5167112 ], [ -0.0722658, 51.5151192 ], [ -0.0691165, 51.5108598 ], [ -0.0690961, 51.5108205 ], [ -0.0690671, 51.5107645 ], [ -0.0696191, 51.5085402 ], [ -0.0722136, 51.5060974 ], [ -0.0735163, 51.5059721 ], [ -0.0867697, 51.5047331 ], [ -0.0901183, 51.5045963 ], [ -0.0902551, 51.5046123 ], [ -0.0905241, 51.5047508 ] ] ] } },
{ "type": "Feature", "properties": { "park_offical_id": "CITOF_41" }, "geometry": { "type": "Polygon", "coordinates": [ [ [ -0.0933784, 51.5123336 ], [ -0.0957583, 51.5176388 ], [ -0.0926872, 51.5203346 ], [ -0.0915647, 51.5209575 ], [ -0.0863874, 51.5227985 ], [ -0.0844383, 51.5234004 ], [ -0.082584823833869, 51.523816672002134 ], [ -0.0802841, 51.5244431 ], [ -0.0773189, 51.5248014 ], [ -0.0771774, 51.524818 ], [ -0.0763838, 51.5243774 ], [ -0.0752037, 51.5236631 ], [ -0.0697986, 51.5190653 ], [ -0.0697861, 51.5190299 ], [ -0.0697294, 51.5184443 ], [ -0.0697633, 51.5150598 ], [ -0.072796, 51.5110935 ], [ -0.074493, 51.5098468 ], [ -0.0768123, 51.509632 ], [ -0.0828181, 51.5092073 ], [ -0.0871797, 51.5089035 ], [ -0.0890893, 51.5099496 ], [ -0.090989371868142, 51.511162449096112 ], [ -0.0933784, 51.5123336 ] ] ] } },
{ "type": "Feature", "properties": { "park_offical_id": "CITOF_46" }, "geometry": { "type": "Polygon", "coordinates": [ [ [ -0.0894762, 51.5050787 ], [ -0.0896709, 51.5051742 ], [ -0.0898964, 51.5053393 ], [ -0.098495, 51.5119473 ], [ -0.0984118, 51.5143601 ], [ -0.0980357, 51.5152874 ], [ -0.0968514, 51.5163106 ], [ -0.0926977, 51.5179437 ], [ -0.088153, 51.5194206 ], [ -0.088056, 51.5194431 ], [ -0.0790122, 51.5203716 ], [ -0.0778841, 51.5196199 ], [ -0.077028, 51.5190263 ], [ -0.0726348, 51.5151035 ], [ -0.0726205, 51.5150876 ], [ -0.0731313, 51.5131793 ], [ -0.0736734, 51.5117511 ], [ -0.0754339, 51.5095067 ], [ -0.0786672, 51.5080223 ], [ -0.0791899, 51.5077985 ], [ -0.0869431, 51.5052307 ], [ -0.0894762, 51.5050787 ] ] ] } },
{ "type": "Feature", "properties": { "park_offical_id": "CITOF_47" }, "geometry": { "type": "Polygon", "coordinates": [ [ [ -0.0892734, 51.5052377 ], [ -0.0893203, 51.5052587 ], [ -0.0894805, 51.5053325 ], [ -0.0980323, 51.5120004 ], [ -0.0980689, 51.5131728 ], [ -0.0977312, 51.5151343 ], [ -0.0977123, 51.5151858 ], [ -0.0964185, 51.5162924 ], [ -0.0938332, 51.5173593 ], [ -0.0924797, 51.5178899 ], [ -0.087775, 51.5193825 ], [ -0.0822942, 51.5203127 ], [ -0.0813214, 51.5204311 ], [ -0.0790568, 51.5206353 ], [ -0.0789721, 51.5206301 ], [ -0.0788543, 51.5206226 ], [ -0.0787557, 51.5206159 ], [ -0.0783809, 51.5204739 ], [ -0.077722, 51.5200499 ], [ -0.076343, 51.5190197 ], [ -0.0718609, 51.5152679 ], [ -0.071777, 51.5151211 ], [ -0.0730383, 51.5118035 ], [ -0.0731267, 51.5117173 ], [ -0.0754339, 51.5095067 ], [ -0.0786672, 51.5080223 ], [ -0.0791899, 51.5077985 ], [ -0.0866747, 51.5055828 ], [ -0.0892734, 51.5052377 ] ] ] } },
{ "type": "Feature", "properties": { "park_offical_id": "CITOF_5" }, "geometry": { "type": "Polygon", "coordinates": [ [ [ -0.1046125, 51.5108308 ], [ -0.1054781, 51.5111562 ], [ -0.1096459, 51.5141692 ], [ -0.1114088, 51.5180611 ], [ -0.1114085, 51.5182689 ], [ -0.1113797, 51.5183028 ], [ -0.107064, 51.5223905 ], [ -0.1046799, 51.523591 ], [ -0.1031168, 51.5243736 ], [ -0.100670432504613, 51.524550799339373 ], [ -0.0994986, 51.5251095 ], [ -0.09589, 51.5245908 ], [ -0.0931749, 51.5235348 ], [ -0.0873015, 51.5206003 ], [ -0.0871171, 51.5204743 ], [ -0.0841078, 51.5177 ], [ -0.0835442, 51.5164841 ], [ -0.0844619, 51.5146194 ], [ -0.0862341, 51.5122804 ], [ -0.0862621, 51.512248 ], [ -0.0873569, 51.5115425 ], [ -0.0933097, 51.5099544 ], [ -0.0945324, 51.5099871 ], [ -0.1046125, 51.5108308 ] ] ] } },
{ "type": "Feature", "properties": { "park_offical_id": "CITOF_50" }, "geometry": { "type": "Polygon", "coordinates": [ [ [ -0.0739787, 51.5086734 ], [ -0.0810619, 51.5088236 ], [ -0.0844905, 51.509569 ], [ -0.0845995, 51.5096046 ], [ -0.0853913, 51.5099392 ], [ -0.0866313, 51.5106646 ], [ -0.0868025, 51.5107783 ], [ -0.0898607, 51.5131954 ], [ -0.0900571, 51.5133679 ], [ -0.0905713, 51.5148867 ], [ -0.091202, 51.5181164 ], [ -0.0896324, 51.5198998 ], [ -0.0834128, 51.5220086 ], [ -0.0788416, 51.5234531 ], [ -0.077249, 51.5237047 ], [ -0.0770472, 51.5236876 ], [ -0.0731204, 51.5222148 ], [ -0.066199, 51.5186141 ], [ -0.0661855, 51.5185357 ], [ -0.066306, 51.5149637 ], [ -0.0664944, 51.5145693 ], [ -0.0690356, 51.5119572 ], [ -0.0730973, 51.5088407 ], [ -0.0739787, 51.5086734 ] ] ] } },
{ "type": "Feature", "properties": { "park_offical_id": "CITOF_56" }, "geometry": { "type": "Polygon", "coordinates": [ [ [ -0.1045713, 51.5022339 ], [ -0.107189, 51.5034591 ], [ -0.1089843, 51.5043327 ], [ -0.1114691, 51.5056133 ], [ -0.1127235, 51.506498 ], [ -0.1174045, 51.5099833 ], [ -0.117435, 51.5100214 ], [ -0.1157787, 51.5123814 ], [ -0.1142123, 51.5137949 ], [ -0.1089154, 51.517751 ], [ -0.1060637, 51.5192748 ], [ -0.1060508, 51.5192778 ], [ -0.1053501, 51.519206 ], [ -0.1004342, 51.5186387 ], [ -0.0995628, 51.5181163 ], [ -0.091461, 51.5131897 ], [ -0.0914276, 51.5131348 ], [ -0.0913786, 51.5130056 ], [ -0.0908972, 51.5115206 ], [ -0.0908648, 51.5104399 ], [ -0.0970671, 51.5051258 ], [ -0.0971744, 51.5050495 ], [ -0.1012722, 51.5030817 ], [ -0.1045713, 51.5022339 ] ] ] } },
{ "type": "Feature", "properties": { "park_offical_id": "CITOF_59" }, "geometry": { "type": "Polygon", "coordinates": [ [ [ -0.0763454, 51.5074224 ], [ -0.0865191, 51.5087576 ], [ -0.088557, 51.5090438 ], [ -0.0885956, 51.5090679 ], [ -0.0926547, 51.5125442 ], [ -0.0927412, 51.512683 ], [ -0.0927726, 51.5138418 ], [ -0.0924191, 51.515088 ], [ -0.0901356, 51.5176484 ], [ -0.0899886, 51.5177597 ], [ -0.0890477, 51.5183168 ], [ -0.0874991, 51.5191922 ], [ -0.0827277, 51.5205515 ], [ -0.078696, 51.5215232 ], [ -0.0785334, 51.5214992 ], [ -0.0759263, 51.520537 ], [ -0.0676887, 51.5169121 ], [ -0.067656, 51.5168836 ], [ -0.0670414, 51.5150158 ], [ -0.0693476, 51.5111791 ], [ -0.0717822, 51.5083982 ], [ -0.0739012, 51.507803 ], [ -0.0763454, 51.5074224 ] ] ] } },
{ "type": "Feature", "properties": { "park_offical_id": "CITOF_6" }, "geometry": { "type": "Polygon", "coordinates": [ [ [ -0.093643, 51.517535 ], [ -0.0930371, 51.518526 ], [ -0.0900321, 51.5208432 ], [ -0.0871814, 51.5216651 ], [ -0.0795133, 51.5237688 ], [ -0.0773547, 51.524159 ], [ -0.0772257, 51.5241621 ], [ -0.0677719, 51.5179431 ], [ -0.06789, 51.5149679 ], [ -0.0679249, 51.5148583 ], [ -0.0711972, 51.511056 ], [ -0.0732796, 51.5091218 ], [ -0.0736559, 51.5088993 ], [ -0.073955, 51.5088954 ], [ -0.0811477, 51.5089749 ], [ -0.086238, 51.5094679 ], [ -0.0863607, 51.5094841 ], [ -0.0875051, 51.5098341 ], [ -0.0915325, 51.5129765 ], [ -0.0921497, 51.5138016 ], [ -0.0936384, 51.5172719 ], [ -0.0936913, 51.517454 ], [ -0.093643, 51.517535 ] ] ] } },
{ "type": "Feature", "properties": { "park_offical_id": "CITOF_62" }, "geometry": { "type": "Polygon", "coordinates": [ [ [ -0.1043418, 51.5047847 ], [ -0.1044575, 51.5047853 ], [ -0.1055464, 51.505218 ], [ -0.1087022, 51.5070379 ], [ -0.109451, 51.507483 ], [ -0.1138828, 51.5110551 ], [ -0.1139034, 51.5110994 ], [ -0.1139965, 51.5118572 ], [ -0.1131117, 51.5135141 ], [ -0.1090519, 51.5170749 ], [ -0.1078019, 51.517869 ], [ -0.1054931, 51.5191744 ], [ -0.0997575, 51.5193628 ], [ -0.0990747, 51.519341 ], [ -0.0969549, 51.5187572 ], [ -0.096373, 51.5184791 ], [ -0.0938937, 51.5172256 ], [ -0.0881565, 51.5137443 ], [ -0.0880472, 51.5136408 ], [ -0.0878146, 51.5133305 ], [ -0.0874943, 51.5110855 ], [ -0.0883116, 51.5097388 ], [ -0.0966584, 51.5065271 ], [ -0.0977522, 51.5061194 ], [ -0.1043418, 51.5047847 ] ] ] } },
{ "type": "Feature", "properties": { "park_offical_id": "CITOF_63" }, "geometry": { "type": "Polygon", "coordinates": [ [ [ -0.0951001, 51.5108769 ], [ -0.0957788, 51.5109415 ], [ -0.0983362, 51.5112039 ], [ -0.1014277, 51.5125851 ], [ -0.1018152, 51.5127838 ], [ -0.1035373, 51.5139473 ], [ -0.1044244, 51.5146498 ], [ -0.1052985, 51.5171982 ], [ -0.1053618, 51.5174084 ], [ -0.1055373, 51.5184068 ], [ -0.1055273, 51.5184853 ], [ -0.1048947, 51.5204824 ], [ -0.1048229, 51.5205894 ], [ -0.0993439, 51.5244542 ], [ -0.095516767403689, 51.524610991678969 ], [ -0.0939772, 51.5247732 ], [ -0.0903326, 51.5244556 ], [ -0.0883248, 51.5235306 ], [ -0.0847688, 51.5213356 ], [ -0.0819269, 51.5177866 ], [ -0.0809151, 51.5160679 ], [ -0.0809537, 51.5160313 ], [ -0.0809764, 51.5160099 ], [ -0.086284, 51.5123058 ], [ -0.0873699, 51.5117218 ], [ -0.0910949, 51.5108207 ], [ -0.0931241, 51.5107646 ], [ -0.0951001, 51.5108769 ] ] ] } },
{ "type": "Feature", "properties": { "park_offical_id": "CITOF_64" }, "geometry": { "type": "Polygon", "coordinates": [ [ [ -0.0971639, 51.5115167 ], [ -0.1001414, 51.5130596 ], [ -0.1014235, 51.513906 ], [ -0.1030982, 51.5151904 ], [ -0.1031477, 51.515229 ], [ -0.1033095, 51.5153617 ], [ -0.1041485, 51.5170008 ], [ -0.1031871, 51.5201871 ], [ -0.099092, 51.5240511 ], [ -0.0989589, 51.5241207 ], [ -0.093028452638461, 51.525030167812993 ], [ -0.0908366, 51.5254707 ], [ -0.0907738, 51.525477 ], [ -0.0859015, 51.5237593 ], [ -0.0853767, 51.523334 ], [ -0.0845133, 51.5226337 ], [ -0.0820534, 51.5205834 ], [ -0.0805268, 51.5176222 ], [ -0.0798539, 51.5162155 ], [ -0.0797768, 51.5160538 ], [ -0.0798222, 51.5154051 ], [ -0.0798584, 51.5153797 ], [ -0.0799011, 51.5153508 ], [ -0.0874862, 51.5117199 ], [ -0.089698336313904, 51.511554291398603 ], [ -0.0908943, 51.5112947 ], [ -0.0958169, 51.5110477 ], [ -0.0971639, 51.5115167 ] ] ] } },
{ "type": "Feature", "properties": { "park_offical_id": "CITOF_7" }, "geometry": { "type": "Polygon", "coordinates": [ [ [ -0.1120086, 51.5136721 ], [ -0.1091502, 51.5168374 ], [ -0.1090126, 51.5169668 ], [ -0.1078019, 51.517869 ], [ -0.1054931, 51.5191744 ], [ -0.1018034, 51.5207717 ], [ -0.0974051, 51.5215929 ], [ -0.0972162, 51.521628 ], [ -0.0968231, 51.5216043 ], [ -0.092779, 51.5200637 ], [ -0.0904503, 51.5190661 ], [ -0.084313, 51.5155086 ], [ -0.0834291, 51.5144205 ], [ -0.0833372, 51.5133872 ], [ -0.0831457, 51.5106552 ], [ -0.0831687, 51.5105042 ], [ -0.0843289, 51.5094686 ], [ -0.0951284, 51.5062282 ], [ -0.0953877, 51.5062125 ], [ -0.096268483137177, 51.506329956496948 ], [ -0.0965653, 51.5062255 ], [ -0.0977522, 51.5061194 ], [ -0.0985365, 51.5061665 ], [ -0.1045468, 51.5076977 ], [ -0.1120086, 51.5136721 ] ] ] } },
{ "type": "Feature", "properties": { "park_offical_id": "CITOF_70" }, "geometry": { "type": "Polygon", "coordinates": [ [ [ -0.1046735, 51.5051776 ], [ -0.1059248, 51.5055743 ], [ -0.108361, 51.5069329 ], [ -0.1138828, 51.5110551 ], [ -0.1139034, 51.5110994 ], [ -0.1145651, 51.5126613 ], [ -0.1145211, 51.5129033 ], [ -0.1142123, 51.5137949 ], [ -0.1129664, 51.5153502 ], [ -0.1106697, 51.5181988 ], [ -0.106815, 51.5204225 ], [ -0.1067933, 51.5204316 ], [ -0.1061058, 51.520662 ], [ -0.1014175, 51.5210079 ], [ -0.0973541, 51.5200668 ], [ -0.0936913, 51.517454 ], [ -0.091826240518684, 51.515814492147889 ], [ -0.0889457, 51.5134058 ], [ -0.0888896, 51.5132008 ], [ -0.0892453, 51.5113533 ], [ -0.0893635, 51.511169 ], [ -0.0902377, 51.5103381 ], [ -0.0903091, 51.5102833 ], [ -0.0976326, 51.5071871 ], [ -0.1011008, 51.5060825 ], [ -0.1043351, 51.5051322 ], [ -0.1046735, 51.5051776 ] ] ] } },
{ "type": "Feature", "properties": { "park_offical_id": "CITOF_71" }, "geometry": { "type": "Polygon", "coordinates": [ [ [ -0.114242355831732, 51.506599579288007 ], [ -0.1204105, 51.5083652 ], [ -0.1205332, 51.5091219 ], [ -0.1200691, 51.5106302 ], [ -0.118793, 51.5132802 ], [ -0.1179629, 51.5142405 ], [ -0.1130249, 51.5171881 ], [ -0.112991, 51.5172001 ], [ -0.10791018784784, 51.51828813303554 ], [ -0.1060637, 51.5192748 ], [ -0.1060508, 51.5192778 ], [ -0.1053501, 51.519206 ], [ -0.1003096, 51.5184674 ], [ -0.096665911770738, 51.516003719282779 ], [ -0.0923292, 51.5132054 ], [ -0.0916273, 51.5119004 ], [ -0.0912598, 51.51044 ], [ -0.094897485086084, 51.507111192105718 ], [ -0.0965546, 51.5051152 ], [ -0.1012982, 51.5028961 ], [ -0.1045822, 51.5019066 ], [ -0.1073573, 51.5029938 ], [ -0.112762, 51.5052057 ], [ -0.114242355831732, 51.506599579288007 ] ] ] } },
{ "type": "Feature", "properties": { "park_offical_id": "CITOF_72" }, "geometry": { "type": "Polygon", "coordinates": [ [ [ -0.0952815, 51.5068468 ], [ -0.0961198, 51.5072119 ], [ -0.1027345, 51.5108733 ], [ -0.1042063, 51.5118135 ], [ -0.104191, 51.5119736 ], [ -0.1033359, 51.5167402 ], [ -0.1032968, 51.5167865 ], [ -0.099961, 51.5183271 ], [ -0.092779, 51.5200637 ], [ -0.09041981139757, 51.520428923493853 ], [ -0.0871392, 51.5211361 ], [ -0.0870006, 51.521125 ], [ -0.0818909, 51.5193534 ], [ -0.07972, 51.5183117 ], [ -0.079569, 51.518213 ], [ -0.0764096, 51.5137439 ], [ -0.0764014, 51.5135997 ], [ -0.0766436, 51.5131281 ], [ -0.0789306, 51.5095038 ], [ -0.0803111, 51.5086308 ], [ -0.0880466, 51.505972 ], [ -0.0888338, 51.5058723 ], [ -0.0952815, 51.5068468 ] ] ] } },
{ "type": "Feature", "properties": { "park_offical_id": "CITOF_76" }, "geometry": { "type": "Polygon", "coordinates": [ [ [ -0.0952294, 51.5070166 ], [ -0.0986196, 51.5081402 ], [ -0.1054781, 51.5111562 ], [ -0.1082133, 51.514272 ], [ -0.1077312, 51.5176946 ], [ -0.1076376, 51.517797 ], [ -0.1074622, 51.5179619 ], [ -0.10186, 51.5206541 ], [ -0.1017876, 51.5206812 ], [ -0.0974059, 51.5219687 ], [ -0.0924874, 51.5216814 ], [ -0.0886533, 51.5206876 ], [ -0.083317, 51.5167549 ], [ -0.0820976, 51.5156119 ], [ -0.0807543, 51.5135364 ], [ -0.0807899, 51.5134164 ], [ -0.0821093, 51.5116116 ], [ -0.0831687, 51.5105042 ], [ -0.0844905, 51.509569 ], [ -0.0947712, 51.5070109 ], [ -0.0951736, 51.5070087 ], [ -0.0952294, 51.5070166 ] ] ] } },
{ "type": "Feature", "properties": { "park_offical_id": "CITOF_77" }, "geometry": { "type": "Polygon", "coordinates": [ [ [ -0.093356, 51.5097843 ], [ -0.1005784, 51.5108693 ], [ -0.1021929, 51.511115 ], [ -0.1052738, 51.5134945 ], [ -0.1057261, 51.5141555 ], [ -0.1066929, 51.5174798 ], [ -0.1066645, 51.5177263 ], [ -0.1040029, 51.5201771 ], [ -0.1023646, 51.5213384 ], [ -0.0988108, 51.5233958 ], [ -0.0978816, 51.5235046 ], [ -0.093134, 51.5234867 ], [ -0.0898755, 51.5229171 ], [ -0.0867499, 51.521206 ], [ -0.0856871, 51.5204211 ], [ -0.0835639, 51.5186774 ], [ -0.0831112, 51.518056 ], [ -0.08264, 51.5174073 ], [ -0.0824195, 51.5166391 ], [ -0.0830555, 51.51493 ], [ -0.0840378, 51.5132999 ], [ -0.0849213, 51.5118595 ], [ -0.086565, 51.5108368 ], [ -0.0867248, 51.5107644 ], [ -0.0899874, 51.5102098 ], [ -0.093356, 51.5097843 ] ] ] } },
{ "type": "Feature", "properties": { "park_offical_id": "CITOF_78" }, "geometry": { "type": "Polygon", "coordinates": [ [ [ -0.0983895, 51.5107377 ], [ -0.0985166, 51.5107509 ], [ -0.101871, 51.5120597 ], [ -0.1033353, 51.5128046 ], [ -0.1051417, 51.5138636 ], [ -0.1076311, 51.5175265 ], [ -0.1076376, 51.517797 ], [ -0.10716765893136, 51.519335444409428 ], [ -0.1071616, 51.5195074 ], [ -0.1057221, 51.5216524 ], [ -0.1002024, 51.5264921 ], [ -0.0999714, 51.5265463 ], [ -0.0945705, 51.5254796 ], [ -0.0935738, 51.5251291 ], [ -0.0915179, 51.5243393 ], [ -0.0900559, 51.5236419 ], [ -0.0870475, 51.520852 ], [ -0.0837264, 51.5164494 ], [ -0.083758, 51.5163706 ], [ -0.0886164, 51.5131564 ], [ -0.0918008, 51.5119392 ], [ -0.0939219, 51.5112381 ], [ -0.0955212, 51.5109311 ], [ -0.0980809, 51.5107195 ], [ -0.0983895, 51.5107377 ] ] ] } },
{ "type": "Feature", "properties": { "park_offical_id": "CITOF_79" }, "geometry": { "type": "Polygon", "coordinates": [ [ [ -0.0958622, 51.5109546 ], [ -0.0984285, 51.5110895 ], [ -0.1018281, 51.5121783 ], [ -0.105108, 51.5138588 ], [ -0.1078782, 51.5174513 ], [ -0.1082149, 51.51938 ], [ -0.106326, 51.5223014 ], [ -0.1007157, 51.5270164 ], [ -0.1004417, 51.5270247 ], [ -0.0965492, 51.52663 ], [ -0.0943813, 51.5259585 ], [ -0.0943209, 51.5259381 ], [ -0.09059, 51.5246139 ], [ -0.0892149, 51.5238381 ], [ -0.0852926, 51.5203864 ], [ -0.0852196, 51.5203146 ], [ -0.0847775, 51.517588 ], [ -0.0847876, 51.5174405 ], [ -0.0852288, 51.5161462 ], [ -0.0886962, 51.513578 ], [ -0.0889457, 51.5134058 ], [ -0.0958622, 51.5109546 ] ] ] } },
{ "type": "Feature", "properties": { "park_offical_id": "CITOF_8" }, "geometry": { "type": "Polygon", "coordinates": [ [ [ -0.0956888, 51.50441 ], [ -0.0957815, 51.5044463 ], [ -0.1043732, 51.5078692 ], [ -0.1100554, 51.5109181 ], [ -0.1091913, 51.5126239 ], [ -0.1079549, 51.5142159 ], [ -0.106151, 51.5156566 ], [ -0.1048611, 51.5163991 ], [ -0.1032507, 51.5172714 ], [ -0.0969804, 51.5185752 ], [ -0.0969084, 51.5185761 ], [ -0.0934041, 51.518233 ], [ -0.0932425, 51.5181982 ], [ -0.0895725, 51.5172903 ], [ -0.0843219, 51.5143624 ], [ -0.0838675, 51.5134812 ], [ -0.0827694, 51.5092303 ], [ -0.083495, 51.5088009 ], [ -0.0922869, 51.5053891 ], [ -0.0956888, 51.50441 ] ] ] } },
{ "type": "Feature", "properties": { "park_offical_id": "CITOF_81" }, "geometry": { "type": "Polygon", "coordinates": [ [ [ -0.1022553, 51.5108724 ], [ -0.1028546, 51.511004 ], [ -0.104304, 51.5116873 ], [ -0.1061312, 51.5134649 ], [ -0.1065221, 51.5141931 ], [ -0.1078782, 51.5174513 ], [ -0.1078949, 51.5176293 ], [ -0.1078802, 51.5177094 ], [ -0.1078019, 51.517869 ], [ -0.1049261, 51.5207257 ], [ -0.1029195, 51.5221782 ], [ -0.099134, 51.5238647 ], [ -0.0967484, 51.5237791 ], [ -0.0967014, 51.5237705 ], [ -0.092920260588595, 51.522972463172977 ], [ -0.0928692, 51.5229635 ], [ -0.0898585, 51.5223481 ], [ -0.089772, 51.522308 ], [ -0.0871997, 51.5208666 ], [ -0.0840437, 51.5182172 ], [ -0.0837, 51.5176376 ], [ -0.083317, 51.5167549 ], [ -0.0836599, 51.514391 ], [ -0.0852422, 51.512026 ], [ -0.0852795, 51.5119712 ], [ -0.0868309, 51.5109689 ], [ -0.093356, 51.5097843 ], [ -0.1022553, 51.5108724 ] ] ] } },
{ "type": "Feature", "properties": { "park_offical_id": "CITOF_83" }, "geometry": { "type": "Polygon", "coordinates": [ [ [ -0.0893203, 51.5052587 ], [ -0.0952853, 51.506053 ], [ -0.1021192, 51.5109785 ], [ -0.102398, 51.5115026 ], [ -0.1027576, 51.5134168 ], [ -0.1028043, 51.5140386 ], [ -0.1012172, 51.5162187 ], [ -0.0984885, 51.5173286 ], [ -0.0974894, 51.5177244 ], [ -0.0886533, 51.5206876 ], [ -0.0871997, 51.5208666 ], [ -0.0870475, 51.520852 ], [ -0.0818909, 51.5193534 ], [ -0.0798154, 51.5181697 ], [ -0.0764096, 51.5137439 ], [ -0.0764014, 51.5135997 ], [ -0.0778046, 51.5095123 ], [ -0.0780944, 51.5093537 ], [ -0.0788171, 51.5089967 ], [ -0.0864965, 51.5059175 ], [ -0.0883349, 51.505375 ], [ -0.0893203, 51.5052587 ] ] ] } },
{ "type": "Feature", "properties": { "park_offical_id": "CITOF_85" }, "geometry": { "type": "Polygon", "coordinates": [ [ [ -0.0741246, 51.5069165 ], [ -0.0853988, 51.508631 ], [ -0.0870364, 51.5092726 ], [ -0.0883883, 51.509973 ], [ -0.0915325, 51.5129765 ], [ -0.0913372, 51.5136286 ], [ -0.0912981, 51.5137196 ], [ -0.0894907, 51.517376 ], [ -0.0893554, 51.5175314 ], [ -0.08822, 51.5180518 ], [ -0.0862774, 51.5188553 ], [ -0.0846871, 51.5193298 ], [ -0.0802708, 51.5205736 ], [ -0.0790568, 51.5206353 ], [ -0.0789721, 51.5206301 ], [ -0.0788543, 51.5206226 ], [ -0.0787557, 51.5206159 ], [ -0.0758176, 51.5202242 ], [ -0.0669235, 51.5176235 ], [ -0.0667195, 51.517459 ], [ -0.0654938, 51.5147427 ], [ -0.0683503, 51.5109776 ], [ -0.0704074, 51.5084156 ], [ -0.0711292, 51.5079299 ], [ -0.0741246, 51.5069165 ] ] ] } },
{ "type": "Feature", "properties": { "park_offical_id": "CITOF_9" }, "geometry": { "type": "Polygon", "coordinates": [ [ [ -0.0902551, 51.5046123 ], [ -0.0953782, 51.5053299 ], [ -0.1021192, 51.5109785 ], [ -0.1024701, 51.5115026 ], [ -0.1027576, 51.5134168 ], [ -0.1028274, 51.5139846 ], [ -0.1028043, 51.5140386 ], [ -0.1005564, 51.5157647 ], [ -0.1003273, 51.5158568 ], [ -0.0969294, 51.5171309 ], [ -0.096749, 51.5171874 ], [ -0.0932425, 51.5181982 ], [ -0.087775, 51.5193825 ], [ -0.0876349, 51.5193547 ], [ -0.0826903, 51.5180303 ], [ -0.0810161, 51.516876 ], [ -0.0775275, 51.5133463 ], [ -0.0768479, 51.5102147 ], [ -0.0767318, 51.5095798 ], [ -0.0767046, 51.509411 ], [ -0.0786672, 51.5080223 ], [ -0.0791899, 51.5077985 ], [ -0.0867651, 51.5048289 ], [ -0.0901183, 51.5045963 ], [ -0.0902551, 51.5046123 ] ] ] } },
{ "type": "Feature", "properties": { "park_offical_id": "CITOF_90" }, "geometry": { "type": "Polygon", "coordinates": [ [ [ -0.0739787, 51.5086734 ], [ -0.0783402, 51.5088537 ], [ -0.0820438, 51.5098012 ], [ -0.0844635, 51.5106465 ], [ -0.0848549, 51.5107945 ], [ -0.0855705, 51.5112252 ], [ -0.0883867, 51.5135087 ], [ -0.0884066, 51.5135393 ], [ -0.0896028, 51.5173889 ], [ -0.088153, 51.5194206 ], [ -0.0834962, 51.5212206 ], [ -0.0781535, 51.5230286 ], [ -0.0777049, 51.5231547 ], [ -0.07763, 51.5231621 ], [ -0.0731204, 51.5222148 ], [ -0.0726868, 51.5220957 ], [ -0.0658438, 51.5186602 ], [ -0.0660856, 51.5148349 ], [ -0.0690071, 51.5118419 ], [ -0.0730973, 51.5088407 ], [ -0.0739787, 51.5086734 ] ] ] } }
]
}
