{
"type": "FeatureCollection",
"name": "BROML_40_toilets",
"crs": { "type": "name", "properties": { "name": "urn:ogc:def:crs:OGC:1.3:CRS84" } },
"features": [
{ "type": "Feature", "properties": { "name": "Sainsburys store", "payment_info": "Free", "accessible": "True", "radar": "Unknown", "women": "True", "men": "True", "baby_change": "True", "Mon": "07:00-20:00", "Tue": "07:00-21:00", "Wed": "07:00-21:00", "Thu": "07:00-21:00", "Fri": "07:00-21:00", "Sat": "07:00-21:00", "Sun": "11:00-17:00", "index_right": 89, "park_offical_id": "BROML_40" }, "geometry": { "type": "Point", "coordinates": [ -0.051342845, 51.412967335 ] } },
{ "type": "Feature", "properties": { "name": "The Spa Sports Centre and Swimming Pool", "payment_info": "Cost unknown", "accessible": "True", "radar": "Unknown", "women": "True", "men": "True", "baby_change": "Unknown", "Mon": "Unknown", "Tue": "Unknown", "Wed": "Unknown", "Thu": "Unknown", "Fri": "Unknown", "Sat": "Unknown", "Sun": "Unknown", "index_right": 89, "park_offical_id": "BROML_40" }, "geometry": { "type": "Point", "coordinates": [ -0.03742218, 51.409050906 ] } }
]
}
