{
"type": "FeatureCollection",
"name": "RICUP_34",
"crs": { "type": "name", "properties": { "name": "urn:ogc:def:crs:OGC:1.3:CRS84" } },
"features": [
{ "type": "Feature", "properties": { "osm_id": 10064251938, "name": null, "amenity": "bench", "man_made": null, "leisure": null, "playground": null, "memorial": null }, "geometry": { "type": "Point", "coordinates": [ -0.3315264, 51.4405911 ] } },
{ "type": "Feature", "properties": { "osm_id": 10064251939, "name": null, "amenity": "bench", "man_made": null, "leisure": null, "playground": null, "memorial": null }, "geometry": { "type": "Point", "coordinates": [ -0.3315921, 51.4409013 ] } },
{ "type": "Feature", "properties": { "osm_id": 10064251940, "name": null, "amenity": "bench", "man_made": null, "leisure": null, "playground": null, "memorial": null }, "geometry": { "type": "Point", "coordinates": [ -0.3316753, 51.4411663 ] } },
{ "type": "Feature", "properties": { "osm_id": 8589558760, "name": null, "amenity": "bench", "man_made": null, "leisure": null, "playground": null, "memorial": null }, "geometry": { "type": "Point", "coordinates": [ -0.3315307, 51.4414974 ] } }
]
}
