{
"type": "FeatureCollection",
"name": "RICUP_76",
"crs": { "type": "name", "properties": { "name": "urn:ogc:def:crs:OGC:1.3:CRS84" } },
"features": [
{ "type": "Feature", "properties": { "osm_id": 5954115397, "name": null, "amenity": "bench", "man_made": null, "leisure": null, "playground": null, "memorial": null }, "geometry": { "type": "Point", "coordinates": [ -0.3241597, 51.446607 ] } },
{ "type": "Feature", "properties": { "osm_id": 5954115396, "name": null, "amenity": "bench", "man_made": null, "leisure": null, "playground": null, "memorial": null }, "geometry": { "type": "Point", "coordinates": [ -0.3239854, 51.4466304 ] } },
{ "type": "Feature", "properties": { "osm_id": 5954115395, "name": null, "amenity": "bench", "man_made": null, "leisure": null, "playground": null, "memorial": null }, "geometry": { "type": "Point", "coordinates": [ -0.3237695, 51.4466589 ] } },
{ "type": "Feature", "properties": { "osm_id": 5954115394, "name": null, "amenity": "bench", "man_made": null, "leisure": null, "playground": null, "memorial": null }, "geometry": { "type": "Point", "coordinates": [ -0.3235026, 51.4466889 ] } },
{ "type": "Feature", "properties": { "osm_id": 9144560932, "name": null, "amenity": "bench", "man_made": null, "leisure": null, "playground": null, "memorial": null }, "geometry": { "type": "Point", "coordinates": [ -0.3232412, 51.4467125 ] } },
{ "type": "Feature", "properties": { "osm_id": 9144560933, "name": null, "amenity": "bench", "man_made": null, "leisure": null, "playground": null, "memorial": null }, "geometry": { "type": "Point", "coordinates": [ -0.3231677, 51.4467218 ] } },
{ "type": "Feature", "properties": { "osm_id": 10723140400, "name": null, "amenity": "bench", "man_made": null, "leisure": null, "playground": null, "memorial": null }, "geometry": { "type": "Point", "coordinates": [ -0.3232082, 51.4467566 ] } },
{ "type": "Feature", "properties": { "osm_id": 10723140403, "name": null, "amenity": "bench", "man_made": null, "leisure": null, "playground": null, "memorial": null }, "geometry": { "type": "Point", "coordinates": [ -0.3233464, 51.4468012 ] } },
{ "type": "Feature", "properties": { "osm_id": 10723140401, "name": null, "amenity": "bench", "man_made": null, "leisure": null, "playground": null, "memorial": null }, "geometry": { "type": "Point", "coordinates": [ -0.3230494, 51.4468211 ] } },
{ "type": "Feature", "properties": { "osm_id": 10723140397, "name": null, "amenity": "bench", "man_made": null, "leisure": null, "playground": null, "memorial": null }, "geometry": { "type": "Point", "coordinates": [ -0.322829, 51.4468224 ] } },
{ "type": "Feature", "properties": { "osm_id": 10723140396, "name": null, "amenity": "bench", "man_made": null, "leisure": null, "playground": null, "memorial": null }, "geometry": { "type": "Point", "coordinates": [ -0.3225497, 51.4468498 ] } },
{ "type": "Feature", "properties": { "osm_id": 10723140392, "name": null, "amenity": "bench", "man_made": null, "leisure": null, "playground": null, "memorial": null }, "geometry": { "type": "Point", "coordinates": [ -0.3239085, 51.4468648 ] } },
{ "type": "Feature", "properties": { "osm_id": 10723140399, "name": null, "amenity": "bench", "man_made": null, "leisure": null, "playground": null, "memorial": null }, "geometry": { "type": "Point", "coordinates": [ -0.323362, 51.4468896 ] } },
{ "type": "Feature", "properties": { "osm_id": 10723140393, "name": null, "amenity": "bench", "man_made": null, "leisure": null, "playground": null, "memorial": null }, "geometry": { "type": "Point", "coordinates": [ -0.3236427, 51.4468927 ] } },
{ "type": "Feature", "properties": { "osm_id": 10723140402, "name": null, "amenity": "bench", "man_made": null, "leisure": null, "playground": null, "memorial": null }, "geometry": { "type": "Point", "coordinates": [ -0.3230912, 51.4469223 ] } },
{ "type": "Feature", "properties": { "osm_id": 10723140398, "name": null, "amenity": "bench", "man_made": null, "leisure": null, "playground": null, "memorial": null }, "geometry": { "type": "Point", "coordinates": [ -0.3232372, 51.4469541 ] } },
{ "type": "Feature", "properties": { "osm_id": 10723140394, "name": null, "amenity": "bench", "man_made": null, "leisure": null, "playground": null, "memorial": null }, "geometry": { "type": "Point", "coordinates": [ -0.322863, 51.4469872 ] } },
{ "type": "Feature", "properties": { "osm_id": 10723140395, "name": null, "amenity": "bench", "man_made": null, "leisure": null, "playground": null, "memorial": null }, "geometry": { "type": "Point", "coordinates": [ -0.3225993, 51.4470097 ] } }
]
}
