{
"type": "FeatureCollection",
"name": "BARNE_33",
"crs": { "type": "name", "properties": { "name": "urn:ogc:def:crs:OGC:1.3:CRS84" } },
"features": [
{ "type": "Feature", "properties": { "osm_id": 4007781958, "name": null, "amenity": "bench", "man_made": null, "leisure": null, "playground": null, "memorial": null }, "geometry": { "type": "Point", "coordinates": [ -0.1562859, 51.6202615 ] } },
{ "type": "Feature", "properties": { "osm_id": 4007776716, "name": null, "amenity": "bench", "man_made": null, "leisure": null, "playground": null, "memorial": null }, "geometry": { "type": "Point", "coordinates": [ -0.1545291, 51.6202787 ] } },
{ "type": "Feature", "properties": { "osm_id": 4007805856, "name": null, "amenity": "bench", "man_made": null, "leisure": null, "playground": null, "memorial": null }, "geometry": { "type": "Point", "coordinates": [ -0.1588579, 51.6204896 ] } },
{ "type": "Feature", "properties": { "osm_id": 4007805862, "name": null, "amenity": "bench", "man_made": null, "leisure": null, "playground": null, "memorial": null }, "geometry": { "type": "Point", "coordinates": [ -0.1590765, 51.6205137 ] } },
{ "type": "Feature", "properties": { "osm_id": 4007805869, "name": null, "amenity": "bench", "man_made": null, "leisure": null, "playground": null, "memorial": null }, "geometry": { "type": "Point", "coordinates": [ -0.1588756, 51.6205701 ] } },
{ "type": "Feature", "properties": { "osm_id": 4007805868, "name": null, "amenity": "bench", "man_made": null, "leisure": null, "playground": null, "memorial": null }, "geometry": { "type": "Point", "coordinates": [ -0.1592354, 51.6205757 ] } }
]
}
