{
"type": "FeatureCollection",
"name": "d2164981088a_visibility",
"crs": { "type": "name", "properties": { "name": "urn:ogc:def:crs:OGC:1.3:CRS84" } },
"features": [
{ "type": "Feature", "properties": { "visible_points": 3, "total_points": 54, "visibility_pct": 5.5555555555555554 }, "geometry": { "type": "Point", "coordinates": [ -0.245112646220251, 51.616992636968824 ] } },
{ "type": "Feature", "properties": { "visible_points": 7, "total_points": 49, "visibility_pct": 14.285714285714285 }, "geometry": { "type": "Point", "coordinates": [ -0.244912596157692, 51.616989651693764 ] } },
{ "type": "Feature", "properties": { "visible_points": 10, "total_points": 43, "visibility_pct": 23.255813953488371 }, "geometry": { "type": "Point", "coordinates": [ -0.24471254613239, 51.616986666077821 ] } },
{ "type": "Feature", "properties": { "visible_points": 9, "total_points": 68, "visibility_pct": 13.23529411764706 }, "geometry": { "type": "Point", "coordinates": [ -0.245408566310763, 51.617104957752062 ] } },
{ "type": "Feature", "properties": { "visible_points": 7, "total_points": 64, "visibility_pct": 10.9375 }, "geometry": { "type": "Point", "coordinates": [ -0.245208515677563, 51.617101972975092 ] } },
{ "type": "Feature", "properties": { "visible_points": 2, "total_points": 59, "visibility_pct": 3.3898305084745761 }, "geometry": { "type": "Point", "coordinates": [ -0.245008465081455, 51.61709898785729 ] } },
{ "type": "Feature", "properties": { "visible_points": 9, "total_points": 52, "visibility_pct": 17.307692307692307 }, "geometry": { "type": "Point", "coordinates": [ -0.244808414522448, 51.617096002398661 ] } },
{ "type": "Feature", "properties": { "visible_points": 10, "total_points": 77, "visibility_pct": 12.987012987012985 }, "geometry": { "type": "Point", "coordinates": [ -0.24570448587492, 51.61721727807403 ] } },
{ "type": "Feature", "properties": { "visible_points": 4, "total_points": 78, "visibility_pct": 5.1282051282051277 }, "geometry": { "type": "Point", "coordinates": [ -0.245504434797042, 51.617214293791854 ] } },
{ "type": "Feature", "properties": { "visible_points": 3, "total_points": 75, "visibility_pct": 4.0 }, "geometry": { "type": "Point", "coordinates": [ -0.245304383753828, 51.617211309168916 ] } },
{ "type": "Feature", "properties": { "visible_points": 7, "total_points": 69, "visibility_pct": 10.144927536231885 }, "geometry": { "type": "Point", "coordinates": [ -0.245104332745284, 51.617208324205194 ] } },
{ "type": "Feature", "properties": { "visible_points": 7, "total_points": 62, "visibility_pct": 11.29032258064516 }, "geometry": { "type": "Point", "coordinates": [ -0.24490428177141, 51.61720533890071 ] } },
{ "type": "Feature", "properties": { "visible_points": 16, "total_points": 78, "visibility_pct": 20.512820512820511 }, "geometry": { "type": "Point", "coordinates": [ -0.246000404503335, 51.617329597950452 ] } },
{ "type": "Feature", "properties": { "visible_points": 10, "total_points": 84, "visibility_pct": 11.904761904761903 }, "geometry": { "type": "Point", "coordinates": [ -0.245800352907716, 51.617326614162884 ] } },
{ "type": "Feature", "properties": { "visible_points": 3, "total_points": 87, "visibility_pct": 3.4482758620689653 }, "geometry": { "type": "Point", "coordinates": [ -0.245600301346601, 51.617323630034598 ] } },
{ "type": "Feature", "properties": { "visible_points": 0, "total_points": 85, "visibility_pct": 0.0 }, "geometry": { "type": "Point", "coordinates": [ -0.245400249819995, 51.617320645565613 ] } },
{ "type": "Feature", "properties": { "visible_points": 9, "total_points": 80, "visibility_pct": 11.25 }, "geometry": { "type": "Point", "coordinates": [ -0.245200198327904, 51.617317660755901 ] } },
{ "type": "Feature", "properties": { "visible_points": 5, "total_points": 79, "visibility_pct": 6.3291139240506329 }, "geometry": { "type": "Point", "coordinates": [ -0.246096272433652, 51.61743893383872 ] } },
{ "type": "Feature", "properties": { "visible_points": 9, "total_points": 90, "visibility_pct": 10.0 }, "geometry": { "type": "Point", "coordinates": [ -0.245896220348323, 51.617435950209853 ] } },
{ "type": "Feature", "properties": { "visible_points": 0, "total_points": 93, "visibility_pct": 0.0 }, "geometry": { "type": "Point", "coordinates": [ -0.245696168297498, 51.61743296624028 ] } },
{ "type": "Feature", "properties": { "visible_points": 0, "total_points": 93, "visibility_pct": 0.0 }, "geometry": { "type": "Point", "coordinates": [ -0.245496116281175, 51.617429981930009 ] } },
{ "type": "Feature", "properties": { "visible_points": 4, "total_points": 90, "visibility_pct": 4.4444444444444446 }, "geometry": { "type": "Point", "coordinates": [ -0.245296064299369, 51.617426997279004 ] } },
{ "type": "Feature", "properties": { "visible_points": 8, "total_points": 83, "visibility_pct": 9.6385542168674707 }, "geometry": { "type": "Point", "coordinates": [ -0.245096012352076, 51.61742401228728 ] } },
{ "type": "Feature", "properties": { "visible_points": 9, "total_points": 65, "visibility_pct": 13.846153846153847 }, "geometry": { "type": "Point", "coordinates": [ -0.246392193428712, 51.617551252780665 ] } },
{ "type": "Feature", "properties": { "visible_points": 8, "total_points": 77, "visibility_pct": 10.38961038961039 }, "geometry": { "type": "Point", "coordinates": [ -0.246192140819174, 51.617548269651238 ] } },
{ "type": "Feature", "properties": { "visible_points": 7, "total_points": 89, "visibility_pct": 7.8651685393258424 }, "geometry": { "type": "Point", "coordinates": [ -0.245992088244129, 51.617545286181077 ] } },
{ "type": "Feature", "properties": { "visible_points": 8, "total_points": 99, "visibility_pct": 8.0808080808080813 }, "geometry": { "type": "Point", "coordinates": [ -0.245792035703589, 51.617542302370204 ] } },
{ "type": "Feature", "properties": { "visible_points": 9, "total_points": 99, "visibility_pct": 9.0909090909090917 }, "geometry": { "type": "Point", "coordinates": [ -0.245591983197555, 51.617539318218626 ] } },
{ "type": "Feature", "properties": { "visible_points": 2, "total_points": 95, "visibility_pct": 2.1052631578947367 }, "geometry": { "type": "Point", "coordinates": [ -0.245391930726025, 51.617536333726342 ] } },
{ "type": "Feature", "properties": { "visible_points": 7, "total_points": 88, "visibility_pct": 7.9545454545454541 }, "geometry": { "type": "Point", "coordinates": [ -0.245191878289014, 51.617533348893332 ] } },
{ "type": "Feature", "properties": { "visible_points": 8, "total_points": 49, "visibility_pct": 16.326530612244898 }, "geometry": { "type": "Point", "coordinates": [ -0.246688115892895, 51.617663570988711 ] } },
{ "type": "Feature", "properties": { "visible_points": 7, "total_points": 60, "visibility_pct": 11.666666666666666 }, "geometry": { "type": "Point", "coordinates": [ -0.24648806275915, 51.61766058835871 ] } },
{ "type": "Feature", "properties": { "visible_points": 2, "total_points": 71, "visibility_pct": 2.8169014084507045 }, "geometry": { "type": "Point", "coordinates": [ -0.246288009659895, 51.617657605387983 ] } },
{ "type": "Feature", "properties": { "visible_points": 0, "total_points": 83, "visibility_pct": 0.0 }, "geometry": { "type": "Point", "coordinates": [ -0.246087956595138, 51.617654622076543 ] } },
{ "type": "Feature", "properties": { "visible_points": 2, "total_points": 93, "visibility_pct": 2.1505376344086025 }, "geometry": { "type": "Point", "coordinates": [ -0.24588790356488, 51.617651638424384 ] } },
{ "type": "Feature", "properties": { "visible_points": 4, "total_points": 98, "visibility_pct": 4.0816326530612246 }, "geometry": { "type": "Point", "coordinates": [ -0.245687850569128, 51.617648654431513 ] } },
{ "type": "Feature", "properties": { "visible_points": 6, "total_points": 95, "visibility_pct": 6.3157894736842106 }, "geometry": { "type": "Point", "coordinates": [ -0.245487797607877, 51.617645670097907 ] } },
{ "type": "Feature", "properties": { "visible_points": 2, "total_points": 89, "visibility_pct": 2.2471910112359552 }, "geometry": { "type": "Point", "coordinates": [ -0.245287744681148, 51.617642685423604 ] } },
{ "type": "Feature", "properties": { "visible_points": 7, "total_points": 64, "visibility_pct": 10.9375 }, "geometry": { "type": "Point", "coordinates": [ -0.246383878955829, 51.617766941048956 ] } },
{ "type": "Feature", "properties": { "visible_points": 6, "total_points": 75, "visibility_pct": 8.0 }, "geometry": { "type": "Point", "coordinates": [ -0.246183825401355, 51.61776395789623 ] } },
{ "type": "Feature", "properties": { "visible_points": 8, "total_points": 85, "visibility_pct": 9.4117647058823533 }, "geometry": { "type": "Point", "coordinates": [ -0.245983771881377, 51.617760974402778 ] } },
{ "type": "Feature", "properties": { "visible_points": 6, "total_points": 92, "visibility_pct": 6.5217391304347823 }, "geometry": { "type": "Point", "coordinates": [ -0.245783718395901, 51.617757990568613 ] } },
{ "type": "Feature", "properties": { "visible_points": 6, "total_points": 91, "visibility_pct": 6.593406593406594 }, "geometry": { "type": "Point", "coordinates": [ -0.245583664944936, 51.617755006393729 ] } },
{ "type": "Feature", "properties": { "visible_points": 5, "total_points": 85, "visibility_pct": 5.8823529411764701 }, "geometry": { "type": "Point", "coordinates": [ -0.245383611528476, 51.617752021878132 ] } },
{ "type": "Feature", "properties": { "visible_points": 0, "total_points": 76, "visibility_pct": 0.0 }, "geometry": { "type": "Point", "coordinates": [ -0.245183558146531, 51.617749037021817 ] } },
{ "type": "Feature", "properties": { "visible_points": 1, "total_points": 66, "visibility_pct": 1.5151515151515151 }, "geometry": { "type": "Point", "coordinates": [ -0.246279694662778, 51.617873293640145 ] } },
{ "type": "Feature", "properties": { "visible_points": 2, "total_points": 75, "visibility_pct": 2.666666666666667 }, "geometry": { "type": "Point", "coordinates": [ -0.246079640653084, 51.617870310305413 ] } },
{ "type": "Feature", "properties": { "visible_points": 8, "total_points": 84, "visibility_pct": 9.5238095238095237 }, "geometry": { "type": "Point", "coordinates": [ -0.245879586677884, 51.617867326629963 ] } },
{ "type": "Feature", "properties": { "visible_points": 0, "total_points": 84, "visibility_pct": 0.0 }, "geometry": { "type": "Point", "coordinates": [ -0.245679532737191, 51.617864342613792 ] } },
{ "type": "Feature", "properties": { "visible_points": 2, "total_points": 79, "visibility_pct": 2.5316455696202533 }, "geometry": { "type": "Point", "coordinates": [ -0.245479478831006, 51.617861358256896 ] } },
{ "type": "Feature", "properties": { "visible_points": 2, "total_points": 72, "visibility_pct": 2.7777777777777777 }, "geometry": { "type": "Point", "coordinates": [ -0.245279424959337, 51.617858373559301 ] } },
{ "type": "Feature", "properties": { "visible_points": 5, "total_points": 63, "visibility_pct": 7.9365079365079358 }, "geometry": { "type": "Point", "coordinates": [ -0.245079371122176, 51.617855388520972 ] } },
{ "type": "Feature", "properties": { "visible_points": 0, "total_points": 73, "visibility_pct": 0.0 }, "geometry": { "type": "Point", "coordinates": [ -0.245975455415077, 51.61797666261554 ] } },
{ "type": "Feature", "properties": { "visible_points": 5, "total_points": 75, "visibility_pct": 6.666666666666667 }, "geometry": { "type": "Point", "coordinates": [ -0.245775400984657, 51.617973678758077 ] } },
{ "type": "Feature", "properties": { "visible_points": 2, "total_points": 72, "visibility_pct": 2.7777777777777777 }, "geometry": { "type": "Point", "coordinates": [ -0.245575346588744, 51.617970694559908 ] } },
{ "type": "Feature", "properties": { "visible_points": 4, "total_points": 66, "visibility_pct": 6.0606060606060606 }, "geometry": { "type": "Point", "coordinates": [ -0.245375292227342, 51.617967710021013 ] } },
{ "type": "Feature", "properties": { "visible_points": 5, "total_points": 60, "visibility_pct": 8.3333333333333321 }, "geometry": { "type": "Point", "coordinates": [ -0.245175237900454, 51.617964725141384 ] } },
{ "type": "Feature", "properties": { "visible_points": 5, "total_points": 64, "visibility_pct": 7.8125 }, "geometry": { "type": "Point", "coordinates": [ -0.24587126968733, 51.618083014826638 ] } }
]
}
