{
"type": "FeatureCollection",
"name": "0697a9f66e14_foliage",
"crs": { "type": "name", "properties": { "name": "urn:ogc:def:crs:OGC:1.3:CRS84" } },
"features": [
{ "type": "Feature", "properties": { "max_height": 16.29949951171875, "mean_height": 3.2459163665771484, "std_height": 5.5581884384155273, "count_pixels": 42, "percent_cover": 0.36157024793388431, "percent_above_0.1m": 33.333333333333329, "low_level_<0.5": 0.0, "mid_level_0.5-2": 0.0, "tall_2+": 28.571428571428569 }, "geometry": { "type": "Point", "coordinates": [ -0.312685819314435, 51.619015039129138 ] } },
{ "type": "Feature", "properties": { "max_height": 8.863250732421875, "mean_height": 1.7243320941925049, "std_height": 2.4779977798461914, "count_pixels": 43, "percent_cover": 0.37017906336088158, "percent_above_0.1m": 53.488372093023251, "low_level_<0.5": 6.9767441860465116, "mid_level_0.5-2": 16.279069767441861, "tall_2+": 30.232558139534881 }, "geometry": { "type": "Point", "coordinates": [ -0.31248576530981, 51.619012161961201 ] } },
{ "type": "Feature", "properties": { "max_height": 9.0502471923828125, "mean_height": 3.0498549938201904, "std_height": 3.3401086330413818, "count_pixels": 43, "percent_cover": 0.37017906336088158, "percent_above_0.1m": 55.813953488372093, "low_level_<0.5": 2.3255813953488373, "mid_level_0.5-2": 4.6511627906976747, "tall_2+": 48.837209302325576 }, "geometry": { "type": "Point", "coordinates": [ -0.312285711337799, 51.619009284452339 ] } },
{ "type": "Feature", "properties": { "max_height": 6.8117523193359375, "mean_height": 2.0638086795806885, "std_height": 2.2841000556945801, "count_pixels": 43, "percent_cover": 0.37017906336088158, "percent_above_0.1m": 79.069767441860463, "low_level_<0.5": 18.604651162790699, "mid_level_0.5-2": 20.930232558139537, "tall_2+": 37.209302325581397 }, "geometry": { "type": "Point", "coordinates": [ -0.311685549617469, 51.619000649880142 ] } },
{ "type": "Feature", "properties": { "max_height": 3.4217529296875, "mean_height": 0.52709633111953735, "std_height": 1.0301761627197266, "count_pixels": 42, "percent_cover": 0.36157024793388431, "percent_above_0.1m": 28.571428571428569, "low_level_<0.5": 4.7619047619047619, "mid_level_0.5-2": 11.904761904761903, "tall_2+": 11.904761904761903 }, "geometry": { "type": "Point", "coordinates": [ -0.312781844912012, 51.61912433020467 ] } },
{ "type": "Feature", "properties": { "max_height": 0.1557464599609375, "mean_height": 0.024200625717639923, "std_height": 0.043049070984125137, "count_pixels": 41, "percent_cover": 0.35296143250688705, "percent_above_0.1m": 12.195121951219512, "low_level_<0.5": 2.4390243902439024, "mid_level_0.5-2": 0.0, "tall_2+": 0.0 }, "geometry": { "type": "Point", "coordinates": [ -0.312581790429596, 51.619121453198851 ] } },
{ "type": "Feature", "properties": { "max_height": 6.8870010375976562, "mean_height": 0.99907928705215454, "std_height": 1.9041012525558472, "count_pixels": 41, "percent_cover": 0.35296143250688705, "percent_above_0.1m": 39.024390243902438, "low_level_<0.5": 9.7560975609756095, "mid_level_0.5-2": 4.8780487804878048, "tall_2+": 21.951219512195124 }, "geometry": { "type": "Point", "coordinates": [ -0.312381735979788, 51.619118575852092 ] } },
{ "type": "Feature", "properties": { "max_height": 5.0342483520507812, "mean_height": 0.68759346008300781, "std_height": 1.4119168519973755, "count_pixels": 40, "percent_cover": 0.34435261707988984, "percent_above_0.1m": 27.5, "low_level_<0.5": 5.0, "mid_level_0.5-2": 7.5, "tall_2+": 15.0 }, "geometry": { "type": "Point", "coordinates": [ -0.312181681562597, 51.619115698164428 ] } },
{ "type": "Feature", "properties": { "max_height": 6.5955047607421875, "mean_height": 1.0318629741668701, "std_height": 1.6662744283676147, "count_pixels": 40, "percent_cover": 0.34435261707988984, "percent_above_0.1m": 52.5, "low_level_<0.5": 10.0, "mid_level_0.5-2": 22.5, "tall_2+": 20.0 }, "geometry": { "type": "Point", "coordinates": [ -0.311981627178023, 51.619112820135797 ] } },
{ "type": "Feature", "properties": { "max_height": 15.753997802734375, "mean_height": 4.5437994003295898, "std_height": 4.878425121307373, "count_pixels": 41, "percent_cover": 0.35296143250688705, "percent_above_0.1m": 70.731707317073173, "low_level_<0.5": 7.3170731707317067, "mid_level_0.5-2": 7.3170731707317067, "tall_2+": 56.09756097560976 }, "geometry": { "type": "Point", "coordinates": [ -0.311781572826067, 51.619109941766261 ] } },
{ "type": "Feature", "properties": { "max_height": 8.9042510986328125, "mean_height": 2.5682804584503174, "std_height": 2.386805534362793, "count_pixels": 41, "percent_cover": 0.35296143250688705, "percent_above_0.1m": 73.170731707317074, "low_level_<0.5": 7.3170731707317067, "mid_level_0.5-2": 7.3170731707317067, "tall_2+": 58.536585365853654 }, "geometry": { "type": "Point", "coordinates": [ -0.311581518506736, 51.619107063055765 ] } },
{ "type": "Feature", "properties": { "max_height": 8.1805038452148438, "mean_height": 2.1668224334716797, "std_height": 2.9591586589813232, "count_pixels": 42, "percent_cover": 0.36157024793388431, "percent_above_0.1m": 76.19047619047619, "low_level_<0.5": 11.904761904761903, "mid_level_0.5-2": 38.095238095238095, "tall_2+": 26.190476190476193 }, "geometry": { "type": "Point", "coordinates": [ -0.311381464220033, 51.619104184004364 ] } },
{ "type": "Feature", "properties": { "max_height": 16.819244384765625, "mean_height": 2.257054328918457, "std_height": 4.5971279144287109, "count_pixels": 41, "percent_cover": 0.35296143250688705, "percent_above_0.1m": 31.707317073170731, "low_level_<0.5": 2.4390243902439024, "mid_level_0.5-2": 0.0, "tall_2+": 24.390243902439025 }, "geometry": { "type": "Point", "coordinates": [ -0.312877870954769, 51.619233621201211 ] } },
{ "type": "Feature", "properties": { "max_height": 18.495002746582031, "mean_height": 2.663196325302124, "std_height": 4.7725119590759277, "count_pixels": 42, "percent_cover": 0.36157024793388431, "percent_above_0.1m": 30.952380952380953, "low_level_<0.5": 0.0, "mid_level_0.5-2": 0.0, "tall_2+": 30.952380952380953 }, "geometry": { "type": "Point", "coordinates": [ -0.312677815994558, 51.619230744357509 ] } },
{ "type": "Feature", "properties": { "max_height": 16.885498046875, "mean_height": 2.6051161289215088, "std_height": 4.6521944999694824, "count_pixels": 43, "percent_cover": 0.37017906336088158, "percent_above_0.1m": 41.860465116279073, "low_level_<0.5": 2.3255813953488373, "mid_level_0.5-2": 4.6511627906976747, "tall_2+": 27.906976744186046 }, "geometry": { "type": "Point", "coordinates": [ -0.312477761066957, 51.619227867172889 ] } },
{ "type": "Feature", "properties": { "max_height": 18.208251953125, "mean_height": 3.746999979019165, "std_height": 5.8341927528381348, "count_pixels": 43, "percent_cover": 0.37017906336088158, "percent_above_0.1m": 53.488372093023251, "low_level_<0.5": 6.9767441860465116, "mid_level_0.5-2": 13.953488372093023, "tall_2+": 32.558139534883722 }, "geometry": { "type": "Point", "coordinates": [ -0.312277706171963, 51.619224989647307 ] } },
{ "type": "Feature", "properties": { "max_height": 16.634254455566406, "mean_height": 4.4164314270019531, "std_height": 4.7792043685913086, "count_pixels": 40, "percent_cover": 0.34435261707988984, "percent_above_0.1m": 70.0, "low_level_<0.5": 2.5, "mid_level_0.5-2": 12.5, "tall_2+": 55.000000000000007 }, "geometry": { "type": "Point", "coordinates": [ -0.312077651309587, 51.619222111780822 ] } },
{ "type": "Feature", "properties": { "max_height": 11.646247863769531, "mean_height": 1.023453950881958, "std_height": 2.6916377544403076, "count_pixels": 43, "percent_cover": 0.37017906336088158, "percent_above_0.1m": 16.279069767441861, "low_level_<0.5": 0.0, "mid_level_0.5-2": 0.0, "tall_2+": 16.279069767441861 }, "geometry": { "type": "Point", "coordinates": [ -0.311877596479832, 51.619219233573396 ] } },
{ "type": "Feature", "properties": { "max_height": 8.8574981689453125, "mean_height": 0.2789299488067627, "std_height": 1.3597496747970581, "count_pixels": 43, "percent_cover": 0.37017906336088158, "percent_above_0.1m": 9.3023255813953494, "low_level_<0.5": 2.3255813953488373, "mid_level_0.5-2": 4.6511627906976747, "tall_2+": 2.3255813953488373 }, "geometry": { "type": "Point", "coordinates": [ -0.311677541682697, 51.619216355025024 ] } },
{ "type": "Feature", "properties": { "max_height": 4.4694976806640625, "mean_height": 0.5079883337020874, "std_height": 1.1209077835083008, "count_pixels": 42, "percent_cover": 0.36157024793388431, "percent_above_0.1m": 28.571428571428569, "low_level_<0.5": 9.5238095238095237, "mid_level_0.5-2": 7.1428571428571423, "tall_2+": 11.904761904761903 }, "geometry": { "type": "Point", "coordinates": [ -0.311477486918191, 51.619213476135705 ] } },
{ "type": "Feature", "properties": { "max_height": 11.037506103515625, "mean_height": 3.6569571495056152, "std_height": 3.0232470035552979, "count_pixels": 41, "percent_cover": 0.35296143250688705, "percent_above_0.1m": 90.243902439024396, "low_level_<0.5": 4.8780487804878048, "mid_level_0.5-2": 19.512195121951219, "tall_2+": 63.414634146341463 }, "geometry": { "type": "Point", "coordinates": [ -0.311277432186315, 51.619210596905468 ] } },
{ "type": "Feature", "properties": { "max_height": 3.6307525634765625, "mean_height": 2.4684827327728271, "std_height": 1.2278231382369995, "count_pixels": 43, "percent_cover": 0.37017906336088158, "percent_above_0.1m": 95.348837209302332, "low_level_<0.5": 11.627906976744185, "mid_level_0.5-2": 9.3023255813953494, "tall_2+": 74.418604651162795 }, "geometry": { "type": "Point", "coordinates": [ -0.31317395291332, 51.619345788459412 ] } },
{ "type": "Feature", "properties": { "max_height": 7.5260009765625, "mean_height": 2.2655580043792725, "std_height": 2.2818949222564697, "count_pixels": 43, "percent_cover": 0.37017906336088158, "percent_above_0.1m": 69.767441860465112, "low_level_<0.5": 2.3255813953488373, "mid_level_0.5-2": 23.255813953488371, "tall_2+": 41.860465116279073 }, "geometry": { "type": "Point", "coordinates": [ -0.312973897442709, 51.619342912118761 ] } },
{ "type": "Feature", "properties": { "max_height": 9.615997314453125, "mean_height": 1.7134757041931152, "std_height": 2.770596981048584, "count_pixels": 42, "percent_cover": 0.36157024793388431, "percent_above_0.1m": 42.857142857142854, "low_level_<0.5": 4.7619047619047619, "mid_level_0.5-2": 9.5238095238095237, "tall_2+": 28.571428571428569 }, "geometry": { "type": "Point", "coordinates": [ -0.312773842004705, 51.61934003543719 ] } },
{ "type": "Feature", "properties": { "max_height": 5.8157501220703125, "mean_height": 0.28167781233787537, "std_height": 1.0088388919830322, "count_pixels": 41, "percent_cover": 0.35296143250688705, "percent_above_0.1m": 9.7560975609756095, "low_level_<0.5": 0.0, "mid_level_0.5-2": 4.8780487804878048, "tall_2+": 4.8780487804878048 }, "geometry": { "type": "Point", "coordinates": [ -0.312573786599302, 51.619337158414694 ] } },
{ "type": "Feature", "properties": { "max_height": 16.866996765136719, "mean_height": 3.8092026710510254, "std_height": 5.3313479423522949, "count_pixels": 41, "percent_cover": 0.35296143250688705, "percent_above_0.1m": 48.780487804878049, "low_level_<0.5": 0.0, "mid_level_0.5-2": 4.8780487804878048, "tall_2+": 43.902439024390247 }, "geometry": { "type": "Point", "coordinates": [ -0.312373731226511, 51.619334281051231 ] } },
{ "type": "Feature", "properties": { "max_height": 10.542999267578125, "mean_height": 1.0864923000335693, "std_height": 2.5784060955047607, "count_pixels": 40, "percent_cover": 0.34435261707988984, "percent_above_0.1m": 20.0, "low_level_<0.5": 0.0, "mid_level_0.5-2": 0.0, "tall_2+": 20.0 }, "geometry": { "type": "Point", "coordinates": [ -0.312173675886331, 51.619331403346855 ] } },
{ "type": "Feature", "properties": { "max_height": 0.001007080078125, "mean_height": -4.3106079829158261e-05, "std_height": 0.00056572497123852372, "count_pixels": 40, "percent_cover": 0.34435261707988984, "percent_above_0.1m": 0.0, "low_level_<0.5": 0.0, "mid_level_0.5-2": 0.0, "tall_2+": 0.0 }, "geometry": { "type": "Point", "coordinates": [ -0.311973620578771, 51.619328525301519 ] } },
{ "type": "Feature", "properties": { "max_height": 0.00099945068359375, "mean_height": 7.8154771472327411e-05, "std_height": 0.00049854395911097527, "count_pixels": 41, "percent_cover": 0.35296143250688705, "percent_above_0.1m": 0.0, "low_level_<0.5": 0.0, "mid_level_0.5-2": 0.0, "tall_2+": 0.0 }, "geometry": { "type": "Point", "coordinates": [ -0.311773565303835, 51.619325646915279 ] } },
{ "type": "Feature", "properties": { "max_height": 0.00174713134765625, "mean_height": 4.8939775297185406e-05, "std_height": 0.00058966438518837094, "count_pixels": 41, "percent_cover": 0.35296143250688705, "percent_above_0.1m": 0.0, "low_level_<0.5": 0.0, "mid_level_0.5-2": 0.0, "tall_2+": 0.0 }, "geometry": { "type": "Point", "coordinates": [ -0.311573510061516, 51.619322768188084 ] } },
{ "type": "Feature", "properties": { "max_height": 1.4430084228515625, "mean_height": 0.086809791624546051, "std_height": 0.32218119502067566, "count_pixels": 42, "percent_cover": 0.36157024793388431, "percent_above_0.1m": 7.1428571428571423, "low_level_<0.5": 0.0, "mid_level_0.5-2": 7.1428571428571423, "tall_2+": 0.0 }, "geometry": { "type": "Point", "coordinates": [ -0.311373454851834, 51.61931988911995 ] } },
{ "type": "Feature", "properties": { "max_height": 13.572250366210938, "mean_height": 2.3981115818023682, "std_height": 3.6899263858795166, "count_pixels": 43, "percent_cover": 0.37017906336088158, "percent_above_0.1m": 55.813953488372093, "low_level_<0.5": 6.9767441860465116, "mid_level_0.5-2": 13.953488372093023, "tall_2+": 34.883720930232556 }, "geometry": { "type": "Point", "coordinates": [ -0.31117339967478, 51.619317009710883 ] } },
{ "type": "Feature", "properties": { "max_height": 4.406494140625, "mean_height": 0.3641974925994873, "std_height": 0.78480160236358643, "count_pixels": 43, "percent_cover": 0.37017906336088158, "percent_above_0.1m": 39.534883720930232, "low_level_<0.5": 11.627906976744185, "mid_level_0.5-2": 18.604651162790699, "tall_2+": 4.6511627906976747 }, "geometry": { "type": "Point", "coordinates": [ -0.310973344530367, 51.619314129960884 ] } },
{ "type": "Feature", "properties": { "max_height": 18.336250305175781, "mean_height": 5.6651897430419922, "std_height": 6.3898072242736816, "count_pixels": 41, "percent_cover": 0.35296143250688705, "percent_above_0.1m": 63.414634146341463, "low_level_<0.5": 0.0, "mid_level_0.5-2": 7.3170731707317067, "tall_2+": 53.658536585365859 }, "geometry": { "type": "Point", "coordinates": [ -0.31326998032425, 51.619455079135861 ] } },
{ "type": "Feature", "properties": { "max_height": 13.176498413085938, "mean_height": 2.0726044178009033, "std_height": 3.8747906684875488, "count_pixels": 41, "percent_cover": 0.35296143250688705, "percent_above_0.1m": 43.902439024390247, "low_level_<0.5": 2.4390243902439024, "mid_level_0.5-2": 14.634146341463413, "tall_2+": 26.829268292682929 }, "geometry": { "type": "Point", "coordinates": [ -0.313069924375842, 51.619452202957355 ] } },
{ "type": "Feature", "properties": { "max_height": 7.777252197265625, "mean_height": 2.5155372619628906, "std_height": 2.6428401470184326, "count_pixels": 41, "percent_cover": 0.35296143250688705, "percent_above_0.1m": 63.414634146341463, "low_level_<0.5": 2.4390243902439024, "mid_level_0.5-2": 12.195121951219512, "tall_2+": 46.341463414634148 }, "geometry": { "type": "Point", "coordinates": [ -0.312869868460034, 51.619449326437888 ] } },
{ "type": "Feature", "properties": { "max_height": 7.772003173828125, "mean_height": 2.4625358581542969, "std_height": 2.3866970539093018, "count_pixels": 42, "percent_cover": 0.36157024793388431, "percent_above_0.1m": 64.285714285714292, "low_level_<0.5": 2.3809523809523809, "mid_level_0.5-2": 14.285714285714285, "tall_2+": 47.619047619047613 }, "geometry": { "type": "Point", "coordinates": [ -0.312669812576834, 51.619446449577502 ] } },
{ "type": "Feature", "properties": { "max_height": 0.00099945068359375, "mean_height": -0.00011053750495193526, "std_height": 0.00056625914294272661, "count_pixels": 43, "percent_cover": 0.37017906336088158, "percent_above_0.1m": 0.0, "low_level_<0.5": 0.0, "mid_level_0.5-2": 0.0, "tall_2+": 0.0 }, "geometry": { "type": "Point", "coordinates": [ -0.312469756726236, 51.61944357237617 ] } },
{ "type": "Feature", "properties": { "max_height": 0.00225067138671875, "mean_height": 0.00026844823150895536, "std_height": 0.00092195317847654223, "count_pixels": 43, "percent_cover": 0.37017906336088158, "percent_above_0.1m": 0.0, "low_level_<0.5": 0.0, "mid_level_0.5-2": 0.0, "tall_2+": 0.0 }, "geometry": { "type": "Point", "coordinates": [ -0.312269700908257, 51.619440694833919 ] } },
{ "type": "Feature", "properties": { "max_height": 0.00099945068359375, "mean_height": -1.9073486328125e-05, "std_height": 0.00050733756506815553, "count_pixels": 40, "percent_cover": 0.34435261707988984, "percent_above_0.1m": 0.0, "low_level_<0.5": 0.0, "mid_level_0.5-2": 0.0, "tall_2+": 0.0 }, "geometry": { "type": "Point", "coordinates": [ -0.312069645122884, 51.619437816950693 ] } },
{ "type": "Feature", "properties": { "max_height": 0.001251220703125, "mean_height": 5.8373738283989951e-05, "std_height": 0.00054660119349136949, "count_pixels": 43, "percent_cover": 0.37017906336088158, "percent_above_0.1m": 0.0, "low_level_<0.5": 0.0, "mid_level_0.5-2": 0.0, "tall_2+": 0.0 }, "geometry": { "type": "Point", "coordinates": [ -0.311869589370144, 51.619434938726556 ] } },
{ "type": "Feature", "properties": { "max_height": 0.00099945068359375, "mean_height": -0.00012810285261366516, "std_height": 0.00055916060227900743, "count_pixels": 43, "percent_cover": 0.37017906336088158, "percent_above_0.1m": 0.0, "low_level_<0.5": 0.0, "mid_level_0.5-2": 0.0, "tall_2+": 0.0 }, "geometry": { "type": "Point", "coordinates": [ -0.311669533650021, 51.619432060161486 ] } },
{ "type": "Feature", "properties": { "max_height": 0.00150299072265625, "mean_height": 5.3224110160954297e-05, "std_height": 0.00047490696306340396, "count_pixels": 42, "percent_cover": 0.36157024793388431, "percent_above_0.1m": 0.0, "low_level_<0.5": 0.0, "mid_level_0.5-2": 0.0, "tall_2+": 0.0 }, "geometry": { "type": "Point", "coordinates": [ -0.311469477962518, 51.619429181255455 ] } },
{ "type": "Feature", "properties": { "max_height": 0.0009918212890625, "mean_height": -7.3316623456776142e-05, "std_height": 0.00053070794092491269, "count_pixels": 41, "percent_cover": 0.35296143250688705, "percent_above_0.1m": 0.0, "low_level_<0.5": 0.0, "mid_level_0.5-2": 0.0, "tall_2+": 0.0 }, "geometry": { "type": "Point", "coordinates": [ -0.311269422307659, 51.619426302008506 ] } },
{ "type": "Feature", "properties": { "max_height": 4.5230026245117188, "mean_height": 0.66187769174575806, "std_height": 1.2633490562438965, "count_pixels": 41, "percent_cover": 0.35296143250688705, "percent_above_0.1m": 29.268292682926827, "low_level_<0.5": 4.8780487804878048, "mid_level_0.5-2": 7.3170731707317067, "tall_2+": 17.073170731707318 }, "geometry": { "type": "Point", "coordinates": [ -0.311069366685427, 51.619423422420603 ] } },
{ "type": "Feature", "properties": { "max_height": 7.274749755859375, "mean_height": 1.5627074241638184, "std_height": 1.7961797714233398, "count_pixels": 41, "percent_cover": 0.35296143250688705, "percent_above_0.1m": 70.731707317073173, "low_level_<0.5": 9.7560975609756095, "mid_level_0.5-2": 26.829268292682929, "tall_2+": 31.707317073170731 }, "geometry": { "type": "Point", "coordinates": [ -0.310869311095836, 51.619420542491795 ] } },
{ "type": "Feature", "properties": { "max_height": 7.9527511596679688, "mean_height": 2.3781743049621582, "std_height": 3.0783176422119141, "count_pixels": 39, "percent_cover": 0.33574380165289258, "percent_above_0.1m": 48.717948717948715, "low_level_<0.5": 7.6923076923076925, "mid_level_0.5-2": 2.5641025641025639, "tall_2+": 38.461538461538467 }, "geometry": { "type": "Point", "coordinates": [ -0.313366008180376, 51.619564369733332 ] } },
{ "type": "Feature", "properties": { "max_height": 5.8232498168945312, "mean_height": 1.3560410737991333, "std_height": 1.9956313371658325, "count_pixels": 43, "percent_cover": 0.37017906336088158, "percent_above_0.1m": 48.837209302325576, "low_level_<0.5": 2.3255813953488373, "mid_level_0.5-2": 20.930232558139537, "tall_2+": 23.255813953488371 }, "geometry": { "type": "Point", "coordinates": [ -0.313165951754167, 51.61956149371693 ] } },
{ "type": "Feature", "properties": { "max_height": 9.6407546997070312, "mean_height": 0.91379690170288086, "std_height": 1.7357993125915527, "count_pixels": 43, "percent_cover": 0.37017906336088158, "percent_above_0.1m": 44.186046511627907, "low_level_<0.5": 4.6511627906976747, "mid_level_0.5-2": 23.255813953488371, "tall_2+": 16.279069767441861 }, "geometry": { "type": "Point", "coordinates": [ -0.312965895360557, 51.619558617359587 ] } },
{ "type": "Feature", "properties": { "max_height": 8.2727508544921875, "mean_height": 1.6595889329910278, "std_height": 2.2169287204742432, "count_pixels": 42, "percent_cover": 0.36157024793388431, "percent_above_0.1m": 47.619047619047613, "low_level_<0.5": 4.7619047619047619, "mid_level_0.5-2": 7.1428571428571423, "tall_2+": 35.714285714285715 }, "geometry": { "type": "Point", "coordinates": [ -0.312765838999553, 51.619555740661333 ] } },
{ "type": "Feature", "properties": { "max_height": 4.6682586669921875, "mean_height": 0.15240888297557831, "std_height": 0.75448334217071533, "count_pixels": 41, "percent_cover": 0.35296143250688705, "percent_above_0.1m": 4.8780487804878048, "low_level_<0.5": 0.0, "mid_level_0.5-2": 2.4390243902439024, "tall_2+": 2.4390243902439024 }, "geometry": { "type": "Point", "coordinates": [ -0.312565782671152, 51.619552863622111 ] } },
{ "type": "Feature", "properties": { "max_height": 0.00174713134765625, "mean_height": 9.1738816990982741e-05, "std_height": 0.00075534201459959149, "count_pixels": 41, "percent_cover": 0.35296143250688705, "percent_above_0.1m": 0.0, "low_level_<0.5": 0.0, "mid_level_0.5-2": 0.0, "tall_2+": 0.0 }, "geometry": { "type": "Point", "coordinates": [ -0.312365726375363, 51.619549986241971 ] } },
{ "type": "Feature", "properties": { "max_height": 0.00099945068359375, "mean_height": -0.00013084411330055445, "std_height": 0.00042248025420121849, "count_pixels": 40, "percent_cover": 0.34435261707988984, "percent_above_0.1m": 0.0, "low_level_<0.5": 0.0, "mid_level_0.5-2": 0.0, "tall_2+": 0.0 }, "geometry": { "type": "Point", "coordinates": [ -0.31216567011219, 51.619547108520884 ] } },
{ "type": "Feature", "properties": { "max_height": 0.00099945068359375, "mean_height": -7.5149539043195546e-05, "std_height": 0.00050071021541953087, "count_pixels": 40, "percent_cover": 0.34435261707988984, "percent_above_0.1m": 0.0, "low_level_<0.5": 0.0, "mid_level_0.5-2": 0.0, "tall_2+": 0.0 }, "geometry": { "type": "Point", "coordinates": [ -0.311965613881632, 51.619544230458864 ] } },
{ "type": "Feature", "properties": { "max_height": 0.00075531005859375, "mean_height": -6.1407322391460184e-06, "std_height": 0.0005282716010697186, "count_pixels": 41, "percent_cover": 0.35296143250688705, "percent_above_0.1m": 0.0, "low_level_<0.5": 0.0, "mid_level_0.5-2": 0.0, "tall_2+": 0.0 }, "geometry": { "type": "Point", "coordinates": [ -0.311765557683695, 51.61954135205589 ] } },
{ "type": "Feature", "properties": { "max_height": 0.00099945068359375, "mean_height": 1.1909298336831853e-05, "std_height": 0.00045502954162657261, "count_pixels": 41, "percent_cover": 0.35296143250688705, "percent_above_0.1m": 0.0, "low_level_<0.5": 0.0, "mid_level_0.5-2": 0.0, "tall_2+": 0.0 }, "geometry": { "type": "Point", "coordinates": [ -0.311565501518388, 51.619538473311991 ] } },
{ "type": "Feature", "properties": { "max_height": 0.00099945068359375, "mean_height": -1.8165225412758446e-07, "std_height": 0.0004914230084978044, "count_pixels": 42, "percent_cover": 0.36157024793388431, "percent_above_0.1m": 0.0, "low_level_<0.5": 0.0, "mid_level_0.5-2": 0.0, "tall_2+": 0.0 }, "geometry": { "type": "Point", "coordinates": [ -0.311365445385706, 51.619535594227152 ] } },
{ "type": "Feature", "properties": { "max_height": 0.001251220703125, "mean_height": 2.8743299480993301e-05, "std_height": 0.00052274158224463463, "count_pixels": 43, "percent_cover": 0.37017906336088158, "percent_above_0.1m": 0.0, "low_level_<0.5": 0.0, "mid_level_0.5-2": 0.0, "tall_2+": 0.0 }, "geometry": { "type": "Point", "coordinates": [ -0.311165389285662, 51.619532714801366 ] } },
{ "type": "Feature", "properties": { "max_height": 5.220245361328125, "mean_height": 0.53005820512771606, "std_height": 1.1556143760681152, "count_pixels": 43, "percent_cover": 0.37017906336088158, "percent_above_0.1m": 27.906976744186046, "low_level_<0.5": 6.9767441860465116, "mid_level_0.5-2": 6.9767441860465116, "tall_2+": 13.953488372093023 }, "geometry": { "type": "Point", "coordinates": [ -0.310965333218251, 51.619529835034662 ] } },
{ "type": "Feature", "properties": { "max_height": 3.9797515869140625, "mean_height": 0.75414019823074341, "std_height": 1.2973510026931763, "count_pixels": 39, "percent_cover": 0.33574380165289258, "percent_above_0.1m": 43.589743589743591, "low_level_<0.5": 15.384615384615385, "mid_level_0.5-2": 12.820512820512819, "tall_2+": 15.384615384615385 }, "geometry": { "type": "Point", "coordinates": [ -0.310765277183484, 51.619526954926982 ] } },
{ "type": "Feature", "properties": { "max_height": 7.053253173828125, "mean_height": 2.3081388473510742, "std_height": 2.2702207565307617, "count_pixels": 43, "percent_cover": 0.37017906336088158, "percent_above_0.1m": 76.744186046511629, "low_level_<0.5": 4.6511627906976747, "mid_level_0.5-2": 23.255813953488371, "tall_2+": 48.837209302325576 }, "geometry": { "type": "Point", "coordinates": [ -0.310565221181357, 51.619524074478392 ] } },
{ "type": "Feature", "properties": { "max_height": 8.0360031127929688, "mean_height": 2.8330001831054688, "std_height": 2.7854063510894775, "count_pixels": 40, "percent_cover": 0.34435261707988984, "percent_above_0.1m": 92.5, "low_level_<0.5": 17.5, "mid_level_0.5-2": 32.5, "tall_2+": 42.5 }, "geometry": { "type": "Point", "coordinates": [ -0.313462036481699, 51.61967366025177 ] } },
{ "type": "Feature", "properties": { "max_height": 15.440750122070312, "mean_height": 2.3335185050964355, "std_height": 3.519195556640625, "count_pixels": 41, "percent_cover": 0.35296143250688705, "percent_above_0.1m": 70.731707317073173, "low_level_<0.5": 9.7560975609756095, "mid_level_0.5-2": 26.829268292682929, "tall_2+": 34.146341463414636 }, "geometry": { "type": "Point", "coordinates": [ -0.313261979577687, 51.619670784397506 ] } },
{ "type": "Feature", "properties": { "max_height": 6.7965011596679688, "mean_height": 1.8186827898025513, "std_height": 2.2110002040863037, "count_pixels": 41, "percent_cover": 0.35296143250688705, "percent_above_0.1m": 56.09756097560976, "low_level_<0.5": 2.4390243902439024, "mid_level_0.5-2": 14.634146341463413, "tall_2+": 36.585365853658537 }, "geometry": { "type": "Point", "coordinates": [ -0.313061922706274, 51.61966790820231 ] } },
{ "type": "Feature", "properties": { "max_height": 11.378250122070312, "mean_height": 1.6506520509719849, "std_height": 2.6562340259552002, "count_pixels": 41, "percent_cover": 0.35296143250688705, "percent_above_0.1m": 48.780487804878049, "low_level_<0.5": 4.8780487804878048, "mid_level_0.5-2": 19.512195121951219, "tall_2+": 24.390243902439025 }, "geometry": { "type": "Point", "coordinates": [ -0.312861865867464, 51.619665031666173 ] } },
{ "type": "Feature", "properties": { "max_height": 18.163505554199219, "mean_height": 2.3514041900634766, "std_height": 4.4652786254882812, "count_pixels": 42, "percent_cover": 0.36157024793388431, "percent_above_0.1m": 35.714285714285715, "low_level_<0.5": 2.3809523809523809, "mid_level_0.5-2": 9.5238095238095237, "tall_2+": 23.809523809523807 }, "geometry": { "type": "Point", "coordinates": [ -0.312661809061256, 51.619662154789097 ] } },
{ "type": "Feature", "properties": { "max_height": 0.0032501220703125, "mean_height": 1.1532805729075335e-05, "std_height": 0.00098525022622197866, "count_pixels": 43, "percent_cover": 0.37017906336088158, "percent_above_0.1m": 0.0, "low_level_<0.5": 0.0, "mid_level_0.5-2": 0.0, "tall_2+": 0.0 }, "geometry": { "type": "Point", "coordinates": [ -0.312461752287659, 51.619659277571053 ] } },
{ "type": "Feature", "properties": { "max_height": 0.001251220703125, "mean_height": -2.217847213614732e-05, "std_height": 0.00062417803565040231, "count_pixels": 43, "percent_cover": 0.37017906336088158, "percent_above_0.1m": 0.0, "low_level_<0.5": 0.0, "mid_level_0.5-2": 0.0, "tall_2+": 0.0 }, "geometry": { "type": "Point", "coordinates": [ -0.312261695546672, 51.619656400012104 ] } },
{ "type": "Feature", "properties": { "max_height": 0.001251220703125, "mean_height": -1.316070574830519e-05, "std_height": 0.00059680204140022397, "count_pixels": 40, "percent_cover": 0.34435261707988984, "percent_above_0.1m": 0.0, "low_level_<0.5": 0.0, "mid_level_0.5-2": 0.0, "tall_2+": 0.0 }, "geometry": { "type": "Point", "coordinates": [ -0.312061638838304, 51.619653522112188 ] } },
{ "type": "Feature", "properties": { "max_height": 0.001251220703125, "mean_height": 5.216376666794531e-05, "std_height": 0.00045520727871917188, "count_pixels": 43, "percent_cover": 0.37017906336088158, "percent_above_0.1m": 0.0, "low_level_<0.5": 0.0, "mid_level_0.5-2": 0.0, "tall_2+": 0.0 }, "geometry": { "type": "Point", "coordinates": [ -0.311861582162554, 51.619650643871331 ] } },
{ "type": "Feature", "properties": { "max_height": 0.00075531005859375, "mean_height": -6.2099720707919914e-06, "std_height": 0.00048715792945586145, "count_pixels": 43, "percent_cover": 0.37017906336088158, "percent_above_0.1m": 0.0, "low_level_<0.5": 0.0, "mid_level_0.5-2": 0.0, "tall_2+": 0.0 }, "geometry": { "type": "Point", "coordinates": [ -0.311661525519431, 51.619647765289564 ] } },
{ "type": "Feature", "properties": { "max_height": 0.001251220703125, "mean_height": 0.00013133457105141133, "std_height": 0.00046713053598068655, "count_pixels": 42, "percent_cover": 0.36157024793388431, "percent_above_0.1m": 0.0, "low_level_<0.5": 0.0, "mid_level_0.5-2": 0.0, "tall_2+": 0.0 }, "geometry": { "type": "Point", "coordinates": [ -0.311461468908931, 51.6196448863668 ] } },
{ "type": "Feature", "properties": { "max_height": 0.00075531005859375, "mean_height": 4.9125857913168147e-05, "std_height": 0.00041027471888810396, "count_pixels": 41, "percent_cover": 0.35296143250688705, "percent_above_0.1m": 0.0, "low_level_<0.5": 0.0, "mid_level_0.5-2": 0.0, "tall_2+": 0.0 }, "geometry": { "type": "Point", "coordinates": [ -0.311261412331068, 51.619642007103153 ] } },
{ "type": "Feature", "properties": { "max_height": 4.928253173828125, "mean_height": 0.51357936859130859, "std_height": 1.2715892791748047, "count_pixels": 41, "percent_cover": 0.35296143250688705, "percent_above_0.1m": 19.512195121951219, "low_level_<0.5": 2.4390243902439024, "mid_level_0.5-2": 4.8780487804878048, "tall_2+": 12.195121951219512 }, "geometry": { "type": "Point", "coordinates": [ -0.311061355785841, 51.619639127498537 ] } },
{ "type": "Feature", "properties": { "max_height": 3.366241455078125, "mean_height": 0.10188442468643188, "std_height": 0.53137636184692383, "count_pixels": 41, "percent_cover": 0.35296143250688705, "percent_above_0.1m": 4.8780487804878048, "low_level_<0.5": 0.0, "mid_level_0.5-2": 2.4390243902439024, "tall_2+": 2.4390243902439024 }, "geometry": { "type": "Point", "coordinates": [ -0.310861299273246, 51.61963624755299 ] } },
{ "type": "Feature", "properties": { "max_height": 5.7552490234375, "mean_height": 0.87968713045120239, "std_height": 1.6799057722091675, "count_pixels": 40, "percent_cover": 0.34435261707988984, "percent_above_0.1m": 27.5, "low_level_<0.5": 0.0, "mid_level_0.5-2": 10.0, "tall_2+": 17.5 }, "geometry": { "type": "Point", "coordinates": [ -0.3106612427933, 51.619633367266495 ] } },
{ "type": "Feature", "properties": { "max_height": 11.526748657226562, "mean_height": 2.7429883480072021, "std_height": 3.2976610660552979, "count_pixels": 41, "percent_cover": 0.35296143250688705, "percent_above_0.1m": 78.048780487804876, "low_level_<0.5": 12.195121951219512, "mid_level_0.5-2": 19.512195121951219, "tall_2+": 43.902439024390247 }, "geometry": { "type": "Point", "coordinates": [ -0.310461186346, 51.619630486639068 ] } },
{ "type": "Feature", "properties": { "max_height": 15.553009033203125, "mean_height": 2.5732100009918213, "std_height": 2.9962811470031738, "count_pixels": 43, "percent_cover": 0.37017906336088158, "percent_above_0.1m": 76.744186046511629, "low_level_<0.5": 6.9767441860465116, "mid_level_0.5-2": 25.581395348837212, "tall_2+": 44.186046511627907 }, "geometry": { "type": "Point", "coordinates": [ -0.313157950497191, 51.619777198966048 ] } },
{ "type": "Feature", "properties": { "max_height": 10.737495422363281, "mean_height": 3.1917388439178467, "std_height": 2.6534965038299561, "count_pixels": 43, "percent_cover": 0.37017906336088158, "percent_above_0.1m": 81.395348837209298, "low_level_<0.5": 2.3255813953488373, "mid_level_0.5-2": 16.279069767441861, "tall_2+": 62.790697674418603 }, "geometry": { "type": "Point", "coordinates": [ -0.312957893180569, 51.619774322592029 ] } },
{ "type": "Feature", "properties": { "max_height": 20.316505432128906, "mean_height": 3.4258451461791992, "std_height": 5.3451509475708008, "count_pixels": 42, "percent_cover": 0.36157024793388431, "percent_above_0.1m": 66.666666666666657, "low_level_<0.5": 7.1428571428571423, "mid_level_0.5-2": 19.047619047619047, "tall_2+": 38.095238095238095 }, "geometry": { "type": "Point", "coordinates": [ -0.312757835896555, 51.61977144587707 ] } },
{ "type": "Feature", "properties": { "max_height": 10.98175048828125, "mean_height": 0.53296327590942383, "std_height": 2.1102933883666992, "count_pixels": 41, "percent_cover": 0.35296143250688705, "percent_above_0.1m": 7.3170731707317067, "low_level_<0.5": 0.0, "mid_level_0.5-2": 0.0, "tall_2+": 7.3170731707317067 }, "geometry": { "type": "Point", "coordinates": [ -0.312557778645145, 51.619768568821158 ] } },
{ "type": "Feature", "properties": { "max_height": 0.0017547607421875, "mean_height": -1.283971232624026e-05, "std_height": 0.00058964622439816594, "count_pixels": 41, "percent_cover": 0.35296143250688705, "percent_above_0.1m": 0.0, "low_level_<0.5": 0.0, "mid_level_0.5-2": 0.0, "tall_2+": 0.0 }, "geometry": { "type": "Point", "coordinates": [ -0.312357721426347, 51.619765691424305 ] } },
{ "type": "Feature", "properties": { "max_height": 0.00200653076171875, "mean_height": 0.00010643005225574598, "std_height": 0.00060474191559478641, "count_pixels": 40, "percent_cover": 0.34435261707988984, "percent_above_0.1m": 0.0, "low_level_<0.5": 0.0, "mid_level_0.5-2": 0.0, "tall_2+": 0.0 }, "geometry": { "type": "Point", "coordinates": [ -0.312157664240163, 51.619762813686535 ] } },
{ "type": "Feature", "properties": { "max_height": 0.001251220703125, "mean_height": 6.8664548962260596e-06, "std_height": 0.00050155591452494264, "count_pixels": 40, "percent_cover": 0.34435261707988984, "percent_above_0.1m": 0.0, "low_level_<0.5": 0.0, "mid_level_0.5-2": 0.0, "tall_2+": 0.0 }, "geometry": { "type": "Point", "coordinates": [ -0.3119576070866, 51.619759935607803 ] } },
{ "type": "Feature", "properties": { "max_height": 0.00099945068359375, "mean_height": -3.1075825972948223e-05, "std_height": 0.00056869268883019686, "count_pixels": 41, "percent_cover": 0.35296143250688705, "percent_above_0.1m": 0.0, "low_level_<0.5": 0.0, "mid_level_0.5-2": 0.0, "tall_2+": 0.0 }, "geometry": { "type": "Point", "coordinates": [ -0.311757549965657, 51.619757057188124 ] } },
{ "type": "Feature", "properties": { "max_height": 0.00099945068359375, "mean_height": 1.7677864889265038e-05, "std_height": 0.0003988108946941793, "count_pixels": 41, "percent_cover": 0.35296143250688705, "percent_above_0.1m": 0.0, "low_level_<0.5": 0.0, "mid_level_0.5-2": 0.0, "tall_2+": 0.0 }, "geometry": { "type": "Point", "coordinates": [ -0.311557492877341, 51.619754178427506 ] } },
{ "type": "Feature", "properties": { "max_height": 0.001251220703125, "mean_height": -7.1207679866347462e-05, "std_height": 0.00065497081959620118, "count_pixels": 42, "percent_cover": 0.36157024793388431, "percent_above_0.1m": 0.0, "low_level_<0.5": 0.0, "mid_level_0.5-2": 0.0, "tall_2+": 0.0 }, "geometry": { "type": "Point", "coordinates": [ -0.311357435821649, 51.619751299325962 ] } },
{ "type": "Feature", "properties": { "max_height": 7.6920013427734375, "mean_height": 0.92227333784103394, "std_height": 1.8014817237854004, "count_pixels": 43, "percent_cover": 0.37017906336088158, "percent_above_0.1m": 32.558139534883722, "low_level_<0.5": 4.6511627906976747, "mid_level_0.5-2": 9.3023255813953494, "tall_2+": 18.604651162790699 }, "geometry": { "type": "Point", "coordinates": [ -0.311157378798603, 51.619748419883464 ] } },
{ "type": "Feature", "properties": { "max_height": 5.020751953125, "mean_height": 0.20104058086872101, "std_height": 0.84964096546173096, "count_pixels": 43, "percent_cover": 0.37017906336088158, "percent_above_0.1m": 6.9767441860465116, "low_level_<0.5": 0.0, "mid_level_0.5-2": 2.3255813953488373, "tall_2+": 4.6511627906976747 }, "geometry": { "type": "Point", "coordinates": [ -0.310957321808187, 51.619745540100013 ] } },
{ "type": "Feature", "properties": { "max_height": 2.2567596435546875, "mean_height": 0.1514628529548645, "std_height": 0.49494776129722595, "count_pixels": 39, "percent_cover": 0.33574380165289258, "percent_above_0.1m": 12.820512820512819, "low_level_<0.5": 2.5641025641025639, "mid_level_0.5-2": 5.1282051282051277, "tall_2+": 2.5641025641025639 }, "geometry": { "type": "Point", "coordinates": [ -0.310757264850415, 51.619742659975635 ] } },
{ "type": "Feature", "properties": { "max_height": 8.1022491455078125, "mean_height": 3.0863783359527588, "std_height": 2.6039011478424072, "count_pixels": 41, "percent_cover": 0.35296143250688705, "percent_above_0.1m": 90.243902439024396, "low_level_<0.5": 7.3170731707317067, "mid_level_0.5-2": 31.707317073170731, "tall_2+": 51.219512195121951 }, "geometry": { "type": "Point", "coordinates": [ -0.313053920938878, 51.619883613438887 ] } },
{ "type": "Feature", "properties": { "max_height": 6.962005615234375, "mean_height": 1.2438602447509766, "std_height": 1.8350341320037842, "count_pixels": 41, "percent_cover": 0.35296143250688705, "percent_above_0.1m": 48.780487804878049, "low_level_<0.5": 4.8780487804878048, "mid_level_0.5-2": 17.073170731707318, "tall_2+": 24.390243902439025 }, "geometry": { "type": "Point", "coordinates": [ -0.312853863177047, 51.619880736886046 ] } },
{ "type": "Feature", "properties": { "max_height": 4.4080047607421875, "mean_height": 0.31376701593399048, "std_height": 1.0298657417297363, "count_pixels": 42, "percent_cover": 0.36157024793388431, "percent_above_0.1m": 11.904761904761903, "low_level_<0.5": 2.3809523809523809, "mid_level_0.5-2": 2.3809523809523809, "tall_2+": 7.1428571428571423 }, "geometry": { "type": "Point", "coordinates": [ -0.312653805447827, 51.619877859992272 ] } },
{ "type": "Feature", "properties": { "max_height": 0.00225067138671875, "mean_height": 3.5485554690239951e-05, "std_height": 0.00063217728165909648, "count_pixels": 43, "percent_cover": 0.37017906336088158, "percent_above_0.1m": 0.0, "low_level_<0.5": 0.0, "mid_level_0.5-2": 0.0, "tall_2+": 0.0 }, "geometry": { "type": "Point", "coordinates": [ -0.312453747751214, 51.619874982757558 ] } },
{ "type": "Feature", "properties": { "max_height": 0.00099945068359375, "mean_height": 5.8196310419589281e-05, "std_height": 0.00032759126042947173, "count_pixels": 43, "percent_cover": 0.37017906336088158, "percent_above_0.1m": 0.0, "low_level_<0.5": 0.0, "mid_level_0.5-2": 0.0, "tall_2+": 0.0 }, "geometry": { "type": "Point", "coordinates": [ -0.312253690087215, 51.619872105181891 ] } },
{ "type": "Feature", "properties": { "max_height": 0.001251220703125, "mean_height": 1.258850079466356e-05, "std_height": 0.00060947483871132135, "count_pixels": 40, "percent_cover": 0.34435261707988984, "percent_above_0.1m": 0.0, "low_level_<0.5": 0.0, "mid_level_0.5-2": 0.0, "tall_2+": 0.0 }, "geometry": { "type": "Point", "coordinates": [ -0.312053632455828, 51.619869227265276 ] } },
{ "type": "Feature", "properties": { "max_height": 0.00099945068359375, "mean_height": -0.00013999051589053124, "std_height": 0.000704166479408741, "count_pixels": 43, "percent_cover": 0.37017906336088158, "percent_above_0.1m": 0.0, "low_level_<0.5": 0.0, "mid_level_0.5-2": 0.0, "tall_2+": 0.0 }, "geometry": { "type": "Point", "coordinates": [ -0.311853574857067, 51.619866349007729 ] } },
{ "type": "Feature", "properties": { "max_height": 0.0007476806640625, "mean_height": -7.522937812609598e-05, "std_height": 0.00048311846330761909, "count_pixels": 43, "percent_cover": 0.37017906336088158, "percent_above_0.1m": 0.0, "low_level_<0.5": 0.0, "mid_level_0.5-2": 0.0, "tall_2+": 0.0 }, "geometry": { "type": "Point", "coordinates": [ -0.311653517290933, 51.619863470409221 ] } },
{ "type": "Feature", "properties": { "max_height": 0.00099945068359375, "mean_height": 3.0517578125e-05, "std_height": 0.00046498191659338772, "count_pixels": 42, "percent_cover": 0.36157024793388431, "percent_above_0.1m": 0.0, "low_level_<0.5": 0.0, "mid_level_0.5-2": 0.0, "tall_2+": 0.0 }, "geometry": { "type": "Point", "coordinates": [ -0.311453459757419, 51.619860591469781 ] } },
{ "type": "Feature", "properties": { "max_height": 0.0017547607421875, "mean_height": 6.1221238865982741e-05, "std_height": 0.00051149982027709484, "count_pixels": 41, "percent_cover": 0.35296143250688705, "percent_above_0.1m": 0.0, "low_level_<0.5": 0.0, "mid_level_0.5-2": 0.0, "tall_2+": 0.0 }, "geometry": { "type": "Point", "coordinates": [ -0.311253402256543, 51.619857712189408 ] } },
{ "type": "Feature", "properties": { "max_height": 9.05474853515625, "mean_height": 0.9275239109992981, "std_height": 2.0242087841033936, "count_pixels": 41, "percent_cover": 0.35296143250688705, "percent_above_0.1m": 26.829268292682929, "low_level_<0.5": 2.4390243902439024, "mid_level_0.5-2": 9.7560975609756095, "tall_2+": 14.634146341463413 }, "geometry": { "type": "Point", "coordinates": [ -0.311053344788305, 51.619854832568073 ] } },
{ "type": "Feature", "properties": { "max_height": 3.2164993286132812, "mean_height": 0.14953762292861938, "std_height": 0.57992112636566162, "count_pixels": 41, "percent_cover": 0.35296143250688705, "percent_above_0.1m": 9.7560975609756095, "low_level_<0.5": 0.0, "mid_level_0.5-2": 4.8780487804878048, "tall_2+": 2.4390243902439024 }, "geometry": { "type": "Point", "coordinates": [ -0.3108532873527, 51.619851952605806 ] } },
{ "type": "Feature", "properties": { "max_height": 11.864997863769531, "mean_height": 3.5352685451507568, "std_height": 3.4800460338592529, "count_pixels": 42, "percent_cover": 0.36157024793388431, "percent_above_0.1m": 78.571428571428569, "low_level_<0.5": 4.7619047619047619, "mid_level_0.5-2": 16.666666666666664, "tall_2+": 57.142857142857139 }, "geometry": { "type": "Point", "coordinates": [ -0.312749832695708, 51.619987151084402 ] } },
{ "type": "Feature", "properties": { "max_height": 11.45050048828125, "mean_height": 2.0816957950592041, "std_height": 2.5977365970611572, "count_pixels": 41, "percent_cover": 0.35296143250688705, "percent_above_0.1m": 53.658536585365859, "low_level_<0.5": 0.0, "mid_level_0.5-2": 14.634146341463413, "tall_2+": 39.024390243902438 }, "geometry": { "type": "Point", "coordinates": [ -0.312549774521279, 51.619984274011806 ] } },
{ "type": "Feature", "properties": { "max_height": 5.62249755859375, "mean_height": 1.1046644449234009, "std_height": 1.7110124826431274, "count_pixels": 41, "percent_cover": 0.35296143250688705, "percent_above_0.1m": 41.463414634146339, "low_level_<0.5": 7.3170731707317067, "mid_level_0.5-2": 7.3170731707317067, "tall_2+": 26.829268292682929 }, "geometry": { "type": "Point", "coordinates": [ -0.31234971637946, 51.61998139659827 ] } },
{ "type": "Feature", "properties": { "max_height": 0.00150299072265625, "mean_height": -3.1089781259652227e-05, "std_height": 0.00049717491492629051, "count_pixels": 40, "percent_cover": 0.34435261707988984, "percent_above_0.1m": 0.0, "low_level_<0.5": 0.0, "mid_level_0.5-2": 0.0, "tall_2+": 0.0 }, "geometry": { "type": "Point", "coordinates": [ -0.312149658270256, 51.619978518843766 ] } },
{ "type": "Feature", "properties": { "max_height": 0.00075531005859375, "mean_height": -0.00010013580322265625, "std_height": 0.00039050722261890769, "count_pixels": 40, "percent_cover": 0.34435261707988984, "percent_above_0.1m": 0.0, "low_level_<0.5": 0.0, "mid_level_0.5-2": 0.0, "tall_2+": 0.0 }, "geometry": { "type": "Point", "coordinates": [ -0.31194960019367, 51.619975640748343 ] } },
{ "type": "Feature", "properties": { "max_height": 0.001251220703125, "mean_height": -4.2426876461831853e-05, "std_height": 0.00053446699166670442, "count_pixels": 41, "percent_cover": 0.35296143250688705, "percent_above_0.1m": 0.0, "low_level_<0.5": 0.0, "mid_level_0.5-2": 0.0, "tall_2+": 0.0 }, "geometry": { "type": "Point", "coordinates": [ -0.311749542149712, 51.619972762311953 ] } },
{ "type": "Feature", "properties": { "max_height": 5.300750732421875, "mean_height": 0.38206091523170471, "std_height": 1.2032759189605713, "count_pixels": 41, "percent_cover": 0.35296143250688705, "percent_above_0.1m": 9.7560975609756095, "low_level_<0.5": 0.0, "mid_level_0.5-2": 0.0, "tall_2+": 9.7560975609756095 }, "geometry": { "type": "Point", "coordinates": [ -0.311549484138376, 51.61996988353463 ] } },
{ "type": "Feature", "properties": { "max_height": 14.738998413085938, "mean_height": 1.9719641208648682, "std_height": 3.6735732555389404, "count_pixels": 42, "percent_cover": 0.36157024793388431, "percent_above_0.1m": 40.476190476190474, "low_level_<0.5": 4.7619047619047619, "mid_level_0.5-2": 14.285714285714285, "tall_2+": 21.428571428571427 }, "geometry": { "type": "Point", "coordinates": [ -0.311349426159671, 51.619967004416353 ] } },
{ "type": "Feature", "properties": { "max_height": 10.892745971679688, "mean_height": 2.5682854652404785, "std_height": 3.0645899772644043, "count_pixels": 43, "percent_cover": 0.37017906336088158, "percent_above_0.1m": 62.790697674418603, "low_level_<0.5": 2.3255813953488373, "mid_level_0.5-2": 16.279069767441861, "tall_2+": 44.186046511627907 }, "geometry": { "type": "Point", "coordinates": [ -0.3111493682136, 51.619964124957143 ] } },
{ "type": "Feature", "properties": { "max_height": 15.214004516601562, "mean_height": 6.5014824867248535, "std_height": 4.509026050567627, "count_pixels": 43, "percent_cover": 0.37017906336088158, "percent_above_0.1m": 88.372093023255815, "low_level_<0.5": 0.0, "mid_level_0.5-2": 11.627906976744185, "tall_2+": 76.744186046511629 }, "geometry": { "type": "Point", "coordinates": [ -0.312445743116902, 51.620090687935651 ] } },
{ "type": "Feature", "properties": { "max_height": 7.9697494506835938, "mean_height": 2.8170349597930908, "std_height": 2.7916584014892578, "count_pixels": 43, "percent_cover": 0.37017906336088158, "percent_above_0.1m": 69.767441860465112, "low_level_<0.5": 2.3255813953488373, "mid_level_0.5-2": 9.3023255813953494, "tall_2+": 53.488372093023251 }, "geometry": { "type": "Point", "coordinates": [ -0.312245684529878, 51.620087810343286 ] } },
{ "type": "Feature", "properties": { "max_height": 3.2782440185546875, "mean_height": 0.10075626522302628, "std_height": 0.52208679914474487, "count_pixels": 40, "percent_cover": 0.34435261707988984, "percent_above_0.1m": 5.0, "low_level_<0.5": 0.0, "mid_level_0.5-2": 2.5, "tall_2+": 2.5 }, "geometry": { "type": "Point", "coordinates": [ -0.312045625975467, 51.620084932409981 ] } },
{ "type": "Feature", "properties": { "max_height": 0.001251220703125, "mean_height": 9.847241744864732e-05, "std_height": 0.0004977587959729135, "count_pixels": 43, "percent_cover": 0.37017906336088158, "percent_above_0.1m": 0.0, "low_level_<0.5": 0.0, "mid_level_0.5-2": 0.0, "tall_2+": 0.0 }, "geometry": { "type": "Point", "coordinates": [ -0.311845567453681, 51.620082054135715 ] } },
{ "type": "Feature", "properties": { "max_height": 8.1609954833984375, "mean_height": 0.31688407063484192, "std_height": 1.2991714477539062, "count_pixels": 43, "percent_cover": 0.37017906336088158, "percent_above_0.1m": 11.627906976744185, "low_level_<0.5": 2.3255813953488373, "mid_level_0.5-2": 2.3255813953488373, "tall_2+": 6.9767441860465116 }, "geometry": { "type": "Point", "coordinates": [ -0.311645508964518, 51.620079175520502 ] } },
{ "type": "Feature", "properties": { "max_height": 13.399253845214844, "mean_height": 1.75447678565979, "std_height": 3.3014092445373535, "count_pixels": 42, "percent_cover": 0.36157024793388431, "percent_above_0.1m": 38.095238095238095, "low_level_<0.5": 7.1428571428571423, "mid_level_0.5-2": 4.7619047619047619, "tall_2+": 26.190476190476193 }, "geometry": { "type": "Point", "coordinates": [ -0.311445450507988, 51.620076296564349 ] } },
{ "type": "Feature", "properties": { "max_height": 19.331253051757812, "mean_height": 14.044544219970703, "std_height": 4.0968551635742188, "count_pixels": 41, "percent_cover": 0.35296143250688705, "percent_above_0.1m": 100.0, "low_level_<0.5": 0.0, "mid_level_0.5-2": 0.0, "tall_2+": 100.0 }, "geometry": { "type": "Point", "coordinates": [ -0.311245392084082, 51.620073417267257 ] } },
{ "type": "Feature", "properties": { "max_height": 11.423751831054688, "mean_height": 3.4079389572143555, "std_height": 3.43349289894104, "count_pixels": 41, "percent_cover": 0.35296143250688705, "percent_above_0.1m": 78.048780487804876, "low_level_<0.5": 4.8780487804878048, "mid_level_0.5-2": 17.073170731707318, "tall_2+": 56.09756097560976 }, "geometry": { "type": "Point", "coordinates": [ -0.312341711234702, 51.620197101763814 ] } },
{ "type": "Feature", "properties": { "max_height": 10.866004943847656, "mean_height": 2.9425005912780762, "std_height": 3.5723910331726074, "count_pixels": 40, "percent_cover": 0.34435261707988984, "percent_above_0.1m": 55.000000000000007, "low_level_<0.5": 0.0, "mid_level_0.5-2": 7.5, "tall_2+": 47.5 }, "geometry": { "type": "Point", "coordinates": [ -0.312141652202462, 51.62019422399262 ] } },
{ "type": "Feature", "properties": { "max_height": 3.4654998779296875, "mean_height": 0.49354952573776245, "std_height": 0.88455086946487427, "count_pixels": 40, "percent_cover": 0.34435261707988984, "percent_above_0.1m": 32.5, "low_level_<0.5": 5.0, "mid_level_0.5-2": 15.0, "tall_2+": 12.5 }, "geometry": { "type": "Point", "coordinates": [ -0.31194159320285, 51.620191345880471 ] } },
{ "type": "Feature", "properties": { "max_height": 6.0477523803710938, "mean_height": 0.98634225130081177, "std_height": 1.7813163995742798, "count_pixels": 41, "percent_cover": 0.35296143250688705, "percent_above_0.1m": 39.024390243902438, "low_level_<0.5": 7.3170731707317067, "mid_level_0.5-2": 7.3170731707317067, "tall_2+": 21.951219512195124 }, "geometry": { "type": "Point", "coordinates": [ -0.311741534235856, 51.62018846742739 ] } },
{ "type": "Feature", "properties": { "max_height": 18.699249267578125, "mean_height": 8.5410737991333008, "std_height": 5.3721075057983398, "count_pixels": 41, "percent_cover": 0.35296143250688705, "percent_above_0.1m": 92.682926829268297, "low_level_<0.5": 0.0, "mid_level_0.5-2": 9.7560975609756095, "tall_2+": 82.926829268292678 }, "geometry": { "type": "Point", "coordinates": [ -0.311541475301491, 51.620185588633362 ] } },
{ "type": "Feature", "properties": { "max_height": 14.066001892089844, "mean_height": 4.8623819351196289, "std_height": 3.6325953006744385, "count_pixels": 40, "percent_cover": 0.34435261707988984, "percent_above_0.1m": 77.5, "low_level_<0.5": 2.5, "mid_level_0.5-2": 5.0, "tall_2+": 70.0 }, "geometry": { "type": "Point", "coordinates": [ -0.312037619397214, 51.620300637546265 ] } },
{ "type": "Feature", "properties": { "max_height": 15.3280029296875, "mean_height": 4.1098494529724121, "std_height": 4.5556106567382812, "count_pixels": 43, "percent_cover": 0.37017906336088158, "percent_above_0.1m": 72.093023255813947, "low_level_<0.5": 11.627906976744185, "mid_level_0.5-2": 9.3023255813953494, "tall_2+": 51.162790697674424 }, "geometry": { "type": "Point", "coordinates": [ -0.311837559952388, 51.620297759255301 ] } }
]
}
