{
"type": "FeatureCollection",
"name": "BROML_84_cycling",
"crs": { "type": "name", "properties": { "name": "urn:ogc:def:crs:OGC:1.3:CRS84" } },
"features": [
{"type":"Feature","properties":{"highway":"cycleway","name":null,"category":"Dedicated cycleway"},"geometry":{"type":"MultiLineString","coordinates":[[[-0.0448586,51.4098002],[-0.0447843,51.4097617],[-0.0446882,51.4097211],[-0.0443605,51.4096114],[-0.0441049,51.409543],[-0.0438121,51.4094807],[-0.0436383,51.4094389]]]}},
{"type":"Feature","properties":{"highway":"cycleway","name":null,"category":"Dedicated cycleway"},"geometry":{"type":"MultiLineString","coordinates":[[[-0.0518287,51.4106496],[-0.0521699,51.4108518],[-0.052231,51.4109199],[-0.0522557,51.4109474],[-0.0523046,51.4110439],[-0.0523469,51.4112186],[-0.0523404,51.4113984],[-0.0523648,51.4116502],[-0.0524073,51.4116872]]]}},
{"type":"Feature","properties":{"highway":"cycleway","name":null,"category":"Dedicated cycleway"},"geometry":{"type":"MultiLineString","coordinates":[[[-0.0585084,51.4146597],[-0.058264,51.4145642]]]}},
{"type":"Feature","properties":{"highway":"cycleway","name":null,"category":"Dedicated cycleway"},"geometry":{"type":"MultiLineString","coordinates":[[[-0.0449838,51.4124575],[-0.0450254,51.4124207]]]}},
{"type":"Feature","properties":{"highway":"cycleway","name":null,"category":"Dedicated cycleway"},"geometry":{"type":"MultiLineString","coordinates":[[[-0.045062,51.4123848],[-0.0450254,51.4124207]]]}},
{"type":"Feature","properties":{"highway":"cycleway","name":null,"category":"Dedicated cycleway"},"geometry":{"type":"MultiLineString","coordinates":[[[-0.045123,51.4125557],[-0.0450531,51.4126093],[-0.0449967,51.4126394],[-0.0449194,51.4126658],[-0.0448847,51.4126747],[-0.044809,51.4127063],[-0.0445115,51.4129877],[-0.0444796,51.4130088]]]}},
{"type":"Feature","properties":{"highway":"cycleway","name":null,"category":"Dedicated cycleway"},"geometry":{"type":"MultiLineString","coordinates":[[[-0.0436383,51.4094389],[-0.0436594,51.4094089],[-0.043683,51.409372]]]}},
{"type":"Feature","properties":{"highway":"cycleway","name":null,"category":"Dedicated cycleway"},"geometry":{"type":"MultiLineString","coordinates":[[[-0.0436463,51.4093021],[-0.0435654,51.4092887],[-0.0430432,51.4092089]]]}},
{"type":"Feature","properties":{"highway":"cycleway","name":null,"category":"Dedicated cycleway"},"geometry":{"type":"MultiLineString","coordinates":[[[-0.0436263,51.4093591],[-0.0436425,51.4093291],[-0.0436463,51.4093021]]]}},
{"type":"Feature","properties":{"highway":"cycleway","name":null,"category":"Dedicated cycleway"},"geometry":{"type":"MultiLineString","coordinates":[[[-0.043683,51.409372],[-0.0436263,51.4093591]]]}},
{"type":"Feature","properties":{"highway":"cycleway","name":null,"category":"Dedicated cycleway"},"geometry":{"type":"MultiLineString","coordinates":[[[-0.0427524,51.4091638],[-0.041741,51.4090151]]]}},
{"type":"Feature","properties":{"highway":"cycleway","name":null,"category":"Dedicated cycleway"},"geometry":{"type":"MultiLineString","coordinates":[[[-0.043,51.4091552],[-0.0429095,51.4091401]]]}},
{"type":"Feature","properties":{"highway":"cycleway","name":null,"category":"Dedicated cycleway"},"geometry":{"type":"MultiLineString","coordinates":[[[-0.0428277,51.4091295],[-0.0427524,51.4091638]]]}},
{"type":"Feature","properties":{"highway":"cycleway","name":null,"category":"Dedicated cycleway"},"geometry":{"type":"MultiLineString","coordinates":[[[-0.0430432,51.4092089],[-0.0430292,51.4091893],[-0.043,51.4091552]]]}},
{"type":"Feature","properties":{"highway":"cycleway","name":null,"category":"Dedicated cycleway"},"geometry":{"type":"MultiLineString","coordinates":[[[-0.0429095,51.4091401],[-0.0428277,51.4091295]]]}},
{"type":"Feature","properties":{"highway":"cycleway","name":null,"category":"Dedicated cycleway"},"geometry":{"type":"MultiLineString","coordinates":[[[-0.0506281,51.4186316],[-0.0506096,51.41864],[-0.0505204,51.4187687]]]}},
{"type":"Feature","properties":{"highway":"cycleway","name":null,"category":"Dedicated cycleway"},"geometry":{"type":"MultiLineString","coordinates":[[[-0.0506965,51.4186069],[-0.0506803,51.4186154],[-0.0506669,51.4186208],[-0.0506542,51.4186239],[-0.0506281,51.4186316]]]}},
{"type":"Feature","properties":{"highway":"cycleway","name":null,"category":"Dedicated cycleway"},"geometry":{"type":"MultiLineString","coordinates":[[[-0.0505204,51.4187687],[-0.050508,51.4187811],[-0.0505046,51.4187861],[-0.0504782,51.4188243]]]}},
{"type":"Feature","properties":{"highway":"cycleway","name":"Kings Hall Road","category":"Dedicated cycleway"},"geometry":{"type":"MultiLineString","coordinates":[[[-0.0442377,51.4129828],[-0.0442035,51.4129951],[-0.0441789,51.4129792],[-0.0439254,51.4128151],[-0.0438992,51.4127981],[-0.0438682,51.4127897]]]}},
{"type":"Feature","properties":{"highway":"cycleway","name":null,"category":"Dedicated cycleway"},"geometry":{"type":"MultiLineString","coordinates":[[[-0.0444456,51.4129907],[-0.0444796,51.4130088]]]}},
{"type":"Feature","properties":{"highway":"cycleway","name":null,"category":"Dedicated cycleway"},"geometry":{"type":"MultiLineString","coordinates":[[[-0.0443428,51.4129336],[-0.0443786,51.4129501]]]}},
{"type":"Feature","properties":{"highway":"cycleway","name":null,"category":"Dedicated cycleway"},"geometry":{"type":"MultiLineString","coordinates":[[[-0.0443088,51.4129485],[-0.0443428,51.4129336]]]}},
{"type":"Feature","properties":{"highway":"cycleway","name":null,"category":"Dedicated cycleway"},"geometry":{"type":"MultiLineString","coordinates":[[[-0.0442377,51.4129828],[-0.04427,51.4129672],[-0.0443088,51.4129485]]]}},
{"type":"Feature","properties":{"highway":"cycleway","name":"Station Approach","category":"Dedicated cycleway"},"geometry":{"type":"MultiLineString","coordinates":[[[-0.0443428,51.4129336],[-0.0443603,51.4129246],[-0.0444046,51.4128847]]]}},
{"type":"Feature","properties":{"highway":"cycleway","name":"Aldersmead Road","category":"Dedicated cycleway"},"geometry":{"type":"MultiLineString","coordinates":[[[-0.0438354,51.4128093],[-0.0437479,51.412786]]]}},
{"type":"Feature","properties":{"highway":"path","name":null,"category":"Shared path"},"geometry":{"type":"MultiLineString","coordinates":[[[-0.054241,51.4151438],[-0.0540919,51.4152947]]]}},
{"type":"Feature","properties":{"highway":"track","name":null,"category":"Track"},"geometry":{"type":"MultiLineString","coordinates":[[[-0.0494304,51.4048173],[-0.049381,51.4047838]]]}},
{"type":"Feature","properties":{"highway":"track","name":null,"category":"Track"},"geometry":{"type":"MultiLineString","coordinates":[[[-0.0494693,51.4047803],[-0.0494485,51.4047942],[-0.0494355,51.4048061],[-0.0494304,51.4048173],[-0.0497791,51.4050396]]]}},
{"type":"Feature","properties":{"highway":"track","name":null,"category":"Track"},"geometry":{"type":"MultiLineString","coordinates":[[[-0.0516963,51.4042935],[-0.0514253,51.404162],[-0.051259,51.4040763],[-0.0511588,51.4040112],[-0.0510652,51.4039453],[-0.0494693,51.4047803],[-0.0494195,51.4047809],[-0.049381,51.4047838],[-0.0491931,51.404669],[-0.0491629,51.4046627],[-0.0491354,51.4046615],[-0.0490992,51.404682],[-0.0489034,51.4047874],[-0.0488719,51.4047966],[-0.0488263,51.4047987],[-0.0484416,51.4046006]]]}},
{"type":"Feature","properties":{"highway":"cycleway","name":null,"category":"Dedicated cycleway"},"geometry":{"type":"MultiLineString","coordinates":[[[-0.0451237,51.4124664],[-0.0451617,51.4124841],[-0.0451529,51.4125174],[-0.045123,51.4125557]]]}},
{"type":"Feature","properties":{"highway":"cycleway","name":null,"category":"Dedicated cycleway"},"geometry":{"type":"MultiLineString","coordinates":[[[-0.0452891,51.4119645],[-0.0452408,51.4119956],[-0.0452259,51.4120161],[-0.0453811,51.4120729]]]}},
{"type":"Feature","properties":{"highway":"path","name":null,"category":"Shared path"},"geometry":{"type":"MultiLineString","coordinates":[[[-0.0499531,51.4123756],[-0.0501305,51.4122579],[-0.0501564,51.4122525],[-0.0502279,51.412205],[-0.0502643,51.4121993],[-0.0503739,51.4121266]]]}},
{"type":"Feature","properties":{"highway":"cycleway","name":null,"category":"Dedicated cycleway"},"geometry":{"type":"MultiLineString","coordinates":[[[-0.0450254,51.4124207],[-0.0451237,51.4124664]]]}},
{"type":"Feature","properties":{"highway":"cycleway","name":"Aldersmead Road","category":"Dedicated cycleway"},"geometry":{"type":"MultiLineString","coordinates":[[[-0.0438682,51.4127897],[-0.0438354,51.4128093]]]}},
{"type":"Feature","properties":{"highway":"path","name":null,"category":"Shared path"},"geometry":{"type":"MultiLineString","coordinates":[[[-0.0555661,51.4164133],[-0.0555217,51.4164595],[-0.055481,51.4165051],[-0.0554628,51.4165256]]]}},
{"type":"Feature","properties":{"highway":"path","name":null,"category":"Shared path"},"geometry":{"type":"MultiLineString","coordinates":[[[-0.0551807,51.4148276],[-0.0551123,51.4147965]]]}},
{"type":"Feature","properties":{"highway":"path","name":null,"category":"Shared path"},"geometry":{"type":"MultiLineString","coordinates":[[[-0.0549606,51.4138937],[-0.0549161,51.4139439]]]}},
{"type":"Feature","properties":{"highway":"path","name":null,"category":"Shared path"},"geometry":{"type":"MultiLineString","coordinates":[[[-0.0548552,51.4138133],[-0.0548752,51.4138212]]]}}
]
}
