{
"type": "FeatureCollection",
"name": "04e293a434ea_foliage",
"crs": { "type": "name", "properties": { "name": "urn:ogc:def:crs:OGC:1.3:CRS84" } },
"features": [
{ "type": "Feature", "properties": { "max_height": 5.31500244140625, "mean_height": 0.98297607898712158, "std_height": 1.1298863887786865, "count_pixels": 42, "percent_cover": 0.46666666666666673, "percent_above_0.1m": 71.428571428571431, "low_level_<0.5": 19.047619047619047, "mid_level_0.5-2": 40.476190476190474, "tall_2+": 11.904761904761903 }, "geometry": { "type": "Point", "coordinates": [ -0.103696167977763, 51.424558161044708 ] } },
{ "type": "Feature", "properties": { "max_height": 2.7925033569335938, "mean_height": 0.67947310209274292, "std_height": 0.70255804061889648, "count_pixels": 38, "percent_cover": 0.42222222222222217, "percent_above_0.1m": 65.789473684210535, "low_level_<0.5": 15.789473684210526, "mid_level_0.5-2": 44.736842105263158, "tall_2+": 5.2631578947368416 }, "geometry": { "type": "Point", "coordinates": [ -0.103496988963142, 51.424554936034752 ] } },
{ "type": "Feature", "properties": { "max_height": 3.582489013671875, "mean_height": 0.9008934497833252, "std_height": 0.941844642162323, "count_pixels": 42, "percent_cover": 0.46666666666666673, "percent_above_0.1m": 69.047619047619051, "low_level_<0.5": 14.285714285714285, "mid_level_0.5-2": 42.857142857142854, "tall_2+": 11.904761904761903 }, "geometry": { "type": "Point", "coordinates": [ -0.103297809985611, 51.42455171068648 ] } },
{ "type": "Feature", "properties": { "max_height": 10.620002746582031, "mean_height": 2.8793609142303467, "std_height": 3.0281047821044922, "count_pixels": 43, "percent_cover": 0.47777777777777775, "percent_above_0.1m": 88.372093023255815, "low_level_<0.5": 6.9767441860465116, "mid_level_0.5-2": 30.232558139534881, "tall_2+": 44.186046511627907 }, "geometry": { "type": "Point", "coordinates": [ -0.103098631045182, 51.424548484999917 ] } },
{ "type": "Feature", "properties": { "max_height": 14.689994812011719, "mean_height": 4.2475595474243164, "std_height": 4.4753322601318359, "count_pixels": 42, "percent_cover": 0.46666666666666673, "percent_above_0.1m": 85.714285714285708, "low_level_<0.5": 2.3809523809523809, "mid_level_0.5-2": 38.095238095238095, "tall_2+": 45.238095238095241 }, "geometry": { "type": "Point", "coordinates": [ -0.102899452141853, 51.424545258975016 ] } },
{ "type": "Feature", "properties": { "max_height": 15.8800048828125, "mean_height": 5.7841668128967285, "std_height": 6.093238353729248, "count_pixels": 42, "percent_cover": 0.46666666666666673, "percent_above_0.1m": 76.19047619047619, "low_level_<0.5": 9.5238095238095237, "mid_level_0.5-2": 11.904761904761903, "tall_2+": 54.761904761904766 }, "geometry": { "type": "Point", "coordinates": [ -0.10270027327563, 51.424542032611811 ] } },
{ "type": "Feature", "properties": { "max_height": 8.412506103515625, "mean_height": 2.2043910026550293, "std_height": 2.4894156455993652, "count_pixels": 41, "percent_cover": 0.4555555555555556, "percent_above_0.1m": 70.731707317073173, "low_level_<0.5": 7.3170731707317067, "mid_level_0.5-2": 26.829268292682929, "tall_2+": 36.585365853658537 }, "geometry": { "type": "Point", "coordinates": [ -0.102501094446513, 51.424538805910302 ] } },
{ "type": "Feature", "properties": { "max_height": 6.4300003051757812, "mean_height": 1.080060601234436, "std_height": 1.4981125593185425, "count_pixels": 41, "percent_cover": 0.4555555555555556, "percent_above_0.1m": 56.09756097560976, "low_level_<0.5": 7.3170731707317067, "mid_level_0.5-2": 31.707317073170731, "tall_2+": 17.073170731707318 }, "geometry": { "type": "Point", "coordinates": [ -0.102301915654512, 51.424535578870454 ] } },
{ "type": "Feature", "properties": { "max_height": 12.555000305175781, "mean_height": 3.9578571319580078, "std_height": 4.0572152137756348, "count_pixels": 42, "percent_cover": 0.46666666666666673, "percent_above_0.1m": 73.80952380952381, "low_level_<0.5": 0.0, "mid_level_0.5-2": 16.666666666666664, "tall_2+": 57.142857142857139 }, "geometry": { "type": "Point", "coordinates": [ -0.102102736899626, 51.42453235149231 ] } },
{ "type": "Feature", "properties": { "max_height": 15.555000305175781, "mean_height": 6.4702978134155273, "std_height": 4.4591565132141113, "count_pixels": 42, "percent_cover": 0.46666666666666673, "percent_above_0.1m": 97.61904761904762, "low_level_<0.5": 4.7619047619047619, "mid_level_0.5-2": 14.285714285714285, "tall_2+": 78.571428571428569 }, "geometry": { "type": "Point", "coordinates": [ -0.101903558181864, 51.424529123775855 ] } },
{ "type": "Feature", "properties": { "max_height": 10.897499084472656, "mean_height": 1.906768798828125, "std_height": 2.6506772041320801, "count_pixels": 41, "percent_cover": 0.4555555555555556, "percent_above_0.1m": 65.853658536585371, "low_level_<0.5": 2.4390243902439024, "mid_level_0.5-2": 26.829268292682929, "tall_2+": 34.146341463414636 }, "geometry": { "type": "Point", "coordinates": [ -0.101704379501224, 51.424525895721082 ] } },
{ "type": "Feature", "properties": { "max_height": 9.4000015258789062, "mean_height": 2.6568293571472168, "std_height": 3.0739080905914307, "count_pixels": 41, "percent_cover": 0.4555555555555556, "percent_above_0.1m": 65.853658536585371, "low_level_<0.5": 9.7560975609756095, "mid_level_0.5-2": 12.195121951219512, "tall_2+": 43.902439024390247 }, "geometry": { "type": "Point", "coordinates": [ -0.101505200690876, 51.424522667504661 ] } },
{ "type": "Feature", "properties": { "max_height": 16.042503356933594, "mean_height": 6.1033139228820801, "std_height": 5.5771751403808594, "count_pixels": 43, "percent_cover": 0.47777777777777775, "percent_above_0.1m": 83.720930232558146, "low_level_<0.5": 11.627906976744185, "mid_level_0.5-2": 2.3255813953488373, "tall_2+": 67.441860465116278 }, "geometry": { "type": "Point", "coordinates": [ -0.105185552381963, 51.424690178896164 ] } },
{ "type": "Feature", "properties": { "max_height": 8.4850006103515625, "mean_height": 3.7242257595062256, "std_height": 2.1144430637359619, "count_pixels": 42, "percent_cover": 0.46666666666666673, "percent_above_0.1m": 100.0, "low_level_<0.5": 4.7619047619047619, "mid_level_0.5-2": 19.047619047619047, "tall_2+": 76.19047619047619 }, "geometry": { "type": "Point", "coordinates": [ -0.104986372619041, 51.424686956411122 ] } },
{ "type": "Feature", "properties": { "max_height": 8.0800018310546875, "mean_height": 2.3457903861999512, "std_height": 2.2754623889923096, "count_pixels": 38, "percent_cover": 0.42222222222222217, "percent_above_0.1m": 86.842105263157904, "low_level_<0.5": 18.421052631578945, "mid_level_0.5-2": 26.315789473684209, "tall_2+": 42.105263157894733 }, "geometry": { "type": "Point", "coordinates": [ -0.104787192893182, 51.424683733587763 ] } },
{ "type": "Feature", "properties": { "max_height": 13.4375, "mean_height": 7.1182150840759277, "std_height": 3.0859084129333496, "count_pixels": 42, "percent_cover": 0.46666666666666673, "percent_above_0.1m": 100.0, "low_level_<0.5": 2.3809523809523809, "mid_level_0.5-2": 0.0, "tall_2+": 97.61904761904762 }, "geometry": { "type": "Point", "coordinates": [ -0.104588013204398, 51.424680510426086 ] } },
{ "type": "Feature", "properties": { "max_height": 7.5100021362304688, "mean_height": 1.8418029546737671, "std_height": 2.1618432998657227, "count_pixels": 43, "percent_cover": 0.47777777777777775, "percent_above_0.1m": 74.418604651162795, "low_level_<0.5": 4.6511627906976747, "mid_level_0.5-2": 32.558139534883722, "tall_2+": 30.232558139534881 }, "geometry": { "type": "Point", "coordinates": [ -0.104388833552676, 51.424677286926084 ] } },
{ "type": "Feature", "properties": { "max_height": 11.357498168945312, "mean_height": 2.5801188945770264, "std_height": 3.4005427360534668, "count_pixels": 42, "percent_cover": 0.46666666666666673, "percent_above_0.1m": 71.428571428571431, "low_level_<0.5": 7.1428571428571423, "mid_level_0.5-2": 26.190476190476193, "tall_2+": 35.714285714285715 }, "geometry": { "type": "Point", "coordinates": [ -0.104189653938038, 51.424674063087785 ] } },
{ "type": "Feature", "properties": { "max_height": 5.6650009155273438, "mean_height": 1.4414030313491821, "std_height": 1.8029607534408569, "count_pixels": 41, "percent_cover": 0.4555555555555556, "percent_above_0.1m": 58.536585365853654, "low_level_<0.5": 9.7560975609756095, "mid_level_0.5-2": 17.073170731707318, "tall_2+": 31.707317073170731 }, "geometry": { "type": "Point", "coordinates": [ -0.103990474360482, 51.424670838911155 ] } },
{ "type": "Feature", "properties": { "max_height": 14.705001831054688, "mean_height": 5.1534147262573242, "std_height": 4.9210424423217773, "count_pixels": 41, "percent_cover": 0.4555555555555556, "percent_above_0.1m": 80.487804878048792, "low_level_<0.5": 4.8780487804878048, "mid_level_0.5-2": 12.195121951219512, "tall_2+": 60.975609756097562 }, "geometry": { "type": "Point", "coordinates": [ -0.103791294820002, 51.424667614396213 ] } },
{ "type": "Feature", "properties": { "max_height": 14.382499694824219, "mean_height": 7.8057150840759277, "std_height": 4.3243041038513184, "count_pixels": 42, "percent_cover": 0.46666666666666673, "percent_above_0.1m": 90.476190476190482, "low_level_<0.5": 0.0, "mid_level_0.5-2": 7.1428571428571423, "tall_2+": 83.333333333333343 }, "geometry": { "type": "Point", "coordinates": [ -0.103592115316621, 51.424664389542954 ] } },
{ "type": "Feature", "properties": { "max_height": 3.625, "mean_height": 0.26607167720794678, "std_height": 0.84614497423171997, "count_pixels": 42, "percent_cover": 0.46666666666666673, "percent_above_0.1m": 9.5238095238095237, "low_level_<0.5": 0.0, "mid_level_0.5-2": 2.3809523809523809, "tall_2+": 7.1428571428571423 }, "geometry": { "type": "Point", "coordinates": [ -0.103392935850325, 51.424661164351377 ] } },
{ "type": "Feature", "properties": { "max_height": 9.1199951171875, "mean_height": 2.5674383640289307, "std_height": 3.2639172077178955, "count_pixels": 41, "percent_cover": 0.4555555555555556, "percent_above_0.1m": 48.780487804878049, "low_level_<0.5": 4.8780487804878048, "mid_level_0.5-2": 7.3170731707317067, "tall_2+": 36.585365853658537 }, "geometry": { "type": "Point", "coordinates": [ -0.103193756421124, 51.424657938821497 ] } },
{ "type": "Feature", "properties": { "max_height": 15.9324951171875, "mean_height": 9.7047557830810547, "std_height": 3.1519458293914795, "count_pixels": 41, "percent_cover": 0.4555555555555556, "percent_above_0.1m": 100.0, "low_level_<0.5": 0.0, "mid_level_0.5-2": 0.0, "tall_2+": 100.0 }, "geometry": { "type": "Point", "coordinates": [ -0.102994577029028, 51.424654712953291 ] } },
{ "type": "Feature", "properties": { "max_height": 16.762496948242188, "mean_height": 8.3667259216308594, "std_height": 5.688575267791748, "count_pixels": 42, "percent_cover": 0.46666666666666673, "percent_above_0.1m": 90.476190476190482, "low_level_<0.5": 4.7619047619047619, "mid_level_0.5-2": 9.5238095238095237, "tall_2+": 73.80952380952381 }, "geometry": { "type": "Point", "coordinates": [ -0.10279539767403, 51.424651486746789 ] } },
{ "type": "Feature", "properties": { "max_height": 14.334999084472656, "mean_height": 3.0313694477081299, "std_height": 4.3344573974609375, "count_pixels": 42, "percent_cover": 0.46666666666666673, "percent_above_0.1m": 59.523809523809526, "low_level_<0.5": 7.1428571428571423, "mid_level_0.5-2": 14.285714285714285, "tall_2+": 38.095238095238095 }, "geometry": { "type": "Point", "coordinates": [ -0.102596218356145, 51.424648260201955 ] } },
{ "type": "Feature", "properties": { "max_height": 16.090003967285156, "mean_height": 10.92325496673584, "std_height": 3.4682474136352539, "count_pixels": 43, "percent_cover": 0.47777777777777775, "percent_above_0.1m": 100.0, "low_level_<0.5": 0.0, "mid_level_0.5-2": 0.0, "tall_2+": 100.0 }, "geometry": { "type": "Point", "coordinates": [ -0.102397039075367, 51.424645033318782 ] } },
{ "type": "Feature", "properties": { "max_height": 13.584999084472656, "mean_height": 2.0590476989746094, "std_height": 3.5374302864074707, "count_pixels": 42, "percent_cover": 0.46666666666666673, "percent_above_0.1m": 40.476190476190474, "low_level_<0.5": 2.3809523809523809, "mid_level_0.5-2": 4.7619047619047619, "tall_2+": 30.952380952380953 }, "geometry": { "type": "Point", "coordinates": [ -0.102197859831711, 51.424641806097341 ] } },
{ "type": "Feature", "properties": { "max_height": 12.944999694824219, "mean_height": 6.6394081115722656, "std_height": 4.9143180847167969, "count_pixels": 38, "percent_cover": 0.42222222222222217, "percent_above_0.1m": 73.68421052631578, "low_level_<0.5": 0.0, "mid_level_0.5-2": 0.0, "tall_2+": 73.68421052631578 }, "geometry": { "type": "Point", "coordinates": [ -0.101998680625165, 51.424638578537561 ] } },
{ "type": "Feature", "properties": { "max_height": 16.819999694824219, "mean_height": 7.6150593757629395, "std_height": 5.7110285758972168, "count_pixels": 42, "percent_cover": 0.46666666666666673, "percent_above_0.1m": 78.571428571428569, "low_level_<0.5": 0.0, "mid_level_0.5-2": 9.5238095238095237, "tall_2+": 69.047619047619051 }, "geometry": { "type": "Point", "coordinates": [ -0.10179950145575, 51.424635350639484 ] } },
{ "type": "Feature", "properties": { "max_height": 7.1425018310546875, "mean_height": 1.013837456703186, "std_height": 1.9794561862945557, "count_pixels": 43, "percent_cover": 0.47777777777777775, "percent_above_0.1m": 32.558139534883722, "low_level_<0.5": 4.6511627906976747, "mid_level_0.5-2": 11.627906976744185, "tall_2+": 16.279069767441861 }, "geometry": { "type": "Point", "coordinates": [ -0.101600322254412, 51.424632122441913 ] } },
{ "type": "Feature", "properties": { "max_height": 13.345001220703125, "mean_height": 2.3690247535705566, "std_height": 3.2832610607147217, "count_pixels": 41, "percent_cover": 0.4555555555555556, "percent_above_0.1m": 56.09756097560976, "low_level_<0.5": 4.8780487804878048, "mid_level_0.5-2": 14.634146341463413, "tall_2+": 36.585365853658537 }, "geometry": { "type": "Point", "coordinates": [ -0.105280683097188, 51.424799631076375 ] } },
{ "type": "Feature", "properties": { "max_height": 15.217498779296875, "mean_height": 3.4200606346130371, "std_height": 4.5025496482849121, "count_pixels": 41, "percent_cover": 0.4555555555555556, "percent_above_0.1m": 70.731707317073173, "low_level_<0.5": 4.8780487804878048, "mid_level_0.5-2": 21.951219512195124, "tall_2+": 41.463414634146339 }, "geometry": { "type": "Point", "coordinates": [ -0.105081502845515, 51.424796408748044 ] } },
{ "type": "Feature", "properties": { "max_height": 11.072502136230469, "mean_height": 5.2400598526000977, "std_height": 3.5318398475646973, "count_pixels": 42, "percent_cover": 0.46666666666666673, "percent_above_0.1m": 88.095238095238088, "low_level_<0.5": 2.3809523809523809, "mid_level_0.5-2": 14.285714285714285, "tall_2+": 71.428571428571431 }, "geometry": { "type": "Point", "coordinates": [ -0.104882322630899, 51.424793186081381 ] } },
{ "type": "Feature", "properties": { "max_height": 4.7450027465820312, "mean_height": 0.24470320343971252, "std_height": 0.89064782857894897, "count_pixels": 42, "percent_cover": 0.46666666666666673, "percent_above_0.1m": 9.5238095238095237, "low_level_<0.5": 0.0, "mid_level_0.5-2": 4.7619047619047619, "tall_2+": 4.7619047619047619 }, "geometry": { "type": "Point", "coordinates": [ -0.104683142453351, 51.424789963076414 ] } },
{ "type": "Feature", "properties": { "max_height": 10.207504272460938, "mean_height": 2.0378057956695557, "std_height": 2.9116122722625732, "count_pixels": 41, "percent_cover": 0.4555555555555556, "percent_above_0.1m": 48.780487804878049, "low_level_<0.5": 4.8780487804878048, "mid_level_0.5-2": 12.195121951219512, "tall_2+": 31.707317073170731 }, "geometry": { "type": "Point", "coordinates": [ -0.104483962312874, 51.424786739733108 ] } },
{ "type": "Feature", "properties": { "max_height": 16.395004272460938, "mean_height": 11.300853729248047, "std_height": 3.5213587284088135, "count_pixels": 41, "percent_cover": 0.4555555555555556, "percent_above_0.1m": 100.0, "low_level_<0.5": 0.0, "mid_level_0.5-2": 0.0, "tall_2+": 100.0 }, "geometry": { "type": "Point", "coordinates": [ -0.104284782209475, 51.424783516051519 ] } },
{ "type": "Feature", "properties": { "max_height": 13.334999084472656, "mean_height": 2.7186312675476074, "std_height": 4.2594013214111328, "count_pixels": 42, "percent_cover": 0.46666666666666673, "percent_above_0.1m": 33.333333333333329, "low_level_<0.5": 0.0, "mid_level_0.5-2": 2.3809523809523809, "tall_2+": 30.952380952380953 }, "geometry": { "type": "Point", "coordinates": [ -0.104085602143148, 51.424780292031585 ] } },
{ "type": "Feature", "properties": { "max_height": 3.87750244140625, "mean_height": 0.19412834942340851, "std_height": 0.74846553802490234, "count_pixels": 43, "percent_cover": 0.47777777777777775, "percent_above_0.1m": 6.9767441860465116, "low_level_<0.5": 0.0, "mid_level_0.5-2": 2.3255813953488373, "tall_2+": 4.6511627906976747 }, "geometry": { "type": "Point", "coordinates": [ -0.103886422113911, 51.424777067673347 ] } },
{ "type": "Feature", "properties": { "max_height": 14.709991455078125, "mean_height": 5.3304152488708496, "std_height": 5.1243610382080078, "count_pixels": 42, "percent_cover": 0.46666666666666673, "percent_above_0.1m": 64.285714285714292, "low_level_<0.5": 2.3809523809523809, "mid_level_0.5-2": 4.7619047619047619, "tall_2+": 57.142857142857139 }, "geometry": { "type": "Point", "coordinates": [ -0.10368724212176, 51.424773842976784 ] } },
{ "type": "Feature", "properties": { "max_height": 9.2475051879882812, "mean_height": 0.61302667856216431, "std_height": 1.705589771270752, "count_pixels": 38, "percent_cover": 0.42222222222222217, "percent_above_0.1m": 23.684210526315788, "low_level_<0.5": 5.2631578947368416, "mid_level_0.5-2": 7.8947368421052628, "tall_2+": 10.526315789473683 }, "geometry": { "type": "Point", "coordinates": [ -0.103488062166695, 51.424770617941888 ] } },
{ "type": "Feature", "properties": { "max_height": 0.49749755859375, "mean_height": 0.0288689024746418, "std_height": 0.098818987607955933, "count_pixels": 42, "percent_cover": 0.46666666666666673, "percent_above_0.1m": 9.5238095238095237, "low_level_<0.5": 9.5238095238095237, "mid_level_0.5-2": 0.0, "tall_2+": 0.0 }, "geometry": { "type": "Point", "coordinates": [ -0.103288882248727, 51.424767392568711 ] } },
{ "type": "Feature", "properties": { "max_height": 6.3600006103515625, "mean_height": 0.50906938314437866, "std_height": 1.3773561716079712, "count_pixels": 43, "percent_cover": 0.47777777777777775, "percent_above_0.1m": 20.930232558139537, "low_level_<0.5": 4.6511627906976747, "mid_level_0.5-2": 6.9767441860465116, "tall_2+": 9.3023255813953494 }, "geometry": { "type": "Point", "coordinates": [ -0.103089702367855, 51.424764166857187 ] } },
{ "type": "Feature", "properties": { "max_height": 14.185005187988281, "mean_height": 4.3874411582946777, "std_height": 4.7914180755615234, "count_pixels": 42, "percent_cover": 0.46666666666666673, "percent_above_0.1m": 61.904761904761905, "low_level_<0.5": 4.7619047619047619, "mid_level_0.5-2": 4.7619047619047619, "tall_2+": 50.0 }, "geometry": { "type": "Point", "coordinates": [ -0.102890522524089, 51.424760940807381 ] } },
{ "type": "Feature", "properties": { "max_height": 4.1725006103515625, "mean_height": 0.27904820442199707, "std_height": 0.74379736185073853, "count_pixels": 42, "percent_cover": 0.46666666666666673, "percent_above_0.1m": 23.809523809523807, "low_level_<0.5": 2.3809523809523809, "mid_level_0.5-2": 14.285714285714285, "tall_2+": 4.7619047619047619 }, "geometry": { "type": "Point", "coordinates": [ -0.102691342717422, 51.424757714419222 ] } },
{ "type": "Feature", "properties": { "max_height": 9.6949920654296875, "mean_height": 0.78810977935791016, "std_height": 1.9908722639083862, "count_pixels": 41, "percent_cover": 0.4555555555555556, "percent_above_0.1m": 24.390243902439025, "low_level_<0.5": 0.0, "mid_level_0.5-2": 14.634146341463413, "tall_2+": 9.7560975609756095 }, "geometry": { "type": "Point", "coordinates": [ -0.102492162947872, 51.424754487692766 ] } },
{ "type": "Feature", "properties": { "max_height": 13.980003356933594, "mean_height": 3.1298789978027344, "std_height": 4.8732447624206543, "count_pixels": 41, "percent_cover": 0.4555555555555556, "percent_above_0.1m": 48.780487804878049, "low_level_<0.5": 9.7560975609756095, "mid_level_0.5-2": 0.0, "tall_2+": 31.707317073170731 }, "geometry": { "type": "Point", "coordinates": [ -0.102292983215433, 51.424751260627986 ] } },
{ "type": "Feature", "properties": { "max_height": 0.31999969482421875, "mean_height": 0.033690497279167175, "std_height": 0.070320084691047668, "count_pixels": 42, "percent_cover": 0.46666666666666673, "percent_above_0.1m": 9.5238095238095237, "low_level_<0.5": 9.5238095238095237, "mid_level_0.5-2": 0.0, "tall_2+": 0.0 }, "geometry": { "type": "Point", "coordinates": [ -0.102093803520112, 51.42474803322488 ] } },
{ "type": "Feature", "properties": { "max_height": 1.1475067138671875, "mean_height": 0.029404958710074425, "std_height": 0.17491917312145233, "count_pixels": 42, "percent_cover": 0.46666666666666673, "percent_above_0.1m": 2.3809523809523809, "low_level_<0.5": 0.0, "mid_level_0.5-2": 2.3809523809523809, "tall_2+": 0.0 }, "geometry": { "type": "Point", "coordinates": [ -0.101894623861911, 51.424744805483478 ] } },
{ "type": "Feature", "properties": { "max_height": 6.0500030517578125, "mean_height": 0.44859686493873596, "std_height": 1.3694440126419067, "count_pixels": 41, "percent_cover": 0.4555555555555556, "percent_above_0.1m": 12.195121951219512, "low_level_<0.5": 0.0, "mid_level_0.5-2": 2.4390243902439024, "tall_2+": 9.7560975609756095 }, "geometry": { "type": "Point", "coordinates": [ -0.101695444240837, 51.424741577403758 ] } },
{ "type": "Feature", "properties": { "max_height": 7.2674942016601562, "mean_height": 1.030854344367981, "std_height": 1.6565479040145874, "count_pixels": 41, "percent_cover": 0.4555555555555556, "percent_above_0.1m": 46.341463414634148, "low_level_<0.5": 4.8780487804878048, "mid_level_0.5-2": 17.073170731707318, "tall_2+": 21.951219512195124 }, "geometry": { "type": "Point", "coordinates": [ -0.101496264473961, 51.424738349180103 ] } },
{ "type": "Feature", "properties": { "max_height": 14.047500610351562, "mean_height": 5.6791276931762695, "std_height": 5.3813199996948242, "count_pixels": 43, "percent_cover": 0.47777777777777775, "percent_above_0.1m": 67.441860465116278, "low_level_<0.5": 2.3255813953488373, "mid_level_0.5-2": 9.3023255813953494, "tall_2+": 55.813953488372093 }, "geometry": { "type": "Point", "coordinates": [ -0.105176633523665, 51.424905861010572 ] } },
{ "type": "Feature", "properties": { "max_height": 7.2500076293945312, "mean_height": 0.73851191997528076, "std_height": 1.9547493457794189, "count_pixels": 42, "percent_cover": 0.46666666666666673, "percent_above_0.1m": 19.047619047619047, "low_level_<0.5": 4.7619047619047619, "mid_level_0.5-2": 2.3809523809523809, "tall_2+": 11.904761904761903 }, "geometry": { "type": "Point", "coordinates": [ -0.104977452820292, 51.424902638500626 ] } },
{ "type": "Feature", "properties": { "max_height": 4.399993896484375, "mean_height": 0.28546103835105896, "std_height": 0.89120739698410034, "count_pixels": 38, "percent_cover": 0.42222222222222217, "percent_above_0.1m": 13.157894736842104, "low_level_<0.5": 2.6315789473684208, "mid_level_0.5-2": 2.6315789473684208, "tall_2+": 7.8947368421052628 }, "geometry": { "type": "Point", "coordinates": [ -0.104778272153987, 51.424899415652334 ] } },
{ "type": "Feature", "properties": { "max_height": 0.00250244140625, "mean_height": -0.00053551082964986563, "std_height": 0.0017709253588691354, "count_pixels": 42, "percent_cover": 0.46666666666666673, "percent_above_0.1m": 0.0, "low_level_<0.5": 0.0, "mid_level_0.5-2": 0.0, "tall_2+": 0.0 }, "geometry": { "type": "Point", "coordinates": [ -0.104579091524744, 51.424896192465752 ] } },
{ "type": "Feature", "properties": { "max_height": 12.284996032714844, "mean_height": 1.8048256635665894, "std_height": 3.6218376159667969, "count_pixels": 43, "percent_cover": 0.47777777777777775, "percent_above_0.1m": 30.232558139534881, "low_level_<0.5": 2.3255813953488373, "mid_level_0.5-2": 4.6511627906976747, "tall_2+": 23.255813953488371 }, "geometry": { "type": "Point", "coordinates": [ -0.104379910932582, 51.424892968940846 ] } },
{ "type": "Feature", "properties": { "max_height": 14.457496643066406, "mean_height": 5.3612499237060547, "std_height": 5.3650493621826172, "count_pixels": 42, "percent_cover": 0.46666666666666673, "percent_above_0.1m": 64.285714285714292, "low_level_<0.5": 2.3809523809523809, "mid_level_0.5-2": 4.7619047619047619, "tall_2+": 54.761904761904766 }, "geometry": { "type": "Point", "coordinates": [ -0.10418073037749, 51.424889745077621 ] } },
{ "type": "Feature", "properties": { "max_height": 0.09749603271484375, "mean_height": 0.0024388011079281569, "std_height": 0.015186072327196598, "count_pixels": 41, "percent_cover": 0.4555555555555556, "percent_above_0.1m": 0.0, "low_level_<0.5": 0.0, "mid_level_0.5-2": 0.0, "tall_2+": 0.0 }, "geometry": { "type": "Point", "coordinates": [ -0.103981549859485, 51.424886520876079 ] } },
{ "type": "Feature", "properties": { "max_height": 2.4525070190429688, "mean_height": 0.15762217342853546, "std_height": 0.51496535539627075, "count_pixels": 41, "percent_cover": 0.4555555555555556, "percent_above_0.1m": 9.7560975609756095, "low_level_<0.5": 0.0, "mid_level_0.5-2": 7.3170731707317067, "tall_2+": 2.4390243902439024 }, "geometry": { "type": "Point", "coordinates": [ -0.103782369378561, 51.424883296336198 ] } },
{ "type": "Feature", "properties": { "max_height": 0.16249847412109375, "mean_height": 0.0075002396479249001, "std_height": 0.026731565594673157, "count_pixels": 42, "percent_cover": 0.46666666666666673, "percent_above_0.1m": 2.3809523809523809, "low_level_<0.5": 2.3809523809523809, "mid_level_0.5-2": 0.0, "tall_2+": 0.0 }, "geometry": { "type": "Point", "coordinates": [ -0.103583188934728, 51.42488007145802 ] } },
{ "type": "Feature", "properties": { "max_height": 0.10500335693359375, "mean_height": 0.0042266845703125, "std_height": 0.021293848752975464, "count_pixels": 42, "percent_cover": 0.46666666666666673, "percent_above_0.1m": 2.3809523809523809, "low_level_<0.5": 0.0, "mid_level_0.5-2": 0.0, "tall_2+": 0.0 }, "geometry": { "type": "Point", "coordinates": [ -0.103384008527987, 51.424876846241517 ] } },
{ "type": "Feature", "properties": { "max_height": 0.00250244140625, "mean_height": -0.00030443145078606904, "std_height": 0.0012591943377628922, "count_pixels": 41, "percent_cover": 0.4555555555555556, "percent_above_0.1m": 0.0, "low_level_<0.5": 0.0, "mid_level_0.5-2": 0.0, "tall_2+": 0.0 }, "geometry": { "type": "Point", "coordinates": [ -0.10318482815834, 51.424873620686711 ] } },
{ "type": "Feature", "properties": { "max_height": 0.00250244140625, "mean_height": -0.00054875813657417893, "std_height": 0.0020295148715376854, "count_pixels": 41, "percent_cover": 0.4555555555555556, "percent_above_0.1m": 0.0, "low_level_<0.5": 0.0, "mid_level_0.5-2": 0.0, "tall_2+": 0.0 }, "geometry": { "type": "Point", "coordinates": [ -0.1029856478258, 51.424870394793551 ] } },
{ "type": "Feature", "properties": { "max_height": 1.2574996948242188, "mean_height": 0.081845059990882874, "std_height": 0.29550966620445251, "count_pixels": 42, "percent_cover": 0.46666666666666673, "percent_above_0.1m": 7.1428571428571423, "low_level_<0.5": 0.0, "mid_level_0.5-2": 7.1428571428571423, "tall_2+": 0.0 }, "geometry": { "type": "Point", "coordinates": [ -0.102786467530357, 51.424867168562109 ] } },
{ "type": "Feature", "properties": { "max_height": 0.8950042724609375, "mean_height": 0.070893421769142151, "std_height": 0.20854848623275757, "count_pixels": 42, "percent_cover": 0.46666666666666673, "percent_above_0.1m": 14.285714285714285, "low_level_<0.5": 4.7619047619047619, "mid_level_0.5-2": 7.1428571428571423, "tall_2+": 0.0 }, "geometry": { "type": "Point", "coordinates": [ -0.102587287272028, 51.424863941992328 ] } },
{ "type": "Feature", "properties": { "max_height": 5.49249267578125, "mean_height": 0.19773279130458832, "std_height": 0.85841631889343262, "count_pixels": 43, "percent_cover": 0.47777777777777775, "percent_above_0.1m": 13.953488372093023, "low_level_<0.5": 2.3255813953488373, "mid_level_0.5-2": 4.6511627906976747, "tall_2+": 2.3255813953488373 }, "geometry": { "type": "Point", "coordinates": [ -0.102388107050807, 51.424860715084243 ] } },
{ "type": "Feature", "properties": { "max_height": 14.67999267578125, "mean_height": 2.0375592708587646, "std_height": 3.6640336513519287, "count_pixels": 42, "percent_cover": 0.46666666666666673, "percent_above_0.1m": 45.238095238095241, "low_level_<0.5": 7.1428571428571423, "mid_level_0.5-2": 11.904761904761903, "tall_2+": 26.190476190476193 }, "geometry": { "type": "Point", "coordinates": [ -0.102188926866704, 51.424857487837848 ] } },
{ "type": "Feature", "properties": { "max_height": 0.69000244140625, "mean_height": 0.032894536852836609, "std_height": 0.11944782733917236, "count_pixels": 38, "percent_cover": 0.42222222222222217, "percent_above_0.1m": 5.2631578947368416, "low_level_<0.5": 2.6315789473684208, "mid_level_0.5-2": 2.6315789473684208, "tall_2+": 0.0 }, "geometry": { "type": "Point", "coordinates": [ -0.101989746719718, 51.424854260253113 ] } },
{ "type": "Feature", "properties": { "max_height": 1.8125, "mean_height": 0.1947624534368515, "std_height": 0.42063093185424805, "count_pixels": 42, "percent_cover": 0.46666666666666673, "percent_above_0.1m": 23.809523809523807, "low_level_<0.5": 4.7619047619047619, "mid_level_0.5-2": 16.666666666666664, "tall_2+": 0.0 }, "geometry": { "type": "Point", "coordinates": [ -0.101790566609864, 51.424851032330075 ] } },
{ "type": "Feature", "properties": { "max_height": 8.3625030517578125, "mean_height": 2.8776171207427979, "std_height": 2.8241498470306396, "count_pixels": 43, "percent_cover": 0.47777777777777775, "percent_above_0.1m": 69.767441860465112, "low_level_<0.5": 9.3023255813953494, "mid_level_0.5-2": 6.9767441860465116, "tall_2+": 53.488372093023251 }, "geometry": { "type": "Point", "coordinates": [ -0.101591386457725, 51.424847804112417 ] } },
{ "type": "Feature", "properties": { "max_height": 16.069992065429688, "mean_height": 6.4174389839172363, "std_height": 5.8989591598510742, "count_pixels": 41, "percent_cover": 0.4555555555555556, "percent_above_0.1m": 70.731707317073173, "low_level_<0.5": 2.4390243902439024, "mid_level_0.5-2": 7.3170731707317067, "tall_2+": 60.975609756097562 }, "geometry": { "type": "Point", "coordinates": [ -0.105072583461366, 51.425012090845456 ] } },
{ "type": "Feature", "properties": { "max_height": 0.0774993896484375, "mean_height": 0.00077383860480040312, "std_height": 0.012180154211819172, "count_pixels": 42, "percent_cover": 0.46666666666666673, "percent_above_0.1m": 0.0, "low_level_<0.5": 0.0, "mid_level_0.5-2": 0.0, "tall_2+": 0.0 }, "geometry": { "type": "Point", "coordinates": [ -0.104873402306297, 51.425008868153881 ] } },
{ "type": "Feature", "properties": { "max_height": 14.180000305175781, "mean_height": 5.3016672134399414, "std_height": 4.8242545127868652, "count_pixels": 42, "percent_cover": 0.46666666666666673, "percent_above_0.1m": 76.19047619047619, "low_level_<0.5": 0.0, "mid_level_0.5-2": 11.904761904761903, "tall_2+": 64.285714285714292 }, "geometry": { "type": "Point", "coordinates": [ -0.104674221188293, 51.425005645124003 ] } },
{ "type": "Feature", "properties": { "max_height": 11.697502136230469, "mean_height": 1.2921344041824341, "std_height": 2.8770325183868408, "count_pixels": 41, "percent_cover": 0.4555555555555556, "percent_above_0.1m": 26.829268292682929, "low_level_<0.5": 2.4390243902439024, "mid_level_0.5-2": 7.3170731707317067, "tall_2+": 17.073170731707318 }, "geometry": { "type": "Point", "coordinates": [ -0.104475040107361, 51.425002421755799 ] } },
{ "type": "Feature", "properties": { "max_height": 0.0050048828125, "mean_height": -0.00079196837032213807, "std_height": 0.0020239728037267923, "count_pixels": 41, "percent_cover": 0.4555555555555556, "percent_above_0.1m": 0.0, "low_level_<0.5": 0.0, "mid_level_0.5-2": 0.0, "tall_2+": 0.0 }, "geometry": { "type": "Point", "coordinates": [ -0.104275859063507, 51.424999198049257 ] } },
{ "type": "Feature", "properties": { "max_height": 14.025009155273438, "mean_height": 3.0173816680908203, "std_height": 4.1200313568115234, "count_pixels": 42, "percent_cover": 0.46666666666666673, "percent_above_0.1m": 47.619047619047613, "low_level_<0.5": 4.7619047619047619, "mid_level_0.5-2": 2.3809523809523809, "tall_2+": 40.476190476190474 }, "geometry": { "type": "Point", "coordinates": [ -0.104076678056728, 51.424995974004418 ] } },
{ "type": "Feature", "properties": { "max_height": 7.8000030517578125, "mean_height": 1.9700590372085571, "std_height": 2.6123754978179932, "count_pixels": 43, "percent_cover": 0.47777777777777775, "percent_above_0.1m": 51.162790697674424, "low_level_<0.5": 4.6511627906976747, "mid_level_0.5-2": 13.953488372093023, "tall_2+": 32.558139534883722 }, "geometry": { "type": "Point", "coordinates": [ -0.103877497087033, 51.424992749621254 ] } },
{ "type": "Feature", "properties": { "max_height": 10.764999389648438, "mean_height": 3.7546436786651611, "std_height": 3.7575955390930176, "count_pixels": 42, "percent_cover": 0.46666666666666673, "percent_above_0.1m": 61.904761904761905, "low_level_<0.5": 2.3809523809523809, "mid_level_0.5-2": 9.5238095238095237, "tall_2+": 50.0 }, "geometry": { "type": "Point", "coordinates": [ -0.103678316154427, 51.424989524899757 ] } },
{ "type": "Feature", "properties": { "max_height": 0.27249908447265625, "mean_height": 0.01361846923828125, "std_height": 0.050827477127313614, "count_pixels": 38, "percent_cover": 0.42222222222222217, "percent_above_0.1m": 5.2631578947368416, "low_level_<0.5": 5.2631578947368416, "mid_level_0.5-2": 0.0, "tall_2+": 0.0 }, "geometry": { "type": "Point", "coordinates": [ -0.103479135258912, 51.424986299839958 ] } },
{ "type": "Feature", "properties": { "max_height": 10.737495422363281, "mean_height": 0.85541677474975586, "std_height": 2.2556383609771729, "count_pixels": 42, "percent_cover": 0.46666666666666673, "percent_above_0.1m": 23.809523809523807, "low_level_<0.5": 7.1428571428571423, "mid_level_0.5-2": 4.7619047619047619, "tall_2+": 11.904761904761903 }, "geometry": { "type": "Point", "coordinates": [ -0.103279954400492, 51.42498307444184 ] } },
{ "type": "Feature", "properties": { "max_height": 14.00250244140625, "mean_height": 3.0713376998901367, "std_height": 4.160158634185791, "count_pixels": 43, "percent_cover": 0.47777777777777775, "percent_above_0.1m": 48.837209302325576, "low_level_<0.5": 0.0, "mid_level_0.5-2": 11.627906976744185, "tall_2+": 37.209302325581397 }, "geometry": { "type": "Point", "coordinates": [ -0.103080773579168, 51.424979848705384 ] } },
{ "type": "Feature", "properties": { "max_height": 13.294998168945312, "mean_height": 3.6597616672515869, "std_height": 3.2775089740753174, "count_pixels": 42, "percent_cover": 0.46666666666666673, "percent_above_0.1m": 71.428571428571431, "low_level_<0.5": 0.0, "mid_level_0.5-2": 11.904761904761903, "tall_2+": 59.523809523809526 }, "geometry": { "type": "Point", "coordinates": [ -0.10288159279495, 51.424976622630624 ] } },
{ "type": "Feature", "properties": { "max_height": 10.087501525878906, "mean_height": 4.7563695907592773, "std_height": 3.543975830078125, "count_pixels": 42, "percent_cover": 0.46666666666666673, "percent_above_0.1m": 90.476190476190482, "low_level_<0.5": 7.1428571428571423, "mid_level_0.5-2": 9.5238095238095237, "tall_2+": 71.428571428571431 }, "geometry": { "type": "Point", "coordinates": [ -0.102682412047838, 51.424973396217538 ] } },
{ "type": "Feature", "properties": { "max_height": 3.6699981689453125, "mean_height": 0.245549276471138, "std_height": 0.7232203483581543, "count_pixels": 41, "percent_cover": 0.4555555555555556, "percent_above_0.1m": 17.073170731707318, "low_level_<0.5": 4.8780487804878048, "mid_level_0.5-2": 7.3170731707317067, "tall_2+": 4.8780487804878048 }, "geometry": { "type": "Point", "coordinates": [ -0.102483231337835, 51.424970169466135 ] } },
{ "type": "Feature", "properties": { "max_height": 16.625, "mean_height": 7.7759757041931152, "std_height": 4.9484491348266602, "count_pixels": 41, "percent_cover": 0.4555555555555556, "percent_above_0.1m": 90.243902439024396, "low_level_<0.5": 0.0, "mid_level_0.5-2": 7.3170731707317067, "tall_2+": 82.926829268292678 }, "geometry": { "type": "Point", "coordinates": [ -0.102284050664947, 51.424966942376408 ] } },
{ "type": "Feature", "properties": { "max_height": 17.264999389648438, "mean_height": 10.644224166870117, "std_height": 5.9097819328308105, "count_pixels": 42, "percent_cover": 0.46666666666666673, "percent_above_0.1m": 95.238095238095227, "low_level_<0.5": 7.1428571428571423, "mid_level_0.5-2": 4.7619047619047619, "tall_2+": 83.333333333333343 }, "geometry": { "type": "Point", "coordinates": [ -0.102084870029177, 51.424963714948369 ] } },
{ "type": "Feature", "properties": { "max_height": 8.50250244140625, "mean_height": 3.2401795387268066, "std_height": 3.2568907737731934, "count_pixels": 42, "percent_cover": 0.46666666666666673, "percent_above_0.1m": 61.904761904761905, "low_level_<0.5": 4.7619047619047619, "mid_level_0.5-2": 4.7619047619047619, "tall_2+": 52.380952380952387 }, "geometry": { "type": "Point", "coordinates": [ -0.101885689430528, 51.424960487182013 ] } },
{ "type": "Feature", "properties": { "max_height": 17.610000610351562, "mean_height": 7.8017072677612305, "std_height": 5.5500006675720215, "count_pixels": 41, "percent_cover": 0.4555555555555556, "percent_above_0.1m": 78.048780487804876, "low_level_<0.5": 0.0, "mid_level_0.5-2": 4.8780487804878048, "tall_2+": 73.170731707317074 }, "geometry": { "type": "Point", "coordinates": [ -0.10168650886901, 51.424957259077345 ] } },
{ "type": "Feature", "properties": { "max_height": 18.150001525878906, "mean_height": 6.1587815284729004, "std_height": 6.8431839942932129, "count_pixels": 41, "percent_cover": 0.4555555555555556, "percent_above_0.1m": 58.536585365853654, "low_level_<0.5": 2.4390243902439024, "mid_level_0.5-2": 2.4390243902439024, "tall_2+": 53.658536585365859 }, "geometry": { "type": "Point", "coordinates": [ -0.101487328144901, 51.424954030846855 ] } },
{ "type": "Feature", "properties": { "max_height": 17.995002746582031, "mean_height": 9.4219188690185547, "std_height": 6.459261417388916, "count_pixels": 43, "percent_cover": 0.47777777777777775, "percent_above_0.1m": 79.069767441860463, "low_level_<0.5": 2.3255813953488373, "mid_level_0.5-2": 2.3255813953488373, "tall_2+": 74.418604651162795 }, "geometry": { "type": "Point", "coordinates": [ -0.105167714554132, 51.425121543115885 ] } },
{ "type": "Feature", "properties": { "max_height": 18.072502136230469, "mean_height": 6.931190013885498, "std_height": 6.4677205085754395, "count_pixels": 42, "percent_cover": 0.46666666666666673, "percent_above_0.1m": 73.80952380952381, "low_level_<0.5": 0.0, "mid_level_0.5-2": 11.904761904761903, "tall_2+": 61.904761904761905 }, "geometry": { "type": "Point", "coordinates": [ -0.104968532910294, 51.425118320581035 ] } },
{ "type": "Feature", "properties": { "max_height": 16.43499755859375, "mean_height": 8.0053291320800781, "std_height": 5.825965404510498, "count_pixels": 38, "percent_cover": 0.42222222222222217, "percent_above_0.1m": 76.31578947368422, "low_level_<0.5": 0.0, "mid_level_0.5-2": 2.6315789473684208, "tall_2+": 73.68421052631578 }, "geometry": { "type": "Point", "coordinates": [ -0.104769351303523, 51.425115097707845 ] } },
{ "type": "Feature", "properties": { "max_height": 17.597496032714844, "mean_height": 13.111607551574707, "std_height": 2.7096693515777588, "count_pixels": 42, "percent_cover": 0.46666666666666673, "percent_above_0.1m": 100.0, "low_level_<0.5": 0.0, "mid_level_0.5-2": 0.0, "tall_2+": 100.0 }, "geometry": { "type": "Point", "coordinates": [ -0.104570169733821, 51.425111874496338 ] } },
{ "type": "Feature", "properties": { "max_height": 9.9225006103515625, "mean_height": 4.5611624717712402, "std_height": 3.4169187545776367, "count_pixels": 43, "percent_cover": 0.47777777777777775, "percent_above_0.1m": 74.418604651162795, "low_level_<0.5": 0.0, "mid_level_0.5-2": 4.6511627906976747, "tall_2+": 69.767441860465112 }, "geometry": { "type": "Point", "coordinates": [ -0.104370988201196, 51.425108650946527 ] } },
{ "type": "Feature", "properties": { "max_height": 8.5124969482421875, "mean_height": 1.9272031784057617, "std_height": 2.6191511154174805, "count_pixels": 42, "percent_cover": 0.46666666666666673, "percent_above_0.1m": 52.380952380952387, "low_level_<0.5": 4.7619047619047619, "mid_level_0.5-2": 9.5238095238095237, "tall_2+": 35.714285714285715 }, "geometry": { "type": "Point", "coordinates": [ -0.104171806705647, 51.425105427058369 ] } },
{ "type": "Feature", "properties": { "max_height": 16.987495422363281, "mean_height": 8.2108526229858398, "std_height": 4.8646798133850098, "count_pixels": 41, "percent_cover": 0.4555555555555556, "percent_above_0.1m": 87.804878048780495, "low_level_<0.5": 2.4390243902439024, "mid_level_0.5-2": 0.0, "tall_2+": 85.365853658536579 }, "geometry": { "type": "Point", "coordinates": [ -0.10397262524718, 51.425102202831908 ] } },
{ "type": "Feature", "properties": { "max_height": 17.457504272460938, "mean_height": 4.6124396324157715, "std_height": 6.1931657791137695, "count_pixels": 41, "percent_cover": 0.4555555555555556, "percent_above_0.1m": 51.219512195121951, "low_level_<0.5": 0.0, "mid_level_0.5-2": 14.634146341463413, "tall_2+": 36.585365853658537 }, "geometry": { "type": "Point", "coordinates": [ -0.103773443825798, 51.425098978267116 ] } },
{ "type": "Feature", "properties": { "max_height": 0.3874969482421875, "mean_height": 0.0197027288377285, "std_height": 0.067292504012584686, "count_pixels": 42, "percent_cover": 0.46666666666666673, "percent_above_0.1m": 7.1428571428571423, "low_level_<0.5": 4.7619047619047619, "mid_level_0.5-2": 0.0, "tall_2+": 0.0 }, "geometry": { "type": "Point", "coordinates": [ -0.103574262441509, 51.425095753363998 ] } },
{ "type": "Feature", "properties": { "max_height": 9.1674957275390625, "mean_height": 2.4788696765899658, "std_height": 3.1955180168151855, "count_pixels": 42, "percent_cover": 0.46666666666666673, "percent_above_0.1m": 61.904761904761905, "low_level_<0.5": 7.1428571428571423, "mid_level_0.5-2": 16.666666666666664, "tall_2+": 38.095238095238095 }, "geometry": { "type": "Point", "coordinates": [ -0.103375081094304, 51.425092528122576 ] } },
{ "type": "Feature", "properties": { "max_height": 17.332504272460938, "mean_height": 11.261646270751953, "std_height": 4.0793676376342773, "count_pixels": 41, "percent_cover": 0.4555555555555556, "percent_above_0.1m": 100.0, "low_level_<0.5": 0.0, "mid_level_0.5-2": 0.0, "tall_2+": 100.0 }, "geometry": { "type": "Point", "coordinates": [ -0.103175899784203, 51.425089302542823 ] } },
{ "type": "Feature", "properties": { "max_height": 17.36749267578125, "mean_height": 9.193842887878418, "std_height": 4.5100564956665039, "count_pixels": 41, "percent_cover": 0.4555555555555556, "percent_above_0.1m": 100.0, "low_level_<0.5": 0.0, "mid_level_0.5-2": 7.3170731707317067, "tall_2+": 90.243902439024396 }, "geometry": { "type": "Point", "coordinates": [ -0.102976718511202, 51.425086076624758 ] } },
{ "type": "Feature", "properties": { "max_height": 6.782501220703125, "mean_height": 0.96017926931381226, "std_height": 1.7420125007629395, "count_pixels": 42, "percent_cover": 0.46666666666666673, "percent_above_0.1m": 47.619047619047613, "low_level_<0.5": 14.285714285714285, "mid_level_0.5-2": 14.285714285714285, "tall_2+": 16.666666666666664 }, "geometry": { "type": "Point", "coordinates": [ -0.102777537275309, 51.425082850368362 ] } },
{ "type": "Feature", "properties": { "max_height": 9.5149993896484375, "mean_height": 1.7682141065597534, "std_height": 2.5615885257720947, "count_pixels": 42, "percent_cover": 0.46666666666666673, "percent_above_0.1m": 64.285714285714292, "low_level_<0.5": 9.5238095238095237, "mid_level_0.5-2": 26.190476190476193, "tall_2+": 28.571428571428569 }, "geometry": { "type": "Point", "coordinates": [ -0.102578356076517, 51.425079623773641 ] } },
{ "type": "Feature", "properties": { "max_height": 10.3125, "mean_height": 1.9487794637680054, "std_height": 2.8556256294250488, "count_pixels": 43, "percent_cover": 0.47777777777777775, "percent_above_0.1m": 62.790697674418603, "low_level_<0.5": 2.3255813953488373, "mid_level_0.5-2": 30.232558139534881, "tall_2+": 30.232558139534881 }, "geometry": { "type": "Point", "coordinates": [ -0.102379174914847, 51.425076396840609 ] } },
{ "type": "Feature", "properties": { "max_height": 16.032501220703125, "mean_height": 5.7302389144897461, "std_height": 5.2675576210021973, "count_pixels": 42, "percent_cover": 0.46666666666666673, "percent_above_0.1m": 92.857142857142861, "low_level_<0.5": 7.1428571428571423, "mid_level_0.5-2": 21.428571428571427, "tall_2+": 61.904761904761905 }, "geometry": { "type": "Point", "coordinates": [ -0.102179993790286, 51.425073169569266 ] } },
{ "type": "Feature", "properties": { "max_height": 15.762496948242188, "mean_height": 7.6411190032958984, "std_height": 4.3168220520019531, "count_pixels": 38, "percent_cover": 0.42222222222222217, "percent_above_0.1m": 100.0, "low_level_<0.5": 2.6315789473684208, "mid_level_0.5-2": 10.526315789473683, "tall_2+": 86.842105263157904 }, "geometry": { "type": "Point", "coordinates": [ -0.10198081270285, 51.425069941959585 ] } },
{ "type": "Feature", "properties": { "max_height": 16.579994201660156, "mean_height": 5.6061911582946777, "std_height": 4.3530721664428711, "count_pixels": 42, "percent_cover": 0.46666666666666673, "percent_above_0.1m": 97.61904761904762, "low_level_<0.5": 0.0, "mid_level_0.5-2": 16.666666666666664, "tall_2+": 80.952380952380949 }, "geometry": { "type": "Point", "coordinates": [ -0.101781631652536, 51.425066714011599 ] } },
{ "type": "Feature", "properties": { "max_height": 17.599998474121094, "mean_height": 9.7273263931274414, "std_height": 4.6056065559387207, "count_pixels": 43, "percent_cover": 0.47777777777777775, "percent_above_0.1m": 100.0, "low_level_<0.5": 0.0, "mid_level_0.5-2": 6.9767441860465116, "tall_2+": 93.023255813953483 }, "geometry": { "type": "Point", "coordinates": [ -0.101582450548933, 51.42506348577448 ] } },
{ "type": "Feature", "properties": { "max_height": 17.397499084472656, "mean_height": 8.2039003372192383, "std_height": 4.4436502456665039, "count_pixels": 41, "percent_cover": 0.4555555555555556, "percent_above_0.1m": 97.560975609756099, "low_level_<0.5": 0.0, "mid_level_0.5-2": 7.3170731707317067, "tall_2+": 90.243902439024396 }, "geometry": { "type": "Point", "coordinates": [ -0.10506366396598, 51.425227772933788 ] } },
{ "type": "Feature", "properties": { "max_height": 15.217498779296875, "mean_height": 5.6104755401611328, "std_height": 4.1812362670898438, "count_pixels": 42, "percent_cover": 0.46666666666666673, "percent_above_0.1m": 90.476190476190482, "low_level_<0.5": 4.7619047619047619, "mid_level_0.5-2": 11.904761904761903, "tall_2+": 71.428571428571431 }, "geometry": { "type": "Point", "coordinates": [ -0.104864481870439, 51.425224550217308 ] } },
{ "type": "Feature", "properties": { "max_height": 15.227500915527344, "mean_height": 4.1291065216064453, "std_height": 3.6951124668121338, "count_pixels": 42, "percent_cover": 0.46666666666666673, "percent_above_0.1m": 97.61904761904762, "low_level_<0.5": 11.904761904761903, "mid_level_0.5-2": 21.428571428571427, "tall_2+": 64.285714285714292 }, "geometry": { "type": "Point", "coordinates": [ -0.104665299811965, 51.425221327162511 ] } },
{ "type": "Feature", "properties": { "max_height": 11.654998779296875, "mean_height": 5.2230501174926758, "std_height": 3.387434720993042, "count_pixels": 41, "percent_cover": 0.4555555555555556, "percent_above_0.1m": 87.804878048780495, "low_level_<0.5": 2.4390243902439024, "mid_level_0.5-2": 12.195121951219512, "tall_2+": 73.170731707317074 }, "geometry": { "type": "Point", "coordinates": [ -0.104466117790569, 51.425218103769389 ] } },
{ "type": "Feature", "properties": { "max_height": 5.597503662109375, "mean_height": 1.385183572769165, "std_height": 1.4545829296112061, "count_pixels": 41, "percent_cover": 0.4555555555555556, "percent_above_0.1m": 80.487804878048792, "low_level_<0.5": 12.195121951219512, "mid_level_0.5-2": 36.585365853658537, "tall_2+": 26.829268292682929 }, "geometry": { "type": "Point", "coordinates": [ -0.104266935806245, 51.425214880037935 ] } },
{ "type": "Feature", "properties": { "max_height": 4.9225006103515625, "mean_height": 1.1546430587768555, "std_height": 1.172063946723938, "count_pixels": 42, "percent_cover": 0.46666666666666673, "percent_above_0.1m": 80.952380952380949, "low_level_<0.5": 14.285714285714285, "mid_level_0.5-2": 52.380952380952387, "tall_2+": 14.285714285714285 }, "geometry": { "type": "Point", "coordinates": [ -0.104067753859002, 51.42521165596817 ] } },
{ "type": "Feature", "properties": { "max_height": 15.870002746582031, "mean_height": 3.2191283702850342, "std_height": 4.011866569519043, "count_pixels": 43, "percent_cover": 0.47777777777777775, "percent_above_0.1m": 79.069767441860463, "low_level_<0.5": 11.627906976744185, "mid_level_0.5-2": 23.255813953488371, "tall_2+": 41.860465116279073 }, "geometry": { "type": "Point", "coordinates": [ -0.103868571948842, 51.425208431560087 ] } },
{ "type": "Feature", "properties": { "max_height": 3.5174942016601562, "mean_height": 0.83642780780792236, "std_height": 0.83142399787902832, "count_pixels": 42, "percent_cover": 0.46666666666666673, "percent_above_0.1m": 80.952380952380949, "low_level_<0.5": 14.285714285714285, "mid_level_0.5-2": 52.380952380952387, "tall_2+": 7.1428571428571423 }, "geometry": { "type": "Point", "coordinates": [ -0.103669390075768, 51.425205206813665 ] } },
{ "type": "Feature", "properties": { "max_height": 6.4749984741210938, "mean_height": 1.0266454219818115, "std_height": 1.3685353994369507, "count_pixels": 38, "percent_cover": 0.42222222222222217, "percent_above_0.1m": 71.05263157894737, "low_level_<0.5": 10.526315789473683, "mid_level_0.5-2": 39.473684210526315, "tall_2+": 15.789473684210526 }, "geometry": { "type": "Point", "coordinates": [ -0.103470208239794, 51.425201981728925 ] } },
{ "type": "Feature", "properties": { "max_height": 9.2299957275390625, "mean_height": 4.0448813438415527, "std_height": 3.1288337707519531, "count_pixels": 42, "percent_cover": 0.46666666666666673, "percent_above_0.1m": 85.714285714285708, "low_level_<0.5": 7.1428571428571423, "mid_level_0.5-2": 11.904761904761903, "tall_2+": 66.666666666666657 }, "geometry": { "type": "Point", "coordinates": [ -0.103271026440907, 51.425198756305861 ] } },
{ "type": "Feature", "properties": { "max_height": 11.125, "mean_height": 2.7295348644256592, "std_height": 3.0109703540802002, "count_pixels": 43, "percent_cover": 0.47777777777777775, "percent_above_0.1m": 86.04651162790698, "low_level_<0.5": 11.627906976744185, "mid_level_0.5-2": 25.581395348837212, "tall_2+": 44.186046511627907 }, "geometry": { "type": "Point", "coordinates": [ -0.10307184467912, 51.425195530544492 ] } },
{ "type": "Feature", "properties": { "max_height": 11.602500915527344, "mean_height": 3.1124405860900879, "std_height": 2.5930898189544678, "count_pixels": 42, "percent_cover": 0.46666666666666673, "percent_above_0.1m": 95.238095238095227, "low_level_<0.5": 4.7619047619047619, "mid_level_0.5-2": 28.571428571428569, "tall_2+": 59.523809523809526 }, "geometry": { "type": "Point", "coordinates": [ -0.102872662954441, 51.425192304444792 ] } },
{ "type": "Feature", "properties": { "max_height": 5.842498779296875, "mean_height": 1.8639291524887085, "std_height": 1.862205982208252, "count_pixels": 42, "percent_cover": 0.46666666666666673, "percent_above_0.1m": 83.333333333333343, "low_level_<0.5": 7.1428571428571423, "mid_level_0.5-2": 33.333333333333329, "tall_2+": 38.095238095238095 }, "geometry": { "type": "Point", "coordinates": [ -0.102673481266864, 51.425189078006767 ] } },
{ "type": "Feature", "properties": { "max_height": 6.0424957275390625, "mean_height": 2.1430480480194092, "std_height": 1.8887391090393066, "count_pixels": 41, "percent_cover": 0.4555555555555556, "percent_above_0.1m": 97.560975609756099, "low_level_<0.5": 21.951219512195124, "mid_level_0.5-2": 29.268292682926827, "tall_2+": 43.902439024390247 }, "geometry": { "type": "Point", "coordinates": [ -0.102474299616401, 51.425185851230424 ] } },
{ "type": "Feature", "properties": { "max_height": 7.8474960327148438, "mean_height": 2.53993821144104, "std_height": 2.3760111331939697, "count_pixels": 41, "percent_cover": 0.4555555555555556, "percent_above_0.1m": 92.682926829268297, "low_level_<0.5": 14.634146341463413, "mid_level_0.5-2": 36.585365853658537, "tall_2+": 41.463414634146339 }, "geometry": { "type": "Point", "coordinates": [ -0.102275118003056, 51.425182624115749 ] } },
{ "type": "Feature", "properties": { "max_height": 7.1474990844726562, "mean_height": 1.4457144737243652, "std_height": 1.7115359306335449, "count_pixels": 42, "percent_cover": 0.46666666666666673, "percent_above_0.1m": 90.476190476190482, "low_level_<0.5": 21.428571428571427, "mid_level_0.5-2": 38.095238095238095, "tall_2+": 26.190476190476193 }, "geometry": { "type": "Point", "coordinates": [ -0.102075936426824, 51.425179396662784 ] } },
{ "type": "Feature", "properties": { "max_height": 6.4124984741210938, "mean_height": 1.5867856740951538, "std_height": 1.9358307123184204, "count_pixels": 42, "percent_cover": 0.46666666666666673, "percent_above_0.1m": 76.19047619047619, "low_level_<0.5": 21.428571428571427, "mid_level_0.5-2": 19.047619047619047, "tall_2+": 30.952380952380953 }, "geometry": { "type": "Point", "coordinates": [ -0.101876754887718, 51.425176168871474 ] } }
]
}
