{
"type": "FeatureCollection",
"name": "4b3beecd7294_foliage",
"crs": { "type": "name", "properties": { "name": "urn:ogc:def:crs:OGC:1.3:CRS84" } },
"features": [
{ "type": "Feature", "properties": { "max_height": 6.8924999237060547, "mean_height": 1.3198210000991821, "std_height": 1.6888654232025146, "count_pixels": 42, "percent_cover": 0.42155977115326709, "percent_above_0.1m": 76.19047619047619, "low_level_<0.5": 23.809523809523807, "mid_level_0.5-2": 23.809523809523807, "tall_2+": 23.809523809523807 }, "geometry": { "type": "Point", "coordinates": [ -0.139056345949488, 51.448125842062083 ] } },
{ "type": "Feature", "properties": { "max_height": 11.869998931884766, "mean_height": 2.3687200546264648, "std_height": 2.9085242748260498, "count_pixels": 43, "percent_cover": 0.43159690856167821, "percent_above_0.1m": 69.767441860465112, "low_level_<0.5": 6.9767441860465116, "mid_level_0.5-2": 20.930232558139537, "tall_2+": 39.534883720930232 }, "geometry": { "type": "Point", "coordinates": [ -0.13885705807921, 51.448122677993716 ] } },
{ "type": "Feature", "properties": { "max_height": 3.2124996185302734, "mean_height": 0.18124939501285553, "std_height": 0.60380762815475464, "count_pixels": 44, "percent_cover": 0.44163404597008932, "percent_above_0.1m": 15.909090909090908, "low_level_<0.5": 4.5454545454545459, "mid_level_0.5-2": 4.5454545454545459, "tall_2+": 4.5454545454545459 }, "geometry": { "type": "Point", "coordinates": [ -0.138657770245267, 51.448119513586704 ] } },
{ "type": "Feature", "properties": { "max_height": 14.462499618530273, "mean_height": 5.3057379722595215, "std_height": 3.8115944862365723, "count_pixels": 44, "percent_cover": 0.44163404597008932, "percent_above_0.1m": 90.909090909090907, "low_level_<0.5": 0.0, "mid_level_0.5-2": 9.0909090909090917, "tall_2+": 79.545454545454547 }, "geometry": { "type": "Point", "coordinates": [ -0.138458482447655, 51.448116348841104 ] } },
{ "type": "Feature", "properties": { "max_height": 7.6474971771240234, "mean_height": 0.63924342393875122, "std_height": 1.6663743257522583, "count_pixels": 43, "percent_cover": 0.43159690856167821, "percent_above_0.1m": 27.906976744186046, "low_level_<0.5": 2.3255813953488373, "mid_level_0.5-2": 13.953488372093023, "tall_2+": 9.3023255813953494 }, "geometry": { "type": "Point", "coordinates": [ -0.138259194686385, 51.448113183756846 ] } },
{ "type": "Feature", "properties": { "max_height": 12.829998016357422, "mean_height": 3.685535192489624, "std_height": 3.591454029083252, "count_pixels": 42, "percent_cover": 0.42155977115326709, "percent_above_0.1m": 73.80952380952381, "low_level_<0.5": 2.3809523809523809, "mid_level_0.5-2": 19.047619047619047, "tall_2+": 52.380952380952387 }, "geometry": { "type": "Point", "coordinates": [ -0.138059906961455, 51.448110018333971 ] } },
{ "type": "Feature", "properties": { "max_height": 11.257499694824219, "mean_height": 2.9654159545898438, "std_height": 3.7621748447418213, "count_pixels": 42, "percent_cover": 0.42155977115326709, "percent_above_0.1m": 57.142857142857139, "low_level_<0.5": 4.7619047619047619, "mid_level_0.5-2": 7.1428571428571423, "tall_2+": 45.238095238095241 }, "geometry": { "type": "Point", "coordinates": [ -0.137860619272879, 51.448106852572494 ] } },
{ "type": "Feature", "properties": { "max_height": 4.5874996185302734, "mean_height": 2.1471333503723145, "std_height": 1.3789469003677368, "count_pixels": 41, "percent_cover": 0.41152263374485598, "percent_above_0.1m": 87.804878048780495, "low_level_<0.5": 7.3170731707317067, "mid_level_0.5-2": 19.512195121951219, "tall_2+": 60.975609756097562 }, "geometry": { "type": "Point", "coordinates": [ -0.138952317794411, 51.448232104041857 ] } },
{ "type": "Feature", "properties": { "max_height": 1.7874984741210938, "mean_height": 0.45106214284896851, "std_height": 0.50866538286209106, "count_pixels": 40, "percent_cover": 0.40148549633644481, "percent_above_0.1m": 62.5, "low_level_<0.5": 27.5, "mid_level_0.5-2": 32.5, "tall_2+": 0.0 }, "geometry": { "type": "Point", "coordinates": [ -0.138753029473445, 51.448228939791989 ] } },
{ "type": "Feature", "properties": { "max_height": 0.31749916076660156, "mean_height": 0.037221748381853104, "std_height": 0.069496646523475647, "count_pixels": 36, "percent_cover": 0.36133694670280037, "percent_above_0.1m": 8.3333333333333321, "low_level_<0.5": 8.3333333333333321, "mid_level_0.5-2": 0.0, "tall_2+": 0.0 }, "geometry": { "type": "Point", "coordinates": [ -0.138553741188816, 51.448225775203483 ] } },
{ "type": "Feature", "properties": { "max_height": 2.0099983215332031, "mean_height": 0.10856218636035919, "std_height": 0.34537729620933533, "count_pixels": 40, "percent_cover": 0.40148549633644481, "percent_above_0.1m": 20.0, "low_level_<0.5": 7.5, "mid_level_0.5-2": 2.5, "tall_2+": 2.5 }, "geometry": { "type": "Point", "coordinates": [ -0.138354452940525, 51.448222610276339 ] } },
{ "type": "Feature", "properties": { "max_height": 0.15999984741210938, "mean_height": 0.020913798362016678, "std_height": 0.037501081824302673, "count_pixels": 41, "percent_cover": 0.41152263374485598, "percent_above_0.1m": 7.3170731707317067, "low_level_<0.5": 4.8780487804878048, "mid_level_0.5-2": 0.0, "tall_2+": 0.0 }, "geometry": { "type": "Point", "coordinates": [ -0.138155164728572, 51.448219445010594 ] } },
{ "type": "Feature", "properties": { "max_height": 12.039999008178711, "mean_height": 3.9683332443237305, "std_height": 3.8858466148376465, "count_pixels": 42, "percent_cover": 0.42155977115326709, "percent_above_0.1m": 69.047619047619051, "low_level_<0.5": 0.0, "mid_level_0.5-2": 14.285714285714285, "tall_2+": 54.761904761904766 }, "geometry": { "type": "Point", "coordinates": [ -0.137955876552967, 51.448216279406239 ] } },
{ "type": "Feature", "properties": { "max_height": 2.7049980163574219, "mean_height": 0.18892765045166016, "std_height": 0.57503974437713623, "count_pixels": 42, "percent_cover": 0.42155977115326709, "percent_above_0.1m": 11.904761904761903, "low_level_<0.5": 2.3809523809523809, "mid_level_0.5-2": 4.7619047619047619, "tall_2+": 4.7619047619047619 }, "geometry": { "type": "Point", "coordinates": [ -0.137756588413711, 51.448213113463233 ] } },
{ "type": "Feature", "properties": { "max_height": 5.9475002288818359, "mean_height": 1.8084876537322998, "std_height": 1.5226863622665405, "count_pixels": 43, "percent_cover": 0.43159690856167821, "percent_above_0.1m": 76.744186046511629, "low_level_<0.5": 4.6511627906976747, "mid_level_0.5-2": 20.930232558139537, "tall_2+": 46.511627906976742 }, "geometry": { "type": "Point", "coordinates": [ -0.138848289152302, 51.448338365922524 ] } },
{ "type": "Feature", "properties": { "max_height": 6.970001220703125, "mean_height": 0.64204502105712891, "std_height": 1.4028042554855347, "count_pixels": 44, "percent_cover": 0.44163404597008932, "percent_above_0.1m": 34.090909090909086, "low_level_<0.5": 2.2727272727272729, "mid_level_0.5-2": 18.181818181818183, "tall_2+": 11.363636363636363 }, "geometry": { "type": "Point", "coordinates": [ -0.138649000380649, 51.448335201491133 ] } },
{ "type": "Feature", "properties": { "max_height": 0.77249908447265625, "mean_height": 0.030738223344087601, "std_height": 0.11411035805940628, "count_pixels": 44, "percent_cover": 0.44163404597008932, "percent_above_0.1m": 2.2727272727272729, "low_level_<0.5": 0.0, "mid_level_0.5-2": 2.2727272727272729, "tall_2+": 0.0 }, "geometry": { "type": "Point", "coordinates": [ -0.138449711645331, 51.448332036721133 ] } },
{ "type": "Feature", "properties": { "max_height": 0.024999618530273438, "mean_height": 0.0027318554930388927, "std_height": 0.0079935686662793159, "count_pixels": 43, "percent_cover": 0.43159690856167821, "percent_above_0.1m": 0.0, "low_level_<0.5": 0.0, "mid_level_0.5-2": 0.0, "tall_2+": 0.0 }, "geometry": { "type": "Point", "coordinates": [ -0.138250422946356, 51.44832887161251 ] } },
{ "type": "Feature", "properties": { "max_height": 0.034999847412109375, "mean_height": 0.0050587882287800312, "std_height": 0.0096281366422772408, "count_pixels": 42, "percent_cover": 0.42155977115326709, "percent_above_0.1m": 0.0, "low_level_<0.5": 0.0, "mid_level_0.5-2": 0.0, "tall_2+": 0.0 }, "geometry": { "type": "Point", "coordinates": [ -0.138051134283723, 51.448325706165242 ] } },
{ "type": "Feature", "properties": { "max_height": 11.430000305175781, "mean_height": 5.061011791229248, "std_height": 3.7756719589233398, "count_pixels": 42, "percent_cover": 0.42155977115326709, "percent_above_0.1m": 80.952380952380949, "low_level_<0.5": 2.3809523809523809, "mid_level_0.5-2": 9.5238095238095237, "tall_2+": 69.047619047619051 }, "geometry": { "type": "Point", "coordinates": [ -0.137851845657437, 51.448322540379365 ] } },
{ "type": "Feature", "properties": { "max_height": 8.4524974822998047, "mean_height": 3.7406091690063477, "std_height": 2.7359488010406494, "count_pixels": 41, "percent_cover": 0.41152263374485598, "percent_above_0.1m": 87.804878048780495, "low_level_<0.5": 0.0, "mid_level_0.5-2": 21.951219512195124, "tall_2+": 65.853658536585371 }, "geometry": { "type": "Point", "coordinates": [ -0.138943549281837, 51.448447791978325 ] } },
{ "type": "Feature", "properties": { "max_height": 5.9274997711181641, "mean_height": 0.46706217527389526, "std_height": 1.3654990196228027, "count_pixels": 40, "percent_cover": 0.40148549633644481, "percent_above_0.1m": 12.5, "low_level_<0.5": 0.0, "mid_level_0.5-2": 2.5, "tall_2+": 10.0 }, "geometry": { "type": "Point", "coordinates": [ -0.138744260023153, 51.448444627704085 ] } },
{ "type": "Feature", "properties": { "max_height": 0.31500053405761719, "mean_height": 0.021388424560427666, "std_height": 0.056398000568151474, "count_pixels": 36, "percent_cover": 0.36133694670280037, "percent_above_0.1m": 5.5555555555555554, "low_level_<0.5": 5.5555555555555554, "mid_level_0.5-2": 0.0, "tall_2+": 0.0 }, "geometry": { "type": "Point", "coordinates": [ -0.138544970800815, 51.448441463091193 ] } },
{ "type": "Feature", "properties": { "max_height": 0.78000068664550781, "mean_height": 0.036124754697084427, "std_height": 0.1427466869354248, "count_pixels": 40, "percent_cover": 0.40148549633644481, "percent_above_0.1m": 5.0, "low_level_<0.5": 0.0, "mid_level_0.5-2": 5.0, "tall_2+": 0.0 }, "geometry": { "type": "Point", "coordinates": [ -0.13834568161481, 51.448438298139699 ] } },
{ "type": "Feature", "properties": { "max_height": 0.072498321533203125, "mean_height": 0.0064018527045845985, "std_height": 0.013648901134729385, "count_pixels": 41, "percent_cover": 0.41152263374485598, "percent_above_0.1m": 0.0, "low_level_<0.5": 0.0, "mid_level_0.5-2": 0.0, "tall_2+": 0.0 }, "geometry": { "type": "Point", "coordinates": [ -0.138146392465145, 51.448435132849553 ] } },
{ "type": "Feature", "properties": { "max_height": 12.669998168945312, "mean_height": 1.3155347108840942, "std_height": 2.8648293018341064, "count_pixels": 42, "percent_cover": 0.42155977115326709, "percent_above_0.1m": 30.952380952380953, "low_level_<0.5": 2.3809523809523809, "mid_level_0.5-2": 7.1428571428571423, "tall_2+": 19.047619047619047 }, "geometry": { "type": "Point", "coordinates": [ -0.137947103351831, 51.448431967220792 ] } },
{ "type": "Feature", "properties": { "max_height": 12.497499465942383, "mean_height": 3.0651187896728516, "std_height": 3.6736135482788086, "count_pixels": 42, "percent_cover": 0.42155977115326709, "percent_above_0.1m": 61.904761904761905, "low_level_<0.5": 4.7619047619047619, "mid_level_0.5-2": 7.1428571428571423, "tall_2+": 47.619047619047613 }, "geometry": { "type": "Point", "coordinates": [ -0.137747814274867, 51.448428801253407 ] } },
{ "type": "Feature", "properties": { "max_height": 13.665000915527344, "mean_height": 7.061103343963623, "std_height": 3.930009126663208, "count_pixels": 43, "percent_cover": 0.43159690856167821, "percent_above_0.1m": 95.348837209302332, "low_level_<0.5": 6.9767441860465116, "mid_level_0.5-2": 2.3255813953488373, "tall_2+": 83.720930232558146 }, "geometry": { "type": "Point", "coordinates": [ -0.138839520116346, 51.448554053842273 ] } },
{ "type": "Feature", "properties": { "max_height": 0.23999977111816406, "mean_height": 0.0078970305621623993, "std_height": 0.036341752856969833, "count_pixels": 44, "percent_cover": 0.44163404597008932, "percent_above_0.1m": 2.2727272727272729, "low_level_<0.5": 2.2727272727272729, "mid_level_0.5-2": 0.0, "tall_2+": 0.0 }, "geometry": { "type": "Point", "coordinates": [ -0.138640230406973, 51.448550889386532 ] } },
{ "type": "Feature", "properties": { "max_height": 0.60499954223632812, "mean_height": 0.032272383570671082, "std_height": 0.098997466266155243, "count_pixels": 44, "percent_cover": 0.44163404597008932, "percent_above_0.1m": 4.5454545454545459, "low_level_<0.5": 2.2727272727272729, "mid_level_0.5-2": 2.2727272727272729, "tall_2+": 0.0 }, "geometry": { "type": "Point", "coordinates": [ -0.138440940733939, 51.448547724592139 ] } },
{ "type": "Feature", "properties": { "max_height": 0.95499992370605469, "mean_height": 0.032266970723867416, "std_height": 0.14933466911315918, "count_pixels": 43, "percent_cover": 0.43159690856167821, "percent_above_0.1m": 6.9767441860465116, "low_level_<0.5": 4.6511627906976747, "mid_level_0.5-2": 2.3255813953488373, "tall_2+": 0.0 }, "geometry": { "type": "Point", "coordinates": [ -0.138241651097247, 51.448544559459144 ] } },
{ "type": "Feature", "properties": { "max_height": 0.57999992370605469, "mean_height": 0.016606602817773819, "std_height": 0.088438600301742554, "count_pixels": 42, "percent_cover": 0.42155977115326709, "percent_above_0.1m": 2.3809523809523809, "low_level_<0.5": 0.0, "mid_level_0.5-2": 2.3809523809523809, "tall_2+": 0.0 }, "geometry": { "type": "Point", "coordinates": [ -0.138042361496895, 51.44854139398749 ] } },
{ "type": "Feature", "properties": { "max_height": 2.9150009155273438, "mean_height": 0.074285641312599182, "std_height": 0.44371059536933899, "count_pixels": 42, "percent_cover": 0.42155977115326709, "percent_above_0.1m": 2.3809523809523809, "low_level_<0.5": 0.0, "mid_level_0.5-2": 0.0, "tall_2+": 2.3809523809523809 }, "geometry": { "type": "Point", "coordinates": [ -0.137843071932897, 51.448538228177227 ] } },
{ "type": "Feature", "properties": { "max_height": 0.23499870300292969, "mean_height": 0.020297141745686531, "std_height": 0.051789801567792892, "count_pixels": 42, "percent_cover": 0.42155977115326709, "percent_above_0.1m": 9.5238095238095237, "low_level_<0.5": 4.7619047619047619, "mid_level_0.5-2": 0.0, "tall_2+": 0.0 }, "geometry": { "type": "Point", "coordinates": [ -0.137643782405245, 51.44853506202832 ] } },
{ "type": "Feature", "properties": { "max_height": 9.1474990844726562, "mean_height": 1.101436972618103, "std_height": 2.4071409702301025, "count_pixels": 40, "percent_cover": 0.40148549633644481, "percent_above_0.1m": 32.5, "low_level_<0.5": 7.5, "mid_level_0.5-2": 10.0, "tall_2+": 15.0 }, "geometry": { "type": "Point", "coordinates": [ -0.138735490463816, 51.448660315607135 ] } },
{ "type": "Feature", "properties": { "max_height": 0.037500381469726562, "mean_height": 0.0063882404938340187, "std_height": 0.011031001806259155, "count_pixels": 36, "percent_cover": 0.36133694670280037, "percent_above_0.1m": 0.0, "low_level_<0.5": 0.0, "mid_level_0.5-2": 0.0, "tall_2+": 0.0 }, "geometry": { "type": "Point", "coordinates": [ -0.138536200303748, 51.448657150969886 ] } },
{ "type": "Feature", "properties": { "max_height": 0.022500991821289062, "mean_height": 0.0039994716644287109, "std_height": 0.0066803973168134689, "count_pixels": 40, "percent_cover": 0.40148549633644481, "percent_above_0.1m": 0.0, "low_level_<0.5": 0.0, "mid_level_0.5-2": 0.0, "tall_2+": 0.0 }, "geometry": { "type": "Point", "coordinates": [ -0.138336910180022, 51.448653985994 ] } },
{ "type": "Feature", "properties": { "max_height": 0.00749969482421875, "mean_height": -0.0017078678356483579, "std_height": 0.0037626903504133224, "count_pixels": 41, "percent_cover": 0.41152263374485598, "percent_above_0.1m": 0.0, "low_level_<0.5": 0.0, "mid_level_0.5-2": 0.0, "tall_2+": 0.0 }, "geometry": { "type": "Point", "coordinates": [ -0.138137620092637, 51.448650820679468 ] } },
{ "type": "Feature", "properties": { "max_height": 0.034999847412109375, "mean_height": 0.00416583102196455, "std_height": 0.0085683660581707954, "count_pixels": 42, "percent_cover": 0.42155977115326709, "percent_above_0.1m": 0.0, "low_level_<0.5": 0.0, "mid_level_0.5-2": 0.0, "tall_2+": 0.0 }, "geometry": { "type": "Point", "coordinates": [ -0.137938330041595, 51.448647655026335 ] } },
{ "type": "Feature", "properties": { "max_height": 9.2024993896484375, "mean_height": 0.75797575712203979, "std_height": 1.9129499197006226, "count_pixels": 42, "percent_cover": 0.42155977115326709, "percent_above_0.1m": 23.809523809523807, "low_level_<0.5": 2.3809523809523809, "mid_level_0.5-2": 2.3809523809523809, "tall_2+": 14.285714285714285 }, "geometry": { "type": "Point", "coordinates": [ -0.137739040026909, 51.448644489034535 ] } },
{ "type": "Feature", "properties": { "max_height": 8.7250003814697266, "mean_height": 1.4054648876190186, "std_height": 2.494762659072876, "count_pixels": 43, "percent_cover": 0.43159690856167821, "percent_above_0.1m": 51.162790697674424, "low_level_<0.5": 9.3023255813953494, "mid_level_0.5-2": 13.953488372093023, "tall_2+": 23.255813953488371 }, "geometry": { "type": "Point", "coordinates": [ -0.138830750971341, 51.448769741753019 ] } },
{ "type": "Feature", "properties": { "max_height": 4.5224990844726562, "mean_height": 0.15693140029907227, "std_height": 0.72826153039932251, "count_pixels": 44, "percent_cover": 0.44163404597008932, "percent_above_0.1m": 6.8181818181818175, "low_level_<0.5": 0.0, "mid_level_0.5-2": 2.2727272727272729, "tall_2+": 2.2727272727272729 }, "geometry": { "type": "Point", "coordinates": [ -0.138631460324243, 51.448766577272892 ] } },
{ "type": "Feature", "properties": { "max_height": 6.7375011444091797, "mean_height": 0.59715867042541504, "std_height": 1.5760422945022583, "count_pixels": 44, "percent_cover": 0.44163404597008932, "percent_above_0.1m": 15.909090909090908, "low_level_<0.5": 0.0, "mid_level_0.5-2": 4.5454545454545459, "tall_2+": 11.363636363636363 }, "geometry": { "type": "Point", "coordinates": [ -0.138432169713478, 51.448763412454113 ] } },
{ "type": "Feature", "properties": { "max_height": 5.1424999237060547, "mean_height": 0.26302257180213928, "std_height": 0.90690433979034424, "count_pixels": 43, "percent_cover": 0.43159690856167821, "percent_above_0.1m": 13.953488372093023, "low_level_<0.5": 0.0, "mid_level_0.5-2": 6.9767441860465116, "tall_2+": 4.6511627906976747 }, "geometry": { "type": "Point", "coordinates": [ -0.138232879139054, 51.448760247296732 ] } },
{ "type": "Feature", "properties": { "max_height": 8.0574989318847656, "mean_height": 2.3745231628417969, "std_height": 2.8395063877105713, "count_pixels": 42, "percent_cover": 0.42155977115326709, "percent_above_0.1m": 50.0, "low_level_<0.5": 2.3809523809523809, "mid_level_0.5-2": 4.7619047619047619, "tall_2+": 42.857142857142854 }, "geometry": { "type": "Point", "coordinates": [ -0.138033588600978, 51.448757081800707 ] } },
{ "type": "Feature", "properties": { "max_height": 24.482500076293945, "mean_height": 13.566428184509277, "std_height": 6.687922477722168, "count_pixels": 42, "percent_cover": 0.42155977115326709, "percent_above_0.1m": 97.61904761904762, "low_level_<0.5": 2.3809523809523809, "mid_level_0.5-2": 4.7619047619047619, "tall_2+": 90.476190476190482 }, "geometry": { "type": "Point", "coordinates": [ -0.137834298099248, 51.448753915966051 ] } },
{ "type": "Feature", "properties": { "max_height": 21.797500610351562, "mean_height": 9.7830343246459961, "std_height": 5.3527536392211914, "count_pixels": 42, "percent_cover": 0.42155977115326709, "percent_above_0.1m": 97.61904761904762, "low_level_<0.5": 0.0, "mid_level_0.5-2": 9.5238095238095237, "tall_2+": 88.095238095238088 }, "geometry": { "type": "Point", "coordinates": [ -0.137635007633871, 51.448750749792772 ] } },
{ "type": "Feature", "properties": { "max_height": 15.945001602172852, "mean_height": 9.0874996185302734, "std_height": 3.9528110027313232, "count_pixels": 40, "percent_cover": 0.40148549633644481, "percent_above_0.1m": 100.0, "low_level_<0.5": 0.0, "mid_level_0.5-2": 2.5, "tall_2+": 97.5 }, "geometry": { "type": "Point", "coordinates": [ -0.138726720795423, 51.448876003501169 ] } },
{ "type": "Feature", "properties": { "max_height": 0.62749862670898438, "mean_height": 0.038332566618919373, "std_height": 0.12023408710956573, "count_pixels": 36, "percent_cover": 0.36133694670280037, "percent_above_0.1m": 8.3333333333333321, "low_level_<0.5": 2.7777777777777777, "mid_level_0.5-2": 2.7777777777777777, "tall_2+": 0.0 }, "geometry": { "type": "Point", "coordinates": [ -0.138527429697619, 51.448872838839534 ] } },
{ "type": "Feature", "properties": { "max_height": 6.2549991607666016, "mean_height": 0.84649926424026489, "std_height": 1.7296514511108398, "count_pixels": 40, "percent_cover": 0.40148549633644481, "percent_above_0.1m": 25.0, "low_level_<0.5": 0.0, "mid_level_0.5-2": 5.0, "tall_2+": 20.0 }, "geometry": { "type": "Point", "coordinates": [ -0.138328138636156, 51.448869673839255 ] } },
{ "type": "Feature", "properties": { "max_height": 2.1749992370605469, "mean_height": 0.16688960790634155, "std_height": 0.45751670002937317, "count_pixels": 41, "percent_cover": 0.41152263374485598, "percent_above_0.1m": 14.634146341463413, "low_level_<0.5": 2.4390243902439024, "mid_level_0.5-2": 9.7560975609756095, "tall_2+": 2.4390243902439024 }, "geometry": { "type": "Point", "coordinates": [ -0.138128847611038, 51.448866508500366 ] } },
{ "type": "Feature", "properties": { "max_height": 12.639999389648438, "mean_height": 2.0291659832000732, "std_height": 3.187636137008667, "count_pixels": 42, "percent_cover": 0.42155977115326709, "percent_above_0.1m": 47.619047619047613, "low_level_<0.5": 4.7619047619047619, "mid_level_0.5-2": 11.904761904761903, "tall_2+": 30.952380952380953 }, "geometry": { "type": "Point", "coordinates": [ -0.137929556622263, 51.448863342822847 ] } },
{ "type": "Feature", "properties": { "max_height": 21.172500610351562, "mean_height": 4.6179156303405762, "std_height": 5.7737436294555664, "count_pixels": 42, "percent_cover": 0.42155977115326709, "percent_above_0.1m": 61.904761904761905, "low_level_<0.5": 7.1428571428571423, "mid_level_0.5-2": 4.7619047619047619, "tall_2+": 50.0 }, "geometry": { "type": "Point", "coordinates": [ -0.137730265669841, 51.448860176806662 ] } },
{ "type": "Feature", "properties": { "max_height": 9.3524990081787109, "mean_height": 2.2863683700561523, "std_height": 2.5990185737609863, "count_pixels": 42, "percent_cover": 0.42155977115326709, "percent_above_0.1m": 59.523809523809526, "low_level_<0.5": 0.0, "mid_level_0.5-2": 9.5238095238095237, "tall_2+": 45.238095238095241 }, "geometry": { "type": "Point", "coordinates": [ -0.137530974753778, 51.448857010451867 ] } },
{ "type": "Feature", "properties": { "max_height": 12.714996337890625, "mean_height": 4.1995344161987305, "std_height": 3.7873740196228027, "count_pixels": 43, "percent_cover": 0.43159690856167821, "percent_above_0.1m": 76.744186046511629, "low_level_<0.5": 2.3255813953488373, "mid_level_0.5-2": 16.279069767441861, "tall_2+": 58.139534883720934 }, "geometry": { "type": "Point", "coordinates": [ -0.138821981717293, 51.448985429654719 ] } },
{ "type": "Feature", "properties": { "max_height": 15.614999771118164, "mean_height": 3.5398857593536377, "std_height": 5.00579833984375, "count_pixels": 44, "percent_cover": 0.44163404597008932, "percent_above_0.1m": 54.54545454545454, "low_level_<0.5": 4.5454545454545459, "mid_level_0.5-2": 6.8181818181818175, "tall_2+": 40.909090909090914 }, "geometry": { "type": "Point", "coordinates": [ -0.138622690132452, 51.448982265150221 ] } },
{ "type": "Feature", "properties": { "max_height": 0.16749763488769531, "mean_height": 0.014203721657395363, "std_height": 0.037729408591985703, "count_pixels": 44, "percent_cover": 0.44163404597008932, "percent_above_0.1m": 6.8181818181818175, "low_level_<0.5": 2.2727272727272729, "mid_level_0.5-2": 0.0, "tall_2+": 0.0 }, "geometry": { "type": "Point", "coordinates": [ -0.138423398583942, 51.448979100307071 ] } },
{ "type": "Feature", "properties": { "max_height": 0.034997940063476562, "mean_height": 0.0055808131583034992, "std_height": 0.0075450707226991653, "count_pixels": 43, "percent_cover": 0.43159690856167821, "percent_above_0.1m": 0.0, "low_level_<0.5": 0.0, "mid_level_0.5-2": 0.0, "tall_2+": 0.0 }, "geometry": { "type": "Point", "coordinates": [ -0.138224107071779, 51.44897593512529 ] } },
{ "type": "Feature", "properties": { "max_height": 5.1949996948242188, "mean_height": 0.14976175129413605, "std_height": 0.80666697025299072, "count_pixels": 42, "percent_cover": 0.42155977115326709, "percent_above_0.1m": 4.7619047619047619, "low_level_<0.5": 0.0, "mid_level_0.5-2": 2.3809523809523809, "tall_2+": 2.3809523809523809 }, "geometry": { "type": "Point", "coordinates": [ -0.138024815595963, 51.448972769604886 ] } },
{ "type": "Feature", "properties": { "max_height": 0.017499923706054688, "mean_height": 0.00023741948825772852, "std_height": 0.0061915228143334389, "count_pixels": 42, "percent_cover": 0.42155977115326709, "percent_above_0.1m": 0.0, "low_level_<0.5": 0.0, "mid_level_0.5-2": 0.0, "tall_2+": 0.0 }, "geometry": { "type": "Point", "coordinates": [ -0.137825524156493, 51.448969603745837 ] } },
{ "type": "Feature", "properties": { "max_height": 7.9099960327148438, "mean_height": 1.6081537008285522, "std_height": 2.2423124313354492, "count_pixels": 42, "percent_cover": 0.42155977115326709, "percent_above_0.1m": 57.142857142857139, "low_level_<0.5": 7.1428571428571423, "mid_level_0.5-2": 19.047619047619047, "tall_2+": 28.571428571428569 }, "geometry": { "type": "Point", "coordinates": [ -0.13762623275338, 51.448966437548144 ] } },
{ "type": "Feature", "properties": { "max_height": 3.6424999237060547, "mean_height": 0.50268244743347168, "std_height": 0.87492048740386963, "count_pixels": 41, "percent_cover": 0.41152263374485598, "percent_above_0.1m": 31.707317073170731, "low_level_<0.5": 2.4390243902439024, "mid_level_0.5-2": 21.951219512195124, "tall_2+": 7.3170731707317067 }, "geometry": { "type": "Point", "coordinates": [ -0.13742694138662, 51.448963271011849 ] } },
{ "type": "Feature", "properties": { "max_height": 15.622499465942383, "mean_height": 5.9008116722106934, "std_height": 5.8396329879760742, "count_pixels": 40, "percent_cover": 0.40148549633644481, "percent_above_0.1m": 72.5, "low_level_<0.5": 0.0, "mid_level_0.5-2": 12.5, "tall_2+": 57.5 }, "geometry": { "type": "Point", "coordinates": [ -0.13871795101797, 51.44909169138618 ] } },
{ "type": "Feature", "properties": { "max_height": 7.6700000762939453, "mean_height": 0.36812442541122437, "std_height": 1.3709020614624023, "count_pixels": 36, "percent_cover": 0.36133694670280037, "percent_above_0.1m": 11.111111111111111, "low_level_<0.5": 0.0, "mid_level_0.5-2": 5.5555555555555554, "tall_2+": 5.5555555555555554 }, "geometry": { "type": "Point", "coordinates": [ -0.138518658982423, 51.449088526700159 ] } },
{ "type": "Feature", "properties": { "max_height": 0.29999923706054688, "mean_height": 0.076186895370483398, "std_height": 0.072156466543674469, "count_pixels": 40, "percent_cover": 0.40148549633644481, "percent_above_0.1m": 25.0, "low_level_<0.5": 20.0, "mid_level_0.5-2": 0.0, "tall_2+": 0.0 }, "geometry": { "type": "Point", "coordinates": [ -0.138319366983213, 51.449085361675493 ] } },
{ "type": "Feature", "properties": { "max_height": 0.13500022888183594, "mean_height": 0.0096945418044924736, "std_height": 0.023531351238489151, "count_pixels": 41, "percent_cover": 0.41152263374485598, "percent_above_0.1m": 2.4390243902439024, "low_level_<0.5": 0.0, "mid_level_0.5-2": 0.0, "tall_2+": 0.0 }, "geometry": { "type": "Point", "coordinates": [ -0.138120075020345, 51.449082196312212 ] } },
{ "type": "Feature", "properties": { "max_height": 0.010000228881835938, "mean_height": -0.0016671589110046625, "std_height": 0.0047140889801084995, "count_pixels": 42, "percent_cover": 0.42155977115326709, "percent_above_0.1m": 0.0, "low_level_<0.5": 0.0, "mid_level_0.5-2": 0.0, "tall_2+": 0.0 }, "geometry": { "type": "Point", "coordinates": [ -0.137920783093828, 51.449079030610292 ] } },
{ "type": "Feature", "properties": { "max_height": 9.6350002288818359, "mean_height": 1.263154149055481, "std_height": 2.5410349369049072, "count_pixels": 42, "percent_cover": 0.42155977115326709, "percent_above_0.1m": 33.333333333333329, "low_level_<0.5": 7.1428571428571423, "mid_level_0.5-2": 7.1428571428571423, "tall_2+": 19.047619047619047 }, "geometry": { "type": "Point", "coordinates": [ -0.137721491203664, 51.449075864569743 ] } },
{ "type": "Feature", "properties": { "max_height": 15.042499542236328, "mean_height": 2.9723801612854004, "std_height": 3.5035610198974609, "count_pixels": 42, "percent_cover": 0.42155977115326709, "percent_above_0.1m": 71.428571428571431, "low_level_<0.5": 7.1428571428571423, "mid_level_0.5-2": 16.666666666666664, "tall_2+": 47.619047619047613 }, "geometry": { "type": "Point", "coordinates": [ -0.137522199349848, 51.449072698190541 ] } },
{ "type": "Feature", "properties": { "max_height": 2.6375007629394531, "mean_height": 0.11813899874687195, "std_height": 0.49754175543785095, "count_pixels": 43, "percent_cover": 0.43159690856167821, "percent_above_0.1m": 6.9767441860465116, "low_level_<0.5": 0.0, "mid_level_0.5-2": 0.0, "tall_2+": 4.6511627906976747 }, "geometry": { "type": "Point", "coordinates": [ -0.137322907532402, 51.449069531472723 ] } },
{ "type": "Feature", "properties": { "max_height": 2.8599987030029297, "mean_height": 0.32130610942840576, "std_height": 0.57046979665756226, "count_pixels": 44, "percent_cover": 0.44163404597008932, "percent_above_0.1m": 40.909090909090914, "low_level_<0.5": 11.363636363636363, "mid_level_0.5-2": 22.727272727272727, "tall_2+": 2.2727272727272729 }, "geometry": { "type": "Point", "coordinates": [ -0.138613919831597, 51.449197953018505 ] } },
{ "type": "Feature", "properties": { "max_height": 0.16499900817871094, "mean_height": 0.0077837598510086536, "std_height": 0.030614916235208511, "count_pixels": 44, "percent_cover": 0.44163404597008932, "percent_above_0.1m": 4.5454545454545459, "low_level_<0.5": 2.2727272727272729, "mid_level_0.5-2": 0.0, "tall_2+": 0.0 }, "geometry": { "type": "Point", "coordinates": [ -0.138414627345338, 51.449194788150997 ] } },
{ "type": "Feature", "properties": { "max_height": 0.20000076293945312, "mean_height": 0.056220609694719315, "std_height": 0.06074751541018486, "count_pixels": 43, "percent_cover": 0.43159690856167821, "percent_above_0.1m": 23.255813953488371, "low_level_<0.5": 11.627906976744185, "mid_level_0.5-2": 0.0, "tall_2+": 0.0 }, "geometry": { "type": "Point", "coordinates": [ -0.13821533489542, 51.449191622944824 ] } },
{ "type": "Feature", "properties": { "max_height": 0.017498016357421875, "mean_height": -0.00011970883497269824, "std_height": 0.0065450719557702541, "count_pixels": 42, "percent_cover": 0.42155977115326709, "percent_above_0.1m": 0.0, "low_level_<0.5": 0.0, "mid_level_0.5-2": 0.0, "tall_2+": 0.0 }, "geometry": { "type": "Point", "coordinates": [ -0.13801604248185, 51.44918845740002 ] } },
{ "type": "Feature", "properties": { "max_height": 2.1049995422363281, "mean_height": 0.064404211938381195, "std_height": 0.33574843406677246, "count_pixels": 42, "percent_cover": 0.42155977115326709, "percent_above_0.1m": 4.7619047619047619, "low_level_<0.5": 0.0, "mid_level_0.5-2": 2.3809523809523809, "tall_2+": 2.3809523809523809 }, "geometry": { "type": "Point", "coordinates": [ -0.137816750104629, 51.449185291516606 ] } },
{ "type": "Feature", "properties": { "max_height": 12.469997406005859, "mean_height": 4.7454156875610352, "std_height": 4.8205022811889648, "count_pixels": 42, "percent_cover": 0.42155977115326709, "percent_above_0.1m": 66.666666666666657, "low_level_<0.5": 2.3809523809523809, "mid_level_0.5-2": 7.1428571428571423, "tall_2+": 57.142857142857139 }, "geometry": { "type": "Point", "coordinates": [ -0.137617457763766, 51.449182125294527 ] } },
{ "type": "Feature", "properties": { "max_height": 9.4025001525878906, "mean_height": 3.5410356521606445, "std_height": 3.0286612510681152, "count_pixels": 41, "percent_cover": 0.41152263374485598, "percent_above_0.1m": 80.487804878048792, "low_level_<0.5": 2.4390243902439024, "mid_level_0.5-2": 17.073170731707318, "tall_2+": 58.536585365853654 }, "geometry": { "type": "Point", "coordinates": [ -0.137418165459259, 51.449178958733825 ] } },
{ "type": "Feature", "properties": { "max_height": 4.0374984741210938, "mean_height": 0.88712424039840698, "std_height": 1.1849592924118042, "count_pixels": 40, "percent_cover": 0.40148549633644481, "percent_above_0.1m": 55.000000000000007, "low_level_<0.5": 5.0, "mid_level_0.5-2": 32.5, "tall_2+": 17.5 }, "geometry": { "type": "Point", "coordinates": [ -0.138709181131466, 51.449307379262144 ] } },
{ "type": "Feature", "properties": { "max_height": 3.7299995422363281, "mean_height": 1.161527156829834, "std_height": 1.5064340829849243, "count_pixels": 36, "percent_cover": 0.36133694670280037, "percent_above_0.1m": 47.222222222222221, "low_level_<0.5": 5.5555555555555554, "mid_level_0.5-2": 11.111111111111111, "tall_2+": 30.555555555555557 }, "geometry": { "type": "Point", "coordinates": [ -0.138509888158155, 51.449304214551745 ] } },
{ "type": "Feature", "properties": { "max_height": 3.7599983215332031, "mean_height": 0.94818705320358276, "std_height": 1.5215193033218384, "count_pixels": 40, "percent_cover": 0.40148549633644481, "percent_above_0.1m": 30.0, "low_level_<0.5": 0.0, "mid_level_0.5-2": 5.0, "tall_2+": 25.0 }, "geometry": { "type": "Point", "coordinates": [ -0.13831059522119, 51.449301049502708 ] } },
{ "type": "Feature", "properties": { "max_height": 0.017498016357421875, "mean_height": 0.0018895311513915658, "std_height": 0.0065280650742352009, "count_pixels": 41, "percent_cover": 0.41152263374485598, "percent_above_0.1m": 0.0, "low_level_<0.5": 0.0, "mid_level_0.5-2": 0.0, "tall_2+": 0.0 }, "geometry": { "type": "Point", "coordinates": [ -0.138111302320564, 51.449297884115033 ] } },
{ "type": "Feature", "properties": { "max_height": 0.0149993896484375, "mean_height": 0.000951721565797925, "std_height": 0.0040070503018796444, "count_pixels": 42, "percent_cover": 0.42155977115326709, "percent_above_0.1m": 0.0, "low_level_<0.5": 0.0, "mid_level_0.5-2": 0.0, "tall_2+": 0.0 }, "geometry": { "type": "Point", "coordinates": [ -0.137912009456291, 51.449294718388728 ] } },
{ "type": "Feature", "properties": { "max_height": 4.4350013732910156, "mean_height": 0.10613051056861877, "std_height": 0.67606568336486816, "count_pixels": 42, "percent_cover": 0.42155977115326709, "percent_above_0.1m": 2.3809523809523809, "low_level_<0.5": 0.0, "mid_level_0.5-2": 0.0, "tall_2+": 2.3809523809523809 }, "geometry": { "type": "Point", "coordinates": [ -0.137712716628365, 51.449291552323793 ] } },
{ "type": "Feature", "properties": { "max_height": 11.68499755859375, "mean_height": 2.2313086986541748, "std_height": 2.8475043773651123, "count_pixels": 42, "percent_cover": 0.42155977115326709, "percent_above_0.1m": 54.761904761904766, "low_level_<0.5": 2.3809523809523809, "mid_level_0.5-2": 11.904761904761903, "tall_2+": 40.476190476190474 }, "geometry": { "type": "Point", "coordinates": [ -0.137513423836802, 51.449288385920205 ] } },
{ "type": "Feature", "properties": { "max_height": 7.9549980163574219, "mean_height": 2.7784874439239502, "std_height": 2.8858292102813721, "count_pixels": 43, "percent_cover": 0.43159690856167821, "percent_above_0.1m": 67.441860465116278, "low_level_<0.5": 6.9767441860465116, "mid_level_0.5-2": 11.627906976744185, "tall_2+": 48.837209302325576 }, "geometry": { "type": "Point", "coordinates": [ -0.137314131081593, 51.449285219177966 ] } },
{ "type": "Feature", "properties": { "max_height": 11.404998779296875, "mean_height": 6.8020443916320801, "std_height": 2.6767416000366211, "count_pixels": 44, "percent_cover": 0.44163404597008932, "percent_above_0.1m": 100.0, "low_level_<0.5": 0.0, "mid_level_0.5-2": 4.5454545454545459, "tall_2+": 95.454545454545453 }, "geometry": { "type": "Point", "coordinates": [ -0.138605149421677, 51.449413640877779 ] } },
{ "type": "Feature", "properties": { "max_height": 5.8650016784667969, "mean_height": 2.5785787105560303, "std_height": 2.084599494934082, "count_pixels": 44, "percent_cover": 0.44163404597008932, "percent_above_0.1m": 68.181818181818173, "low_level_<0.5": 2.2727272727272729, "mid_level_0.5-2": 9.0909090909090917, "tall_2+": 56.81818181818182 }, "geometry": { "type": "Point", "coordinates": [ -0.138405855997653, 51.449410475985864 ] } },
{ "type": "Feature", "properties": { "max_height": 0.13500022888183594, "mean_height": 0.0033133751712739468, "std_height": 0.020592518150806427, "count_pixels": 43, "percent_cover": 0.43159690856167821, "percent_above_0.1m": 2.3255813953488373, "low_level_<0.5": 0.0, "mid_level_0.5-2": 0.0, "tall_2+": 0.0 }, "geometry": { "type": "Point", "coordinates": [ -0.138206562609975, 51.449407310755333 ] } },
{ "type": "Feature", "properties": { "max_height": 0.005001068115234375, "mean_height": 0.00017751965788193047, "std_height": 0.0012669588904827833, "count_pixels": 42, "percent_cover": 0.42155977115326709, "percent_above_0.1m": 0.0, "low_level_<0.5": 0.0, "mid_level_0.5-2": 0.0, "tall_2+": 0.0 }, "geometry": { "type": "Point", "coordinates": [ -0.138007269258643, 51.449404145186143 ] } },
{ "type": "Feature", "properties": { "max_height": 0.012498855590820312, "mean_height": 0.00071343919262290001, "std_height": 0.0031941868364810944, "count_pixels": 42, "percent_cover": 0.42155977115326709, "percent_above_0.1m": 0.0, "low_level_<0.5": 0.0, "mid_level_0.5-2": 0.0, "tall_2+": 0.0 }, "geometry": { "type": "Point", "coordinates": [ -0.137807975943658, 51.449400979278323 ] } },
{ "type": "Feature", "properties": { "max_height": 13.857498168945312, "mean_height": 6.3913683891296387, "std_height": 4.8685369491577148, "count_pixels": 42, "percent_cover": 0.42155977115326709, "percent_above_0.1m": 83.333333333333343, "low_level_<0.5": 4.7619047619047619, "mid_level_0.5-2": 7.1428571428571423, "tall_2+": 71.428571428571431 }, "geometry": { "type": "Point", "coordinates": [ -0.137608682665032, 51.449397813031865 ] } },
{ "type": "Feature", "properties": { "max_height": 15.349998474121094, "mean_height": 6.8955488204956055, "std_height": 3.7017872333526611, "count_pixels": 41, "percent_cover": 0.41152263374485598, "percent_above_0.1m": 95.121951219512198, "low_level_<0.5": 0.0, "mid_level_0.5-2": 4.8780487804878048, "tall_2+": 90.243902439024396 }, "geometry": { "type": "Point", "coordinates": [ -0.137409389422761, 51.449394646446756 ] } },
{ "type": "Feature", "properties": { "max_height": 6.8474998474121094, "mean_height": 0.96166610717773438, "std_height": 1.7387295961380005, "count_pixels": 36, "percent_cover": 0.36133694670280037, "percent_above_0.1m": 41.666666666666671, "low_level_<0.5": 8.3333333333333321, "mid_level_0.5-2": 16.666666666666664, "tall_2+": 16.666666666666664 }, "geometry": { "type": "Point", "coordinates": [ -0.137210096216856, 51.449391479523008 ] } },
{ "type": "Feature", "properties": { "max_height": 16.472496032714844, "mean_height": 3.9279370307922363, "std_height": 5.2875280380249023, "count_pixels": 40, "percent_cover": 0.40148549633644481, "percent_above_0.1m": 62.5, "low_level_<0.5": 5.0, "mid_level_0.5-2": 12.5, "tall_2+": 42.5 }, "geometry": { "type": "Point", "coordinates": [ -0.138700411135901, 51.449523067129078 ] } },
{ "type": "Feature", "properties": { "max_height": 9.1225013732910156, "mean_height": 2.1564579010009766, "std_height": 2.9616856575012207, "count_pixels": 36, "percent_cover": 0.36133694670280037, "percent_above_0.1m": 55.555555555555557, "low_level_<0.5": 5.5555555555555554, "mid_level_0.5-2": 5.5555555555555554, "tall_2+": 38.888888888888893 }, "geometry": { "type": "Point", "coordinates": [ -0.13850111722482, 51.449519902394293 ] } },
{ "type": "Feature", "properties": { "max_height": 0.32750129699707031, "mean_height": 0.042686939239501953, "std_height": 0.090613402426242828, "count_pixels": 40, "percent_cover": 0.40148549633644481, "percent_above_0.1m": 20.0, "low_level_<0.5": 10.0, "mid_level_0.5-2": 0.0, "tall_2+": 0.0 }, "geometry": { "type": "Point", "coordinates": [ -0.138301823350085, 51.449516737320884 ] } },
{ "type": "Feature", "properties": { "max_height": 0.010000228881835938, "mean_height": -4.6520699470420368e-07, "std_height": 0.0024066853802651167, "count_pixels": 41, "percent_cover": 0.41152263374485598, "percent_above_0.1m": 0.0, "low_level_<0.5": 0.0, "mid_level_0.5-2": 0.0, "tall_2+": 0.0 }, "geometry": { "type": "Point", "coordinates": [ -0.13810252951169, 51.449513571908838 ] } },
{ "type": "Feature", "properties": { "max_height": 4.6999988555908203, "mean_height": 0.46446385979652405, "std_height": 1.0282472372055054, "count_pixels": 42, "percent_cover": 0.42155977115326709, "percent_above_0.1m": 28.571428571428569, "low_level_<0.5": 4.7619047619047619, "mid_level_0.5-2": 14.285714285714285, "tall_2+": 9.5238095238095237 }, "geometry": { "type": "Point", "coordinates": [ -0.137903235709644, 51.449510406158126 ] } },
{ "type": "Feature", "properties": { "max_height": 11.537498474121094, "mean_height": 4.3492255210876465, "std_height": 4.290247917175293, "count_pixels": 42, "percent_cover": 0.42155977115326709, "percent_above_0.1m": 66.666666666666657, "low_level_<0.5": 2.3809523809523809, "mid_level_0.5-2": 9.5238095238095237, "tall_2+": 52.380952380952387 }, "geometry": { "type": "Point", "coordinates": [ -0.137703941943955, 51.449507240068783 ] } },
{ "type": "Feature", "properties": { "max_height": 15.909999847412109, "mean_height": 6.0236306190490723, "std_height": 3.7520387172698975, "count_pixels": 42, "percent_cover": 0.42155977115326709, "percent_above_0.1m": 100.0, "low_level_<0.5": 7.1428571428571423, "mid_level_0.5-2": 9.5238095238095237, "tall_2+": 83.333333333333343 }, "geometry": { "type": "Point", "coordinates": [ -0.137504648214618, 51.449504073640803 ] } },
{ "type": "Feature", "properties": { "max_height": 9.1299972534179688, "mean_height": 4.3055806159973145, "std_height": 3.0430941581726074, "count_pixels": 43, "percent_cover": 0.43159690856167821, "percent_above_0.1m": 88.372093023255815, "low_level_<0.5": 4.6511627906976747, "mid_level_0.5-2": 13.953488372093023, "tall_2+": 67.441860465116278 }, "geometry": { "type": "Point", "coordinates": [ -0.137305354521648, 51.449500906874192 ] } },
{ "type": "Feature", "properties": { "max_height": 3.7574996948242188, "mean_height": 0.20465837419033051, "std_height": 0.73445481061935425, "count_pixels": 44, "percent_cover": 0.44163404597008932, "percent_above_0.1m": 18.181818181818183, "low_level_<0.5": 6.8181818181818175, "mid_level_0.5-2": 2.2727272727272729, "tall_2+": 4.5454545454545459 }, "geometry": { "type": "Point", "coordinates": [ -0.137106060865035, 51.449497739768944 ] } },
{ "type": "Feature", "properties": { "max_height": 10.759998321533203, "mean_height": 3.8484084606170654, "std_height": 3.4851386547088623, "count_pixels": 44, "percent_cover": 0.44163404597008932, "percent_above_0.1m": 77.272727272727266, "low_level_<0.5": 0.0, "mid_level_0.5-2": 20.454545454545457, "tall_2+": 56.81818181818182 }, "geometry": { "type": "Point", "coordinates": [ -0.138596378902692, 51.449629328728008 ] } },
{ "type": "Feature", "properties": { "max_height": 9.8049983978271484, "mean_height": 2.465226411819458, "std_height": 2.9980752468109131, "count_pixels": 44, "percent_cover": 0.44163404597008932, "percent_above_0.1m": 77.272727272727266, "low_level_<0.5": 13.636363636363635, "mid_level_0.5-2": 18.181818181818183, "tall_2+": 40.909090909090914 }, "geometry": { "type": "Point", "coordinates": [ -0.138397084540897, 51.449626163811722 ] } },
{ "type": "Feature", "properties": { "max_height": 0.092498779296875, "mean_height": 0.015115737915039062, "std_height": 0.026264090090990067, "count_pixels": 43, "percent_cover": 0.43159690856167821, "percent_above_0.1m": 0.0, "low_level_<0.5": 0.0, "mid_level_0.5-2": 0.0, "tall_2+": 0.0 }, "geometry": { "type": "Point", "coordinates": [ -0.138197790215437, 51.449622998556798 ] } },
{ "type": "Feature", "properties": { "max_height": 6.1649971008300781, "mean_height": 1.0819636583328247, "std_height": 1.8447524309158325, "count_pixels": 42, "percent_cover": 0.42155977115326709, "percent_above_0.1m": 35.714285714285715, "low_level_<0.5": 7.1428571428571423, "mid_level_0.5-2": 2.3809523809523809, "tall_2+": 26.190476190476193 }, "geometry": { "type": "Point", "coordinates": [ -0.137998495926331, 51.449619832963229 ] } },
{ "type": "Feature", "properties": { "max_height": 12.29499626159668, "mean_height": 4.2513089179992676, "std_height": 4.0240545272827148, "count_pixels": 42, "percent_cover": 0.42155977115326709, "percent_above_0.1m": 73.80952380952381, "low_level_<0.5": 4.7619047619047619, "mid_level_0.5-2": 7.1428571428571423, "tall_2+": 61.904761904761905 }, "geometry": { "type": "Point", "coordinates": [ -0.137799201673576, 51.449616667031009 ] } },
{ "type": "Feature", "properties": { "max_height": 11.565000534057617, "mean_height": 5.7004156112670898, "std_height": 3.5756168365478516, "count_pixels": 42, "percent_cover": 0.42155977115326709, "percent_above_0.1m": 97.61904761904762, "low_level_<0.5": 2.3809523809523809, "mid_level_0.5-2": 16.666666666666664, "tall_2+": 76.19047619047619 }, "geometry": { "type": "Point", "coordinates": [ -0.137599907457174, 51.449613500760158 ] } },
{ "type": "Feature", "properties": { "max_height": 8.8400001525878906, "mean_height": 3.0459752082824707, "std_height": 3.1961653232574463, "count_pixels": 41, "percent_cover": 0.41152263374485598, "percent_above_0.1m": 60.975609756097562, "low_level_<0.5": 2.4390243902439024, "mid_level_0.5-2": 7.3170731707317067, "tall_2+": 51.219512195121951 }, "geometry": { "type": "Point", "coordinates": [ -0.137400613277131, 51.449610334150663 ] } },
{ "type": "Feature", "properties": { "max_height": 3.4400005340576172, "mean_height": 0.26742994785308838, "std_height": 0.72923707962036133, "count_pixels": 36, "percent_cover": 0.36133694670280037, "percent_above_0.1m": 13.888888888888889, "low_level_<0.5": 0.0, "mid_level_0.5-2": 11.111111111111111, "tall_2+": 2.7777777777777777 }, "geometry": { "type": "Point", "coordinates": [ -0.137201319133449, 51.449607167202529 ] } },
{ "type": "Feature", "properties": { "max_height": 6.6899986267089844, "mean_height": 1.7597908973693848, "std_height": 2.0162665843963623, "count_pixels": 36, "percent_cover": 0.36133694670280037, "percent_above_0.1m": 61.111111111111114, "low_level_<0.5": 5.5555555555555554, "mid_level_0.5-2": 8.3333333333333321, "tall_2+": 41.666666666666671 }, "geometry": { "type": "Point", "coordinates": [ -0.138492346182416, 51.449735590227839 ] } },
{ "type": "Feature", "properties": { "max_height": 6.1175003051757812, "mean_height": 1.3093744516372681, "std_height": 1.6597262620925903, "count_pixels": 40, "percent_cover": 0.40148549633644481, "percent_above_0.1m": 67.5, "low_level_<0.5": 10.0, "mid_level_0.5-2": 35.0, "tall_2+": 20.0 }, "geometry": { "type": "Point", "coordinates": [ -0.138293051369895, 51.449732425130044 ] } },
{ "type": "Feature", "properties": { "max_height": 12.779998779296875, "mean_height": 4.5060358047485352, "std_height": 3.6416854858398438, "count_pixels": 41, "percent_cover": 0.41152263374485598, "percent_above_0.1m": 90.243902439024396, "low_level_<0.5": 2.4390243902439024, "mid_level_0.5-2": 17.073170731707318, "tall_2+": 68.292682926829272 }, "geometry": { "type": "Point", "coordinates": [ -0.138093756593718, 51.449729259693591 ] } },
{ "type": "Feature", "properties": { "max_height": 9.7574996948242188, "mean_height": 5.0156540870666504, "std_height": 3.3892230987548828, "count_pixels": 42, "percent_cover": 0.42155977115326709, "percent_above_0.1m": 83.333333333333343, "low_level_<0.5": 2.3809523809523809, "mid_level_0.5-2": 7.1428571428571423, "tall_2+": 73.80952380952381 }, "geometry": { "type": "Point", "coordinates": [ -0.137894461853895, 51.4497260939185 ] } },
{ "type": "Feature", "properties": { "max_height": 3.8400001525878906, "mean_height": 0.40660691261291504, "std_height": 0.95020008087158203, "count_pixels": 42, "percent_cover": 0.42155977115326709, "percent_above_0.1m": 21.428571428571427, "low_level_<0.5": 0.0, "mid_level_0.5-2": 11.904761904761903, "tall_2+": 9.5238095238095237 }, "geometry": { "type": "Point", "coordinates": [ -0.137695167150424, 51.449722927804771 ] } },
{ "type": "Feature", "properties": { "max_height": 12.48750114440918, "mean_height": 4.7794313430786133, "std_height": 3.6842038631439209, "count_pixels": 44, "percent_cover": 0.44163404597008932, "percent_above_0.1m": 86.36363636363636, "low_level_<0.5": 6.8181818181818175, "mid_level_0.5-2": 11.363636363636363, "tall_2+": 65.909090909090907 }, "geometry": { "type": "Point", "coordinates": [ -0.138587608274646, 51.449845016569213 ] } },
{ "type": "Feature", "properties": { "max_height": 6.9349994659423828, "mean_height": 1.554317831993103, "std_height": 1.7895516157150269, "count_pixels": 44, "percent_cover": 0.44163404597008932, "percent_above_0.1m": 77.272727272727266, "low_level_<0.5": 6.8181818181818175, "mid_level_0.5-2": 38.636363636363633, "tall_2+": 29.545454545454547 }, "geometry": { "type": "Point", "coordinates": [ -0.138388312975055, 51.449841851628548 ] } },
{ "type": "Feature", "properties": { "max_height": 4.4225006103515625, "mean_height": 0.97040635347366333, "std_height": 1.5027177333831787, "count_pixels": 43, "percent_cover": 0.43159690856167821, "percent_above_0.1m": 34.883720930232556, "low_level_<0.5": 2.3255813953488373, "mid_level_0.5-2": 6.9767441860465116, "tall_2+": 25.581395348837212 }, "geometry": { "type": "Point", "coordinates": [ -0.138189017711813, 51.449838686349224 ] } },
{ "type": "Feature", "properties": { "max_height": 5.4399986267089844, "mean_height": 0.23535659909248352, "std_height": 0.92328226566314697, "count_pixels": 42, "percent_cover": 0.42155977115326709, "percent_above_0.1m": 9.5238095238095237, "low_level_<0.5": 2.3809523809523809, "mid_level_0.5-2": 2.3809523809523809, "tall_2+": 4.7619047619047619 }, "geometry": { "type": "Point", "coordinates": [ -0.13798972248492, 51.44983552073127 ] } },
{ "type": "Feature", "properties": { "max_height": 3.5400009155273438, "mean_height": 0.20319393277168274, "std_height": 0.6843145489692688, "count_pixels": 36, "percent_cover": 0.36133694670280037, "percent_above_0.1m": 13.888888888888889, "low_level_<0.5": 2.7777777777777777, "mid_level_0.5-2": 2.7777777777777777, "tall_2+": 5.5555555555555554 }, "geometry": { "type": "Point", "coordinates": [ -0.13848357503093, 51.449951278052332 ] } }
]
}
