{
"type": "FeatureCollection",
"name": "678f2e739b88_foliage",
"crs": { "type": "name", "properties": { "name": "urn:ogc:def:crs:OGC:1.3:CRS84" } },
"features": [
{ "type": "Feature", "properties": { "max_height": 5.5777506828308105, "mean_height": 0.49148160219192505, "std_height": 1.1501181125640869, "count_pixels": 40, "percent_cover": 0.35987404408457041, "percent_above_0.1m": 27.5, "low_level_<0.5": 5.0, "mid_level_0.5-2": 12.5, "tall_2+": 7.5 }, "geometry": { "type": "Point", "coordinates": [ -0.118486944357679, 51.503293965359987 ] } },
{ "type": "Feature", "properties": { "max_height": 2.1777505874633789, "mean_height": 0.44664663076400757, "std_height": 0.71209031343460083, "count_pixels": 41, "percent_cover": 0.3688708951866847, "percent_above_0.1m": 36.585365853658537, "low_level_<0.5": 4.8780487804878048, "mid_level_0.5-2": 24.390243902439025, "tall_2+": 4.8780487804878048 }, "geometry": { "type": "Point", "coordinates": [ -0.118287417058541, 51.503290764380644 ] } },
{ "type": "Feature", "properties": { "max_height": 5.8445010185241699, "mean_height": 0.70471984148025513, "std_height": 1.2941641807556152, "count_pixels": 41, "percent_cover": 0.3688708951866847, "percent_above_0.1m": 53.658536585365859, "low_level_<0.5": 17.073170731707318, "mid_level_0.5-2": 26.829268292682929, "tall_2+": 7.3170731707317067 }, "geometry": { "type": "Point", "coordinates": [ -0.118087889901541, 51.503287563124346 ] } },
{ "type": "Feature", "properties": { "max_height": 9.7320003509521484, "mean_height": 1.1662564277648926, "std_height": 2.0400311946868896, "count_pixels": 41, "percent_cover": 0.3688708951866847, "percent_above_0.1m": 56.09756097560976, "low_level_<0.5": 14.634146341463413, "mid_level_0.5-2": 29.268292682926827, "tall_2+": 12.195121951219512 }, "geometry": { "type": "Point", "coordinates": [ -0.117888362846454, 51.503284361553177 ] } },
{ "type": "Feature", "properties": { "max_height": 10.783000946044922, "mean_height": 1.5043158531188965, "std_height": 2.3013970851898193, "count_pixels": 42, "percent_cover": 0.37786774628879888, "percent_above_0.1m": 61.904761904761905, "low_level_<0.5": 11.904761904761903, "mid_level_0.5-2": 16.666666666666664, "tall_2+": 28.571428571428569 }, "geometry": { "type": "Point", "coordinates": [ -0.11768883582799, 51.503281159642569 ] } },
{ "type": "Feature", "properties": { "max_height": 14.265002250671387, "mean_height": 1.9499578475952148, "std_height": 3.3978304862976074, "count_pixels": 41, "percent_cover": 0.3688708951866847, "percent_above_0.1m": 70.731707317073173, "low_level_<0.5": 14.634146341463413, "mid_level_0.5-2": 21.951219512195124, "tall_2+": 24.390243902439025 }, "geometry": { "type": "Point", "coordinates": [ -0.119180847647012, 51.503413007792091 ] } },
{ "type": "Feature", "properties": { "max_height": 3.3992500305175781, "mean_height": 0.4493025541305542, "std_height": 0.70235437154769897, "count_pixels": 43, "percent_cover": 0.38686459739091317, "percent_above_0.1m": 46.511627906976742, "low_level_<0.5": 11.627906976744185, "mid_level_0.5-2": 30.232558139534881, "tall_2+": 2.3255813953488373 }, "geometry": { "type": "Point", "coordinates": [ -0.11898131972109, 51.503409807983203 ] } },
{ "type": "Feature", "properties": { "max_height": 9.6630001068115234, "mean_height": 1.950355052947998, "std_height": 2.7633390426635742, "count_pixels": 43, "percent_cover": 0.38686459739091317, "percent_above_0.1m": 55.813953488372093, "low_level_<0.5": 4.6511627906976747, "mid_level_0.5-2": 18.604651162790699, "tall_2+": 30.232558139534881 }, "geometry": { "type": "Point", "coordinates": [ -0.118781791832033, 51.503406607834954 ] } },
{ "type": "Feature", "properties": { "max_height": 9.8130016326904297, "mean_height": 2.7840065956115723, "std_height": 2.8496623039245605, "count_pixels": 43, "percent_cover": 0.38686459739091317, "percent_above_0.1m": 79.069767441860463, "low_level_<0.5": 4.6511627906976747, "mid_level_0.5-2": 37.209302325581397, "tall_2+": 37.209302325581397 }, "geometry": { "type": "Point", "coordinates": [ -0.118582263979849, 51.503403407347342 ] } },
{ "type": "Feature", "properties": { "max_height": 8.0017499923706055, "mean_height": 2.2185003757476807, "std_height": 2.6230242252349854, "count_pixels": 39, "percent_cover": 0.35087719298245612, "percent_above_0.1m": 64.102564102564102, "low_level_<0.5": 7.6923076923076925, "mid_level_0.5-2": 17.948717948717949, "tall_2+": 38.461538461538467 }, "geometry": { "type": "Point", "coordinates": [ -0.118382736164538, 51.503400206520368 ] } },
{ "type": "Feature", "properties": { "max_height": 1.0302505493164062, "mean_height": 0.15776775777339935, "std_height": 0.31972518563270569, "count_pixels": 43, "percent_cover": 0.38686459739091317, "percent_above_0.1m": 20.930232558139537, "low_level_<0.5": 4.6511627906976747, "mid_level_0.5-2": 16.279069767441861, "tall_2+": 0.0 }, "geometry": { "type": "Point", "coordinates": [ -0.118183208467703, 51.503397005388656 ] } },
{ "type": "Feature", "properties": { "max_height": 11.879250526428223, "mean_height": 3.3866047859191895, "std_height": 3.3758401870727539, "count_pixels": 43, "percent_cover": 0.38686459739091317, "percent_above_0.1m": 72.093023255813947, "low_level_<0.5": 9.3023255813953494, "mid_level_0.5-2": 9.3023255813953494, "tall_2+": 53.488372093023251 }, "geometry": { "type": "Point", "coordinates": [ -0.117983680912619, 51.503393803974234 ] } },
{ "type": "Feature", "properties": { "max_height": 1.6090002059936523, "mean_height": 0.048893041908740997, "std_height": 0.24533598124980927, "count_pixels": 42, "percent_cover": 0.37786774628879888, "percent_above_0.1m": 7.1428571428571423, "low_level_<0.5": 0.0, "mid_level_0.5-2": 2.3809523809523809, "tall_2+": 0.0 }, "geometry": { "type": "Point", "coordinates": [ -0.117784153409475, 51.503390602223931 ] } },
{ "type": "Feature", "properties": { "max_height": 2.0167503356933594, "mean_height": 0.14872583746910095, "std_height": 0.33348047733306885, "count_pixels": 41, "percent_cover": 0.3688708951866847, "percent_above_0.1m": 34.146341463414636, "low_level_<0.5": 21.951219512195124, "mid_level_0.5-2": 2.4390243902439024, "tall_2+": 2.4390243902439024 }, "geometry": { "type": "Point", "coordinates": [ -0.117584625942957, 51.503387400134159 ] } },
{ "type": "Feature", "properties": { "max_height": 0.0077500343322753906, "mean_height": 0.00027930460055358708, "std_height": 0.0012070302618667483, "count_pixels": 43, "percent_cover": 0.38686459739091317, "percent_above_0.1m": 0.0, "low_level_<0.5": 0.0, "mid_level_0.5-2": 0.0, "tall_2+": 0.0 }, "geometry": { "type": "Point", "coordinates": [ -0.119276169189232, 51.503522449227169 ] } },
{ "type": "Feature", "properties": { "max_height": 8.0262508392333984, "mean_height": 1.8357257843017578, "std_height": 2.4115836620330811, "count_pixels": 41, "percent_cover": 0.3688708951866847, "percent_above_0.1m": 70.731707317073173, "low_level_<0.5": 14.634146341463413, "mid_level_0.5-2": 17.073170731707318, "tall_2+": 31.707317073170731 }, "geometry": { "type": "Point", "coordinates": [ -0.11907664077408, 51.503519249577018 ] } },
{ "type": "Feature", "properties": { "max_height": 1.1380000114440918, "mean_height": 0.036817364394664764, "std_height": 0.18345755338668823, "count_pixels": 41, "percent_cover": 0.3688708951866847, "percent_above_0.1m": 4.8780487804878048, "low_level_<0.5": 2.4390243902439024, "mid_level_0.5-2": 2.4390243902439024, "tall_2+": 0.0 }, "geometry": { "type": "Point", "coordinates": [ -0.118877112395792, 51.503516049587496 ] } },
{ "type": "Feature", "properties": { "max_height": 1.1450004577636719, "mean_height": 0.073725871741771698, "std_height": 0.19220922887325287, "count_pixels": 41, "percent_cover": 0.3688708951866847, "percent_above_0.1m": 21.951219512195124, "low_level_<0.5": 14.634146341463413, "mid_level_0.5-2": 2.4390243902439024, "tall_2+": 0.0 }, "geometry": { "type": "Point", "coordinates": [ -0.118677584054373, 51.50351284925862 ] } },
{ "type": "Feature", "properties": { "max_height": 9.8577518463134766, "mean_height": 1.8884128332138062, "std_height": 2.7273342609405518, "count_pixels": 40, "percent_cover": 0.35987404408457041, "percent_above_0.1m": 65.0, "low_level_<0.5": 10.0, "mid_level_0.5-2": 20.0, "tall_2+": 30.0 }, "geometry": { "type": "Point", "coordinates": [ -0.118478055749828, 51.503509648590381 ] } },
{ "type": "Feature", "properties": { "max_height": 2.6867504119873047, "mean_height": 0.20590275526046753, "std_height": 0.51111280918121338, "count_pixels": 41, "percent_cover": 0.3688708951866847, "percent_above_0.1m": 21.951219512195124, "low_level_<0.5": 9.7560975609756095, "mid_level_0.5-2": 9.7560975609756095, "tall_2+": 2.4390243902439024 }, "geometry": { "type": "Point", "coordinates": [ -0.118278527514426, 51.503506447590304 ] } },
{ "type": "Feature", "properties": { "max_height": 5.5839996337890625, "mean_height": 0.81626242399215698, "std_height": 1.3782405853271484, "count_pixels": 41, "percent_cover": 0.3688708951866847, "percent_above_0.1m": 58.536585365853654, "low_level_<0.5": 14.634146341463413, "mid_level_0.5-2": 31.707317073170731, "tall_2+": 9.7560975609756095 }, "geometry": { "type": "Point", "coordinates": [ -0.118078999426843, 51.503503246317692 ] } },
{ "type": "Feature", "properties": { "max_height": 4.4270009994506836, "mean_height": 0.26647582650184631, "std_height": 0.85671591758728027, "count_pixels": 41, "percent_cover": 0.3688708951866847, "percent_above_0.1m": 17.073170731707318, "low_level_<0.5": 4.8780487804878048, "mid_level_0.5-2": 4.8780487804878048, "tall_2+": 4.8780487804878048 }, "geometry": { "type": "Point", "coordinates": [ -0.11787947143901, 51.503500044727708 ] } },
{ "type": "Feature", "properties": { "max_height": 7.3067507743835449, "mean_height": 0.51268470287322998, "std_height": 1.3235709667205811, "count_pixels": 42, "percent_cover": 0.37786774628879888, "percent_above_0.1m": 33.333333333333329, "low_level_<0.5": 11.904761904761903, "mid_level_0.5-2": 9.5238095238095237, "tall_2+": 7.1428571428571423 }, "geometry": { "type": "Point", "coordinates": [ -0.117679943487804, 51.503496842798256 ] } },
{ "type": "Feature", "properties": { "max_height": 0.34025049209594727, "mean_height": 0.035389751195907593, "std_height": 0.075913801789283752, "count_pixels": 43, "percent_cover": 0.38686459739091317, "percent_above_0.1m": 18.604651162790699, "low_level_<0.5": 9.3023255813953494, "mid_level_0.5-2": 0.0, "tall_2+": 0.0 }, "geometry": { "type": "Point", "coordinates": [ -0.117480415573229, 51.503493640529342 ] } },
{ "type": "Feature", "properties": { "max_height": 15.227750778198242, "mean_height": 2.3938479423522949, "std_height": 4.5559568405151367, "count_pixels": 41, "percent_cover": 0.3688708951866847, "percent_above_0.1m": 46.341463414634148, "low_level_<0.5": 14.634146341463413, "mid_level_0.5-2": 4.8780487804878048, "tall_2+": 21.951219512195124 }, "geometry": { "type": "Point", "coordinates": [ -0.119171962279433, 51.503628691094725 ] } },
{ "type": "Feature", "properties": { "max_height": 6.8142509460449219, "mean_height": 0.59051775932312012, "std_height": 1.2073816061019897, "count_pixels": 43, "percent_cover": 0.38686459739091317, "percent_above_0.1m": 39.534883720930232, "low_level_<0.5": 9.3023255813953494, "mid_level_0.5-2": 20.930232558139537, "tall_2+": 9.3023255813953494 }, "geometry": { "type": "Point", "coordinates": [ -0.118972433411912, 51.503625491263961 ] } },
{ "type": "Feature", "properties": { "max_height": 1.899500846862793, "mean_height": 0.14101187884807587, "std_height": 0.39162155985832214, "count_pixels": 43, "percent_cover": 0.38686459739091317, "percent_above_0.1m": 20.930232558139537, "low_level_<0.5": 11.627906976744185, "mid_level_0.5-2": 6.9767441860465116, "tall_2+": 0.0 }, "geometry": { "type": "Point", "coordinates": [ -0.118772904581253, 51.503622291093798 ] } },
{ "type": "Feature", "properties": { "max_height": 2.2350006103515625, "mean_height": 0.18685491383075714, "std_height": 0.44495776295661926, "count_pixels": 43, "percent_cover": 0.38686459739091317, "percent_above_0.1m": 23.255813953488371, "low_level_<0.5": 13.953488372093023, "mid_level_0.5-2": 6.9767441860465116, "tall_2+": 2.3255813953488373 }, "geometry": { "type": "Point", "coordinates": [ -0.118573375787476, 51.503619090584266 ] } },
{ "type": "Feature", "properties": { "max_height": 9.0317497253417969, "mean_height": 2.5111668109893799, "std_height": 3.0817186832427979, "count_pixels": 39, "percent_cover": 0.35087719298245612, "percent_above_0.1m": 61.53846153846154, "low_level_<0.5": 5.1282051282051277, "mid_level_0.5-2": 15.384615384615385, "tall_2+": 41.025641025641022 }, "geometry": { "type": "Point", "coordinates": [ -0.118373847030564, 51.5036158897354 ] } },
{ "type": "Feature", "properties": { "max_height": 1.5707502365112305, "mean_height": 0.35146534442901611, "std_height": 0.54903078079223633, "count_pixels": 43, "percent_cover": 0.38686459739091317, "percent_above_0.1m": 37.209302325581397, "low_level_<0.5": 6.9767441860465116, "mid_level_0.5-2": 27.906976744186046, "tall_2+": 0.0 }, "geometry": { "type": "Point", "coordinates": [ -0.118174318400888, 51.503612688586252 ] } },
{ "type": "Feature", "properties": { "max_height": 8.4450006484985352, "mean_height": 2.2758896350860596, "std_height": 2.9250297546386719, "count_pixels": 43, "percent_cover": 0.38686459739091317, "percent_above_0.1m": 51.162790697674424, "low_level_<0.5": 4.6511627906976747, "mid_level_0.5-2": 6.9767441860465116, "tall_2+": 39.534883720930232 }, "geometry": { "type": "Point", "coordinates": [ -0.117974789916605, 51.503609487153902 ] } },
{ "type": "Feature", "properties": { "max_height": 9.3885011672973633, "mean_height": 2.2744762897491455, "std_height": 2.3673672676086426, "count_pixels": 42, "percent_cover": 0.37786774628879888, "percent_above_0.1m": 88.095238095238088, "low_level_<0.5": 16.666666666666664, "mid_level_0.5-2": 14.285714285714285, "tall_2+": 47.619047619047613 }, "geometry": { "type": "Point", "coordinates": [ -0.11777526148071, 51.50360628538477 ] } },
{ "type": "Feature", "properties": { "max_height": 12.605249404907227, "mean_height": 4.488128662109375, "std_height": 4.4810900688171387, "count_pixels": 41, "percent_cover": 0.3688708951866847, "percent_above_0.1m": 73.170731707317074, "low_level_<0.5": 4.8780487804878048, "mid_level_0.5-2": 7.3170731707317067, "tall_2+": 60.975609756097562 }, "geometry": { "type": "Point", "coordinates": [ -0.117575733081441, 51.503603083276168 ] } },
{ "type": "Feature", "properties": { "max_height": 0.10175037384033203, "mean_height": 0.0066831400617957115, "std_height": 0.023916255682706833, "count_pixels": 41, "percent_cover": 0.3688708951866847, "percent_above_0.1m": 2.4390243902439024, "low_level_<0.5": 0.0, "mid_level_0.5-2": 0.0, "tall_2+": 0.0 }, "geometry": { "type": "Point", "coordinates": [ -0.1173762047188, 51.503599880828105 ] } },
{ "type": "Feature", "properties": { "max_height": 1.1640005111694336, "mean_height": 0.17204299569129944, "std_height": 0.28840819001197815, "count_pixels": 41, "percent_cover": 0.3688708951866847, "percent_above_0.1m": 31.707317073170731, "low_level_<0.5": 9.7560975609756095, "mid_level_0.5-2": 19.512195121951219, "tall_2+": 0.0 }, "geometry": { "type": "Point", "coordinates": [ -0.119067754880393, 51.503734932864305 ] } },
{ "type": "Feature", "properties": { "max_height": 0.4042506217956543, "mean_height": 0.052671000361442566, "std_height": 0.098053425550460815, "count_pixels": 41, "percent_cover": 0.3688708951866847, "percent_above_0.1m": 21.951219512195124, "low_level_<0.5": 14.634146341463413, "mid_level_0.5-2": 0.0, "tall_2+": 0.0 }, "geometry": { "type": "Point", "coordinates": [ -0.1188682255605, 51.503731732852884 ] } },
{ "type": "Feature", "properties": { "max_height": 2.1797499656677246, "mean_height": 0.64996969699859619, "std_height": 0.71190452575683594, "count_pixels": 41, "percent_cover": 0.3688708951866847, "percent_above_0.1m": 58.536585365853654, "low_level_<0.5": 17.073170731707318, "mid_level_0.5-2": 39.024390243902438, "tall_2+": 2.4390243902439024 }, "geometry": { "type": "Point", "coordinates": [ -0.118668696277477, 51.503728532502109 ] } },
{ "type": "Feature", "properties": { "max_height": 5.2592506408691406, "mean_height": 0.70483154058456421, "std_height": 1.0884675979614258, "count_pixels": 40, "percent_cover": 0.35987404408457041, "percent_above_0.1m": 65.0, "low_level_<0.5": 12.5, "mid_level_0.5-2": 35.0, "tall_2+": 10.0 }, "geometry": { "type": "Point", "coordinates": [ -0.118469167031328, 51.50372533181195 ] } },
{ "type": "Feature", "properties": { "max_height": 5.4275007247924805, "mean_height": 0.64581131935119629, "std_height": 1.3906347751617432, "count_pixels": 41, "percent_cover": 0.3688708951866847, "percent_above_0.1m": 34.146341463414636, "low_level_<0.5": 7.3170731707317067, "mid_level_0.5-2": 12.195121951219512, "tall_2+": 12.195121951219512 }, "geometry": { "type": "Point", "coordinates": [ -0.118269637860005, 51.503722130791225 ] } },
{ "type": "Feature", "properties": { "max_height": 4.7790007591247559, "mean_height": 0.96366488933563232, "std_height": 1.3489078283309937, "count_pixels": 41, "percent_cover": 0.3688708951866847, "percent_above_0.1m": 53.658536585365859, "low_level_<0.5": 9.7560975609756095, "mid_level_0.5-2": 21.951219512195124, "tall_2+": 21.951219512195124 }, "geometry": { "type": "Point", "coordinates": [ -0.11807010884226, 51.503718929502497 ] } },
{ "type": "Feature", "properties": { "max_height": 10.594500541687012, "mean_height": 4.2643599510192871, "std_height": 3.1238229274749756, "count_pixels": 41, "percent_cover": 0.3688708951866847, "percent_above_0.1m": 80.487804878048792, "low_level_<0.5": 0.0, "mid_level_0.5-2": 7.3170731707317067, "tall_2+": 73.170731707317074 }, "geometry": { "type": "Point", "coordinates": [ -0.117870579921675, 51.503715727893692 ] } },
{ "type": "Feature", "properties": { "max_height": 8.9470005035400391, "mean_height": 3.0947563648223877, "std_height": 2.542809009552002, "count_pixels": 42, "percent_cover": 0.37786774628879888, "percent_above_0.1m": 88.095238095238088, "low_level_<0.5": 7.1428571428571423, "mid_level_0.5-2": 19.047619047619047, "tall_2+": 59.523809523809526 }, "geometry": { "type": "Point", "coordinates": [ -0.117671051037706, 51.503712525945396 ] } },
{ "type": "Feature", "properties": { "max_height": 9.0317506790161133, "mean_height": 0.97102940082550049, "std_height": 2.1436619758605957, "count_pixels": 43, "percent_cover": 0.38686459739091317, "percent_above_0.1m": 32.558139534883722, "low_level_<0.5": 6.9767441860465116, "mid_level_0.5-2": 2.3255813953488373, "tall_2+": 20.930232558139537 }, "geometry": { "type": "Point", "coordinates": [ -0.117471522190377, 51.503709323657667 ] } },
{ "type": "Feature", "properties": { "max_height": 8.0270004272460938, "mean_height": 1.2706468105316162, "std_height": 2.4066998958587646, "count_pixels": 41, "percent_cover": 0.3688708951866847, "percent_above_0.1m": 36.585365853658537, "low_level_<0.5": 7.3170731707317067, "mid_level_0.5-2": 4.8780487804878048, "tall_2+": 21.951219512195124 }, "geometry": { "type": "Point", "coordinates": [ -0.119163076801244, 51.503844374388571 ] } },
{ "type": "Feature", "properties": { "max_height": 1.5807504653930664, "mean_height": 0.37081429362297058, "std_height": 0.45475691556930542, "count_pixels": 43, "percent_cover": 0.38686459739091317, "percent_above_0.1m": 53.488372093023251, "low_level_<0.5": 13.953488372093023, "mid_level_0.5-2": 32.558139534883722, "tall_2+": 0.0 }, "geometry": { "type": "Point", "coordinates": [ -0.118963546992109, 51.503841174535886 ] } },
{ "type": "Feature", "properties": { "max_height": 8.6510009765625, "mean_height": 0.60659903287887573, "std_height": 1.8137413263320923, "count_pixels": 43, "percent_cover": 0.38686459739091317, "percent_above_0.1m": 16.279069767441861, "low_level_<0.5": 2.3255813953488373, "mid_level_0.5-2": 4.6511627906976747, "tall_2+": 9.3023255813953494 }, "geometry": { "type": "Point", "coordinates": [ -0.118764017219845, 51.503837974343838 ] } },
{ "type": "Feature", "properties": { "max_height": 7.5567502975463867, "mean_height": 0.40311649441719055, "std_height": 1.3944185972213745, "count_pixels": 43, "percent_cover": 0.38686459739091317, "percent_above_0.1m": 11.627906976744185, "low_level_<0.5": 2.3255813953488373, "mid_level_0.5-2": 2.3255813953488373, "tall_2+": 6.9767441860465116 }, "geometry": { "type": "Point", "coordinates": [ -0.118564487484449, 51.503834773812414 ] } },
{ "type": "Feature", "properties": { "max_height": 1.8640003204345703, "mean_height": 0.36438491940498352, "std_height": 0.57432633638381958, "count_pixels": 39, "percent_cover": 0.35087719298245612, "percent_above_0.1m": 38.461538461538467, "low_level_<0.5": 5.1282051282051277, "mid_level_0.5-2": 28.205128205128204, "tall_2+": 0.0 }, "geometry": { "type": "Point", "coordinates": [ -0.118364957785935, 51.503831572941614 ] } },
{ "type": "Feature", "properties": { "max_height": 1.9472503662109375, "mean_height": 0.22997120022773743, "std_height": 0.47428575158119202, "count_pixels": 43, "percent_cover": 0.38686459739091317, "percent_above_0.1m": 27.906976744186046, "low_level_<0.5": 6.9767441860465116, "mid_level_0.5-2": 18.604651162790699, "tall_2+": 0.0 }, "geometry": { "type": "Point", "coordinates": [ -0.118165428223841, 51.503828371775249 ] } },
{ "type": "Feature", "properties": { "max_height": 7.2172508239746094, "mean_height": 0.69014567136764526, "std_height": 1.6538920402526855, "count_pixels": 43, "percent_cover": 0.38686459739091317, "percent_above_0.1m": 27.906976744186046, "low_level_<0.5": 6.9767441860465116, "mid_level_0.5-2": 2.3255813953488373, "tall_2+": 13.953488372093023 }, "geometry": { "type": "Point", "coordinates": [ -0.117965898810701, 51.50382517032503 ] } },
{ "type": "Feature", "properties": { "max_height": 6.2997503280639648, "mean_height": 0.92872059345245361, "std_height": 1.5991007089614868, "count_pixels": 42, "percent_cover": 0.37786774628879888, "percent_above_0.1m": 42.857142857142854, "low_level_<0.5": 9.5238095238095237, "mid_level_0.5-2": 19.047619047619047, "tall_2+": 14.285714285714285 }, "geometry": { "type": "Point", "coordinates": [ -0.117766369442038, 51.503821968537068 ] } },
{ "type": "Feature", "properties": { "max_height": 5.5675010681152344, "mean_height": 0.82601249217987061, "std_height": 1.3997875452041626, "count_pixels": 41, "percent_cover": 0.3688708951866847, "percent_above_0.1m": 41.463414634146339, "low_level_<0.5": 12.195121951219512, "mid_level_0.5-2": 9.7560975609756095, "tall_2+": 19.512195121951219 }, "geometry": { "type": "Point", "coordinates": [ -0.117566840110012, 51.50381876640963 ] } },
{ "type": "Feature", "properties": { "max_height": 20.625251770019531, "mean_height": 8.6744213104248047, "std_height": 6.5918107032775879, "count_pixels": 41, "percent_cover": 0.3688708951866847, "percent_above_0.1m": 82.926829268292678, "low_level_<0.5": 0.0, "mid_level_0.5-2": 2.4390243902439024, "tall_2+": 80.487804878048792 }, "geometry": { "type": "Point", "coordinates": [ -0.11736731081461, 51.503815563942737 ] } },
{ "type": "Feature", "properties": { "max_height": 12.687250137329102, "mean_height": 1.8044941425323486, "std_height": 3.173839807510376, "count_pixels": 41, "percent_cover": 0.3688708951866847, "percent_above_0.1m": 34.146341463414636, "low_level_<0.5": 2.4390243902439024, "mid_level_0.5-2": 4.8780487804878048, "tall_2+": 26.829268292682929 }, "geometry": { "type": "Point", "coordinates": [ -0.119058868876089, 51.503950616142809 ] } },
{ "type": "Feature", "properties": { "max_height": 3.1120004653930664, "mean_height": 0.089914865791797638, "std_height": 0.47969749569892883, "count_pixels": 41, "percent_cover": 0.3688708951866847, "percent_above_0.1m": 9.7560975609756095, "low_level_<0.5": 4.8780487804878048, "mid_level_0.5-2": 0.0, "tall_2+": 2.4390243902439024 }, "geometry": { "type": "Point", "coordinates": [ -0.11885933861458, 51.503947416109476 ] } },
{ "type": "Feature", "properties": { "max_height": 9.4992504119873047, "mean_height": 1.4496588706970215, "std_height": 2.6467547416687012, "count_pixels": 41, "percent_cover": 0.3688708951866847, "percent_above_0.1m": 43.902439024390247, "low_level_<0.5": 7.3170731707317067, "mid_level_0.5-2": 12.195121951219512, "tall_2+": 19.512195121951219 }, "geometry": { "type": "Point", "coordinates": [ -0.118659808389937, 51.50394421573678 ] } },
{ "type": "Feature", "properties": { "max_height": 0.0012502670288085938, "mean_height": 6.2787534261588007e-05, "std_height": 0.00038220128044486046, "count_pixels": 40, "percent_cover": 0.35987404408457041, "percent_above_0.1m": 0.0, "low_level_<0.5": 0.0, "mid_level_0.5-2": 0.0, "tall_2+": 0.0 }, "geometry": { "type": "Point", "coordinates": [ -0.118460278202176, 51.503941015024715 ] } },
{ "type": "Feature", "properties": { "max_height": 0.90024995803833008, "mean_height": 0.085018470883369446, "std_height": 0.20892173051834106, "count_pixels": 41, "percent_cover": 0.3688708951866847, "percent_above_0.1m": 17.073170731707318, "low_level_<0.5": 7.3170731707317067, "mid_level_0.5-2": 7.3170731707317067, "tall_2+": 0.0 }, "geometry": { "type": "Point", "coordinates": [ -0.118260748095273, 51.503937813983413 ] } },
{ "type": "Feature", "properties": { "max_height": 0.97049999237060547, "mean_height": 0.22843319177627563, "std_height": 0.29121842980384827, "count_pixels": 41, "percent_cover": 0.3688708951866847, "percent_above_0.1m": 43.902439024390247, "low_level_<0.5": 26.829268292682929, "mid_level_0.5-2": 17.073170731707318, "tall_2+": 0.0 }, "geometry": { "type": "Point", "coordinates": [ -0.118061218147793, 51.503934612678805 ] } },
{ "type": "Feature", "properties": { "max_height": 2.6050000190734863, "mean_height": 0.24969528615474701, "std_height": 0.53010803461074829, "count_pixels": 41, "percent_cover": 0.3688708951866847, "percent_above_0.1m": 29.268292682926827, "low_level_<0.5": 9.7560975609756095, "mid_level_0.5-2": 14.634146341463413, "tall_2+": 2.4390243902439024 }, "geometry": { "type": "Point", "coordinates": [ -0.117861688294437, 51.503931411051141 ] } },
{ "type": "Feature", "properties": { "max_height": 0.090250492095947266, "mean_height": 0.0088156629353761673, "std_height": 0.022245779633522034, "count_pixels": 42, "percent_cover": 0.37786774628879888, "percent_above_0.1m": 0.0, "low_level_<0.5": 0.0, "mid_level_0.5-2": 0.0, "tall_2+": 0.0 }, "geometry": { "type": "Point", "coordinates": [ -0.117662158477704, 51.503928209084016 ] } },
{ "type": "Feature", "properties": { "max_height": 8.5562515258789062, "mean_height": 0.41934323310852051, "std_height": 1.5196635723114014, "count_pixels": 43, "percent_cover": 0.38686459739091317, "percent_above_0.1m": 11.627906976744185, "low_level_<0.5": 2.3255813953488373, "mid_level_0.5-2": 2.3255813953488373, "tall_2+": 6.9767441860465116 }, "geometry": { "type": "Point", "coordinates": [ -0.117462628697605, 51.50392500677745 ] } },
{ "type": "Feature", "properties": { "max_height": 16.32225227355957, "mean_height": 3.2493782043457031, "std_height": 5.606572151184082, "count_pixels": 43, "percent_cover": 0.38686459739091317, "percent_above_0.1m": 34.883720930232556, "low_level_<0.5": 2.3255813953488373, "mid_level_0.5-2": 0.0, "tall_2+": 30.232558139534881 }, "geometry": { "type": "Point", "coordinates": [ -0.117263098954139, 51.503921804131394 ] } },
{ "type": "Feature", "properties": { "max_height": 6.3107509613037109, "mean_height": 1.6537387371063232, "std_height": 2.0369312763214111, "count_pixels": 43, "percent_cover": 0.38686459739091317, "percent_above_0.1m": 55.813953488372093, "low_level_<0.5": 9.3023255813953494, "mid_level_0.5-2": 11.627906976744185, "tall_2+": 34.883720930232556 }, "geometry": { "type": "Point", "coordinates": [ -0.118954660461683, 51.504056857799014 ] } },
{ "type": "Feature", "properties": { "max_height": 8.6675014495849609, "mean_height": 0.67701780796051025, "std_height": 1.7294725179672241, "count_pixels": 43, "percent_cover": 0.38686459739091317, "percent_above_0.1m": 27.906976744186046, "low_level_<0.5": 2.3255813953488373, "mid_level_0.5-2": 13.953488372093023, "tall_2+": 9.3023255813953494 }, "geometry": { "type": "Point", "coordinates": [ -0.118755129747799, 51.504053657585061 ] } },
{ "type": "Feature", "properties": { "max_height": 4.098750114440918, "mean_height": 0.15003517270088196, "std_height": 0.70484268665313721, "count_pixels": 43, "percent_cover": 0.38686459739091317, "percent_above_0.1m": 4.6511627906976747, "low_level_<0.5": 0.0, "mid_level_0.5-2": 0.0, "tall_2+": 4.6511627906976747 }, "geometry": { "type": "Point", "coordinates": [ -0.118555599070784, 51.504050457031731 ] } },
{ "type": "Feature", "properties": { "max_height": 0.00050067901611328125, "mean_height": 2.5895926228258759e-05, "std_height": 0.0002454623463563621, "count_pixels": 39, "percent_cover": 0.35087719298245612, "percent_above_0.1m": 0.0, "low_level_<0.5": 0.0, "mid_level_0.5-2": 0.0, "tall_2+": 0.0 }, "geometry": { "type": "Point", "coordinates": [ -0.118356068430642, 51.504047256139039 ] } },
{ "type": "Feature", "properties": { "max_height": 0.0012502670288085938, "mean_height": 3.5130698961438611e-05, "std_height": 0.00059697136748582125, "count_pixels": 43, "percent_cover": 0.38686459739091317, "percent_above_0.1m": 0.0, "low_level_<0.5": 0.0, "mid_level_0.5-2": 0.0, "tall_2+": 0.0 }, "geometry": { "type": "Point", "coordinates": [ -0.118156537936558, 51.504044054955671 ] } },
{ "type": "Feature", "properties": { "max_height": 0.66875076293945312, "mean_height": 0.022796818986535072, "std_height": 0.10914138704538345, "count_pixels": 43, "percent_cover": 0.38686459739091317, "percent_above_0.1m": 4.6511627906976747, "low_level_<0.5": 2.3255813953488373, "mid_level_0.5-2": 2.3255813953488373, "tall_2+": 0.0 }, "geometry": { "type": "Point", "coordinates": [ -0.117957007594904, 51.504040853487631 ] } },
{ "type": "Feature", "properties": { "max_height": 0.79125022888183594, "mean_height": 0.09850020706653595, "std_height": 0.20446451008319855, "count_pixels": 42, "percent_cover": 0.37786774628879888, "percent_above_0.1m": 23.809523809523807, "low_level_<0.5": 11.904761904761903, "mid_level_0.5-2": 7.1428571428571423, "tall_2+": 0.0 }, "geometry": { "type": "Point", "coordinates": [ -0.117757477293468, 51.504037651680818 ] } },
{ "type": "Feature", "properties": { "max_height": 2.505500316619873, "mean_height": 0.21847580373287201, "std_height": 0.56819808483123779, "count_pixels": 41, "percent_cover": 0.3688708951866847, "percent_above_0.1m": 24.390243902439025, "low_level_<0.5": 7.3170731707317067, "mid_level_0.5-2": 7.3170731707317067, "tall_2+": 2.4390243902439024 }, "geometry": { "type": "Point", "coordinates": [ -0.117557947028661, 51.504034449534558 ] } },
{ "type": "Feature", "properties": { "max_height": 0.018500328063964844, "mean_height": 0.0012136552250012755, "std_height": 0.0043338979594409466, "count_pixels": 41, "percent_cover": 0.3688708951866847, "percent_above_0.1m": 0.0, "low_level_<0.5": 0.0, "mid_level_0.5-2": 0.0, "tall_2+": 0.0 }, "geometry": { "type": "Point", "coordinates": [ -0.117358416800491, 51.504031247048836 ] } },
{ "type": "Feature", "properties": { "max_height": 0.15325021743774414, "mean_height": 0.011085626669228077, "std_height": 0.033062722533941269, "count_pixels": 41, "percent_cover": 0.3688708951866847, "percent_above_0.1m": 4.8780487804878048, "low_level_<0.5": 2.4390243902439024, "mid_level_0.5-2": 0.0, "tall_2+": 0.0 }, "geometry": { "type": "Point", "coordinates": [ -0.117158886608956, 51.504028044223638 ] } },
{ "type": "Feature", "properties": { "max_height": 9.2552509307861328, "mean_height": 1.1994515657424927, "std_height": 2.4092977046966553, "count_pixels": 41, "percent_cover": 0.3688708951866847, "percent_above_0.1m": 31.707317073170731, "low_level_<0.5": 0.0, "mid_level_0.5-2": 12.195121951219512, "tall_2+": 17.073170731707318 }, "geometry": { "type": "Point", "coordinates": [ -0.119049982761169, 51.504166299412482 ] } },
{ "type": "Feature", "properties": { "max_height": 6.5989999771118164, "mean_height": 0.42544537782669067, "std_height": 1.2167097330093384, "count_pixels": 41, "percent_cover": 0.3688708951866847, "percent_above_0.1m": 17.073170731707318, "low_level_<0.5": 2.4390243902439024, "mid_level_0.5-2": 4.8780487804878048, "tall_2+": 9.7560975609756095 }, "geometry": { "type": "Point", "coordinates": [ -0.118850451558027, 51.50416309935725 ] } },
{ "type": "Feature", "properties": { "max_height": 7.5307512283325195, "mean_height": 1.7673479318618774, "std_height": 2.4770455360412598, "count_pixels": 41, "percent_cover": 0.3688708951866847, "percent_above_0.1m": 53.658536585365859, "low_level_<0.5": 7.3170731707317067, "mid_level_0.5-2": 14.634146341463413, "tall_2+": 29.268292682926827 }, "geometry": { "type": "Point", "coordinates": [ -0.118650920391761, 51.504159898962662 ] } },
{ "type": "Feature", "properties": { "max_height": 0.0025000572204589844, "mean_height": -1.8501281374483369e-05, "std_height": 0.0010772733949124813, "count_pixels": 40, "percent_cover": 0.35987404408457041, "percent_above_0.1m": 0.0, "low_level_<0.5": 0.0, "mid_level_0.5-2": 0.0, "tall_2+": 0.0 }, "geometry": { "type": "Point", "coordinates": [ -0.118451389262369, 51.50415669822867 ] } },
{ "type": "Feature", "properties": { "max_height": 0.07649993896484375, "mean_height": 0.0056039183400571346, "std_height": 0.016826795414090157, "count_pixels": 41, "percent_cover": 0.3688708951866847, "percent_above_0.1m": 0.0, "low_level_<0.5": 0.0, "mid_level_0.5-2": 0.0, "tall_2+": 0.0 }, "geometry": { "type": "Point", "coordinates": [ -0.118251858220228, 51.504153497166847 ] } },
{ "type": "Feature", "properties": { "max_height": 0.046250343322753906, "mean_height": 0.0020856508053839207, "std_height": 0.0085325120016932487, "count_pixels": 41, "percent_cover": 0.3688708951866847, "percent_above_0.1m": 0.0, "low_level_<0.5": 0.0, "mid_level_0.5-2": 0.0, "tall_2+": 0.0 }, "geometry": { "type": "Point", "coordinates": [ -0.118052327343437, 51.50415029584655 ] } },
{ "type": "Feature", "properties": { "max_height": 0.017499923706054688, "mean_height": 0.00090264109894633293, "std_height": 0.0033608044032007456, "count_pixels": 41, "percent_cover": 0.3688708951866847, "percent_above_0.1m": 0.0, "low_level_<0.5": 0.0, "mid_level_0.5-2": 0.0, "tall_2+": 0.0 }, "geometry": { "type": "Point", "coordinates": [ -0.117852796557299, 51.504147094200057 ] } },
{ "type": "Feature", "properties": { "max_height": 1.9267501831054688, "mean_height": 0.085982300341129303, "std_height": 0.35478156805038452, "count_pixels": 42, "percent_cover": 0.37786774628879888, "percent_above_0.1m": 9.5238095238095237, "low_level_<0.5": 4.7619047619047619, "mid_level_0.5-2": 4.7619047619047619, "tall_2+": 0.0 }, "geometry": { "type": "Point", "coordinates": [ -0.11765326580779, 51.504143892214103 ] } },
{ "type": "Feature", "properties": { "max_height": 0.087000370025634766, "mean_height": 0.0083258096128702164, "std_height": 0.021404732018709183, "count_pixels": 43, "percent_cover": 0.38686459739091317, "percent_above_0.1m": 0.0, "low_level_<0.5": 0.0, "mid_level_0.5-2": 0.0, "tall_2+": 0.0 }, "geometry": { "type": "Point", "coordinates": [ -0.117453735094908, 51.504140689888672 ] } },
{ "type": "Feature", "properties": { "max_height": 0.21600008010864258, "mean_height": 0.015372332185506821, "std_height": 0.042784504592418671, "count_pixels": 43, "percent_cover": 0.38686459739091317, "percent_above_0.1m": 6.9767441860465116, "low_level_<0.5": 2.3255813953488373, "mid_level_0.5-2": 0.0, "tall_2+": 0.0 }, "geometry": { "type": "Point", "coordinates": [ -0.117254204418666, 51.504137487223801 ] } },
{ "type": "Feature", "properties": { "max_height": 0.93450021743774414, "mean_height": 0.06334233283996582, "std_height": 0.18685750663280487, "count_pixels": 38, "percent_cover": 0.34188034188034189, "percent_above_0.1m": 13.157894736842104, "low_level_<0.5": 7.8947368421052628, "mid_level_0.5-2": 5.2631578947368416, "tall_2+": 0.0 }, "geometry": { "type": "Point", "coordinates": [ -0.117054673779059, 51.504134284219454 ] } },
{ "type": "Feature", "properties": { "max_height": 7.6522512435913086, "mean_height": 0.60456424951553345, "std_height": 1.6131917238235474, "count_pixels": 43, "percent_cover": 0.38686459739091317, "percent_above_0.1m": 20.930232558139537, "low_level_<0.5": 2.3255813953488373, "mid_level_0.5-2": 6.9767441860465116, "tall_2+": 9.3023255813953494 }, "geometry": { "type": "Point", "coordinates": [ -0.118945773820638, 51.504272541053354 ] } },
{ "type": "Feature", "properties": { "max_height": 6.754000186920166, "mean_height": 0.61735498905181885, "std_height": 1.5444040298461914, "count_pixels": 43, "percent_cover": 0.38686459739091317, "percent_above_0.1m": 18.604651162790699, "low_level_<0.5": 0.0, "mid_level_0.5-2": 6.9767441860465116, "tall_2+": 11.627906976744185 }, "geometry": { "type": "Point", "coordinates": [ -0.118746242165113, 51.50426934081748 ] } },
{ "type": "Feature", "properties": { "max_height": 6.7520003318786621, "mean_height": 0.28595954179763794, "std_height": 1.1849592924118042, "count_pixels": 43, "percent_cover": 0.38686459739091317, "percent_above_0.1m": 13.953488372093023, "low_level_<0.5": 4.6511627906976747, "mid_level_0.5-2": 0.0, "tall_2+": 4.6511627906976747 }, "geometry": { "type": "Point", "coordinates": [ -0.118546710546463, 51.504266140242244 ] } },
{ "type": "Feature", "properties": { "max_height": 0.36250019073486328, "mean_height": 0.013006748631596565, "std_height": 0.05911727249622345, "count_pixels": 39, "percent_cover": 0.35087719298245612, "percent_above_0.1m": 2.5641025641025639, "low_level_<0.5": 2.5641025641025639, "mid_level_0.5-2": 0.0, "tall_2+": 0.0 }, "geometry": { "type": "Point", "coordinates": [ -0.118347178965257, 51.504262939327603 ] } },
{ "type": "Feature", "properties": { "max_height": 8.0322504043579102, "mean_height": 1.2422213554382324, "std_height": 2.0091385841369629, "count_pixels": 43, "percent_cover": 0.38686459739091317, "percent_above_0.1m": 48.837209302325576, "low_level_<0.5": 9.3023255813953494, "mid_level_0.5-2": 16.279069767441861, "tall_2+": 23.255813953488371 }, "geometry": { "type": "Point", "coordinates": [ -0.118147647540055, 51.504259738127878 ] } },
{ "type": "Feature", "properties": { "max_height": 8.5810012817382812, "mean_height": 0.87122702598571777, "std_height": 2.0413696765899658, "count_pixels": 43, "percent_cover": 0.38686459739091317, "percent_above_0.1m": 25.581395348837212, "low_level_<0.5": 4.6511627906976747, "mid_level_0.5-2": 6.9767441860465116, "tall_2+": 13.953488372093023 }, "geometry": { "type": "Point", "coordinates": [ -0.11794811626921, 51.504256536641705 ] } },
{ "type": "Feature", "properties": { "max_height": 0.74650001525878906, "mean_height": 0.024815673008561134, "std_height": 0.11621595174074173, "count_pixels": 42, "percent_cover": 0.37786774628879888, "percent_above_0.1m": 7.1428571428571423, "low_level_<0.5": 2.3809523809523809, "mid_level_0.5-2": 2.3809523809523809, "tall_2+": 0.0 }, "geometry": { "type": "Point", "coordinates": [ -0.117748585034985, 51.504253334816063 ] } },
{ "type": "Feature", "properties": { "max_height": 0.11800050735473633, "mean_height": 0.0035124057903885841, "std_height": 0.018295802175998688, "count_pixels": 41, "percent_cover": 0.3688708951866847, "percent_above_0.1m": 2.4390243902439024, "low_level_<0.5": 0.0, "mid_level_0.5-2": 0.0, "tall_2+": 0.0 }, "geometry": { "type": "Point", "coordinates": [ -0.117549053837398, 51.504250132650959 ] } },
{ "type": "Feature", "properties": { "max_height": 0.13050031661987305, "mean_height": 0.012847877107560635, "std_height": 0.028411176055669785, "count_pixels": 41, "percent_cover": 0.3688708951866847, "percent_above_0.1m": 4.8780487804878048, "low_level_<0.5": 0.0, "mid_level_0.5-2": 0.0, "tall_2+": 0.0 }, "geometry": { "type": "Point", "coordinates": [ -0.117349522676443, 51.504246930146401 ] } },
{ "type": "Feature", "properties": { "max_height": 0.24050045013427734, "mean_height": 0.024866104125976562, "std_height": 0.054544262588024139, "count_pixels": 41, "percent_cover": 0.3688708951866847, "percent_above_0.1m": 9.7560975609756095, "low_level_<0.5": 7.3170731707317067, "mid_level_0.5-2": 0.0, "tall_2+": 0.0 }, "geometry": { "type": "Point", "coordinates": [ -0.117149991552123, 51.504243727302352 ] } },
{ "type": "Feature", "properties": { "max_height": 0.15225028991699219, "mean_height": 0.0061588287353515625, "std_height": 0.025101911276578903, "count_pixels": 41, "percent_cover": 0.3688708951866847, "percent_above_0.1m": 2.4390243902439024, "low_level_<0.5": 2.4390243902439024, "mid_level_0.5-2": 0.0, "tall_2+": 0.0 }, "geometry": { "type": "Point", "coordinates": [ -0.118841564390844, 51.50437878259622 ] } },
{ "type": "Feature", "properties": { "max_height": 0.15075016021728516, "mean_height": 0.013414906337857246, "std_height": 0.028987983241677284, "count_pixels": 41, "percent_cover": 0.3688708951866847, "percent_above_0.1m": 2.4390243902439024, "low_level_<0.5": 2.4390243902439024, "mid_level_0.5-2": 0.0, "tall_2+": 0.0 }, "geometry": { "type": "Point", "coordinates": [ -0.118642032282941, 51.504375582179719 ] } },
{ "type": "Feature", "properties": { "max_height": 3.590001106262207, "mean_height": 0.24997539818286896, "std_height": 0.78065401315689087, "count_pixels": 40, "percent_cover": 0.35987404408457041, "percent_above_0.1m": 12.5, "low_level_<0.5": 2.5, "mid_level_0.5-2": 5.0, "tall_2+": 5.0 }, "geometry": { "type": "Point", "coordinates": [ -0.118442500211904, 51.504372381423828 ] } },
{ "type": "Feature", "properties": { "max_height": 4.6695008277893066, "mean_height": 0.52553081512451172, "std_height": 1.145465612411499, "count_pixels": 41, "percent_cover": 0.3688708951866847, "percent_above_0.1m": 26.829268292682929, "low_level_<0.5": 2.4390243902439024, "mid_level_0.5-2": 14.634146341463413, "tall_2+": 9.7560975609756095 }, "geometry": { "type": "Point", "coordinates": [ -0.118242968235611, 51.504369180343282 ] } },
{ "type": "Feature", "properties": { "max_height": 6.5710010528564453, "mean_height": 0.71207958459854126, "std_height": 1.5610529184341431, "count_pixels": 41, "percent_cover": 0.3688708951866847, "percent_above_0.1m": 29.268292682926827, "low_level_<0.5": 2.4390243902439024, "mid_level_0.5-2": 7.3170731707317067, "tall_2+": 17.073170731707318 }, "geometry": { "type": "Point", "coordinates": [ -0.11804343642919, 51.504365979005769 ] } },
{ "type": "Feature", "properties": { "max_height": 7.5505008697509766, "mean_height": 1.555457592010498, "std_height": 2.0908577442169189, "count_pixels": 41, "percent_cover": 0.3688708951866847, "percent_above_0.1m": 46.341463414634148, "low_level_<0.5": 2.4390243902439024, "mid_level_0.5-2": 9.7560975609756095, "tall_2+": 34.146341463414636 }, "geometry": { "type": "Point", "coordinates": [ -0.117843904710264, 51.504362777340454 ] } },
{ "type": "Feature", "properties": { "max_height": 3.445500373840332, "mean_height": 0.31584548950195312, "std_height": 0.81560236215591431, "count_pixels": 42, "percent_cover": 0.37786774628879888, "percent_above_0.1m": 23.809523809523807, "low_level_<0.5": 0.0, "mid_level_0.5-2": 7.1428571428571423, "tall_2+": 7.1428571428571423 }, "geometry": { "type": "Point", "coordinates": [ -0.117644373027962, 51.504359575335663 ] } },
{ "type": "Feature", "properties": { "max_height": 2.857750415802002, "mean_height": 0.5041048526763916, "std_height": 0.76283973455429077, "count_pixels": 43, "percent_cover": 0.38686459739091317, "percent_above_0.1m": 39.534883720930232, "low_level_<0.5": 6.9767441860465116, "mid_level_0.5-2": 25.581395348837212, "tall_2+": 6.9767441860465116 }, "geometry": { "type": "Point", "coordinates": [ -0.117444841382288, 51.504356372991403 ] } },
{ "type": "Feature", "properties": { "max_height": 2.9452505111694336, "mean_height": 0.52694797515869141, "std_height": 0.73447501659393311, "count_pixels": 43, "percent_cover": 0.38686459739091317, "percent_above_0.1m": 58.139534883720934, "low_level_<0.5": 13.953488372093023, "mid_level_0.5-2": 30.232558139534881, "tall_2+": 6.9767441860465116 }, "geometry": { "type": "Point", "coordinates": [ -0.117245309773254, 51.504353170307681 ] } },
{ "type": "Feature", "properties": { "max_height": 0.94225001335144043, "mean_height": 0.15845413506031036, "std_height": 0.26541054248809814, "count_pixels": 38, "percent_cover": 0.34188034188034189, "percent_above_0.1m": 28.947368421052634, "low_level_<0.5": 15.789473684210526, "mid_level_0.5-2": 13.157894736842104, "tall_2+": 0.0 }, "geometry": { "type": "Point", "coordinates": [ -0.117045778200861, 51.50434996728449 ] } },
{ "type": "Feature", "properties": { "max_height": 0.18900012969970703, "mean_height": 0.019494390115141869, "std_height": 0.041803408414125443, "count_pixels": 43, "percent_cover": 0.38686459739091317, "percent_above_0.1m": 6.9767441860465116, "low_level_<0.5": 2.3255813953488373, "mid_level_0.5-2": 0.0, "tall_2+": 0.0 }, "geometry": { "type": "Point", "coordinates": [ -0.118737354471791, 51.504485024041109 ] } },
{ "type": "Feature", "properties": { "max_height": 7.9260005950927734, "mean_height": 1.1086165904998779, "std_height": 1.9866182804107666, "count_pixels": 43, "percent_cover": 0.38686459739091317, "percent_above_0.1m": 39.534883720930232, "low_level_<0.5": 2.3255813953488373, "mid_level_0.5-2": 16.279069767441861, "tall_2+": 18.604651162790699 }, "geometry": { "type": "Point", "coordinates": [ -0.118537821911495, 51.50448182344396 ] } },
{ "type": "Feature", "properties": { "max_height": 7.0287504196166992, "mean_height": 1.5979492664337158, "std_height": 2.3865792751312256, "count_pixels": 39, "percent_cover": 0.35087719298245612, "percent_above_0.1m": 38.461538461538467, "low_level_<0.5": 0.0, "mid_level_0.5-2": 5.1282051282051277, "tall_2+": 33.333333333333329 }, "geometry": { "type": "Point", "coordinates": [ -0.118338289393571, 51.504478622508522 ] } },
{ "type": "Feature", "properties": { "max_height": 0.55625009536743164, "mean_height": 0.013081627897918224, "std_height": 0.083823226392269135, "count_pixels": 43, "percent_cover": 0.38686459739091317, "percent_above_0.1m": 2.3255813953488373, "low_level_<0.5": 0.0, "mid_level_0.5-2": 2.3255813953488373, "tall_2+": 0.0 }, "geometry": { "type": "Point", "coordinates": [ -0.118138757037258, 51.504475421292263 ] } },
{ "type": "Feature", "properties": { "max_height": 8.3157501220703125, "mean_height": 2.6031980514526367, "std_height": 2.7453165054321289, "count_pixels": 43, "percent_cover": 0.38686459739091317, "percent_above_0.1m": 67.441860465116278, "low_level_<0.5": 4.6511627906976747, "mid_level_0.5-2": 13.953488372093023, "tall_2+": 46.511627906976742 }, "geometry": { "type": "Point", "coordinates": [ -0.117939224833616, 51.504472219787246 ] } },
{ "type": "Feature", "properties": { "max_height": 13.334250450134277, "mean_height": 5.7549352645874023, "std_height": 3.6571645736694336, "count_pixels": 42, "percent_cover": 0.37786774628879888, "percent_above_0.1m": 92.857142857142861, "low_level_<0.5": 2.3809523809523809, "mid_level_0.5-2": 4.7619047619047619, "tall_2+": 85.714285714285708 }, "geometry": { "type": "Point", "coordinates": [ -0.1177396926666, 51.504469017942775 ] } },
{ "type": "Feature", "properties": { "max_height": 4.7165007591247559, "mean_height": 1.2306830883026123, "std_height": 1.1816802024841309, "count_pixels": 41, "percent_cover": 0.3688708951866847, "percent_above_0.1m": 90.243902439024396, "low_level_<0.5": 14.634146341463413, "mid_level_0.5-2": 43.902439024390247, "tall_2+": 24.390243902439025 }, "geometry": { "type": "Point", "coordinates": [ -0.117540160536214, 51.50446581575882 ] } },
{ "type": "Feature", "properties": { "max_height": 2.0592503547668457, "mean_height": 0.34644526243209839, "std_height": 0.41108095645904541, "count_pixels": 41, "percent_cover": 0.3688708951866847, "percent_above_0.1m": 75.609756097560975, "low_level_<0.5": 41.463414634146339, "mid_level_0.5-2": 17.073170731707318, "tall_2+": 2.4390243902439024 }, "geometry": { "type": "Point", "coordinates": [ -0.117340628442461, 51.504462613235418 ] } },
{ "type": "Feature", "properties": { "max_height": 13.892499923706055, "mean_height": 3.0719394683837891, "std_height": 4.4684829711914062, "count_pixels": 41, "percent_cover": 0.3688708951866847, "percent_above_0.1m": 41.463414634146339, "low_level_<0.5": 2.4390243902439024, "mid_level_0.5-2": 4.8780487804878048, "tall_2+": 34.146341463414636 }, "geometry": { "type": "Point", "coordinates": [ -0.118832677113028, 51.504594465826386 ] } },
{ "type": "Feature", "properties": { "max_height": 4.4510002136230469, "mean_height": 0.63992708921432495, "std_height": 1.2930232286453247, "count_pixels": 41, "percent_cover": 0.3688708951866847, "percent_above_0.1m": 34.146341463414636, "low_level_<0.5": 2.4390243902439024, "mid_level_0.5-2": 14.634146341463413, "tall_2+": 12.195121951219512 }, "geometry": { "type": "Point", "coordinates": [ -0.118633144063472, 51.504591265387972 ] } },
{ "type": "Feature", "properties": { "max_height": 8.2100009918212891, "mean_height": 1.061206579208374, "std_height": 1.9398812055587769, "count_pixels": 40, "percent_cover": 0.35987404408457041, "percent_above_0.1m": 45.0, "low_level_<0.5": 10.0, "mid_level_0.5-2": 20.0, "tall_2+": 15.0 }, "geometry": { "type": "Point", "coordinates": [ -0.118433611050785, 51.504588064610182 ] } },
{ "type": "Feature", "properties": { "max_height": 6.6372509002685547, "mean_height": 0.55892097949981689, "std_height": 1.3384084701538086, "count_pixels": 41, "percent_cover": 0.3688708951866847, "percent_above_0.1m": 51.219512195121951, "low_level_<0.5": 29.268292682926827, "mid_level_0.5-2": 12.195121951219512, "tall_2+": 7.3170731707317067 }, "geometry": { "type": "Point", "coordinates": [ -0.118234078141114, 51.50458486351198 ] } },
{ "type": "Feature", "properties": { "max_height": 13.240251541137695, "mean_height": 4.9571042060852051, "std_height": 4.1946229934692383, "count_pixels": 41, "percent_cover": 0.3688708951866847, "percent_above_0.1m": 82.926829268292678, "low_level_<0.5": 7.3170731707317067, "mid_level_0.5-2": 12.195121951219512, "tall_2+": 63.414634146341463 }, "geometry": { "type": "Point", "coordinates": [ -0.118034545405054, 51.504581662156461 ] } },
{ "type": "Feature", "properties": { "max_height": 11.134501457214355, "mean_height": 0.90865731239318848, "std_height": 2.2184655666351318, "count_pixels": 43, "percent_cover": 0.38686459739091317, "percent_above_0.1m": 32.558139534883722, "low_level_<0.5": 9.3023255813953494, "mid_level_0.5-2": 9.3023255813953494, "tall_2+": 13.953488372093023 }, "geometry": { "type": "Point", "coordinates": [ -0.118728466667832, 51.5047007072559 ] } },
{ "type": "Feature", "properties": { "max_height": 7.9487504959106445, "mean_height": 2.5911693572998047, "std_height": 1.9889885187149048, "count_pixels": 43, "percent_cover": 0.38686459739091317, "percent_above_0.1m": 79.069767441860463, "low_level_<0.5": 4.6511627906976747, "mid_level_0.5-2": 16.279069767441861, "tall_2+": 58.139534883720934 }, "geometry": { "type": "Point", "coordinates": [ -0.118528933165873, 51.504697506636852 ] } },
{ "type": "Feature", "properties": { "max_height": 4.4985008239746094, "mean_height": 1.6578419208526611, "std_height": 1.7901619672775269, "count_pixels": 41, "percent_cover": 0.3688708951866847, "percent_above_0.1m": 58.536585365853654, "low_level_<0.5": 4.8780487804878048, "mid_level_0.5-2": 14.634146341463413, "tall_2+": 39.024390243902438 }, "geometry": { "type": "Point", "coordinates": [ -0.118624255733353, 51.504806948587422 ] } },
{ "type": "Feature", "properties": { "max_height": 5.3552508354187012, "mean_height": 2.9464192390441895, "std_height": 2.0416936874389648, "count_pixels": 40, "percent_cover": 0.35987404408457041, "percent_above_0.1m": 75.0, "low_level_<0.5": 2.5, "mid_level_0.5-2": 7.5, "tall_2+": 65.0 }, "geometry": { "type": "Point", "coordinates": [ -0.118424721779009, 51.504803747787726 ] } },
{ "type": "Feature", "properties": { "max_height": 4.3170003890991211, "mean_height": 0.9366106390953064, "std_height": 1.4932055473327637, "count_pixels": 43, "percent_cover": 0.38686459739091317, "percent_above_0.1m": 44.186046511627907, "low_level_<0.5": 2.3255813953488373, "mid_level_0.5-2": 16.279069767441861, "tall_2+": 20.930232558139537 }, "geometry": { "type": "Point", "coordinates": [ -0.118520044309602, 51.50491318982094 ] } },
{ "type": "Feature", "properties": { "max_height": 6.3947505950927734, "mean_height": 1.1655194759368896, "std_height": 1.5831367969512939, "count_pixels": 39, "percent_cover": 0.35087719298245612, "percent_above_0.1m": 56.410256410256409, "low_level_<0.5": 10.256410256410255, "mid_level_0.5-2": 23.076923076923077, "tall_2+": 23.076923076923077 }, "geometry": { "type": "Point", "coordinates": [ -0.118320509919287, 51.504909988844119 ] } }
]
}
