{
"type": "FeatureCollection",
"name": "79738609f806_foliage",
"crs": { "type": "name", "properties": { "name": "urn:ogc:def:crs:OGC:1.3:CRS84" } },
"features": [
{ "type": "Feature", "properties": { "max_height": 2.4422492980957031, "mean_height": 0.1045423224568367, "std_height": 0.39674371480941772, "count_pixels": 42, "percent_cover": 1.0096153846153846, "percent_above_0.1m": 11.904761904761903, "low_level_<0.5": 4.7619047619047619, "mid_level_0.5-2": 4.7619047619047619, "tall_2+": 2.3809523809523809 }, "geometry": { "type": "Point", "coordinates": [ -0.115555992956223, 51.46029251210755 ] } },
{ "type": "Feature", "properties": { "max_height": 0.43225288391113281, "mean_height": 0.0887451171875, "std_height": 0.11509299278259277, "count_pixels": 43, "percent_cover": 1.033653846153846, "percent_above_0.1m": 34.883720930232556, "low_level_<0.5": 25.581395348837212, "mid_level_0.5-2": 0.0, "tall_2+": 0.0 }, "geometry": { "type": "Point", "coordinates": [ -0.115356656219898, 51.460289306841382 ] } },
{ "type": "Feature", "properties": { "max_height": 0.28175163269042969, "mean_height": 0.057593945413827896, "std_height": 0.085623443126678467, "count_pixels": 43, "percent_cover": 1.033653846153846, "percent_above_0.1m": 18.604651162790699, "low_level_<0.5": 16.279069767441861, "mid_level_0.5-2": 0.0, "tall_2+": 0.0 }, "geometry": { "type": "Point", "coordinates": [ -0.115157319521062, 51.460286101236328 ] } },
{ "type": "Feature", "properties": { "max_height": 0.5852508544921875, "mean_height": 0.059262476861476898, "std_height": 0.11042486876249313, "count_pixels": 43, "percent_cover": 1.033653846153846, "percent_above_0.1m": 20.930232558139537, "low_level_<0.5": 9.3023255813953494, "mid_level_0.5-2": 2.3255813953488373, "tall_2+": 0.0 }, "geometry": { "type": "Point", "coordinates": [ -0.114957982859719, 51.46028289529233 ] } },
{ "type": "Feature", "properties": { "max_height": 1.7622509002685547, "mean_height": 0.14686045050621033, "std_height": 0.32745170593261719, "count_pixels": 41, "percent_cover": 0.98557692307692302, "percent_above_0.1m": 24.390243902439025, "low_level_<0.5": 14.634146341463413, "mid_level_0.5-2": 9.7560975609756095, "tall_2+": 0.0 }, "geometry": { "type": "Point", "coordinates": [ -0.11545188341991, 51.460398751680131 ] } },
{ "type": "Feature", "properties": { "max_height": 0.02700042724609375, "mean_height": 0.0037325418088585138, "std_height": 0.0073469686321914196, "count_pixels": 41, "percent_cover": 0.98557692307692302, "percent_above_0.1m": 0.0, "low_level_<0.5": 0.0, "mid_level_0.5-2": 0.0, "tall_2+": 0.0 }, "geometry": { "type": "Point", "coordinates": [ -0.115252546221778, 51.460395546234778 ] } },
{ "type": "Feature", "properties": { "max_height": 0.45750236511230469, "mean_height": 0.052665431052446365, "std_height": 0.11618177592754364, "count_pixels": 41, "percent_cover": 0.98557692307692302, "percent_above_0.1m": 17.073170731707318, "low_level_<0.5": 12.195121951219512, "mid_level_0.5-2": 0.0, "tall_2+": 0.0 }, "geometry": { "type": "Point", "coordinates": [ -0.115053209061135, 51.460392340450547 ] } },
{ "type": "Feature", "properties": { "max_height": 5.5942516326904297, "mean_height": 0.89273685216903687, "std_height": 1.467033863067627, "count_pixels": 36, "percent_cover": 0.86538461538461542, "percent_above_0.1m": 50.0, "low_level_<0.5": 16.666666666666664, "mid_level_0.5-2": 16.666666666666664, "tall_2+": 16.666666666666664 }, "geometry": { "type": "Point", "coordinates": [ -0.114853871937994, 51.460389134327372 ] } },
{ "type": "Feature", "properties": { "max_height": 1.29425048828125, "mean_height": 0.14208997786045074, "std_height": 0.32230591773986816, "count_pixels": 42, "percent_cover": 1.0096153846153846, "percent_above_0.1m": 21.428571428571427, "low_level_<0.5": 9.5238095238095237, "mid_level_0.5-2": 11.904761904761903, "tall_2+": 0.0 }, "geometry": { "type": "Point", "coordinates": [ -0.11554711108172, 51.460508196441722 ] } },
{ "type": "Feature", "properties": { "max_height": 0.062002182006835938, "mean_height": 0.0077507994137704372, "std_height": 0.012599315494298935, "count_pixels": 43, "percent_cover": 1.033653846153846, "percent_above_0.1m": 0.0, "low_level_<0.5": 0.0, "mid_level_0.5-2": 0.0, "tall_2+": 0.0 }, "geometry": { "type": "Point", "coordinates": [ -0.115347773384289, 51.460504991156107 ] } },
{ "type": "Feature", "properties": { "max_height": 0.034749984741210938, "mean_height": 0.0043204110115766525, "std_height": 0.0098555497825145721, "count_pixels": 43, "percent_cover": 1.033653846153846, "percent_above_0.1m": 0.0, "low_level_<0.5": 0.0, "mid_level_0.5-2": 0.0, "tall_2+": 0.0 }, "geometry": { "type": "Point", "coordinates": [ -0.115148435724343, 51.460501785531584 ] } },
{ "type": "Feature", "properties": { "max_height": 0.16225051879882812, "mean_height": 0.010384227149188519, "std_height": 0.032371222972869873, "count_pixels": 43, "percent_cover": 1.033653846153846, "percent_above_0.1m": 4.6511627906976747, "low_level_<0.5": 2.3255813953488373, "mid_level_0.5-2": 0.0, "tall_2+": 0.0 }, "geometry": { "type": "Point", "coordinates": [ -0.114949098101897, 51.460498579568139 ] } },
{ "type": "Feature", "properties": { "max_height": 7.7837505340576172, "mean_height": 1.3907506465911865, "std_height": 2.4384853839874268, "count_pixels": 43, "percent_cover": 1.033653846153846, "percent_above_0.1m": 69.767441860465112, "low_level_<0.5": 23.255813953488371, "mid_level_0.5-2": 20.930232558139537, "tall_2+": 18.604651162790699 }, "geometry": { "type": "Point", "coordinates": [ -0.114749760516949, 51.460495373265793 ] } },
{ "type": "Feature", "properties": { "max_height": 1.2250003814697266, "mean_height": 0.052851814776659012, "std_height": 0.2042926698923111, "count_pixels": 42, "percent_cover": 1.0096153846153846, "percent_above_0.1m": 9.5238095238095237, "low_level_<0.5": 0.0, "mid_level_0.5-2": 4.7619047619047619, "tall_2+": 0.0 }, "geometry": { "type": "Point", "coordinates": [ -0.115642339205328, 51.460617641126142 ] } },
{ "type": "Feature", "properties": { "max_height": 0.71325111389160156, "mean_height": 0.026135142892599106, "std_height": 0.11111083626747131, "count_pixels": 41, "percent_cover": 0.98557692307692302, "percent_above_0.1m": 4.8780487804878048, "low_level_<0.5": 0.0, "mid_level_0.5-2": 2.4390243902439024, "tall_2+": 0.0 }, "geometry": { "type": "Point", "coordinates": [ -0.115443001008595, 51.46061443600027 ] } },
{ "type": "Feature", "properties": { "max_height": 0.02375030517578125, "mean_height": 0.003043570090085268, "std_height": 0.0080224042758345604, "count_pixels": 41, "percent_cover": 0.98557692307692302, "percent_above_0.1m": 0.0, "low_level_<0.5": 0.0, "mid_level_0.5-2": 0.0, "tall_2+": 0.0 }, "geometry": { "type": "Point", "coordinates": [ -0.115243662849348, 51.460611230535484 ] } },
{ "type": "Feature", "properties": { "max_height": 1.2744998931884766, "mean_height": 0.033336035907268524, "std_height": 0.19632261991500854, "count_pixels": 41, "percent_cover": 0.98557692307692302, "percent_above_0.1m": 2.4390243902439024, "low_level_<0.5": 0.0, "mid_level_0.5-2": 2.4390243902439024, "tall_2+": 0.0 }, "geometry": { "type": "Point", "coordinates": [ -0.115044324727595, 51.460608024731769 ] } },
{ "type": "Feature", "properties": { "max_height": 12.687751770019531, "mean_height": 3.2182786464691162, "std_height": 4.1534361839294434, "count_pixels": 36, "percent_cover": 0.86538461538461542, "percent_above_0.1m": 66.666666666666657, "low_level_<0.5": 0.0, "mid_level_0.5-2": 19.444444444444446, "tall_2+": 44.444444444444443 }, "geometry": { "type": "Point", "coordinates": [ -0.114844986643339, 51.460604818589154 ] } },
{ "type": "Feature", "properties": { "max_height": 0.60700035095214844, "mean_height": 0.045543577522039413, "std_height": 0.13119080662727356, "count_pixels": 41, "percent_cover": 0.98557692307692302, "percent_above_0.1m": 9.7560975609756095, "low_level_<0.5": 7.3170731707317067, "mid_level_0.5-2": 2.4390243902439024, "tall_2+": 0.0 }, "geometry": { "type": "Point", "coordinates": [ -0.115737567790744, 51.460727085733446 ] } },
{ "type": "Feature", "properties": { "max_height": 3.0277500152587891, "mean_height": 0.17419116199016571, "std_height": 0.52311420440673828, "count_pixels": 42, "percent_cover": 1.0096153846153846, "percent_above_0.1m": 16.666666666666664, "low_level_<0.5": 4.7619047619047619, "mid_level_0.5-2": 9.5238095238095237, "tall_2+": 2.3809523809523809 }, "geometry": { "type": "Point", "coordinates": [ -0.115538229094702, 51.460723880767297 ] } },
{ "type": "Feature", "properties": { "max_height": 0.34850120544433594, "mean_height": 0.01933235302567482, "std_height": 0.066704012453556061, "count_pixels": 43, "percent_cover": 1.033653846153846, "percent_above_0.1m": 6.9767441860465116, "low_level_<0.5": 6.9767441860465116, "mid_level_0.5-2": 0.0, "tall_2+": 0.0 }, "geometry": { "type": "Point", "coordinates": [ -0.115338890436152, 51.460720675462234 ] } },
{ "type": "Feature", "properties": { "max_height": 0.052501678466796875, "mean_height": 0.0044135157950222492, "std_height": 0.010005369782447815, "count_pixels": 43, "percent_cover": 1.033653846153846, "percent_above_0.1m": 0.0, "low_level_<0.5": 0.0, "mid_level_0.5-2": 0.0, "tall_2+": 0.0 }, "geometry": { "type": "Point", "coordinates": [ -0.115139551815088, 51.460717469818256 ] } },
{ "type": "Feature", "properties": { "max_height": 14.573251724243164, "mean_height": 3.8010063171386719, "std_height": 5.653536319732666, "count_pixels": 43, "percent_cover": 1.033653846153846, "percent_above_0.1m": 44.186046511627907, "low_level_<0.5": 2.3255813953488373, "mid_level_0.5-2": 2.3255813953488373, "tall_2+": 34.883720930232556 }, "geometry": { "type": "Point", "coordinates": [ -0.114940213231526, 51.460714263835342 ] } },
{ "type": "Feature", "properties": { "max_height": 0.47625160217285156, "mean_height": 0.060709204524755478, "std_height": 0.12781195342540741, "count_pixels": 42, "percent_cover": 1.0096153846153846, "percent_above_0.1m": 19.047619047619047, "low_level_<0.5": 16.666666666666664, "mid_level_0.5-2": 0.0, "tall_2+": 0.0 }, "geometry": { "type": "Point", "coordinates": [ -0.115633457642616, 51.460833325457166 ] } },
{ "type": "Feature", "properties": { "max_height": 0.12475204467773438, "mean_height": 0.005458273459225893, "std_height": 0.022441869601607323, "count_pixels": 41, "percent_cover": 0.98557692307692302, "percent_above_0.1m": 2.4390243902439024, "low_level_<0.5": 0.0, "mid_level_0.5-2": 0.0, "tall_2+": 0.0 }, "geometry": { "type": "Point", "coordinates": [ -0.115434118484754, 51.460830120311826 ] } },
{ "type": "Feature", "properties": { "max_height": 0.66349983215332031, "mean_height": 0.079616732895374298, "std_height": 0.15410760045051575, "count_pixels": 41, "percent_cover": 0.98557692307692302, "percent_above_0.1m": 19.512195121951219, "low_level_<0.5": 12.195121951219512, "mid_level_0.5-2": 4.8780487804878048, "tall_2+": 0.0 }, "geometry": { "type": "Point", "coordinates": [ -0.115234779364389, 51.460826914827592 ] } },
{ "type": "Feature", "properties": { "max_height": 0.44375133514404297, "mean_height": 0.039592254906892776, "std_height": 0.10260490328073502, "count_pixels": 41, "percent_cover": 0.98557692307692302, "percent_above_0.1m": 9.7560975609756095, "low_level_<0.5": 9.7560975609756095, "mid_level_0.5-2": 0.0, "tall_2+": 0.0 }, "geometry": { "type": "Point", "coordinates": [ -0.115035440281505, 51.46082370900443 ] } },
{ "type": "Feature", "properties": { "max_height": 0.03350067138671875, "mean_height": 0.0031653614714741707, "std_height": 0.0073098940774798393, "count_pixels": 41, "percent_cover": 0.98557692307692302, "percent_above_0.1m": 0.0, "low_level_<0.5": 0.0, "mid_level_0.5-2": 0.0, "tall_2+": 0.0 }, "geometry": { "type": "Point", "coordinates": [ -0.115728686652341, 51.46094277006987 ] } },
{ "type": "Feature", "properties": { "max_height": 4.9977502822875977, "mean_height": 0.40644106268882751, "std_height": 1.1883008480072021, "count_pixels": 42, "percent_cover": 1.0096153846153846, "percent_above_0.1m": 16.666666666666664, "low_level_<0.5": 4.7619047619047619, "mid_level_0.5-2": 2.3809523809523809, "tall_2+": 9.5238095238095237 }, "geometry": { "type": "Point", "coordinates": [ -0.115529346995166, 51.460939565084296 ] } },
{ "type": "Feature", "properties": { "max_height": 8.1857509613037109, "mean_height": 2.237785816192627, "std_height": 2.3580391407012939, "count_pixels": 43, "percent_cover": 1.033653846153846, "percent_above_0.1m": 65.116279069767444, "low_level_<0.5": 4.6511627906976747, "mid_level_0.5-2": 9.3023255813953494, "tall_2+": 51.162790697674424 }, "geometry": { "type": "Point", "coordinates": [ -0.115330007375485, 51.460936359759771 ] } },
{ "type": "Feature", "properties": { "max_height": 4.6655006408691406, "mean_height": 0.18132063746452332, "std_height": 0.7502368688583374, "count_pixels": 43, "percent_cover": 1.033653846153846, "percent_above_0.1m": 11.627906976744185, "low_level_<0.5": 2.3255813953488373, "mid_level_0.5-2": 4.6511627906976747, "tall_2+": 2.3255813953488373 }, "geometry": { "type": "Point", "coordinates": [ -0.115130667793294, 51.460933154096331 ] } },
{ "type": "Feature", "properties": { "max_height": 15.971500396728516, "mean_height": 10.226449012756348, "std_height": 5.229485034942627, "count_pixels": 43, "percent_cover": 1.033653846153846, "percent_above_0.1m": 90.697674418604649, "low_level_<0.5": 0.0, "mid_level_0.5-2": 2.3255813953488373, "tall_2+": 88.372093023255815 }, "geometry": { "type": "Point", "coordinates": [ -0.114931328248601, 51.460929948093977 ] } },
{ "type": "Feature", "properties": { "max_height": 3.4150009155273438, "mean_height": 0.17706020176410675, "std_height": 0.69342595338821411, "count_pixels": 42, "percent_cover": 1.0096153846153846, "percent_above_0.1m": 11.904761904761903, "low_level_<0.5": 7.1428571428571423, "mid_level_0.5-2": 0.0, "tall_2+": 4.7619047619047619 }, "geometry": { "type": "Point", "coordinates": [ -0.115624575967393, 51.461049009779579 ] } },
{ "type": "Feature", "properties": { "max_height": 12.454001426696777, "mean_height": 5.532470703125, "std_height": 2.9356279373168945, "count_pixels": 41, "percent_cover": 0.98557692307692302, "percent_above_0.1m": 95.121951219512198, "low_level_<0.5": 0.0, "mid_level_0.5-2": 4.8780487804878048, "tall_2+": 90.243902439024396 }, "geometry": { "type": "Point", "coordinates": [ -0.11542523584839, 51.461045804614805 ] } },
{ "type": "Feature", "properties": { "max_height": 13.568251609802246, "mean_height": 3.3671960830688477, "std_height": 3.8824639320373535, "count_pixels": 41, "percent_cover": 0.98557692307692302, "percent_above_0.1m": 60.975609756097562, "low_level_<0.5": 7.3170731707317067, "mid_level_0.5-2": 4.8780487804878048, "tall_2+": 48.780487804878049 }, "geometry": { "type": "Point", "coordinates": [ -0.115225895766887, 51.461042599111103 ] } },
{ "type": "Feature", "properties": { "max_height": 15.007001876831055, "mean_height": 8.3377695083618164, "std_height": 6.1988010406494141, "count_pixels": 41, "percent_cover": 0.98557692307692302, "percent_above_0.1m": 73.170731707317074, "low_level_<0.5": 0.0, "mid_level_0.5-2": 7.3170731707317067, "tall_2+": 65.853658536585371 }, "geometry": { "type": "Point", "coordinates": [ -0.115026555722873, 51.461039393268479 ] } },
{ "type": "Feature", "properties": { "max_height": 0.41650104522705078, "mean_height": 0.069274559617042542, "std_height": 0.12232404947280884, "count_pixels": 42, "percent_cover": 1.0096153846153846, "percent_above_0.1m": 23.809523809523807, "low_level_<0.5": 21.428571428571427, "mid_level_0.5-2": 0.0, "tall_2+": 0.0 }, "geometry": { "type": "Point", "coordinates": [ -0.115520464783114, 51.461155249392668 ] } },
{ "type": "Feature", "properties": { "max_height": 5.6190004348754883, "mean_height": 0.49584957957267761, "std_height": 1.3572119474411011, "count_pixels": 43, "percent_cover": 1.033653846153846, "percent_above_0.1m": 23.255813953488371, "low_level_<0.5": 6.9767441860465116, "mid_level_0.5-2": 4.6511627906976747, "tall_2+": 9.3023255813953494 }, "geometry": { "type": "Point", "coordinates": [ -0.115321124202286, 51.46115204404871 ] } },
{ "type": "Feature", "properties": { "max_height": 10.704502105712891, "mean_height": 1.4388495683670044, "std_height": 2.8192486763000488, "count_pixels": 43, "percent_cover": 1.033653846153846, "percent_above_0.1m": 34.883720930232556, "low_level_<0.5": 4.6511627906976747, "mid_level_0.5-2": 4.6511627906976747, "tall_2+": 23.255813953488371 }, "geometry": { "type": "Point", "coordinates": [ -0.115121783658958, 51.461148838365816 ] } },
{ "type": "Feature", "properties": { "max_height": 0.54700088500976562, "mean_height": 0.052153121680021286, "std_height": 0.12408379465341568, "count_pixels": 41, "percent_cover": 0.98557692307692302, "percent_above_0.1m": 17.073170731707318, "low_level_<0.5": 14.634146341463413, "mid_level_0.5-2": 2.4390243902439024, "tall_2+": 0.0 }, "geometry": { "type": "Point", "coordinates": [ -0.115416353099506, 51.461261488909173 ] } },
{ "type": "Feature", "properties": { "max_height": 3.940251350402832, "mean_height": 0.41866526007652283, "std_height": 1.0199044942855835, "count_pixels": 41, "percent_cover": 0.98557692307692302, "percent_above_0.1m": 26.829268292682929, "low_level_<0.5": 9.7560975609756095, "mid_level_0.5-2": 7.3170731707317067, "tall_2+": 9.7560975609756095 }, "geometry": { "type": "Point", "coordinates": [ -0.115217012056849, 51.461258283386023 ] } }
]
}
