{
"type": "FeatureCollection",
"name": "f0c9376339a6_foliage",
"crs": { "type": "name", "properties": { "name": "urn:ogc:def:crs:OGC:1.3:CRS84" } },
"features": [
{ "type": "Feature", "properties": { "max_height": 13.967251777648926, "mean_height": 2.1593115329742432, "std_height": 3.8150432109832764, "count_pixels": 41, "percent_cover": 1.0677083333333333, "percent_above_0.1m": 53.658536585365859, "low_level_<0.5": 12.195121951219512, "mid_level_0.5-2": 12.195121951219512, "tall_2+": 24.390243902439025 }, "geometry": { "type": "Point", "coordinates": [ -0.1056825306173, 51.46535763572966 ] } },
{ "type": "Feature", "properties": { "max_height": 7.9282503128051758, "mean_height": 2.4587626457214355, "std_height": 2.7314565181732178, "count_pixels": 41, "percent_cover": 1.0677083333333333, "percent_above_0.1m": 60.975609756097562, "low_level_<0.5": 0.0, "mid_level_0.5-2": 19.512195121951219, "tall_2+": 41.463414634146339 }, "geometry": { "type": "Point", "coordinates": [ -0.105483172434882, 51.465354413570203 ] } },
{ "type": "Feature", "properties": { "max_height": 18.236251831054688, "mean_height": 2.4781198501586914, "std_height": 4.6422324180603027, "count_pixels": 42, "percent_cover": 1.09375, "percent_above_0.1m": 57.142857142857139, "low_level_<0.5": 4.7619047619047619, "mid_level_0.5-2": 16.666666666666664, "tall_2+": 28.571428571428569 }, "geometry": { "type": "Point", "coordinates": [ -0.105777744389681, 51.465467088278579 ] } },
{ "type": "Feature", "properties": { "max_height": 1.2080011367797852, "mean_height": 0.16575060784816742, "std_height": 0.32935082912445068, "count_pixels": 43, "percent_cover": 1.1197916666666667, "percent_above_0.1m": 27.906976744186046, "low_level_<0.5": 11.627906976744185, "mid_level_0.5-2": 13.953488372093023, "tall_2+": 0.0 }, "geometry": { "type": "Point", "coordinates": [ -0.105578385707736, 51.465463866278839 ] } },
{ "type": "Feature", "properties": { "max_height": 15.312000274658203, "mean_height": 1.8146553039550781, "std_height": 4.0614776611328125, "count_pixels": 42, "percent_cover": 1.09375, "percent_above_0.1m": 35.714285714285715, "low_level_<0.5": 11.904761904761903, "mid_level_0.5-2": 4.7619047619047619, "tall_2+": 19.047619047619047 }, "geometry": { "type": "Point", "coordinates": [ -0.105379027063479, 51.465460643940112 ] } },
{ "type": "Feature", "properties": { "max_height": 16.466499328613281, "mean_height": 6.296750545501709, "std_height": 4.7064108848571777, "count_pixels": 42, "percent_cover": 1.09375, "percent_above_0.1m": 90.476190476190482, "low_level_<0.5": 2.3809523809523809, "mid_level_0.5-2": 11.904761904761903, "tall_2+": 76.19047619047619 }, "geometry": { "type": "Point", "coordinates": [ -0.10517966845693, 51.465457421262421 ] } },
{ "type": "Feature", "properties": { "max_height": 18.483251571655273, "mean_height": 6.4643106460571289, "std_height": 6.3551692962646484, "count_pixels": 42, "percent_cover": 1.09375, "percent_above_0.1m": 80.952380952380949, "low_level_<0.5": 7.1428571428571423, "mid_level_0.5-2": 16.666666666666664, "tall_2+": 57.142857142857139 }, "geometry": { "type": "Point", "coordinates": [ -0.105872958623888, 51.465576540750405 ] } },
{ "type": "Feature", "properties": { "max_height": 26.218751907348633, "mean_height": 11.57439136505127, "std_height": 7.9407591819763184, "count_pixels": 41, "percent_cover": 1.0677083333333333, "percent_above_0.1m": 82.926829268292678, "low_level_<0.5": 0.0, "mid_level_0.5-2": 4.8780487804878048, "tall_2+": 78.048780487804876 }, "geometry": { "type": "Point", "coordinates": [ -0.105673599442408, 51.465573318910344 ] } },
{ "type": "Feature", "properties": { "max_height": 4.0872516632080078, "mean_height": 0.37381771206855774, "std_height": 0.74829185009002686, "count_pixels": 41, "percent_cover": 1.0677083333333333, "percent_above_0.1m": 36.585365853658537, "low_level_<0.5": 9.7560975609756095, "mid_level_0.5-2": 24.390243902439025, "tall_2+": 2.4390243902439024 }, "geometry": { "type": "Point", "coordinates": [ -0.105474240298623, 51.465570096731312 ] } },
{ "type": "Feature", "properties": { "max_height": 2.2585010528564453, "mean_height": 0.18747679889202118, "std_height": 0.50961017608642578, "count_pixels": 42, "percent_cover": 1.09375, "percent_above_0.1m": 19.047619047619047, "low_level_<0.5": 2.3809523809523809, "mid_level_0.5-2": 9.5238095238095237, "tall_2+": 2.3809523809523809 }, "geometry": { "type": "Point", "coordinates": [ -0.105274881192539, 51.465566874213323 ] } },
{ "type": "Feature", "properties": { "max_height": 10.672001838684082, "mean_height": 2.3685362339019775, "std_height": 3.0077109336853027, "count_pixels": 42, "percent_cover": 1.09375, "percent_above_0.1m": 69.047619047619051, "low_level_<0.5": 14.285714285714285, "mid_level_0.5-2": 16.666666666666664, "tall_2+": 38.095238095238095 }, "geometry": { "type": "Point", "coordinates": [ -0.105075522124159, 51.465563651356355 ] } },
{ "type": "Feature", "properties": { "max_height": 8.5947513580322266, "mean_height": 1.4533340930938721, "std_height": 1.9944760799407959, "count_pixels": 42, "percent_cover": 1.09375, "percent_above_0.1m": 64.285714285714292, "low_level_<0.5": 9.5238095238095237, "mid_level_0.5-2": 21.428571428571427, "tall_2+": 28.571428571428569 }, "geometry": { "type": "Point", "coordinates": [ -0.106167533038625, 51.465689214486495 ] } },
{ "type": "Feature", "properties": { "max_height": 0.98525047302246094, "mean_height": 0.071500480175018311, "std_height": 0.22975151240825653, "count_pixels": 38, "percent_cover": 0.98958333333333326, "percent_above_0.1m": 10.526315789473683, "low_level_<0.5": 5.2631578947368416, "mid_level_0.5-2": 5.2631578947368416, "tall_2+": 0.0 }, "geometry": { "type": "Point", "coordinates": [ -0.105968173319925, 51.465685993145122 ] } },
{ "type": "Feature", "properties": { "max_height": 20.550998687744141, "mean_height": 8.3705673217773438, "std_height": 7.8359065055847168, "count_pixels": 42, "percent_cover": 1.09375, "percent_above_0.1m": 71.428571428571431, "low_level_<0.5": 2.3809523809523809, "mid_level_0.5-2": 9.5238095238095237, "tall_2+": 59.523809523809526 }, "geometry": { "type": "Point", "coordinates": [ -0.105768813638908, 51.46568277146477 ] } },
{ "type": "Feature", "properties": { "max_height": 23.794750213623047, "mean_height": 7.0289077758789062, "std_height": 6.4734563827514648, "count_pixels": 43, "percent_cover": 1.1197916666666667, "percent_above_0.1m": 79.069767441860463, "low_level_<0.5": 6.9767441860465116, "mid_level_0.5-2": 2.3255813953488373, "tall_2+": 69.767441860465112 }, "geometry": { "type": "Point", "coordinates": [ -0.105569453995588, 51.465679549445426 ] } },
{ "type": "Feature", "properties": { "max_height": 8.5737514495849609, "mean_height": 0.56916725635528564, "std_height": 1.7176773548126221, "count_pixels": 42, "percent_cover": 1.09375, "percent_above_0.1m": 19.047619047619047, "low_level_<0.5": 2.3809523809523809, "mid_level_0.5-2": 7.1428571428571423, "tall_2+": 9.5238095238095237 }, "geometry": { "type": "Point", "coordinates": [ -0.105370094389965, 51.465676327087138 ] } },
{ "type": "Feature", "properties": { "max_height": 31.717250823974609, "mean_height": 7.2232985496520996, "std_height": 11.651611328125, "count_pixels": 42, "percent_cover": 1.09375, "percent_above_0.1m": 78.571428571428569, "low_level_<0.5": 11.904761904761903, "mid_level_0.5-2": 35.714285714285715, "tall_2+": 30.952380952380953 }, "geometry": { "type": "Point", "coordinates": [ -0.105170734822048, 51.465673104389843 ] } },
{ "type": "Feature", "properties": { "max_height": 6.85675048828125, "mean_height": 0.41875076293945312, "std_height": 1.3464791774749756, "count_pixels": 41, "percent_cover": 1.0677083333333333, "percent_above_0.1m": 19.512195121951219, "low_level_<0.5": 4.8780487804878048, "mid_level_0.5-2": 4.8780487804878048, "tall_2+": 7.3170731707317067 }, "geometry": { "type": "Point", "coordinates": [ -0.106262748696026, 51.465798666644389 ] } },
{ "type": "Feature", "properties": { "max_height": 13.423752784729004, "mean_height": 1.3066315650939941, "std_height": 2.5636765956878662, "count_pixels": 42, "percent_cover": 1.09375, "percent_above_0.1m": 71.428571428571431, "low_level_<0.5": 7.1428571428571423, "mid_level_0.5-2": 57.142857142857139, "tall_2+": 7.1428571428571423 }, "geometry": { "type": "Point", "coordinates": [ -0.106063388477786, 51.465795445462724 ] } },
{ "type": "Feature", "properties": { "max_height": 2.1515007019042969, "mean_height": 0.23450052738189697, "std_height": 0.42758896946907043, "count_pixels": 42, "percent_cover": 1.09375, "percent_above_0.1m": 33.333333333333329, "low_level_<0.5": 9.5238095238095237, "mid_level_0.5-2": 19.047619047619047, "tall_2+": 2.3809523809523809 }, "geometry": { "type": "Point", "coordinates": [ -0.105864028297238, 51.465792223942067 ] } },
{ "type": "Feature", "properties": { "max_height": 20.137252807617188, "mean_height": 5.2305679321289062, "std_height": 5.8945488929748535, "count_pixels": 41, "percent_cover": 1.0677083333333333, "percent_above_0.1m": 65.853658536585371, "low_level_<0.5": 0.0, "mid_level_0.5-2": 14.634146341463413, "tall_2+": 51.219512195121951 }, "geometry": { "type": "Point", "coordinates": [ -0.105664668154383, 51.465789002082445 ] } },
{ "type": "Feature", "properties": { "max_height": 25.113754272460938, "mean_height": 5.8736834526062012, "std_height": 6.6639294624328613, "count_pixels": 41, "percent_cover": 1.0677083333333333, "percent_above_0.1m": 70.731707317073173, "low_level_<0.5": 2.4390243902439024, "mid_level_0.5-2": 12.195121951219512, "tall_2+": 56.09756097560976 }, "geometry": { "type": "Point", "coordinates": [ -0.105465308049222, 51.465785779883838 ] } },
{ "type": "Feature", "properties": { "max_height": 32.244503021240234, "mean_height": 14.065293312072754, "std_height": 13.542237281799316, "count_pixels": 42, "percent_cover": 1.09375, "percent_above_0.1m": 90.476190476190482, "low_level_<0.5": 4.7619047619047619, "mid_level_0.5-2": 16.666666666666664, "tall_2+": 69.047619047619051 }, "geometry": { "type": "Point", "coordinates": [ -0.105265947981759, 51.465782557346238 ] } },
{ "type": "Feature", "properties": { "max_height": 7.8050003051757812, "mean_height": 2.0244414806365967, "std_height": 2.5189309120178223, "count_pixels": 38, "percent_cover": 0.98958333333333326, "percent_above_0.1m": 65.789473684210535, "low_level_<0.5": 7.8947368421052628, "mid_level_0.5-2": 18.421052631578945, "tall_2+": 36.84210526315789 }, "geometry": { "type": "Point", "coordinates": [ -0.105959243417399, 51.46590167634227 ] } },
{ "type": "Feature", "properties": { "max_height": 1.0792512893676758, "mean_height": 0.15281595289707184, "std_height": 0.27306503057479858, "count_pixels": 42, "percent_cover": 1.09375, "percent_above_0.1m": 30.952380952380953, "low_level_<0.5": 19.047619047619047, "mid_level_0.5-2": 11.904761904761903, "tall_2+": 0.0 }, "geometry": { "type": "Point", "coordinates": [ -0.105759882775006, 51.465898454642343 ] } },
{ "type": "Feature", "properties": { "max_height": 17.088001251220703, "mean_height": 1.3713726997375488, "std_height": 3.8860359191894531, "count_pixels": 43, "percent_cover": 1.1197916666666667, "percent_above_0.1m": 20.930232558139537, "low_level_<0.5": 2.3255813953488373, "mid_level_0.5-2": 4.6511627906976747, "tall_2+": 13.953488372093023 }, "geometry": { "type": "Point", "coordinates": [ -0.105560522170303, 51.46589523260343 ] } },
{ "type": "Feature", "properties": { "max_height": 35.361000061035156, "mean_height": 17.891925811767578, "std_height": 14.035519599914551, "count_pixels": 42, "percent_cover": 1.09375, "percent_above_0.1m": 85.714285714285708, "low_level_<0.5": 4.7619047619047619, "mid_level_0.5-2": 9.5238095238095237, "tall_2+": 71.428571428571431 }, "geometry": { "type": "Point", "coordinates": [ -0.1053611616033, 51.465892010225545 ] } },
{ "type": "Feature", "properties": { "max_height": 6.8240013122558594, "mean_height": 0.84539347887039185, "std_height": 1.3736507892608643, "count_pixels": 42, "percent_cover": 1.09375, "percent_above_0.1m": 54.761904761904766, "low_level_<0.5": 11.904761904761903, "mid_level_0.5-2": 28.571428571428569, "tall_2+": 14.285714285714285 }, "geometry": { "type": "Point", "coordinates": [ -0.106054458999403, 51.466011128665357 ] } },
{ "type": "Feature", "properties": { "max_height": 1.9362506866455078, "mean_height": 0.53257215023040771, "std_height": 0.46392890810966492, "count_pixels": 42, "percent_cover": 1.09375, "percent_above_0.1m": 71.428571428571431, "low_level_<0.5": 23.809523809523807, "mid_level_0.5-2": 47.619047619047613, "tall_2+": 0.0 }, "geometry": { "type": "Point", "coordinates": [ -0.105855097857464, 51.466007907125139 ] } },
{ "type": "Feature", "properties": { "max_height": 6.2119998931884766, "mean_height": 0.75164681673049927, "std_height": 1.1260273456573486, "count_pixels": 41, "percent_cover": 1.0677083333333333, "percent_above_0.1m": 58.536585365853654, "low_level_<0.5": 12.195121951219512, "mid_level_0.5-2": 36.585365853658537, "tall_2+": 7.3170731707317067 }, "geometry": { "type": "Point", "coordinates": [ -0.105655736753216, 51.466004685245942 ] } },
{ "type": "Feature", "properties": { "max_height": 35.660003662109375, "mean_height": 24.783014297485352, "std_height": 12.155035018920898, "count_pixels": 41, "percent_cover": 1.0677083333333333, "percent_above_0.1m": 97.560975609756099, "low_level_<0.5": 0.0, "mid_level_0.5-2": 7.3170731707317067, "tall_2+": 90.243902439024396 }, "geometry": { "type": "Point", "coordinates": [ -0.105456375686671, 51.466001463027737 ] } },
{ "type": "Feature", "properties": { "max_height": 5.98175048828125, "mean_height": 0.79700058698654175, "std_height": 1.3898518085479736, "count_pixels": 38, "percent_cover": 0.98958333333333326, "percent_above_0.1m": 52.631578947368418, "low_level_<0.5": 13.157894736842104, "mid_level_0.5-2": 21.052631578947366, "tall_2+": 15.789473684210526 }, "geometry": { "type": "Point", "coordinates": [ -0.105950313401761, 51.466117359530827 ] } },
{ "type": "Feature", "properties": { "max_height": 31.488250732421875, "mean_height": 1.9899230003356934, "std_height": 6.1686253547668457, "count_pixels": 42, "percent_cover": 1.09375, "percent_above_0.1m": 47.619047619047613, "low_level_<0.5": 19.047619047619047, "mid_level_0.5-2": 19.047619047619047, "tall_2+": 9.5238095238095237 }, "geometry": { "type": "Point", "coordinates": [ -0.105750951797971, 51.466114137811317 ] } }
]
}
