{
"type": "FeatureCollection",
"name": "ada1d2e7dde2_foliage",
"crs": { "type": "name", "properties": { "name": "urn:ogc:def:crs:OGC:1.3:CRS84" } },
"features": [
{ "type": "Feature", "properties": { "max_height": 26.662250518798828, "mean_height": 12.312322616577148, "std_height": 8.1352853775024414, "count_pixels": 42, "percent_cover": 0.69044879171461448, "percent_above_0.1m": 90.476190476190482, "low_level_<0.5": 2.3809523809523809, "mid_level_0.5-2": 2.3809523809523809, "tall_2+": 83.333333333333343 }, "geometry": { "type": "Point", "coordinates": [ -0.048569489507652, 51.562903878388511 ] } },
{ "type": "Feature", "properties": { "max_height": 24.907749176025391, "mean_height": 13.01973819732666, "std_height": 8.2051877975463867, "count_pixels": 41, "percent_cover": 0.67400953476902847, "percent_above_0.1m": 90.243902439024396, "low_level_<0.5": 2.4390243902439024, "mid_level_0.5-2": 0.0, "tall_2+": 87.804878048780495 }, "geometry": { "type": "Point", "coordinates": [ -0.048369701000536, 51.562900558680312 ] } },
{ "type": "Feature", "properties": { "max_height": 18.174251556396484, "mean_height": 9.4504356384277344, "std_height": 7.2692136764526367, "count_pixels": 42, "percent_cover": 0.69044879171461448, "percent_above_0.1m": 88.095238095238088, "low_level_<0.5": 11.904761904761903, "mid_level_0.5-2": 7.1428571428571423, "tall_2+": 69.047619047619051 }, "geometry": { "type": "Point", "coordinates": [ -0.049064349562671, 51.563020011654331 ] } },
{ "type": "Feature", "properties": { "max_height": 16.768251419067383, "mean_height": 8.0576229095458984, "std_height": 7.5549154281616211, "count_pixels": 41, "percent_cover": 0.67400953476902847, "percent_above_0.1m": 85.365853658536579, "low_level_<0.5": 17.073170731707318, "mid_level_0.5-2": 9.7560975609756095, "tall_2+": 58.536585365853654 }, "geometry": { "type": "Point", "coordinates": [ -0.048864560468921, 51.563016692781545 ] } },
{ "type": "Feature", "properties": { "max_height": 18.465999603271484, "mean_height": 15.609857559204102, "std_height": 4.0323262214660645, "count_pixels": 42, "percent_cover": 0.69044879171461448, "percent_above_0.1m": 100.0, "low_level_<0.5": 0.0, "mid_level_0.5-2": 0.0, "tall_2+": 100.0 }, "geometry": { "type": "Point", "coordinates": [ -0.048664771414501, 51.5630133735689 ] } },
{ "type": "Feature", "properties": { "max_height": 6.6452503204345703, "mean_height": 0.28641700744628906, "std_height": 1.1276999711990356, "count_pixels": 42, "percent_cover": 0.69044879171461448, "percent_above_0.1m": 11.904761904761903, "low_level_<0.5": 2.3809523809523809, "mid_level_0.5-2": 0.0, "tall_2+": 7.1428571428571423 }, "geometry": { "type": "Point", "coordinates": [ -0.04846498239941, 51.563010054016345 ] } },
{ "type": "Feature", "properties": { "max_height": 4.9612507820129395, "mean_height": 0.1675538569688797, "std_height": 0.81259936094284058, "count_pixels": 42, "percent_cover": 0.69044879171461448, "percent_above_0.1m": 4.7619047619047619, "low_level_<0.5": 0.0, "mid_level_0.5-2": 0.0, "tall_2+": 4.7619047619047619 }, "geometry": { "type": "Point", "coordinates": [ -0.048265193423655, 51.563006734123924 ] } },
{ "type": "Feature", "properties": { "max_height": 11.088500022888184, "mean_height": 0.59442293643951416, "std_height": 2.0937860012054443, "count_pixels": 42, "percent_cover": 0.69044879171461448, "percent_above_0.1m": 9.5238095238095237, "low_level_<0.5": 0.0, "mid_level_0.5-2": 0.0, "tall_2+": 9.5238095238095237 }, "geometry": { "type": "Point", "coordinates": [ -0.048065404487233, 51.563003413891664 ] } },
{ "type": "Feature", "properties": { "max_height": 11.446500778198242, "mean_height": 1.5347442626953125, "std_height": 3.4056706428527832, "count_pixels": 42, "percent_cover": 0.69044879171461448, "percent_above_0.1m": 33.333333333333329, "low_level_<0.5": 14.285714285714285, "mid_level_0.5-2": 2.3809523809523809, "tall_2+": 16.666666666666664 }, "geometry": { "type": "Point", "coordinates": [ -0.049159632954084, 51.563129506450316 ] } },
{ "type": "Feature", "properties": { "max_height": 0.26925039291381836, "mean_height": 0.014744395390152931, "std_height": 0.043612346053123474, "count_pixels": 42, "percent_cover": 0.69044879171461448, "percent_above_0.1m": 2.3809523809523809, "low_level_<0.5": 2.3809523809523809, "mid_level_0.5-2": 0.0, "tall_2+": 0.0 }, "geometry": { "type": "Point", "coordinates": [ -0.048959843352365, 51.563126187733189 ] } },
{ "type": "Feature", "properties": { "max_height": 0.63950061798095703, "mean_height": 0.032589618116617203, "std_height": 0.11521229147911072, "count_pixels": 42, "percent_cover": 0.69044879171461448, "percent_above_0.1m": 9.5238095238095237, "low_level_<0.5": 7.1428571428571423, "mid_level_0.5-2": 2.3809523809523809, "tall_2+": 0.0 }, "geometry": { "type": "Point", "coordinates": [ -0.048760053789969, 51.563122868676196 ] } },
{ "type": "Feature", "properties": { "max_height": 8.7012510299682617, "mean_height": 0.65101826190948486, "std_height": 2.0573601722717285, "count_pixels": 42, "percent_cover": 0.69044879171461448, "percent_above_0.1m": 14.285714285714285, "low_level_<0.5": 0.0, "mid_level_0.5-2": 0.0, "tall_2+": 9.5238095238095237 }, "geometry": { "type": "Point", "coordinates": [ -0.048560264266903, 51.563119549279328 ] } },
{ "type": "Feature", "properties": { "max_height": 1.2272500991821289, "mean_height": 0.050036884844303131, "std_height": 0.22501656413078308, "count_pixels": 41, "percent_cover": 0.67400953476902847, "percent_above_0.1m": 4.8780487804878048, "low_level_<0.5": 0.0, "mid_level_0.5-2": 4.8780487804878048, "tall_2+": 0.0 }, "geometry": { "type": "Point", "coordinates": [ -0.048360474783169, 51.563116229542594 ] } },
{ "type": "Feature", "properties": { "max_height": 0.020250320434570312, "mean_height": 0.00086342717986553907, "std_height": 0.0035699750296771526, "count_pixels": 42, "percent_cover": 0.69044879171461448, "percent_above_0.1m": 0.0, "low_level_<0.5": 0.0, "mid_level_0.5-2": 0.0, "tall_2+": 0.0 }, "geometry": { "type": "Point", "coordinates": [ -0.048160685338772, 51.563112909465964 ] } },
{ "type": "Feature", "properties": { "max_height": 0.0020003318786621094, "mean_height": 9.243111708201468e-05, "std_height": 0.00047096246271394193, "count_pixels": 38, "percent_cover": 0.62469176393227022, "percent_above_0.1m": 0.0, "low_level_<0.5": 0.0, "mid_level_0.5-2": 0.0, "tall_2+": 0.0 }, "geometry": { "type": "Point", "coordinates": [ -0.047960895933719, 51.563109589049496 ] } },
{ "type": "Feature", "properties": { "max_height": 16.941749572753906, "mean_height": 3.2065422534942627, "std_height": 4.807375431060791, "count_pixels": 42, "percent_cover": 0.69044879171461448, "percent_above_0.1m": 61.904761904761905, "low_level_<0.5": 9.5238095238095237, "mid_level_0.5-2": 16.666666666666664, "tall_2+": 35.714285714285715 }, "geometry": { "type": "Point", "coordinates": [ -0.048655546603016, 51.56322904446926 ] } },
{ "type": "Feature", "properties": { "max_height": 8.4880008697509766, "mean_height": 1.3356670141220093, "std_height": 2.1882469654083252, "count_pixels": 42, "percent_cover": 0.69044879171461448, "percent_above_0.1m": 47.619047619047613, "low_level_<0.5": 7.1428571428571423, "mid_level_0.5-2": 14.285714285714285, "tall_2+": 26.190476190476193 }, "geometry": { "type": "Point", "coordinates": [ -0.048455756611309, 51.563225724888191 ] } },
{ "type": "Feature", "properties": { "max_height": 0.0087499618530273438, "mean_height": 0.00035148573806509376, "std_height": 0.0017078738892450929, "count_pixels": 42, "percent_cover": 0.69044879171461448, "percent_above_0.1m": 0.0, "low_level_<0.5": 0.0, "mid_level_0.5-2": 0.0, "tall_2+": 0.0 }, "geometry": { "type": "Point", "coordinates": [ -0.048255966658926, 51.563222404967235 ] } },
{ "type": "Feature", "properties": { "max_height": 0.027750015258789062, "mean_height": 0.0020360378548502922, "std_height": 0.005426276009529829, "count_pixels": 42, "percent_cover": 0.69044879171461448, "percent_above_0.1m": 0.0, "low_level_<0.5": 0.0, "mid_level_0.5-2": 0.0, "tall_2+": 0.0 }, "geometry": { "type": "Point", "coordinates": [ -0.048056176745889, 51.563219084706418 ] } },
{ "type": "Feature", "properties": { "max_height": 0.0020003318786621094, "mean_height": 0.00010743595339590684, "std_height": 0.0009836399694904685, "count_pixels": 42, "percent_cover": 0.69044879171461448, "percent_above_0.1m": 0.0, "low_level_<0.5": 0.0, "mid_level_0.5-2": 0.0, "tall_2+": 0.0 }, "geometry": { "type": "Point", "coordinates": [ -0.047856386872199, 51.56321576410572 ] } },
{ "type": "Feature", "properties": { "max_height": 20.737251281738281, "mean_height": 8.995640754699707, "std_height": 8.8360214233398438, "count_pixels": 41, "percent_cover": 0.67400953476902847, "percent_above_0.1m": 65.853658536585371, "low_level_<0.5": 2.4390243902439024, "mid_level_0.5-2": 2.4390243902439024, "tall_2+": 58.536585365853654 }, "geometry": { "type": "Point", "coordinates": [ -0.048351248447705, 51.563331900395454 ] } },
{ "type": "Feature", "properties": { "max_height": 1.7652506828308105, "mean_height": 0.13248246908187866, "std_height": 0.35091948509216309, "count_pixels": 42, "percent_cover": 0.69044879171461448, "percent_above_0.1m": 23.809523809523807, "low_level_<0.5": 9.5238095238095237, "mid_level_0.5-2": 7.1428571428571423, "tall_2+": 0.0 }, "geometry": { "type": "Point", "coordinates": [ -0.04815145802668, 51.56332858029031 ] } },
{ "type": "Feature", "properties": { "max_height": 1.3932504653930664, "mean_height": 0.039092440158128738, "std_height": 0.22275723516941071, "count_pixels": 38, "percent_cover": 0.62469176393227022, "percent_above_0.1m": 2.6315789473684208, "low_level_<0.5": 0.0, "mid_level_0.5-2": 2.6315789473684208, "tall_2+": 0.0 }, "geometry": { "type": "Point", "coordinates": [ -0.047951667645005, 51.563325259845271 ] } },
{ "type": "Feature", "properties": { "max_height": 0.029500484466552734, "mean_height": 0.00066105526639148593, "std_height": 0.0045345528051257133, "count_pixels": 42, "percent_cover": 0.69044879171461448, "percent_above_0.1m": 0.0, "low_level_<0.5": 0.0, "mid_level_0.5-2": 0.0, "tall_2+": 0.0 }, "geometry": { "type": "Point", "coordinates": [ -0.047751877302666, 51.563321939060359 ] } },
{ "type": "Feature", "properties": { "max_height": 1.1475005149841309, "mean_height": 0.081927210092544556, "std_height": 0.24071395397186279, "count_pixels": 41, "percent_cover": 0.67400953476902847, "percent_above_0.1m": 12.195121951219512, "low_level_<0.5": 4.8780487804878048, "mid_level_0.5-2": 7.3170731707317067, "tall_2+": 0.0 }, "geometry": { "type": "Point", "coordinates": [ -0.04755208699968, 51.563318617935579 ] } },
{ "type": "Feature", "properties": { "max_height": 23.570001602172852, "mean_height": 12.772071838378906, "std_height": 9.9230861663818359, "count_pixels": 42, "percent_cover": 0.69044879171461448, "percent_above_0.1m": 85.714285714285708, "low_level_<0.5": 7.1428571428571423, "mid_level_0.5-2": 7.1428571428571423, "tall_2+": 71.428571428571431 }, "geometry": { "type": "Point", "coordinates": [ -0.048246739776101, 51.563438075801137 ] } },
{ "type": "Feature", "properties": { "max_height": 2.3287501335144043, "mean_height": 0.27010154724121094, "std_height": 0.62468665838241577, "count_pixels": 42, "percent_cover": 0.69044879171461448, "percent_above_0.1m": 23.809523809523807, "low_level_<0.5": 7.1428571428571423, "mid_level_0.5-2": 9.5238095238095237, "tall_2+": 4.7619047619047619 }, "geometry": { "type": "Point", "coordinates": [ -0.048046948886428, 51.563434755511778 ] } },
{ "type": "Feature", "properties": { "max_height": 0.00050020217895507812, "mean_height": -0.00016042163770180196, "std_height": 0.0005845550331287086, "count_pixels": 42, "percent_cover": 0.69044879171461448, "percent_above_0.1m": 0.0, "low_level_<0.5": 0.0, "mid_level_0.5-2": 0.0, "tall_2+": 0.0 }, "geometry": { "type": "Point", "coordinates": [ -0.047847158036105, 51.56343143488251 ] } },
{ "type": "Feature", "properties": { "max_height": 0.0015006065368652344, "mean_height": -1.1557624020497315e-05, "std_height": 0.00042946179746650159, "count_pixels": 42, "percent_cover": 0.69044879171461448, "percent_above_0.1m": 0.0, "low_level_<0.5": 0.0, "mid_level_0.5-2": 0.0, "tall_2+": 0.0 }, "geometry": { "type": "Point", "coordinates": [ -0.047647367225122, 51.563428113913403 ] } },
{ "type": "Feature", "properties": { "max_height": 0.76875019073486328, "mean_height": 0.046643108129501343, "std_height": 0.13938210904598236, "count_pixels": 42, "percent_cover": 0.69044879171461448, "percent_above_0.1m": 14.285714285714285, "low_level_<0.5": 7.1428571428571423, "mid_level_0.5-2": 2.3809523809523809, "tall_2+": 0.0 }, "geometry": { "type": "Point", "coordinates": [ -0.0474475764535, 51.563424792604422 ] } },
{ "type": "Feature", "properties": { "max_height": 23.118001937866211, "mean_height": 14.803933143615723, "std_height": 8.8812932968139648, "count_pixels": 41, "percent_cover": 0.67400953476902847, "percent_above_0.1m": 95.121951219512198, "low_level_<0.5": 12.195121951219512, "mid_level_0.5-2": 4.8780487804878048, "tall_2+": 78.048780487804876 }, "geometry": { "type": "Point", "coordinates": [ -0.048342021994146, 51.563547571238935 ] } },
{ "type": "Feature", "properties": { "max_height": 6.2832503318786621, "mean_height": 0.81728017330169678, "std_height": 1.5264476537704468, "count_pixels": 42, "percent_cover": 0.69044879171461448, "percent_above_0.1m": 35.714285714285715, "low_level_<0.5": 4.7619047619047619, "mid_level_0.5-2": 9.5238095238095237, "tall_2+": 19.047619047619047 }, "geometry": { "type": "Point", "coordinates": [ -0.048142230596485, 51.56354425110522 ] } },
{ "type": "Feature", "properties": { "max_height": 0.00050020217895507812, "mean_height": -1.9399743905523792e-05, "std_height": 0.00033627389348112047, "count_pixels": 38, "percent_cover": 0.62469176393227022, "percent_above_0.1m": 0.0, "low_level_<0.5": 0.0, "mid_level_0.5-2": 0.0, "tall_2+": 0.0 }, "geometry": { "type": "Point", "coordinates": [ -0.047942439238161, 51.563540930631653 ] } },
{ "type": "Feature", "properties": { "max_height": 0.00225067138671875, "mean_height": 3.6080677091376856e-05, "std_height": 0.00044848091783933342, "count_pixels": 42, "percent_cover": 0.69044879171461448, "percent_above_0.1m": 0.0, "low_level_<0.5": 0.0, "mid_level_0.5-2": 0.0, "tall_2+": 0.0 }, "geometry": { "type": "Point", "coordinates": [ -0.047742647919195, 51.563537609818184 ] } },
{ "type": "Feature", "properties": { "max_height": 4.198000431060791, "mean_height": 0.28428077697753906, "std_height": 0.84092992544174194, "count_pixels": 41, "percent_cover": 0.67400953476902847, "percent_above_0.1m": 17.073170731707318, "low_level_<0.5": 4.8780487804878048, "mid_level_0.5-2": 7.3170731707317067, "tall_2+": 4.8780487804878048 }, "geometry": { "type": "Point", "coordinates": [ -0.047542856639567, 51.563534288664847 ] } },
{ "type": "Feature", "properties": { "max_height": 0.0012502670288085938, "mean_height": -4.1371298721060157e-05, "std_height": 0.0007398187299259007, "count_pixels": 42, "percent_cover": 0.69044879171461448, "percent_above_0.1m": 0.0, "low_level_<0.5": 0.0, "mid_level_0.5-2": 0.0, "tall_2+": 0.0 }, "geometry": { "type": "Point", "coordinates": [ -0.047343065399301, 51.56353096717163 ] } },
{ "type": "Feature", "properties": { "max_height": 21.228252410888672, "mean_height": 14.891477584838867, "std_height": 8.1558065414428711, "count_pixels": 42, "percent_cover": 0.69044879171461448, "percent_above_0.1m": 90.476190476190482, "low_level_<0.5": 2.3809523809523809, "mid_level_0.5-2": 7.1428571428571423, "tall_2+": 80.952380952380949 }, "geometry": { "type": "Point", "coordinates": [ -0.048437304680825, 51.563657066603675 ] } },
{ "type": "Feature", "properties": { "max_height": 0.56700038909912109, "mean_height": 0.020405123010277748, "std_height": 0.096238948404788971, "count_pixels": 42, "percent_cover": 0.69044879171461448, "percent_above_0.1m": 4.7619047619047619, "low_level_<0.5": 2.3809523809523809, "mid_level_0.5-2": 2.3809523809523809, "tall_2+": 0.0 }, "geometry": { "type": "Point", "coordinates": [ -0.048237512775167, 51.563653746625633 ] } },
{ "type": "Feature", "properties": { "max_height": 0.88350009918212891, "mean_height": 0.033672947436571121, "std_height": 0.14199602603912354, "count_pixels": 42, "percent_cover": 0.69044879171461448, "percent_above_0.1m": 7.1428571428571423, "low_level_<0.5": 2.3809523809523809, "mid_level_0.5-2": 2.3809523809523809, "tall_2+": 0.0 }, "geometry": { "type": "Point", "coordinates": [ -0.048037720908853, 51.56365042630771 ] } },
{ "type": "Feature", "properties": { "max_height": 0.0012502670288085938, "mean_height": 0.00010736783588072285, "std_height": 0.0006199760246090591, "count_pixels": 42, "percent_cover": 0.69044879171461448, "percent_above_0.1m": 0.0, "low_level_<0.5": 0.0, "mid_level_0.5-2": 0.0, "tall_2+": 0.0 }, "geometry": { "type": "Point", "coordinates": [ -0.047837929081881, 51.563647105649927 ] } },
{ "type": "Feature", "properties": { "max_height": 21.550252914428711, "mean_height": 10.431976318359375, "std_height": 9.221160888671875, "count_pixels": 42, "percent_cover": 0.69044879171461448, "percent_above_0.1m": 83.333333333333343, "low_level_<0.5": 7.1428571428571423, "mid_level_0.5-2": 14.285714285714285, "tall_2+": 59.523809523809526 }, "geometry": { "type": "Point", "coordinates": [ -0.048532587836138, 51.563766561895356 ] } },
{ "type": "Feature", "properties": { "max_height": 7.175750732421875, "mean_height": 0.78883564472198486, "std_height": 1.5867767333984375, "count_pixels": 41, "percent_cover": 0.67400953476902847, "percent_above_0.1m": 46.341463414634148, "low_level_<0.5": 17.073170731707318, "mid_level_0.5-2": 17.073170731707318, "tall_2+": 12.195121951219512 }, "geometry": { "type": "Point", "coordinates": [ -0.048332795422488, 51.56376324207298 ] } },
{ "type": "Feature", "properties": { "max_height": 19.287252426147461, "mean_height": 1.3683755397796631, "std_height": 3.6451616287231445, "count_pixels": 42, "percent_cover": 0.69044879171461448, "percent_above_0.1m": 52.380952380952387, "low_level_<0.5": 19.047619047619047, "mid_level_0.5-2": 19.047619047619047, "tall_2+": 9.5238095238095237 }, "geometry": { "type": "Point", "coordinates": [ -0.048133003048172, 51.563759921910744 ] } },
{ "type": "Feature", "properties": { "max_height": 21.788501739501953, "mean_height": 2.829845666885376, "std_height": 6.4933576583862305, "count_pixels": 42, "percent_cover": 0.69044879171461448, "percent_above_0.1m": 33.333333333333329, "low_level_<0.5": 9.5238095238095237, "mid_level_0.5-2": 4.7619047619047619, "tall_2+": 19.047619047619047 }, "geometry": { "type": "Point", "coordinates": [ -0.048627871460095, 51.563876057114001 ] } },
{ "type": "Feature", "properties": { "max_height": 21.110750198364258, "mean_height": 2.4161014556884766, "std_height": 5.7413458824157715, "count_pixels": 42, "percent_cover": 0.69044879171461448, "percent_above_0.1m": 30.952380952380953, "low_level_<0.5": 7.1428571428571423, "mid_level_0.5-2": 7.1428571428571423, "tall_2+": 16.666666666666664 }, "geometry": { "type": "Point", "coordinates": [ -0.048428078538442, 51.563872737447298 ] } }
]
}
