{
"type": "FeatureCollection",
"name": "Havering_national_cycle_network",
"crs": { "type": "name", "properties": { "name": "urn:ogc:def:crs:OGC:1.3:CRS84" } },
"features": [
{"type":"Feature","properties":{"Desc_":"TrafficFree","Greenway":"Yes","RouteType":"NCN","RouteNo":13,"LinkNo":0,"RouteCat":"Main Route","OpenStatus":"Open","Surface":"Asphalt","Quality":"Standard","Lighting":"NotLit","RoadClass":null,"GlobalID":"d2fa3453-b276-4389-bcc7-46950646c3f7","SegmentID":43841},"geometry":{"type":"LineString","coordinates":[[0.186226501075515,51.502875536679632],[0.186344223236337,51.5029587516674],[0.186499118484931,51.502896724430641],[0.186631800579248,51.502990209392415],[0.186898063391273,51.503186901862996],[0.187081717058637,51.503438545288169],[0.187426419689751,51.503910217878555],[0.187708120159624,51.504538225861218],[0.18813252174531,51.504907128431711],[0.188439158564287,51.50500608073451],[0.188676595792342,51.505148187269448],[0.189229564917134,51.505380211153117],[0.189818567727601,51.505616226412116],[0.190487232770252,51.506268398265249],[0.191056463852452,51.506770659955144],[0.19098375007082,51.506901854312154],[0.188873793681277,51.507947095957128],[0.188397421988207,51.508243820266976],[0.187330620953269,51.508732123495754],[0.186546114718719,51.509424493261491],[0.186341138993827,51.509522517051138],[0.186135299395324,51.50967350762037],[0.186180471884455,51.510193362678649],[0.186026507968801,51.510394521569339],[0.185145938996666,51.5107458728287],[0.18426793209942,51.510990609600988],[0.184293917623483,51.511435889853594]]}},
{"type":"Feature","properties":{"Desc_":"OnRoad","Greenway":"No","RouteType":"NCN","RouteNo":136,"LinkNo":0,"RouteCat":"Main Route","OpenStatus":"Open","Surface":"Concrete","Quality":"Acceptable","Lighting":"FullLit","RoadClass":"Local Street","GlobalID":"6ecbf6b9-075e-48d2-b93d-9b1044a014c0","SegmentID":40018},"geometry":{"type":"LineString","coordinates":[[0.239624469527853,51.5554929734094],[0.240995328863144,51.555206004837828],[0.242151741984311,51.554959089492854],[0.24319681519957,51.554795228243059],[0.243371536539324,51.554827860280561],[0.243576238602208,51.554590127157184]]}},
{"type":"Feature","properties":{"Desc_":"TrafficFree","Greenway":"Yes","RouteType":"NCN","RouteNo":136,"LinkNo":0,"RouteCat":"Main Route","OpenStatus":"Open","Surface":"Asphalt","Quality":"Standard","Lighting":"FullLit","RoadClass":null,"GlobalID":"fee3b878-f798-4199-9fee-2e7ebf913702","SegmentID":6434},"geometry":{"type":"LineString","coordinates":[[0.246275571804602,51.556486389836834],[0.246253493711836,51.556421855466461],[0.246547914565138,51.556361730507859],[0.2464419328399,51.556025197025576],[0.246312686424464,51.555493706377234],[0.246551876413369,51.555020092572114],[0.246314474432046,51.554817409883185],[0.245367198357682,51.554851825303501],[0.244655477024043,51.554881880275097],[0.244109843946358,51.554815983216102],[0.243746829676516,51.554550245607984],[0.243677495527557,51.554562533886688],[0.243576238607685,51.554590127141211]]}},
{"type":"Feature","properties":{"Desc_":"TrafficFree","Greenway":"Yes","RouteType":"NCN","RouteNo":136,"LinkNo":0,"RouteCat":"Main Route","OpenStatus":"Open","Surface":"Asphalt","Quality":"Standard","Lighting":"FullLit","RoadClass":null,"GlobalID":"c4c18b7b-6c09-4d3d-916d-0933d23f674a","SegmentID":35008},"geometry":{"type":"LineString","coordinates":[[0.246286471337038,51.556495614955821],[0.246275571798559,51.556486389852715]]}},
{"type":"Feature","properties":{"Desc_":"TrafficFree","Greenway":"No","RouteType":"NCN","RouteNo":136,"LinkNo":0,"RouteCat":"Main Route","OpenStatus":"Open","Surface":"Asphalt","Quality":"Standard","Lighting":"FullLit","RoadClass":null,"GlobalID":"5d358d0c-cba9-4beb-a92d-909eafd07d73","SegmentID":35022},"geometry":{"type":"LineString","coordinates":[[0.246605905851642,51.556544655555058],[0.246487215723578,51.556571029140912],[0.246478260829828,51.556539194209599],[0.246325261908259,51.556564955471607],[0.246286471337038,51.556495614955821]]}},
{"type":"Feature","properties":{"Desc_":"OnRoad","Greenway":"No","RouteType":"NCN","RouteNo":136,"LinkNo":0,"RouteCat":"Main Route","OpenStatus":"Open","Surface":"Asphalt","Quality":"Standard","Lighting":"FullLit","RoadClass":"Local Street","GlobalID":"f2f26429-6ff7-4183-bcc8-e6547e99e4d3","SegmentID":39497},"geometry":{"type":"LineString","coordinates":[[0.250034422107123,51.55815921737333],[0.249868811012674,51.558190505653506],[0.247683596147612,51.558603386295985],[0.247462309965184,51.558211926759064],[0.247271628533005,51.557855854999623],[0.246605905851642,51.556544655555058]]}},
{"type":"Feature","properties":{"Desc_":"TrafficFree","Greenway":"No","RouteType":"NCN","RouteNo":136,"LinkNo":0,"RouteCat":"Main Route","OpenStatus":"Open","Surface":"Blocks","Quality":"Acceptable","Lighting":"FullLit","RoadClass":null,"GlobalID":"7088677a-54f3-41e9-bde6-106cc002eb82","SegmentID":13789},"geometry":{"type":"LineString","coordinates":[[0.250108816509657,51.558325988993538],[0.249999779881895,51.558346605215647],[0.249972072503822,51.558289148903903],[0.249963802043237,51.558246689165472],[0.249902147025267,51.558255605213738],[0.249868811019146,51.558190505637256]]}},
{"type":"Feature","properties":{"Desc_":"TrafficFree","Greenway":"No","RouteType":"NCN","RouteNo":136,"LinkNo":0,"RouteCat":"Main Route","OpenStatus":"Open","Surface":"Asphalt","Quality":"Standard","Lighting":"FullLit","RoadClass":null,"GlobalID":"b1438ff2-5a21-457c-9834-978a92a4160b","SegmentID":35028},"geometry":{"type":"LineString","coordinates":[[0.250271063879946,51.558689725675698],[0.250412557687051,51.558659925447394],[0.250344794189411,51.55854515981401],[0.250294740755411,51.558410628586607],[0.250239330810701,51.558295626044796],[0.250108816503251,51.558325989009859]]}},
{"type":"Feature","properties":{"Desc_":"OnRoad","Greenway":"No","RouteType":"NCN","RouteNo":136,"LinkNo":0,"RouteCat":"Main Route","OpenStatus":"Open","Surface":"Asphalt","Quality":"Standard","Lighting":"FullLit","RoadClass":"Minor Road","GlobalID":"0e6ff730-b767-408a-b0f9-17ff6e5f468f","SegmentID":40560},"geometry":{"type":"LineString","coordinates":[[0.25632431466813,51.567978093157734],[0.25629641363822,51.567925768361775],[0.255781790058543,51.567441043196801],[0.25572623031516,51.567378017683751],[0.255337812914825,51.566937420526358],[0.25528920727644,51.566870816795046],[0.254948622252389,51.566350908103296],[0.254463953763339,51.565595810307379],[0.253327249695761,51.564493513334824],[0.252591798596925,51.563626315632042],[0.251892967686026,51.56262351459555],[0.251377122357693,51.561527268390563],[0.251191725905856,51.560694471767057],[0.250951560493942,51.560213454889748],[0.250790568055206,51.559874806894818],[0.250286523457617,51.558724367454744],[0.250271063879946,51.558689725675698],[0.250108816503251,51.558325989009859],[0.250034422107123,51.55815921737333]]}},
{"type":"Feature","properties":{"Desc_":"TrafficFree","Greenway":"No","RouteType":"NCN","RouteNo":136,"LinkNo":0,"RouteCat":"Main Route","OpenStatus":"Open","Surface":"Asphalt","Quality":"Standard","Lighting":"FullLit","RoadClass":null,"GlobalID":"b7ea541f-c5b7-4dc5-b940-76f9fb1e9d4a","SegmentID":14633},"geometry":{"type":"LineString","coordinates":[[0.256358802038435,51.568042782680038],[0.256271954941982,51.568052591530389],[0.256235007618025,51.56800583653169],[0.25632431466813,51.567978093157734]]}},
{"type":"Feature","properties":{"Desc_":"TrafficFree","Greenway":"No","RouteType":"NCN","RouteNo":136,"LinkNo":0,"RouteCat":"Main Route","OpenStatus":"Open","Surface":"Asphalt","Quality":"Standard","Lighting":"FullLit","RoadClass":null,"GlobalID":"c9a776ab-a35e-458e-a736-c83aa9b383b5","SegmentID":109},"geometry":{"type":"LineString","coordinates":[[0.256496793599836,51.568007097291577],[0.256358802045019,51.568042782663518]]}},
{"type":"Feature","properties":{"Desc_":"TrafficFree","Greenway":"No","RouteType":"NCN","RouteNo":136,"LinkNo":0,"RouteCat":"Main Route","OpenStatus":"Open","Surface":"Asphalt","Quality":"Standard","Lighting":"FullLit","RoadClass":null,"GlobalID":"9ad21b06-889b-4600-a783-79b63c6cc20b","SegmentID":21629},"geometry":{"type":"LineString","coordinates":[[0.257508477416304,51.570259599199687],[0.257514530832865,51.570149281913771],[0.257374575524061,51.570158268677183],[0.25731380787571,51.570146937366331],[0.257139975675507,51.570153770615441],[0.256999890060811,51.570160709921005],[0.256937981243248,51.570002166236591],[0.256849679503363,51.569441034004456],[0.256823485478143,51.569059953895476],[0.256744414320926,51.568516136424357],[0.256664430458069,51.568232936047124],[0.256496793593237,51.568007097308097],[0.256357827853999,51.567826922438279],[0.255843330838499,51.567340954063511],[0.25572623031516,51.567378017683751]]}},
{"type":"Feature","properties":{"Desc_":"TrafficFree","Greenway":"No","RouteType":"NCN","RouteNo":136,"LinkNo":0,"RouteCat":"Main Route","OpenStatus":"Open","Surface":"Other","Quality":"Acceptable","Lighting":"FullLit","RoadClass":null,"GlobalID":"9bbadf65-b389-4c3e-b804-13fefedd60bf","SegmentID":12458},"geometry":{"type":"LineString","coordinates":[[0.257168138103805,51.570414476862872],[0.257293620025363,51.57040724276343],[0.257350643569058,51.570383753099996],[0.257500732692953,51.570377727990945],[0.257508477421816,51.570259599183089]]}},
{"type":"Feature","properties":{"Desc_":"OnRoad","Greenway":"No","RouteType":"NCN","RouteNo":136,"LinkNo":0,"RouteCat":"Main Route","OpenStatus":"Open","Surface":"Concrete","Quality":"Acceptable","Lighting":"FullLit","RoadClass":"Local Street","GlobalID":"a6383882-7139-4031-8a81-a96a52b04619","SegmentID":14467},"geometry":{"type":"LineString","coordinates":[[0.257168138098363,51.570414476879456],[0.257120971266959,51.570589840258144],[0.257156741458822,51.57102081837337],[0.25690956769234,51.572149702809519],[0.257309434514514,51.573230169980292]]}},
{"type":"Feature","properties":{"Desc_":"TrafficFree","Greenway":"No","RouteType":"NCN","RouteNo":136,"LinkNo":0,"RouteCat":"Main Route","OpenStatus":"Open","Surface":"Asphalt","Quality":"Standard","Lighting":"FullLit","RoadClass":null,"GlobalID":"6dd3e649-67c9-4f6b-b2ae-b9017150c9b7","SegmentID":41023},"geometry":{"type":"LineString","coordinates":[[0.25309233618652,51.581044393388716],[0.253193406157439,51.581063011558264],[0.253558437296333,51.580177461814792],[0.253932792008086,51.579230345013457],[0.254448985107044,51.579298734586381],[0.254910631369116,51.579280470827186],[0.255287266055787,51.579169870566048],[0.255639148718457,51.578965766748645],[0.255848697732111,51.578729944911309],[0.255922774831501,51.578499865718086],[0.256051969008118,51.578113659575372],[0.256309918995322,51.577535477285728],[0.256364683916119,51.5774646926494],[0.256417173635483,51.577391685456249],[0.256492159569224,51.577328768497637],[0.256750220011862,51.576969310942701],[0.257287218622557,51.576331865558608],[0.257466606897909,51.576096619911702],[0.257618026827663,51.575905770936444],[0.257660037099536,51.575845357892803],[0.257686992879555,51.575752004233124],[0.257729583650925,51.57568291879037],[0.257768259689291,51.575365799624905],[0.257784274015938,51.574948762099822],[0.257741810848469,51.574445231171303],[0.257522824518893,51.573899132490617],[0.257370226660423,51.573490770111476],[0.257398146974973,51.573321316750487],[0.257309434514514,51.573230169980292]]}},
{"type":"Feature","properties":{"Desc_":"TrafficFree","Greenway":"No","RouteType":"NCN","RouteNo":136,"LinkNo":0,"RouteCat":"Main Route","OpenStatus":"Open","Surface":"UnsealedFirm","Quality":"Acceptable","Lighting":"PartLit","RoadClass":null,"GlobalID":"bed8b2e4-c226-4e22-9522-59ab6da10cf6","SegmentID":38738},"geometry":{"type":"LineString","coordinates":[[0.252568036766057,51.581142999745197],[0.252878504928219,51.581166961809359],[0.252940553008981,51.581025444403949],[0.25309233618652,51.581044393388716]]}},
{"type":"Feature","properties":{"Desc_":"TrafficFree","Greenway":"Yes","RouteType":"NCN","RouteNo":136,"LinkNo":0,"RouteCat":"Main Route","OpenStatus":"Open","Surface":"UnsealedFirm","Quality":"Acceptable","Lighting":"NotLit","RoadClass":null,"GlobalID":"4e936575-61de-4d68-a6c8-e0db11da7f13","SegmentID":55466},"geometry":{"type":"LineString","coordinates":[[0.252568036766057,51.581142999745197],[0.251874773363326,51.581033292960626],[0.251219810197774,51.580924537117752],[0.250347709823813,51.580878608128778],[0.249719920661762,51.580883460698196],[0.249056908088618,51.581125598810168],[0.248571709593259,51.581481005736514],[0.248173442005079,51.58166172406321],[0.247892772146728,51.581998708965727],[0.24753538667337,51.582169751060924],[0.247323270539867,51.582263869266235],[0.247502561915708,51.582419824658025],[0.247889788084866,51.582860320006127],[0.248011911317345,51.58323997749757],[0.248083231087236,51.583418374428007],[0.248245968463469,51.583690547074404],[0.248658228882973,51.58421451720794],[0.248847733366506,51.584389431835362],[0.248911161690834,51.584543863845312],[0.248996993736399,51.584983848655213],[0.249142898452095,51.585254127494224],[0.249511314018022,51.585733664750755],[0.249950884387415,51.586051669081876],[0.250520815155719,51.586886772693781],[0.25083859929099,51.587452186422432],[0.250969595238052,51.587669883396408],[0.251122776944606,51.587874399292417],[0.251426924206976,51.588373390910633],[0.251595652909441,51.588707990770459],[0.251369247014091,51.589236638541387],[0.251183311918596,51.589562276255229],[0.251066501068012,51.589729298085899],[0.250882251545607,51.589955319425044],[0.251056036356867,51.590129486692405],[0.251029561953967,51.590180652441965]]}},
{"type":"Feature","properties":{"Desc_":"TrafficFree","Greenway":"Yes","RouteType":"NCN","RouteNo":136,"LinkNo":0,"RouteCat":"Main Route","OpenStatus":"Open","Surface":"UnsealedFirm","Quality":"Rough","Lighting":"NotLit","RoadClass":null,"GlobalID":"2c74760f-af1f-4e42-989d-c486698457f0","SegmentID":56695},"geometry":{"type":"LineString","coordinates":[[0.251306092113571,51.590444622872681],[0.2512603615197,51.590363853419447],[0.251231544396517,51.590315040826816],[0.251029561953967,51.590180652441965]]}},
{"type":"Feature","properties":{"Desc_":"TrafficFree","Greenway":"Yes","RouteType":"NCN","RouteNo":136,"LinkNo":0,"RouteCat":"Main Route","OpenStatus":"Open","Surface":"Asphalt","Quality":"Standard","Lighting":"FullLit","RoadClass":null,"GlobalID":"77080219-459a-405e-8fb7-5db6e4ad7ec2","SegmentID":30662},"geometry":{"type":"LineString","coordinates":[[0.250903212205394,51.590500197682083],[0.250927036260003,51.590541729138678],[0.251025844646487,51.590522307796924],[0.25130821342781,51.590489025411685],[0.251306092113571,51.590444622872681]]}},
{"type":"Feature","properties":{"Desc_":"OnRoad","Greenway":"Yes","RouteType":"NCN","RouteNo":136,"LinkNo":0,"RouteCat":"Main Route","OpenStatus":"Open","Surface":"Asphalt","Quality":"Standard","Lighting":"FullLit","RoadClass":"Minor Road","GlobalID":"5fbc69a1-a8a4-4663-91b9-7df384748488","SegmentID":8840},"geometry":{"type":"LineString","coordinates":[[0.250668908560778,51.590548114768602],[0.250903212213644,51.590500197667296]]}},
{"type":"Feature","properties":{"Desc_":"OnRoad","Greenway":"Yes","RouteType":"NCN","RouteNo":136,"LinkNo":0,"RouteCat":"Main Route","OpenStatus":"Open","Surface":"UnsealedFirm","Quality":"Rough","Lighting":"NotLit","RoadClass":null,"GlobalID":"75677522-c6ca-4f0a-8c64-8dae54ce1fb2","SegmentID":41124},"geometry":{"type":"LineString","coordinates":[[0.250494450326322,51.591608445792268],[0.250605605178227,51.59133114893681],[0.25067599644661,51.591006754746779],[0.250671971337787,51.590731719289828],[0.250668908552525,51.590548114783353]]}},
{"type":"Feature","properties":{"Desc_":"TrafficFree","Greenway":"Yes","RouteType":"NCN","RouteNo":136,"LinkNo":0,"RouteCat":"Main Route","OpenStatus":"Open","Surface":"UnsealedFirm","Quality":"Acceptable","Lighting":"NotLit","RoadClass":null,"GlobalID":"7e996957-22aa-45ef-af40-b61ee370f439","SegmentID":22887},"geometry":{"type":"LineString","coordinates":[[0.250394831643883,51.595710667876034],[0.250363398979386,51.595676224671791],[0.250349245618137,51.595491690619689],[0.250293406570836,51.595124742038159],[0.250207614071642,51.59481317854469],[0.249883283643417,51.594426516879523],[0.24987771983854,51.594328456391473],[0.250380129912649,51.591719595346724],[0.250468258329069,51.591662815573123],[0.250494450326322,51.591608445792268]]}},
{"type":"Feature","properties":{"Desc_":"OnRoad","Greenway":"No","RouteType":"NCN","RouteNo":136,"LinkNo":0,"RouteCat":"Main Route","OpenStatus":"Open","Surface":"Asphalt","Quality":"Acceptable","Lighting":"FullLit","RoadClass":"Local Street","GlobalID":"dd4183e1-29a2-4bb3-a72a-39ba7686f9ed","SegmentID":25494},"geometry":{"type":"LineString","coordinates":[[0.250102652514995,51.599110120420967],[0.250788158381955,51.598122057490123],[0.250912898203708,51.597723976475805],[0.250864958526578,51.597338198158113],[0.250583204584844,51.596764720653709],[0.250394831643883,51.595710667876034]]}},
{"type":"Feature","properties":{"Desc_":"OnRoad","Greenway":"No","RouteType":"NCN","RouteNo":136,"LinkNo":0,"RouteCat":"Main Route","OpenStatus":"Open","Surface":"Asphalt","Quality":"Acceptable","Lighting":"PartLit","RoadClass":"Local Street","GlobalID":"7dad5683-a1ab-488a-9d81-87424529cbb4","SegmentID":17564},"geometry":{"type":"LineString","coordinates":[[0.249976951910447,51.599287171984926],[0.250102652514995,51.599110120420967]]}},
{"type":"Feature","properties":{"Desc_":"OnRoad","Greenway":"No","RouteType":"NCN","RouteNo":136,"LinkNo":0,"RouteCat":"Main Route","OpenStatus":"Open","Surface":"Asphalt","Quality":"Acceptable","Lighting":"PartLit","RoadClass":null,"GlobalID":"269f2412-28c8-4dce-bd3f-c814fbb9b471","SegmentID":4349},"geometry":{"type":"LineString","coordinates":[[0.249976951918778,51.599287171970275],[0.249860152733418,51.599451551745624]]}},
{"type":"Feature","properties":{"Desc_":"OnRoad","Greenway":"No","RouteType":"NCN","RouteNo":136,"LinkNo":0,"RouteCat":"Main Route","OpenStatus":"Open","Surface":"Asphalt","Quality":"Acceptable","Lighting":"PartLit","RoadClass":"Local Street","GlobalID":"49f70b95-5a69-41d5-85a6-74aba9be94cf","SegmentID":17563},"geometry":{"type":"LineString","coordinates":[[0.249448063486301,51.600032023584376],[0.249860152725099,51.599451551760268]]}},
{"type":"Feature","properties":{"Desc_":"OnRoad","Greenway":"No","RouteType":"NCN","RouteNo":136,"LinkNo":0,"RouteCat":"Main Route","OpenStatus":"Open","Surface":"Asphalt","Quality":"Acceptable","Lighting":"FullLit","RoadClass":"Local Street","GlobalID":"1fc9e288-a22d-43c2-ba88-72e279c01b48","SegmentID":25492},"geometry":{"type":"LineString","coordinates":[[0.248918718263996,51.600621930062971],[0.249448063486301,51.600032023584376]]}},
{"type":"Feature","properties":{"Desc_":"TrafficFree","Greenway":"Yes","RouteType":"NCN","RouteNo":136,"LinkNo":0,"RouteCat":"Main Route","OpenStatus":"Open","Surface":"Asphalt","Quality":"Acceptable","Lighting":"NotLit","RoadClass":null,"GlobalID":"d7cbfa51-b69c-49a9-81c0-fbe90e1de157","SegmentID":39812},"geometry":{"type":"LineString","coordinates":[[0.234911054017093,51.601442022888463],[0.234980795343528,51.601371897673637],[0.235286763861717,51.60115934425702],[0.235656411823023,51.600809404901334],[0.236002170961859,51.600567718521646],[0.236135670865222,51.600514523959106],[0.237218741068109,51.600364324688115],[0.23739252986977,51.600340856139958],[0.2373774280772,51.600228211754725]]}},
{"type":"Feature","properties":{"Desc_":"OnRoad","Greenway":"No","RouteType":"NCN","RouteNo":136,"LinkNo":0,"RouteCat":"Main Route","OpenStatus":"Open","Surface":"Asphalt","Quality":"Acceptable","Lighting":"FullLit","RoadClass":"Minor Road","GlobalID":"3fc54af7-face-4cbb-a62e-498c727f337c","SegmentID":43045},"geometry":{"type":"LineString","coordinates":[[0.24833379192888,51.601352563034872],[0.248401940777856,51.601270321792228],[0.248918718263996,51.600621930062971]]}},
{"type":"Feature","properties":{"Desc_":"TrafficFree","Greenway":"No","RouteType":"NCN","RouteNo":136,"LinkNo":0,"RouteCat":"Main Route","OpenStatus":"Open","Surface":"Asphalt","Quality":"Standard","Lighting":"FullLit","RoadClass":null,"GlobalID":"8d64a26c-c6a9-4046-8b47-dce96d93eec9","SegmentID":35027},"geometry":{"type":"LineString","coordinates":[[0.2373774280772,51.600228211754725],[0.239014633459298,51.600783640009702],[0.239286659803143,51.600911935470577],[0.239763367933896,51.601027333032043],[0.241957311903954,51.601725154409884],[0.243211724902324,51.602139767252346],[0.244058069636861,51.602394796503276],[0.244362856283665,51.602512139515575],[0.244614748376363,51.602635735603862],[0.244660184314044,51.602680020734482],[0.244731899736503,51.602724496009536],[0.244779423392203,51.602768354494849],[0.244829450469654,51.602794727802554]]}},
{"type":"Feature","properties":{"Desc_":"OnRoad","Greenway":"No","RouteType":"NCN","RouteNo":136,"LinkNo":0,"RouteCat":"Main Route","OpenStatus":"Open","Surface":"Asphalt","Quality":"Acceptable","Lighting":"FullLit","RoadClass":"Local Street","GlobalID":"8edd64c2-c970-4934-ae15-2d4b75817a72","SegmentID":25493},"geometry":{"type":"LineString","coordinates":[[0.24833379192888,51.601352563034872],[0.247631827672537,51.601136770549402],[0.246984707456793,51.600937729720428],[0.245853149771978,51.602424113665187]]}},
{"type":"Feature","properties":{"Desc_":"TrafficFree","Greenway":"No","RouteType":"NCN","RouteNo":136,"LinkNo":0,"RouteCat":"Main Route","OpenStatus":"Open","Surface":"Asphalt","Quality":"Standard","Lighting":"FullLit","RoadClass":null,"GlobalID":"ebca8c1f-de5a-4305-beda-9a71cdf7063e","SegmentID":35023},"geometry":{"type":"LineString","coordinates":[[0.246278077672682,51.602695379574605],[0.246344212381178,51.602638367357649],[0.246203279471339,51.602576700480014],[0.246000912567433,51.602524733659834],[0.245840251254547,51.602480611173796],[0.245853149771978,51.602424113665187]]}},
{"type":"Feature","properties":{"Desc_":"TrafficFree","Greenway":"No","RouteType":"NCN","RouteNo":136,"LinkNo":0,"RouteCat":"Main Route","OpenStatus":"Open","Surface":"Concrete","Quality":"Acceptable","Lighting":"FullLit","RoadClass":null,"GlobalID":"1e139de0-d24c-4341-aac7-82fabfcf17f1","SegmentID":4018},"geometry":{"type":"LineString","coordinates":[[0.24569583998956,51.602529669235793],[0.246278077680888,51.602695379560046]]}},
{"type":"Feature","properties":{"Desc_":"TrafficFree","Greenway":"No","RouteType":"NCN","RouteNo":136,"LinkNo":0,"RouteCat":"Main Route","OpenStatus":"Open","Surface":"Concrete","Quality":"Smooth","Lighting":"FullLit","RoadClass":null,"GlobalID":"2d002e92-77b9-4a78-bf48-c70db525eedc","SegmentID":2912},"geometry":{"type":"LineString","coordinates":[[0.245495964629031,51.602784232232636],[0.24569583998956,51.602529669235793]]}},
{"type":"Feature","properties":{"Desc_":"TrafficFree","Greenway":"No","RouteType":"NCN","RouteNo":136,"LinkNo":0,"RouteCat":"Main Route","OpenStatus":"Open","Surface":"Asphalt","Quality":"Standard","Lighting":"PartLit","RoadClass":null,"GlobalID":"548919e6-272b-4368-974c-769b7753ecef","SegmentID":15129},"geometry":{"type":"LineString","coordinates":[[0.245495964620836,51.602784232247139],[0.245305552190082,51.602826219610549],[0.245062470716448,51.602872369142347],[0.244927668172517,51.602840683818748],[0.244829450469654,51.602794727802554]]}},
{"type":"Feature","properties":{"Desc_":"TrafficFree","Greenway":"Yes","RouteType":"NCN","RouteNo":136,"LinkNo":0,"RouteCat":"Main Route","OpenStatus":"Open","Surface":"Asphalt","Quality":"Acceptable","Lighting":"PartLit","RoadClass":null,"GlobalID":"f6219cb2-21e2-463e-bea5-b47b4cc3681f","SegmentID":22639},"geometry":{"type":"LineString","coordinates":[[0.230225987171745,51.60509910721278],[0.230296180035588,51.605024828465886],[0.23034411807079,51.604950216640894],[0.23048769369761,51.604818804650257],[0.230648910442166,51.604715547131811],[0.23078996579139,51.604657663951741],[0.231011626335373,51.604562239162732],[0.231213144463353,51.604484015012851],[0.231364275341608,51.604444896668035],[0.231603567667343,51.604380755517212],[0.231827749680392,51.604316615510562],[0.231999033322511,51.604266559560202],[0.232910889947033,51.603930218140391],[0.233263542023087,51.603708074206487],[0.233603592019361,51.603356069918888],[0.233817695530909,51.603108884858088],[0.233997489948903,51.602951247613674],[0.234165286024531,51.602841358428414],[0.234407104048839,51.602547230871835],[0.234485183961732,51.602378267248739],[0.23460106131918,51.602148284672424],[0.234643895391426,51.601882320044197],[0.234686714720341,51.601675808147434],[0.234732564580943,51.601579599194032],[0.234832811257849,51.601499018482691],[0.234911054017093,51.601442022888463]]}},
{"type":"Feature","properties":{"Desc_":"TrafficFree","Greenway":"Yes","RouteType":"NCN","RouteNo":136,"LinkNo":0,"RouteCat":"Main Route","OpenStatus":"Open","Surface":"Asphalt","Quality":"Standard","Lighting":"NotLit","RoadClass":null,"GlobalID":"00524770-1b94-465b-b5fc-8af4f6840800","SegmentID":25095},"geometry":{"type":"LineString","coordinates":[[0.229773962075608,51.609249470284936],[0.229784458284882,51.609198467388417],[0.229784407371217,51.60917034670571],[0.229633270555056,51.609082749790979],[0.229478348204661,51.608879400706677],[0.229420420857549,51.608761289354376],[0.229464510827037,51.608701070167882],[0.229524456973236,51.608614614106848],[0.229596154177169,51.608507978747539],[0.229711368953071,51.608413232289116],[0.229754198137654,51.608344403495863],[0.229741602185777,51.608274001606354],[0.229600535458954,51.608191095641267],[0.229273078157563,51.608094107129538],[0.229076590467612,51.607989294515129],[0.228980868701612,51.607879787480975],[0.228867862620644,51.607737937600113],[0.228892702879311,51.607640446255587],[0.228983382658609,51.607549708310103],[0.228978331555368,51.607385454111295],[0.228912838867285,51.607225883046191],[0.228951128425587,51.607167967696391],[0.228927822329597,51.607049646853213],[0.228940537503299,51.607005302658919],[0.22909270873247,51.60677966639927],[0.22984479047219,51.605806954168671],[0.229897602533534,51.605696277185345],[0.22983929741131,51.605609639460894],[0.229828124563514,51.605415446352104],[0.229946150957214,51.605274095416846],[0.230058864536291,51.605148393690136],[0.230225987171745,51.60509910721278]]}},
{"type":"Feature","properties":{"Desc_":"TrafficFree","Greenway":"Yes","RouteType":"NCN","RouteNo":136,"LinkNo":0,"RouteCat":"Main Route","OpenStatus":"Open","Surface":"Asphalt","Quality":"Standard","Lighting":"FullLit","RoadClass":null,"GlobalID":"4043f707-d5b6-48c9-802e-f8025cbb29fe","SegmentID":6435},"geometry":{"type":"LineString","coordinates":[[0.229993314439395,51.60947043371165],[0.229904687818072,51.609463261519608],[0.229867538725337,51.609446440174871],[0.229881381817504,51.609354148929164],[0.229824730329097,51.609337231642741],[0.229773079574127,51.609303311187894],[0.229773962094002,51.609249470271841]]}},
{"type":"Feature","properties":{"Desc_":"TrafficFree","Greenway":"Yes","RouteType":"NCN","RouteNo":136,"LinkNo":0,"RouteCat":"Main Route","OpenStatus":"Open","Surface":"UnsealedFirm","Quality":"Acceptable","Lighting":"NotLit","RoadClass":null,"GlobalID":"ad07b165-f95f-4f26-8096-297497212549","SegmentID":22886},"geometry":{"type":"LineString","coordinates":[[0.237106685851461,51.612697483571182],[0.237043711200051,51.612655256523418],[0.236651485772874,51.612468887432485],[0.236188025925992,51.612321855367853],[0.235870657855367,51.612337501606497],[0.235533143681859,51.612249902368184],[0.234480288551692,51.611815071861507],[0.233014333544294,51.611083026084707],[0.232162921668242,51.610454208351996],[0.231708248522079,51.610289176743223],[0.230232151960857,51.609528952172546],[0.230103681955286,51.60947890203564],[0.229993314421062,51.609470433724788]]}},
{"type":"Feature","properties":{"Desc_":"OnRoad","Greenway":"Yes","RouteType":"NCN","RouteNo":136,"LinkNo":0,"RouteCat":"Main Route","OpenStatus":"Open","Surface":"Asphalt","Quality":"Standard","Lighting":"NotLit","RoadClass":null,"GlobalID":"022d31bc-de17-4a40-a14c-ff823e24490c","SegmentID":1856},"geometry":{"type":"LineString","coordinates":[[0.238556525316383,51.612824459199118],[0.23848292633485,51.612889697690953],[0.238315717619597,51.612936802633214],[0.238149477741106,51.612930541122935],[0.237449237969552,51.612781952507831],[0.237106685868907,51.612697483557369]]}},
{"type":"Feature","properties":{"Desc_":"TrafficFree","Greenway":"Yes","RouteType":"NCN","RouteNo":136,"LinkNo":0,"RouteCat":"Main Route","OpenStatus":"Open","Surface":"UnsealedFirm","Quality":"Rough","Lighting":"NotLit","RoadClass":null,"GlobalID":"341ea03b-2460-40e7-8b69-ca57941aa1d5","SegmentID":524},"geometry":{"type":"LineString","coordinates":[[0.236029213932503,51.618044839088853],[0.236107577542014,51.617950965375293],[0.236157411273803,51.617890515229107],[0.236309500233267,51.617710689117693],[0.236394184786986,51.617489878297675],[0.238128067554394,51.616018074032375],[0.238291429981209,51.615878553509702],[0.238443146347161,51.615703002201727],[0.238574099977802,51.615462130576894],[0.238710071192654,51.615083607693613],[0.238745287490309,51.614664414250072],[0.238740214689708,51.614379740667736],[0.238689763733155,51.613638321699192],[0.238675909147463,51.613513975304166],[0.238602863241736,51.613108857448182],[0.238597789209454,51.612911769136062],[0.238556525316383,51.612824459199118]]}},
{"type":"Feature","properties":{"Desc_":"TrafficFree","Greenway":"Yes","RouteType":"NCN","RouteNo":13,"LinkNo":0,"RouteCat":"Main Route","OpenStatus":"Open","Surface":"Concrete","Quality":"Acceptable","Lighting":"NotLit","RoadClass":null,"GlobalID":"2cf69a30-6cd7-4cb1-8700-dec38eaefd21","SegmentID":38759},"geometry":{"type":"LineString","coordinates":[[0.185213668126482,51.490559996154197],[0.185069905727667,51.490677132528774],[0.185048873027185,51.490694269928667]]}},
{"type":"Feature","properties":{"Desc_":"TrafficFree","Greenway":"Yes","RouteType":"NCN","RouteNo":13,"LinkNo":0,"RouteCat":"Main Route","OpenStatus":"Open","Surface":"Asphalt","Quality":"Standard","Lighting":"NotLit","RoadClass":null,"GlobalID":"3172f197-5789-4000-8865-498fe1143ef0","SegmentID":31610},"geometry":{"type":"LineString","coordinates":[[0.211440075168065,51.49090022821607],[0.210029106719595,51.491099141919115],[0.209701534646387,51.491235115381791],[0.209550341311818,51.491368475089843],[0.209371091838443,51.491759779254345]]}},
{"type":"Feature","properties":{"Desc_":"TrafficFree","Greenway":"Yes","RouteType":"NCN","RouteNo":13,"LinkNo":0,"RouteCat":"Main Route","OpenStatus":"Open","Surface":"Asphalt","Quality":"Acceptable","Lighting":"NotLit","RoadClass":null,"GlobalID":"140efae5-24fb-404b-bcfc-fc8fc92c930b","SegmentID":17881},"geometry":{"type":"LineString","coordinates":[[0.209371091831759,51.491759779269188],[0.209348755687759,51.491609039899338],[0.209378162842035,51.491219426849263],[0.209323556051669,51.490923946718837],[0.209306709448778,51.490842847804899],[0.209209108031019,51.490648730771788],[0.20839017013325,51.490120520229681],[0.207945001003267,51.489903476739862],[0.206979062458376,51.489746586968174],[0.206638885334876,51.489696906294064],[0.20546717295691,51.489670753352797],[0.204333244475487,51.489568775132362],[0.203018728444978,51.489351736212143],[0.202237586189739,51.489359582077675],[0.199549734604938,51.489035329929841],[0.199192757202527,51.489045794046632],[0.198772787632859,51.489001336931572],[0.198197419719465,51.488818291305329],[0.197924448458253,51.488664001152138],[0.197269304419316,51.488528014438529],[0.196635172837412,51.488457406732458],[0.19645888211649,51.48844879263396],[0.196051424989294,51.488373712026252],[0.195593659481576,51.488355402443212],[0.194980528503034,51.48829002334147],[0.194775788687081,51.488308982110077],[0.194626713698362,51.488303750005038],[0.19405133782102,51.488240987013448],[0.193717495376485,51.488223975824347],[0.193192538624763,51.488214818898733],[0.192640292962337,51.488157282199666],[0.192050251883892,51.488154661093212],[0.191470711001928,51.488152038647435],[0.190964657070226,51.488059195462817],[0.190580388827101,51.487966359533125],[0.189576685411611,51.48782382720362],[0.188812376898068,51.487839506252826],[0.188035481333794,51.487920564389853],[0.187934698920066,51.48797809528741],[0.18790110712947,51.488074851415817],[0.187934696259793,51.488226517339314],[0.187943100815431,51.488328506466807],[0.187880101288221,51.488438338896884],[0.187775483237267,51.488537972271175],[0.187737327628286,51.488574310131568],[0.186577268006848,51.489515295427076],[0.185213668126482,51.490559996154197]]}},
{"type":"Feature","properties":{"Desc_":"TrafficFree","Greenway":"Yes","RouteType":"LINK","RouteNo":0,"LinkNo":13,"RouteCat":"N/A","OpenStatus":"Open","Surface":"Asphalt","Quality":"Standard","Lighting":"NotLit","RoadClass":null,"GlobalID":"95197ef0-4371-4784-b6a4-78cbf10693dc","SegmentID":28890},"geometry":{"type":"LineString","coordinates":[[0.18678779561668,51.502350927728401],[0.186862805781361,51.50233191135424],[0.187259736612119,51.502203641075688],[0.188385199759615,51.501712173498809],[0.190461854122765,51.500782821839238],[0.190991004148716,51.500555380959128],[0.191802565069228,51.500214864464105],[0.192785271639972,51.499752135182433],[0.19469190072976,51.49889986188888],[0.196136572721116,51.498243656198667],[0.196493529519392,51.498078950244008],[0.197169677370097,51.497793977952838],[0.197367053474666,51.49777829196119],[0.197499604407944,51.497737173216379],[0.197688334870095,51.497647571008621],[0.197999110494647,51.497506397705912],[0.198242685477487,51.497397896755885],[0.198634801806197,51.497233360360845],[0.199163476355472,51.497027292188626],[0.19921747852421,51.497088890976947],[0.199272657805208,51.497152787041863],[0.200238614614095,51.496790680873474],[0.200854636718551,51.496528649291726],[0.201034468940871,51.496398504610319],[0.202216710954995,51.495914810399277],[0.204052003876325,51.495181427804226],[0.205089314413581,51.494645420521536],[0.206147611123328,51.494153867349667],[0.20686995105426,51.493790417145256],[0.207105130755972,51.493625693775691],[0.207361301099711,51.493413899564004],[0.207630076991149,51.493081825793176],[0.207777063919857,51.492932782212407],[0.208155032123721,51.492736679703846],[0.208738778216429,51.492446434324954],[0.209070559602546,51.492195413641575],[0.209371091831759,51.491759779269188]]}},
{"type":"Feature","properties":{"Desc_":"TrafficFree","Greenway":"Yes","RouteType":"NCN","RouteNo":13,"LinkNo":0,"RouteCat":"Main Route","OpenStatus":"Open","Surface":"Asphalt","Quality":"Standard","Lighting":"NotLit","RoadClass":null,"GlobalID":"14370a2e-aac6-4c5c-982c-85e496233c24","SegmentID":33273},"geometry":{"type":"LineString","coordinates":[[0.185048873027185,51.490694269928667],[0.184969368012543,51.490866605926172],[0.184782498320902,51.491108481714228],[0.184370951526805,51.491895543925438],[0.184263042996286,51.492041931241623],[0.183989237870011,51.492297062097201],[0.183791422335593,51.492818561731823],[0.183799821467929,51.493103572858786],[0.1837495668968,51.493265686459061],[0.183778827464179,51.49390105752088],[0.183459667754375,51.49535742837017],[0.183346097753129,51.495594339549648],[0.183174087748222,51.495754843272756],[0.18301870748022,51.49582543703675],[0.182734490945648,51.495962830288548],[0.182653343194972,51.496303900161898],[0.182649139091122,51.496434632917932],[0.182724737356891,51.496549670212616],[0.183476458096515,51.496913098179036],[0.183757404005356,51.497015121401859],[0.183862803107372,51.497101347076146],[0.183880239331129,51.497191386988106],[0.183581440372077,51.497642549946384],[0.183396595181603,51.497843141229453],[0.183256812435609,51.497896520401333],[0.183069100517116,51.497919682863007],[0.183003320278708,51.497993321210409],[0.183027119612813,51.498554994730064],[0.183437617720297,51.498750420966708],[0.183637096505379,51.499035391787757],[0.183597204028671,51.499108602423043],[0.183599708001836,51.499142847214394]]}},
{"type":"Feature","properties":{"Desc_":"OnRoad","Greenway":"Yes","RouteType":"NCN","RouteNo":13,"LinkNo":0,"RouteCat":"Main Route","OpenStatus":"Open","Surface":"Asphalt","Quality":"Standard","Lighting":"NotLit","RoadClass":null,"GlobalID":"e2a55f80-927e-4965-878c-a77f692d111b","SegmentID":9654},"geometry":{"type":"LineString","coordinates":[[0.183599708013511,51.499142847199138],[0.183361709572079,51.499504283593758],[0.18281056958455,51.499943127920915],[0.182384402399599,51.50000465032344],[0.182276923373964,51.500149419428823],[0.183498649775741,51.500573070407135],[0.184864252638982,51.501011917434262],[0.185420102414046,51.501269399932454],[0.185701247382129,51.501764043288262],[0.186348794626577,51.502144774517745],[0.186787795629253,51.502350927712953]]}},
{"type":"Feature","properties":{"Desc_":"OnRoad","Greenway":"Yes","RouteType":"NCN","RouteNo":13,"LinkNo":0,"RouteCat":"Main Route","OpenStatus":"Open","Surface":"Asphalt","Quality":"Standard","Lighting":"NotLit","RoadClass":null,"GlobalID":"fa61ab85-ce6d-4c64-83e1-6f1d0a939c5e","SegmentID":14435},"geometry":{"type":"LineString","coordinates":[[0.18678779561668,51.502350927728401],[0.186810514097597,51.502501717378365]]}},
{"type":"Feature","properties":{"Desc_":"TrafficFree","Greenway":"Yes","RouteType":"NCN","RouteNo":13,"LinkNo":0,"RouteCat":"Main Route","OpenStatus":"Open","Surface":"Asphalt","Quality":"Standard","Lighting":"FullLit","RoadClass":null,"GlobalID":"396940dd-0d9b-4cfb-892a-f3e19451af2f","SegmentID":2266},"geometry":{"type":"LineString","coordinates":[[0.186810514110226,51.502501717362883],[0.186795731287741,51.502568454302789],[0.186564004756954,51.50267130398656],[0.186286679704514,51.502787243911953],[0.186163787218747,51.502830624857097],[0.186226501088303,51.502875536664128]]}},
{"type":"Feature","properties":{"Desc_":"TrafficFree","Greenway":"Yes","RouteType":"NCN","RouteNo":13,"LinkNo":0,"RouteCat":"Main Route","OpenStatus":"Open","Surface":"Asphalt","Quality":"Standard","Lighting":"FullLit","RoadClass":null,"GlobalID":"d4c72057-53dd-4582-bb62-be87e8278981","SegmentID":2265},"geometry":{"type":"LineString","coordinates":[[0.184293917633842,51.511435889837891],[0.184419499504578,51.511461054145144],[0.184515853349728,51.511448288727934],[0.184531599563242,51.511513169169078],[0.18456701129989,51.511595957646442],[0.184387554801058,51.511624074619093],[0.184398860457419,51.511744308904859],[0.184628421439671,51.511955332133262],[0.184765310758032,51.512051951441862],[0.184857207564885,51.512127285094955],[0.184946093131387,51.512142087676033],[0.18502382698909,51.512107644308408],[0.185144840558571,51.512148108623691]]}},
{"type":"Feature","properties":{"Desc_":"TrafficFree","Greenway":"Yes","RouteType":"NCN","RouteNo":13,"LinkNo":0,"RouteCat":"Main Route","OpenStatus":"Open","Surface":"Concrete","Quality":"Acceptable","Lighting":"FullLit","RoadClass":null,"GlobalID":"3318ea11-a2bf-4a02-8b74-02ea5a17834a","SegmentID":8104},"geometry":{"type":"LineString","coordinates":[[0.18522714696512,51.512437513707468],[0.18517122887137,51.512396646702051],[0.185111772477803,51.512338776492676],[0.18507514807371,51.512363101531378],[0.185047665818696,51.512342389329149],[0.185054914867021,51.512335158729535],[0.185087300250679,51.512301469781832],[0.185124025967201,51.512279562016005],[0.185197637976172,51.512235761438703],[0.18524140318937,51.512201951359906],[0.185144840558571,51.512148108623691]]}},
{"type":"Feature","properties":{"Desc_":"TrafficFree","Greenway":"Yes","RouteType":"NCN","RouteNo":13,"LinkNo":0,"RouteCat":"Main Route","OpenStatus":"Open","Surface":"Asphalt","Quality":"Standard","Lighting":"NotLit","RoadClass":null,"GlobalID":"470eea7b-c28a-4275-ad5d-e2d6e85252c8","SegmentID":43842},"geometry":{"type":"LineString","coordinates":[[0.185227146955067,51.512437513723263],[0.185247977091971,51.512603104115541],[0.185427389492795,51.512849584041255],[0.185740383276481,51.513070230557865],[0.186260574163871,51.513192706017222],[0.186562743985869,51.513187076550906],[0.187641718798125,51.513481570369663],[0.188115665577385,51.513744879778642],[0.188603469914363,51.514209420700006],[0.188811273709987,51.514519553168618],[0.189087422609153,51.514768237061091],[0.189579146305395,51.515052145724553],[0.189876757000734,51.51531088698345],[0.190012869314499,51.515574790331669]]}},
{"type":"Feature","properties":{"Desc_":"TrafficFree","Greenway":"Yes","RouteType":"NCN","RouteNo":13,"LinkNo":0,"RouteCat":"Main Route","OpenStatus":"Open","Surface":"Asphalt","Quality":"Standard","Lighting":"FullLit","RoadClass":null,"GlobalID":"2a6d58a2-b92d-47b0-94ea-86c80bbaed91","SegmentID":2134},"geometry":{"type":"LineString","coordinates":[[0.191350488698487,51.516697493751025],[0.191238138345639,51.516661519764796],[0.191216891467818,51.516622116723553],[0.190886968392787,51.516377388823805],[0.190838109151739,51.516346460317365],[0.190561773649376,51.516508887992138],[0.190435402138249,51.516448668535915],[0.190463605736808,51.51640197550315],[0.190319060330716,51.516257602966668],[0.190172750552816,51.51607640436967],[0.190092725372613,51.515998530997329],[0.190085390764045,51.515953769029807],[0.190061645896168,51.515808688809656],[0.190012869322356,51.51557479031397]]}},
{"type":"Feature","properties":{"Desc_":"OnRoad","Greenway":"No","RouteType":"NCN","RouteNo":13,"LinkNo":0,"RouteCat":"Main Route","OpenStatus":"Open","Surface":"Asphalt","Quality":"Acceptable","Lighting":"FullLit","RoadClass":"Local Street","GlobalID":"971af160-c67b-4c23-b99e-a90c516fc276","SegmentID":16114},"geometry":{"type":"LineString","coordinates":[[0.191356199368543,51.517384340788851],[0.191388847616091,51.516839313139066],[0.191350488689411,51.516697493771538]]}},
{"type":"Feature","properties":{"Desc_":"OnRoad","Greenway":"No","RouteType":"NCN","RouteNo":13,"LinkNo":0,"RouteCat":"Main Route","OpenStatus":"Open","Surface":"Asphalt","Quality":"Acceptable","Lighting":"FullLit","RoadClass":"B Road","GlobalID":"369ab1fe-0801-487c-abba-84d8bb7d4074","SegmentID":32467},"geometry":{"type":"LineString","coordinates":[[0.190123937318422,51.518414506074087],[0.190526653446387,51.517795502123391],[0.190767125733419,51.517561889503519],[0.191356199368543,51.517384340788851]]}},
{"type":"Feature","properties":{"Desc_":"OnRoad","Greenway":"No","RouteType":"NCN","RouteNo":13,"LinkNo":0,"RouteCat":"Main Route","OpenStatus":"Open","Surface":"Asphalt","Quality":"Standard","Lighting":"FullLit","RoadClass":"B Road","GlobalID":"0a5542c7-9272-4214-9cb5-1d9fe91cc208","SegmentID":27203},"geometry":{"type":"LineString","coordinates":[[0.190123937318422,51.518414506074087],[0.189927945745463,51.51868704389782],[0.189312078089408,51.519220971917576]]}},
{"type":"Feature","properties":{"Desc_":"TrafficFree","Greenway":"Yes","RouteType":"NCN","RouteNo":13,"LinkNo":0,"RouteCat":"Main Route","OpenStatus":"Open","Surface":"Asphalt","Quality":"Standard","Lighting":"FullLit","RoadClass":null,"GlobalID":"8e125f42-e900-4d92-82c9-c3dbf252c96d","SegmentID":514},"geometry":{"type":"LineString","coordinates":[[0.189808041447421,51.52023270044738],[0.189956004642918,51.52019704519401]]}},
{"type":"Feature","properties":{"Desc_":"TrafficFree","Greenway":"Yes","RouteType":"NCN","RouteNo":13,"LinkNo":0,"RouteCat":"Main Route","OpenStatus":"Open","Surface":"Asphalt","Quality":"Standard","Lighting":"FullLit","RoadClass":null,"GlobalID":"552603b7-c03f-4ab1-b814-0d71d056ee58","SegmentID":22030},"geometry":{"type":"LineString","coordinates":[[0.189808041449082,51.520232700475411],[0.189701467066788,51.520255218751402],[0.189685733599634,51.520224407752245],[0.189601811650046,51.520110188005852],[0.189351387262552,51.519952171375849],[0.189199788955162,51.519912897311265],[0.189102903364043,51.519825617287836],[0.189009516421561,51.519814050607486],[0.189033773114161,51.519724025134067],[0.189037688654735,51.519657732281189],[0.189101558651524,51.519640228706201],[0.189148809342294,51.519593270382487],[0.189165069003891,51.519486174594732],[0.1891789796978,51.519330032387884],[0.189215888803778,51.519204745613514],[0.189312078089408,51.519220971917576],[0.189427388285729,51.519262604543442],[0.189428168530685,51.519316481235713],[0.189422864095979,51.51950356655481],[0.189507161111475,51.519526695859803],[0.18963456948768,51.519559640698553],[0.189697038614361,51.519565246355434],[0.189743703808002,51.519668480199137],[0.189807447468531,51.519785774111035],[0.189709403295742,51.519823204357245],[0.189748282174928,51.519963074475797],[0.189781853788676,51.519995530026691],[0.189887901507192,51.520122645429417],[0.189956004644259,51.520197045222019],[0.190043897647069,51.520314994308222],[0.190105136226819,51.520516205534634],[0.19018730403494,51.520769982951322],[0.190196085513852,51.521029805169462],[0.190187079152635,51.521149535652043],[0.190295342497482,51.521253327894605],[0.190383800991118,51.521324083111836],[0.19016135419944,51.521337587390327],[0.189956476495547,51.521339927559175],[0.189822333357421,51.521497054708284],[0.189701354667135,51.52156197119546],[0.189455931825662,51.521614381302598],[0.189367985201927,51.521627073928173],[0.189348538504278,51.521756405298085]]}},
{"type":"Feature","properties":{"Desc_":"TrafficFree","Greenway":"No","RouteType":"NCN","RouteNo":13,"LinkNo":0,"RouteCat":"Main Route","OpenStatus":"Open","Surface":"Asphalt","Quality":"Standard","Lighting":"FullLit","RoadClass":null,"GlobalID":"fdf83ce3-cdcb-4c6b-96fe-cc2cb903b1e5","SegmentID":7769},"geometry":{"type":"LineString","coordinates":[[0.189348538502223,51.521756405270537],[0.189300288381261,51.521908278397781],[0.189304145693998,51.521988760049076],[0.188251571128323,51.521897727550225],[0.187415563894093,51.521953503598276],[0.186963935780205,51.521978549117129],[0.186871846458298,51.521992091395703],[0.186388645004974,51.522063170764795],[0.186221828708675,51.522090964106944],[0.185572656777509,51.522199106752211],[0.184933542247994,51.522318092361424],[0.184293666587674,51.522434193260956],[0.183589873501473,51.522557954927386],[0.182454095899286,51.522750167970173],[0.182200401179431,51.522792834780546]]}},
{"type":"Feature","properties":{"Desc_":"TrafficFree","Greenway":"No","RouteType":"NCN","RouteNo":13,"LinkNo":0,"RouteCat":"Main Route","OpenStatus":"Open","Surface":"Blocks","Quality":"Standard","Lighting":"FullLit","RoadClass":null,"GlobalID":"158ed0aa-e82c-4c28-860a-c95e2e16ace3","SegmentID":19965},"geometry":{"type":"LineString","coordinates":[[0.182200401181016,51.522792834804932],[0.182064012483497,51.522879099173586],[0.181612300159204,51.523037950965801],[0.181564656881531,51.523038288300548],[0.181454039360957,51.523079273370122],[0.181315574435139,51.523104958349471],[0.181168361913868,51.523140399847279],[0.180830832245292,51.523207903848522],[0.180551298970998,51.523263357355752],[0.18035964338352,51.523302151657283],[0.180230173413715,51.523346273674349]]}},
{"type":"Feature","properties":{"Desc_":"TrafficFree","Greenway":"No","RouteType":"NCN","RouteNo":13,"LinkNo":0,"RouteCat":"Main Route","OpenStatus":"Open","Surface":"Asphalt","Quality":"Standard","Lighting":"FullLit","RoadClass":null,"GlobalID":"49a88767-62b2-4956-a031-41bacb50b72e","SegmentID":7766},"geometry":{"type":"LineString","coordinates":[[0.180230173412331,51.52334627365083],[0.180113153739126,51.523354949682897],[0.179824264926919,51.523411357732307],[0.179529611406511,51.523483528994127],[0.17926166884097,51.523533009084673]]}},
{"type":"Feature","properties":{"Desc_":"TrafficFree","Greenway":"No","RouteType":"NCN","RouteNo":136,"LinkNo":0,"RouteCat":"Main Route","OpenStatus":"Open","Surface":"Asphalt","Quality":"Standard","Lighting":"FullLit","RoadClass":null,"GlobalID":"92bbe29f-75cb-47c3-8d1b-70ba7a6f16ec","SegmentID":41024},"geometry":{"type":"LineString","coordinates":[[0.192508599078988,51.525782447555173],[0.192355612211331,51.525444855409319],[0.192140917849125,51.524832499237057],[0.19201547157184,51.524309866436191],[0.191749947132353,51.523469002963857],[0.191679320190814,51.523344814936721],[0.191076058206113,51.522677030077929],[0.190753077124418,51.522385001141807],[0.190627011715551,51.522241040365486],[0.190660138783448,51.522113882396404],[0.190738080003573,51.52201606514204],[0.190881691823419,51.521918433461622],[0.191019173126625,51.521884195423091],[0.19113534791579,51.521871936070497],[0.191282294219099,51.521864723145299],[0.191291675759294,51.521776926407767],[0.191299143219556,51.521700613574559],[0.191059440962393,51.521678750737976],[0.190887806929092,51.521611922978707],[0.19072935863785,51.521527323766179],[0.190513063634563,51.521408832060814],[0.190383800991118,51.521324083111836]]}},
{"type":"Feature","properties":{"Desc_":"TrafficFree","Greenway":"No","RouteType":"NCN","RouteNo":13,"LinkNo":0,"RouteCat":"Main Route","OpenStatus":"Open","Surface":"Blocks","Quality":"Acceptable","Lighting":"FullLit","RoadClass":null,"GlobalID":"8a39c5cf-366c-40a9-be94-2bf1614effac","SegmentID":22461},"geometry":{"type":"LineString","coordinates":[[0.179261668842273,51.52353300910778],[0.177563783445755,51.523903359923764],[0.177021840946354,51.524019411133693],[0.176906216895529,51.524049253511478]]}},
{"type":"Feature","properties":{"Desc_":"TrafficFree","Greenway":"No","RouteType":"NCN","RouteNo":13,"LinkNo":0,"RouteCat":"Main Route","OpenStatus":"Open","Surface":"Asphalt","Quality":"Standard","Lighting":"FullLit","RoadClass":null,"GlobalID":"8f0ac8d3-41d1-467c-9cce-13364abc7eba","SegmentID":1967},"geometry":{"type":"LineString","coordinates":[[0.173676563795516,51.524753633297479],[0.173802368978268,51.524724073762414],[0.174431346546009,51.524586819743654],[0.175118814692968,51.52444455831094],[0.175187344245621,51.524430194625026],[0.175291929623312,51.5244112955886],[0.175401130390245,51.524383058476424],[0.176115144804947,51.524225910389418],[0.176714844825612,51.524090500840451],[0.176800014879021,51.524073219694635],[0.176906216894459,51.524049253489302]]}},
{"type":"Feature","properties":{"Desc_":"TrafficFree","Greenway":"No","RouteType":"NCN","RouteNo":13,"LinkNo":0,"RouteCat":"Main Route","OpenStatus":"Open","Surface":"Blocks","Quality":"Acceptable","Lighting":"FullLit","RoadClass":null,"GlobalID":"58810ac9-70da-4693-8952-c8ea77ef005e","SegmentID":22456},"geometry":{"type":"LineString","coordinates":[[0.173676563796163,51.524753633318348],[0.173562021965475,51.524773281991315],[0.173389285604327,51.524803647786278],[0.172528783552513,51.524973905644828],[0.172069153150418,51.525078829378572],[0.171952149642945,51.525114645890319]]}},
{"type":"Feature","properties":{"Desc_":"TrafficFree","Greenway":"No","RouteType":"NCN","RouteNo":13,"LinkNo":0,"RouteCat":"Main Route","OpenStatus":"Open","Surface":"Asphalt","Quality":"Standard","Lighting":"FullLit","RoadClass":null,"GlobalID":"948fee9e-e573-4f9c-89ff-659c20ed9b7b","SegmentID":7770},"geometry":{"type":"LineString","coordinates":[[0.171952149644307,51.525114645876464],[0.171811613413248,51.525137938927529],[0.171591079504043,51.525169160690815],[0.169942265631249,51.525506824624742]]}},
{"type":"Feature","properties":{"Desc_":"TrafficFree","Greenway":"No","RouteType":"NCN","RouteNo":13,"LinkNo":0,"RouteCat":"Main Route","OpenStatus":"Open","Surface":"Blocks","Quality":"Standard","Lighting":"FullLit","RoadClass":null,"GlobalID":"7d29fccb-a9de-4907-ba4b-31e5136ece80","SegmentID":35302},"geometry":{"type":"LineString","coordinates":[[0.169942265628177,51.525506824638356],[0.168955584359981,51.525710579764279],[0.168827864716127,51.525735459637602],[0.168701338267958,51.525757538455601],[0.167832265920932,51.525938677593288],[0.167720985155448,51.525958495148366],[0.167604535354319,51.525976024941571]]}},
{"type":"Feature","properties":{"Desc_":"TrafficFree","Greenway":"Yes","RouteType":"NCN","RouteNo":136,"LinkNo":0,"RouteCat":"Main Route","OpenStatus":"Open","Surface":"UnsealedFirm","Quality":"Acceptable","Lighting":"NotLit","RoadClass":null,"GlobalID":"28dc1ad3-5dec-428f-b88c-40d3d1a166e4","SegmentID":25690},"geometry":{"type":"LineString","coordinates":[[0.201551492069302,51.532494197413513],[0.201400508458706,51.532458730448766],[0.201180985883655,51.532393801927469],[0.200191543932516,51.531547664084378],[0.200018810365795,51.531406610800659],[0.199820880570548,51.531308109060433],[0.199266693308119,51.531037201748212],[0.19894641503875,51.530828993713087],[0.198723295067659,51.530690187718299],[0.198467791188562,51.530625263071023],[0.19810071645303,51.530564810112615],[0.19788119150917,51.530479738479706],[0.197697646344325,51.530345403628381],[0.197406130487555,51.530121523228658],[0.197204598717597,51.530016301485354],[0.196761936321333,51.529846148908788],[0.196204129359876,51.529485689636395],[0.196171734391246,51.529299861643757],[0.196074553637446,51.529129705685705],[0.195743469798725,51.528845371251521],[0.195545536653003,51.528702073756101],[0.194904936880929,51.528234140734277],[0.194926525876262,51.528077419769851],[0.194901333188678,51.527858001134675],[0.194735793292591,51.527600522138272],[0.194519859765126,51.527378860516372],[0.194398400238184,51.527261873695025],[0.194294033920675,51.527125295148103],[0.194239189464405,51.526933473048047],[0.194194155995083,51.526805120099262],[0.194147484054427,51.526716808568828],[0.194090900633856,51.526630111212775],[0.194004150093012,51.526516836588634],[0.193949185078351,51.526406826816732],[0.193879269333625,51.526252642915402],[0.193650751332391,51.526232487454593],[0.193254877997976,51.526169791075482],[0.193082147457944,51.526105974279687],[0.192808634716063,51.525979468314659],[0.192577799441674,51.525781865889051],[0.192508599078988,51.525782447555173]]}},
{"type":"Feature","properties":{"Desc_":"TrafficFree","Greenway":"Yes","RouteType":"NCN","RouteNo":136,"LinkNo":0,"RouteCat":"Main Route","OpenStatus":"Open","Surface":"Asphalt","Quality":"Standard","Lighting":"NotLit","RoadClass":null,"GlobalID":"2a73faf2-f71f-418d-99e5-0d8c85307c1e","SegmentID":42273},"geometry":{"type":"LineString","coordinates":[[0.202819248627359,51.533473074234124],[0.202761967488467,51.533448358662163],[0.201656808805766,51.532585801176175],[0.201551492069302,51.532494197413513]]}},
{"type":"Feature","properties":{"Desc_":"OnRoad","Greenway":"Yes","RouteType":"NCN","RouteNo":136,"LinkNo":0,"RouteCat":"Main Route","OpenStatus":"Open","Surface":"Asphalt","Quality":"Standard","Lighting":"NotLit","RoadClass":null,"GlobalID":"afbb3e00-43b7-44c1-88ad-1dcdc061dd7b","SegmentID":31396},"geometry":{"type":"LineString","coordinates":[[0.20385586759631,51.533105049703273],[0.203596844354792,51.533193631155207],[0.203077971680235,51.53337820750216],[0.202819248627359,51.533473074234124]]}},
{"type":"Feature","properties":{"Desc_":"TrafficFree","Greenway":"Yes","RouteType":"NCN","RouteNo":136,"LinkNo":0,"RouteCat":"Main Route","OpenStatus":"Open","Surface":"Asphalt","Quality":"Standard","Lighting":"NotLit","RoadClass":null,"GlobalID":"70927b68-ca75-4ffa-abc5-0cbaec7fdfdf","SegmentID":38983},"geometry":{"type":"LineString","coordinates":[[0.21440798218084,51.540787357798891],[0.214152472313955,51.540288208233932],[0.213990531355226,51.539963637545391],[0.213936554055902,51.539797996214553],[0.213859353381322,51.539630140279044],[0.21384602242139,51.539526818271369],[0.213839318707551,51.53943020592267],[0.213842680978297,51.53929348313666],[0.213839387261442,51.539203551248164],[0.213840995729797,51.539111818129214],[0.213842692320993,51.539016846725005],[0.213830401680786,51.538903747542335],[0.213592676220087,51.538615194239114],[0.213569408351385,51.538520153537213],[0.213527686026983,51.538400199488741],[0.213488527804836,51.538301600635926],[0.212585257028882,51.537245029235713],[0.210138140090838,51.535624287637624],[0.210078059999408,51.535500172606518],[0.210059666703568,51.535400191945193],[0.210038017594172,51.535286863886007],[0.210021370029377,51.535095138459809],[0.209997801981598,51.534890017775226],[0.210181338690711,51.533714723835978],[0.210217325452494,51.533488619544201],[0.210289783334418,51.533473503574442],[0.210490824171489,51.533385640672435],[0.211004763182786,51.533130169772924],[0.211124204095431,51.533056569056257],[0.211061406757484,51.53300854430568],[0.210928038002928,51.532945158382219],[0.210562796314684,51.532678220427755],[0.210285697137193,51.532564044814876],[0.210112963652002,51.532555096924845],[0.209691908589329,51.532709559615455],[0.209387142007447,51.532786075595958],[0.209209686436331,51.532767753985148],[0.208857018691758,51.532687166791511],[0.208659085708338,51.532749842219459],[0.208425178424383,51.532816998637429],[0.208270422724247,51.532785659200897],[0.208025721979184,51.532572981434861],[0.207730623101734,51.532181207960122],[0.207482315101567,51.531925998652156],[0.207309575746751,51.531883458129307],[0.207028881629954,51.531878975031731],[0.206633015214194,51.531883448023493],[0.206474683157897,51.531961804416333],[0.204193105501885,51.532996051115973],[0.203969974938779,51.533072159295372],[0.20385586759631,51.533105049703273]]}},
{"type":"Feature","properties":{"Desc_":"TrafficFree","Greenway":"Yes","RouteType":"NCN","RouteNo":136,"LinkNo":0,"RouteCat":"Main Route","OpenStatus":"Open","Surface":"Asphalt","Quality":"Acceptable","Lighting":"NotLit","RoadClass":null,"GlobalID":"11823138-bf91-4623-a361-436c82da634d","SegmentID":8594},"geometry":{"type":"LineString","coordinates":[[0.232416132884785,51.551238752275367],[0.232345318529261,51.551190682370013],[0.232435873021639,51.551002687938286],[0.23250755179983,51.550887688967002],[0.232510285854737,51.550849821169706],[0.232452699412549,51.550751354125531],[0.232290903843961,51.55063099353184],[0.232097656856917,51.550560953720122],[0.231869674946102,51.550496240936255],[0.231686142929561,51.550453714216737],[0.231465921816988,51.550415996734927],[0.231322588360738,51.550347696041925],[0.231184236442182,51.550290991391911],[0.231049335073014,51.550234311790071],[0.230927585904417,51.550179359489562],[0.230785889545546,51.550112645778221],[0.230650968948205,51.550067647162876],[0.230464267611722,51.55000268903953],[0.230334290622052,51.549949331468682],[0.230137665977642,51.54990263751877],[0.229868716764198,51.549791282142159],[0.229713956355925,51.549695058431595],[0.229623988436131,51.549621199910845],[0.229429652078479,51.549491401597649],[0.229235944883237,51.549442654280384],[0.229073360475988,51.549404123999039],[0.228909277635755,51.549372709381082],[0.228702698500263,51.549345977916104],[0.228461556869954,51.549332501011406],[0.228281619496074,51.549319076010562],[0.228190969217791,51.549302658928156],[0.228059326026177,51.549254366656072],[0.227887665922134,51.549187679971332],[0.227739373400796,51.549134307727691],[0.227586001837298,51.549069341703209],[0.227320716373172,51.548960995692305],[0.227187626957412,51.548914357669069],[0.227029207496541,51.548880431805188],[0.226903246942419,51.548784196448523],[0.226756076088877,51.54872269088991],[0.226616055072039,51.548687685902948],[0.226442659300891,51.548624357534116],[0.226266012978732,51.548552636257313],[0.226149347249635,51.548489309988113],[0.225873967378822,51.5483276438407],[0.225262163156132,51.547969567535247],[0.225107407228119,51.547913617669948],[0.224959856720667,51.547875570054174],[0.224373236851272,51.547824095591487],[0.224092521330501,51.547736808980311],[0.223930566351468,51.547656244386452],[0.223783010153954,51.547412301026725],[0.223534686330904,51.547159404052181],[0.223189192893021,51.546765512037155],[0.223012840810025,51.546546187863797],[0.222832887244633,51.546295528054685],[0.22257377176461,51.546038148319866],[0.221943960222932,51.545697959173353],[0.221360926787061,51.545339866137759],[0.221094609860411,51.545138439370881],[0.220705933408582,51.544959393370881],[0.220554782853396,51.54477138785338],[0.220446809975209,51.544520719465531],[0.220283071255412,51.544383079897685],[0.220131918918365,51.54424207129712],[0.21993636764305,51.544112748587168],[0.219794620473456,51.54403937787044],[0.219659702115662,51.543969376894118],[0.21950969274985,51.543914409052753],[0.219386357036728,51.54385273098589],[0.219167431833767,51.543772060882603],[0.21900549123686,51.54366239766771],[0.218618608426847,51.543338981844116],[0.21830550584182,51.543086067381601],[0.217877253704066,51.542763763137636],[0.217571353572217,51.542613806485924],[0.217434591014763,51.542522037498863],[0.217193465665045,51.542273596029936],[0.216937952094169,51.542208694299561],[0.216689633928041,51.542168404735797],[0.216300957144561,51.542204213077099],[0.215951868980745,51.54224897654889],[0.215757520344533,51.542224356407445],[0.215694886626527,51.542204459048605],[0.215509195747636,51.542154970856771],[0.21532924989405,51.542132595972923],[0.214966565779908,51.542204457761997],[0.214749843973136,51.542179592114344],[0.214764248388619,51.542090063497902],[0.214757050311367,51.541519297216354],[0.214713870793331,51.5413200879659],[0.214407982191252,51.540787357784012]]}},
{"type":"Feature","properties":{"Desc_":"TrafficFree","Greenway":"Yes","RouteType":"NCN","RouteNo":136,"LinkNo":0,"RouteCat":"Main Route","OpenStatus":"Open","Surface":"Asphalt","Quality":"Standard","Lighting":"NotLit","RoadClass":null,"GlobalID":"62d1194a-0c77-4626-a4a3-008bbd3ff71e","SegmentID":38982},"geometry":{"type":"LineString","coordinates":[[0.235515597369531,51.551628209421281],[0.235263458930653,51.551735147501205],[0.234907113268522,51.551639766390522],[0.234216131229207,51.551418228864158],[0.233478383746925,51.551192207879858],[0.232870170706908,51.551214591954732],[0.232594458286117,51.551284740157854],[0.232416132880107,51.551238752291198]]}},
{"type":"Feature","properties":{"Desc_":"TrafficFree","Greenway":"Yes","RouteType":"NCN","RouteNo":136,"LinkNo":0,"RouteCat":"Main Route","OpenStatus":"Open","Surface":"Asphalt","Quality":"Acceptable","Lighting":"NotLit","RoadClass":null,"GlobalID":"e791dd57-baa7-4d60-a8af-3fa6e4432263","SegmentID":29410},"geometry":{"type":"LineString","coordinates":[[0.237830473060904,51.553036130482376],[0.237719117165546,51.553065763866321],[0.237574019703924,51.553069547175681],[0.237404862687392,51.553047169771212],[0.237177024360203,51.552989560350966],[0.236957335302584,51.552870086013996],[0.236764592231714,51.552757067211203],[0.236418628002616,51.552384264105306],[0.236193182340988,51.552082169369235],[0.235899071149206,51.551810600233189],[0.235591585626667,51.551664352099792],[0.235515597369531,51.551628209421281]]}},
{"type":"Feature","properties":{"Desc_":"OnRoad","Greenway":"No","RouteType":"NCN","RouteNo":136,"LinkNo":0,"RouteCat":"Main Route","OpenStatus":"Open","Surface":"Asphalt","Quality":"Standard","Lighting":"FullLit","RoadClass":"Local Street","GlobalID":"d31c917b-9124-41bc-8b19-edcb63016c2f","SegmentID":39496},"geometry":{"type":"LineString","coordinates":[[0.239624469527853,51.5554929734094],[0.239983841619032,51.55370378470721],[0.239919955880693,51.553284039589087],[0.239527891989665,51.552644024371446],[0.238474617312634,51.552933913243365],[0.237830473060904,51.553036130482376]]}},
{"type":"Feature","properties":{"Desc_":"TrafficFree","Greenway":"No","RouteType":"NCN","RouteNo":13,"LinkNo":0,"RouteCat":"Main Route","OpenStatus":"Open","Surface":"Blocks","Quality":"Acceptable","Lighting":"FullLit","RoadClass":null,"GlobalID":"7388ca22-94e6-4372-83da-3fb2f73c7f33","SegmentID":22460},"geometry":{"type":"LineString","coordinates":[[0.167604535354319,51.525976024941571],[0.167484008011628,51.526001202111992],[0.166504350446159,51.526193943885666],[0.166407123137948,51.526221621385837]]}},
{"type":"Feature","properties":{"Desc_":"TrafficFree","Greenway":"No","RouteType":"NCN","RouteNo":13,"LinkNo":0,"RouteCat":"Main Route","OpenStatus":"Open","Surface":"Blocks","Quality":"Standard","Lighting":"FullLit","RoadClass":null,"GlobalID":"a80d697f-33d0-4795-9079-fed1a76ebdee","SegmentID":19966},"geometry":{"type":"LineString","coordinates":[[0.166407123137948,51.526221621385837],[0.166274144117348,51.526238717647132],[0.165606691462745,51.526389471438165],[0.164708141716482,51.526575187153661],[0.164439414265711,51.526631998546463]]}},
{"type":"Feature","properties":{"Desc_":"TrafficFree","Greenway":"Yes","RouteType":"NCN","RouteNo":136,"LinkNo":0,"RouteCat":"Main Route","OpenStatus":"Open","Surface":"UnsealedFirm","Quality":"Rough","Lighting":"NotLit","RoadClass":null,"GlobalID":"ab00b481-2afc-4a50-addd-2830308976b9","SegmentID":55461},"geometry":{"type":"LineString","coordinates":[[0.23133670013101,51.620612493218083],[0.231430173896409,51.620522347705311],[0.231558710727854,51.620372035534182],[0.232594684513513,51.619854443978518],[0.233546692581722,51.619318086313292],[0.233703422336085,51.619232121464037],[0.233757029739866,51.61921327624782],[0.234144934899886,51.619004512403492],[0.234336849079085,51.6189178766721],[0.234460713973494,51.618879499766905],[0.234833912625412,51.618797245353846],[0.235130169526966,51.61873523246328],[0.23532944479651,51.618645315942025],[0.235513357955176,51.618549440343529],[0.236029213925022,51.61804483910587]]}},
{"type":"Feature","properties":{"Desc_":"OnRoad","Greenway":"Yes","RouteType":"NCN","RouteNo":136,"LinkNo":0,"RouteCat":"Main Route","OpenStatus":"Open","Surface":"Asphalt","Quality":"Acceptable","Lighting":"NotLit","RoadClass":null,"GlobalID":"39782d15-67f2-4fea-8eaa-7a5b7d41a189","SegmentID":32012},"geometry":{"type":"LineString","coordinates":[[0.229117746609434,51.622061731497105],[0.229493244081587,51.621863078519425],[0.230195178544686,51.621367927586512],[0.230737159984139,51.621009325878667],[0.231220366169355,51.62066667718161],[0.231336700086827,51.620612492319694]]}}
]
}
