{
"type": "FeatureCollection",
"name": "CROYD_92_walking",
"crs": { "type": "name", "properties": { "name": "urn:ogc:def:crs:OGC:1.3:CRS84" } },
"features": [
{"type":"Feature","properties":{"highway":"footway","name":null,"category":"Footpath (pedestrian only)"},"geometry":{"type":"MultiLineString","coordinates":[[[-0.0893552,51.3929404],[-0.0891149,51.3928878],[-0.0886923,51.3925382],[-0.0886152,51.3925272],[-0.0884338,51.3923715],[-0.0882171,51.3921651],[-0.0881089,51.3920617],[-0.0879755,51.3920392]]]}},
{"type":"Feature","properties":{"highway":"footway","name":null,"category":"Footpath (pedestrian only)"},"geometry":{"type":"MultiLineString","coordinates":[[[-0.0912918,51.3943581],[-0.0913396,51.3943255],[-0.0911999,51.3942513]]]}},
{"type":"Feature","properties":{"highway":"footway","name":null,"category":"Footpath (pedestrian only)"},"geometry":{"type":"MultiLineString","coordinates":[[[-0.0916281,51.3945385],[-0.0917829,51.3945668],[-0.0928601,51.3950564]]]}},
{"type":"Feature","properties":{"highway":"footway","name":null,"category":"Footpath (pedestrian only)"},"geometry":{"type":"MultiLineString","coordinates":[[[-0.093312,51.3917881],[-0.0941403,51.3918736]]]}},
{"type":"Feature","properties":{"highway":"footway","name":"Windmill Grove","category":"Footpath (pedestrian only)"},"geometry":{"type":"MultiLineString","coordinates":[[[-0.100566,51.3868918],[-0.1003484,51.3867139],[-0.0999666,51.3864038],[-0.0997547,51.3862109],[-0.0996709,51.3861346]]]}},
{"type":"Feature","properties":{"highway":"footway","name":null,"category":"Footpath (pedestrian only)"},"geometry":{"type":"MultiLineString","coordinates":[[[-0.0983967,51.3828458],[-0.0983434,51.3828009],[-0.0982647,51.3827653]]]}},
{"type":"Feature","properties":{"highway":"path","name":null,"category":"Shared path"},"geometry":{"type":"MultiLineString","coordinates":[[[-0.0983252,51.3920071],[-0.0982512,51.3919448],[-0.0982069,51.3919191]]]}},
{"type":"Feature","properties":{"highway":"footway","name":null,"category":"Footpath (pedestrian only)"},"geometry":{"type":"MultiLineString","coordinates":[[[-0.0956206,51.3910112],[-0.0955524,51.3909778],[-0.0953246,51.39088],[-0.0952593,51.3908506],[-0.0951994,51.3908393],[-0.0951341,51.3908302],[-0.0950887,51.3908132],[-0.0950434,51.3907815],[-0.0950053,51.3907668],[-0.0948746,51.3907464],[-0.0947196,51.3907228],[-0.0946327,51.3907089]]]}},
{"type":"Feature","properties":{"highway":"footway","name":null,"category":"Footpath (pedestrian only)"},"geometry":{"type":"MultiLineString","coordinates":[[[-0.0990947,51.3860507],[-0.099177,51.3861334],[-0.0992502,51.3861963],[-0.0992938,51.3862267],[-0.0993605,51.3862844],[-0.0993887,51.3863372],[-0.0994863,51.3864173],[-0.099535,51.3864893],[-0.0995324,51.3865502],[-0.0995478,51.3865838],[-0.100126,51.3870218],[-0.100158,51.3870248],[-0.1002879,51.3870351]]]}},
{"type":"Feature","properties":{"highway":"footway","name":null,"category":"Footpath (pedestrian only)"},"geometry":{"type":"MultiLineString","coordinates":[[[-0.0961805,51.388756],[-0.0961591,51.3888093],[-0.0960796,51.3890398],[-0.0959796,51.3893969],[-0.0959205,51.3895282],[-0.0958615,51.389637],[-0.0958436,51.3896851],[-0.0958769,51.3897379],[-0.0959257,51.3897796],[-0.0963568,51.3900774],[-0.0963952,51.3901238],[-0.0964029,51.3901671],[-0.0963798,51.3902247],[-0.0962618,51.3903272],[-0.0962464,51.3903624],[-0.0962669,51.390396],[-0.0962997,51.3904218],[-0.0963565,51.3904614]]]}},
{"type":"Feature","properties":{"highway":"footway","name":null,"category":"Footpath (pedestrian only)"},"geometry":{"type":"MultiLineString","coordinates":[[[-0.1000518,51.3889678],[-0.1001187,51.3890119],[-0.1002005,51.3890699]]]}},
{"type":"Feature","properties":{"highway":"footway","name":null,"category":"Footpath (pedestrian only)"},"geometry":{"type":"MultiLineString","coordinates":[[[-0.0992938,51.3862267],[-0.0994606,51.3862411],[-0.0996146,51.3862507],[-0.0997253,51.3862233],[-0.0997547,51.3862109]]]}},
{"type":"Feature","properties":{"highway":"footway","name":null,"category":"Footpath (pedestrian only)"},"geometry":{"type":"MultiLineString","coordinates":[[[-0.0862628,51.392443],[-0.0860932,51.3923685],[-0.0853096,51.3919977],[-0.0849217,51.3918186],[-0.0845365,51.3916556],[-0.0843795,51.391599],[-0.0842364,51.3915686],[-0.0840918,51.3915609],[-0.0838541,51.3915666],[-0.0837213,51.3915478]]]}},
{"type":"Feature","properties":{"highway":"footway","name":null,"category":"Footpath (pedestrian only)"},"geometry":{"type":"MultiLineString","coordinates":[[[-0.086567,51.3925206],[-0.0864705,51.3925412]]]}},
{"type":"Feature","properties":{"highway":"footway","name":null,"category":"Footpath (pedestrian only)"},"geometry":{"type":"MultiLineString","coordinates":[[[-0.0864705,51.3925412],[-0.0862628,51.392443]]]}},
{"type":"Feature","properties":{"highway":"path","name":null,"category":"Shared path"},"geometry":{"type":"MultiLineString","coordinates":[[[-0.084693,51.3922556],[-0.0839139,51.3918997],[-0.0837752,51.391863],[-0.0836317,51.391841],[-0.082818,51.3918058],[-0.0821442,51.3918538],[-0.0819646,51.3918871],[-0.0818183,51.3919348],[-0.0813859,51.3921921],[-0.0810445,51.3924354],[-0.08067,51.3927035],[-0.0805001,51.3928237]]]}},
{"type":"Feature","properties":{"highway":"footway","name":null,"category":"Footpath (pedestrian only)"},"geometry":{"type":"MultiLineString","coordinates":[[[-0.0875669,51.3926435],[-0.087425,51.3926288],[-0.086567,51.3925206]]]}},
{"type":"Feature","properties":{"highway":"footway","name":null,"category":"Footpath (pedestrian only)"},"geometry":{"type":"MultiLineString","coordinates":[[[-0.0865228,51.3927441],[-0.086562,51.3926904],[-0.0864361,51.3926391],[-0.0863584,51.3925511],[-0.0862628,51.392443]]]}},
{"type":"Feature","properties":{"highway":"footway","name":null,"category":"Footpath (pedestrian only)"},"geometry":{"type":"MultiLineString","coordinates":[[[-0.0894142,51.3873194],[-0.0894141,51.3872993],[-0.089425,51.3870821],[-0.0894407,51.3870636],[-0.0894717,51.3870486],[-0.0899223,51.3869534],[-0.0901503,51.3869182],[-0.0901621,51.3869164],[-0.0902007,51.3870091],[-0.0902235,51.3870244],[-0.0905122,51.3872419],[-0.0908903,51.3874873],[-0.091004,51.3875612],[-0.0913448,51.3876335],[-0.091445,51.387654]]]}},
{"type":"Feature","properties":{"highway":"footway","name":null,"category":"Footpath (pedestrian only)"},"geometry":{"type":"MultiLineString","coordinates":[[[-0.0896967,51.3872973],[-0.0897058,51.3872727]]]}},
{"type":"Feature","properties":{"highway":"footway","name":null,"category":"Footpath (pedestrian only)"},"geometry":{"type":"MultiLineString","coordinates":[[[-0.0892198,51.3873601],[-0.0893038,51.3873414],[-0.0894142,51.3873194],[-0.0896061,51.3872812],[-0.0896967,51.3872973],[-0.0897756,51.3873114]]]}},
{"type":"Feature","properties":{"highway":"path","name":null,"category":"Shared path"},"geometry":{"type":"MultiLineString","coordinates":[[[-0.1008207,51.3887615],[-0.1008209,51.3888102],[-0.1008538,51.3888693],[-0.1009694,51.3889249],[-0.1010983,51.3889852],[-0.101219,51.3891063],[-0.101255,51.3892099],[-0.1012474,51.389314],[-0.1012386,51.3893751],[-0.1013526,51.3893755],[-0.1014886,51.3893859],[-0.1015885,51.3894188],[-0.1016718,51.3894639],[-0.1018993,51.3896509],[-0.1019854,51.3896769],[-0.1020714,51.3896838],[-0.1021815,51.389669]]]}},
{"type":"Feature","properties":{"highway":"footway","name":null,"category":"Footpath (pedestrian only)"},"geometry":{"type":"MultiLineString","coordinates":[[[-0.0911828,51.3811836],[-0.0911231,51.3813099]]]}},
{"type":"Feature","properties":{"highway":"footway","name":null,"category":"Footpath (pedestrian only)"},"geometry":{"type":"MultiLineString","coordinates":[[[-0.0912341,51.3811713],[-0.0911828,51.3811836]]]}},
{"type":"Feature","properties":{"highway":"footway","name":null,"category":"Footpath (pedestrian only)"},"geometry":{"type":"MultiLineString","coordinates":[[[-0.0911231,51.3813099],[-0.0911606,51.3813306],[-0.0911114,51.381525]]]}},
{"type":"Feature","properties":{"highway":"footway","name":null,"category":"Footpath (pedestrian only)"},"geometry":{"type":"MultiLineString","coordinates":[[[-0.0919234,51.3814003],[-0.0918529,51.381449],[-0.091605,51.3814006],[-0.0912507,51.3813346],[-0.0911606,51.3813306]]]}},
{"type":"Feature","properties":{"highway":"footway","name":null,"category":"Footpath (pedestrian only)"},"geometry":{"type":"MultiLineString","coordinates":[[[-0.0945902,51.381543],[-0.0945963,51.381447],[-0.0945924,51.381375],[-0.0945828,51.3813125],[-0.0945875,51.3812706],[-0.0946322,51.3811993],[-0.0948981,51.3812495],[-0.0950448,51.3812556],[-0.0952146,51.3812321],[-0.0953878,51.3812025],[-0.095452,51.3811958],[-0.0955206,51.3812138],[-0.0955642,51.3812471],[-0.0956148,51.3812839],[-0.0956408,51.3813245],[-0.0956256,51.3813651],[-0.0955823,51.3814206],[-0.0954739,51.381495],[-0.0954251,51.3815807],[-0.0953935,51.3816326]]]}},
{"type":"Feature","properties":{"highway":"footway","name":null,"category":"Footpath (pedestrian only)"},"geometry":{"type":"MultiLineString","coordinates":[[[-0.0985675,51.3819159],[-0.0985892,51.3818131]]]}},
{"type":"Feature","properties":{"highway":"footway","name":null,"category":"Footpath (pedestrian only)"},"geometry":{"type":"MultiLineString","coordinates":[[[-0.0942895,51.3814826],[-0.0943771,51.3814987],[-0.0944592,51.3815144],[-0.0945902,51.381543],[-0.0945938,51.381587],[-0.0945916,51.3816208],[-0.0946371,51.38166],[-0.0952041,51.3817738],[-0.0953157,51.3817939]]]}},
{"type":"Feature","properties":{"highway":"path","name":null,"category":"Shared path"},"geometry":{"type":"MultiLineString","coordinates":[[[-0.087224,51.3929122],[-0.0872436,51.3929514],[-0.0872829,51.3929834],[-0.087376,51.3930458]]]}},
{"type":"Feature","properties":{"highway":"track","name":null,"category":"Track"},"geometry":{"type":"MultiLineString","coordinates":[[[-0.1015244,51.390025],[-0.1014256,51.3900794],[-0.10131,51.3901148],[-0.1012323,51.3901657],[-0.1011792,51.3902225],[-0.1011122,51.3902565],[-0.1010077,51.3903034],[-0.1008763,51.3903945],[-0.1006914,51.3905442],[-0.1005458,51.3906383],[-0.1003285,51.3907664],[-0.1000097,51.3909218],[-0.0997349,51.3910573],[-0.0994057,51.3912572],[-0.0992516,51.3913458],[-0.0985805,51.3916934],[-0.0982069,51.3919191],[-0.0980839,51.3919837],[-0.0975076,51.3923084],[-0.0972251,51.3924633],[-0.0970963,51.3925189],[-0.0970488,51.3925328],[-0.0970137,51.392534],[-0.0969739,51.3925263],[-0.0968989,51.3924812],[-0.0968319,51.3924218],[-0.0967878,51.392362],[-0.0967373,51.3922907],[-0.0966649,51.3922255],[-0.0966169,51.3921628],[-0.0965942,51.3921155],[-0.0965487,51.3920753],[-0.096488,51.3920516],[-0.0964141,51.392035],[-0.0963686,51.3920031],[-0.0963345,51.3919475],[-0.0962908,51.391885],[-0.0962235,51.3918359],[-0.0961046,51.3917696],[-0.0960289,51.3917195],[-0.0959444,51.3916457],[-0.095933,51.3916002],[-0.0959529,51.3915659],[-0.095988,51.3915369],[-0.0960458,51.3915115],[-0.0961434,51.3914768],[-0.0962571,51.3914136],[-0.0963798,51.3913512],[-0.0965567,51.3912743],[-0.0969637,51.3910635],[-0.0972691,51.3908574],[-0.0990158,51.3897674],[-0.0993045,51.3895924],[-0.0995672,51.3894552],[-0.0997307,51.3894],[-0.0997897,51.3893624],[-0.0998808,51.3892746],[-0.0999928,51.3892237],[-0.1000876,51.3891704],[-0.1001368,51.3891172],[-0.1002005,51.3890699],[-0.1002487,51.3890415],[-0.1003605,51.3890084],[-0.1004851,51.3889567],[-0.1005602,51.3889032],[-0.1006513,51.3888246],[-0.1007001,51.3887925],[-0.1007577,51.3887749],[-0.1008207,51.3887615],[-0.1008421,51.3887197],[-0.1008904,51.3886612],[-0.1009735,51.3886143],[-0.101183,51.3884828],[-0.1013214,51.3884403],[-0.101456,51.388406],[-0.101563,51.388348],[-0.1016434,51.3882743],[-0.101807,51.3881807],[-0.1018525,51.3881322],[-0.1018686,51.3880736],[-0.1019249,51.3880201],[-0.1020563,51.3879548],[-0.1021876,51.3879214],[-0.1023136,51.3879281],[-0.1024637,51.3879582],[-0.1025763,51.388005],[-0.1026567,51.388077],[-0.1027092,51.3881609],[-0.1027205,51.3882508],[-0.102749,51.3883135],[-0.1028305,51.3883798],[-0.1029612,51.3884281],[-0.1031046,51.3885441],[-0.1033083,51.3886411],[-0.1034423,51.3887432],[-0.1034922,51.3888088],[-0.1035109,51.3888565],[-0.1035136,51.3889159],[-0.1034841,51.3889744],[-0.1034131,51.389028],[-0.1033179,51.3890723],[-0.1031879,51.3891183],[-0.1031343,51.3891526],[-0.1030942,51.3891917],[-0.1030288,51.3892231],[-0.1029397,51.389252],[-0.1028413,51.3892751],[-0.1027623,51.3893102],[-0.1026966,51.3893562],[-0.1026478,51.3894201],[-0.1025754,51.3894795],[-0.1024538,51.3895354],[-0.1023216,51.3896157],[-0.1021815,51.389669],[-0.1020146,51.3897664],[-0.101913,51.3898615],[-0.1018332,51.3899181],[-0.1017171,51.3899612],[-0.1015244,51.390025]]]}},
{"type":"Feature","properties":{"highway":"path","name":null,"category":"Shared path"},"geometry":{"type":"MultiLineString","coordinates":[[[-0.1002088,51.3898329],[-0.1002134,51.3897595],[-0.1001732,51.3896758],[-0.1001088,51.3896072],[-0.0999748,51.3895403],[-0.0998677,51.3894824],[-0.0998114,51.3894197],[-0.0997897,51.3893624]]]}},
{"type":"Feature","properties":{"highway":"track","name":null,"category":"Track"},"geometry":{"type":"MultiLineString","coordinates":[[[-0.0982069,51.3919191],[-0.0981746,51.3919008],[-0.0980794,51.3917664],[-0.0980322,51.3917069],[-0.0979569,51.3916464],[-0.0978634,51.3916062],[-0.0977967,51.3915837],[-0.0977569,51.3915505],[-0.097752,51.3914948],[-0.0977597,51.3914392],[-0.0977926,51.3913428],[-0.097849,51.391247]]]}},
{"type":"Feature","properties":{"highway":"path","name":null,"category":"Shared path"},"geometry":{"type":"MultiLineString","coordinates":[[[-0.0964619,51.3941186],[-0.0963258,51.394038],[-0.0963247,51.3939489]]]}},
{"type":"Feature","properties":{"highway":"footway","name":null,"category":"Footpath (pedestrian only)"},"geometry":{"type":"MultiLineString","coordinates":[[[-0.094615,51.393136],[-0.0946539,51.3931738],[-0.0948798,51.3934255],[-0.0952154,51.393678]]]}},
{"type":"Feature","properties":{"highway":"footway","name":null,"category":"Footpath (pedestrian only)"},"geometry":{"type":"MultiLineString","coordinates":[[[-0.0952208,51.3928118],[-0.0954549,51.393001],[-0.0952012,51.3931778],[-0.0949647,51.3930116],[-0.0946539,51.3931738]]]}},
{"type":"Feature","properties":{"highway":"footway","name":"Hughes Walk","category":"Footpath (pedestrian only)"},"geometry":{"type":"MultiLineString","coordinates":[[[-0.1016879,51.3858284],[-0.1014683,51.3856298]]]}},
{"type":"Feature","properties":{"highway":"footway","name":"Hughes Walk","category":"Footpath (pedestrian only)"},"geometry":{"type":"MultiLineString","coordinates":[[[-0.1014683,51.3856298],[-0.1011569,51.3857579],[-0.1010053,51.3856032],[-0.1010535,51.3855828],[-0.10102,51.3855517],[-0.1012749,51.3854469],[-0.1013387,51.385507],[-0.1014683,51.3856298]]]}},
{"type":"Feature","properties":{"highway":"footway","name":"Kemp Gardens","category":"Footpath (pedestrian only)"},"geometry":{"type":"MultiLineString","coordinates":[[[-0.1030807,51.3871079],[-0.1027226,51.3872532]]]}},
{"type":"Feature","properties":{"highway":"footway","name":"Singleton Close","category":"Footpath (pedestrian only)"},"geometry":{"type":"MultiLineString","coordinates":[[[-0.102111,51.3862057],[-0.1021238,51.3862199],[-0.1019328,51.3862914],[-0.1019703,51.3863297],[-0.1018067,51.3863948],[-0.1017462,51.3864207],[-0.1016601,51.3863342],[-0.1015993,51.3862742],[-0.1015778,51.386254],[-0.1016357,51.3862311],[-0.1016025,51.3861955],[-0.1019567,51.3860548],[-0.1020216,51.3861188],[-0.102111,51.3862057]]]}},
{"type":"Feature","properties":{"highway":"footway","name":"Singleton Close","category":"Footpath (pedestrian only)"},"geometry":{"type":"MultiLineString","coordinates":[[[-0.1015993,51.3862742],[-0.1013015,51.3863932]]]}},
{"type":"Feature","properties":{"highway":"footway","name":"Singleton Close","category":"Footpath (pedestrian only)"},"geometry":{"type":"MultiLineString","coordinates":[[[-0.1019567,51.3860548],[-0.1017814,51.3858825],[-0.1017506,51.3858925],[-0.1016879,51.3858284]]]}},
{"type":"Feature","properties":{"highway":"footway","name":null,"category":"Footpath (pedestrian only)"},"geometry":{"type":"MultiLineString","coordinates":[[[-0.1016601,51.3863342],[-0.101815,51.3862671]]]}},
{"type":"Feature","properties":{"highway":"footway","name":null,"category":"Footpath (pedestrian only)"},"geometry":{"type":"MultiLineString","coordinates":[[[-0.1024291,51.3860817],[-0.102111,51.3862057]]]}},
{"type":"Feature","properties":{"highway":"footway","name":null,"category":"Footpath (pedestrian only)"},"geometry":{"type":"MultiLineString","coordinates":[[[-0.1025155,51.3865915],[-0.1021436,51.3867441],[-0.1019775,51.3865822],[-0.1018067,51.3863948]]]}},
{"type":"Feature","properties":{"highway":"footway","name":null,"category":"Footpath (pedestrian only)"},"geometry":{"type":"MultiLineString","coordinates":[[[-0.1019775,51.3865822],[-0.102188,51.3865022],[-0.102161,51.3864736],[-0.1023355,51.3864058],[-0.1025155,51.3865915],[-0.1027192,51.3867959],[-0.1027001,51.3868528]]]}},
{"type":"Feature","properties":{"highway":"footway","name":null,"category":"Footpath (pedestrian only)"},"geometry":{"type":"MultiLineString","coordinates":[[[-0.1030544,51.387437],[-0.1029915,51.3873749],[-0.102893,51.3874153],[-0.1028791,51.3874021],[-0.1027226,51.3872532],[-0.1027033,51.3872611],[-0.102485,51.3870244]]]}},
{"type":"Feature","properties":{"highway":"footway","name":"Prestwood Gardens","category":"Footpath (pedestrian only)"},"geometry":{"type":"MultiLineString","coordinates":[[[-0.101225,51.3863244],[-0.1009418,51.3864342],[-0.1009265,51.3864304]]]}},
{"type":"Feature","properties":{"highway":"footway","name":null,"category":"Footpath (pedestrian only)"},"geometry":{"type":"MultiLineString","coordinates":[[[-0.1005659,51.3866088],[-0.1004413,51.3866696],[-0.1003484,51.3867139]]]}},
{"type":"Feature","properties":{"highway":"path","name":null,"category":"Shared path"},"geometry":{"type":"MultiLineString","coordinates":[[[-0.1004413,51.3866696],[-0.1004566,51.3866806]]]}},
{"type":"Feature","properties":{"highway":"footway","name":"Prestwood Gardens","category":"Footpath (pedestrian only)"},"geometry":{"type":"MultiLineString","coordinates":[[[-0.1008498,51.3863632],[-0.1005884,51.386108],[-0.1004184,51.3859424],[-0.1003278,51.3858797],[-0.1002605,51.3858623],[-0.1001792,51.3858753],[-0.1001458,51.3859168],[-0.1000417,51.3859598],[-0.0999748,51.3859635],[-0.0999502,51.3859994],[-0.0999646,51.3860326],[-0.1001346,51.3861803],[-0.1002401,51.3862771]]]}},
{"type":"Feature","properties":{"highway":"footway","name":null,"category":"Footpath (pedestrian only)"},"geometry":{"type":"MultiLineString","coordinates":[[[-0.0999502,51.3859994],[-0.0998408,51.3859783],[-0.0996526,51.3860604],[-0.0996137,51.3860775]]]}},
{"type":"Feature","properties":{"highway":"footway","name":null,"category":"Footpath (pedestrian only)"},"geometry":{"type":"MultiLineString","coordinates":[[[-0.0993782,51.3881203],[-0.0997944,51.3879273]]]}},
{"type":"Feature","properties":{"highway":"footway","name":null,"category":"Footpath (pedestrian only)"},"geometry":{"type":"MultiLineString","coordinates":[[[-0.0990644,51.3878625],[-0.099405,51.3877035],[-0.0995579,51.3878466],[-0.0996586,51.3878037]]]}},
{"type":"Feature","properties":{"highway":"footway","name":null,"category":"Footpath (pedestrian only)"},"geometry":{"type":"MultiLineString","coordinates":[[[-0.099405,51.3877035],[-0.0996129,51.3876098]]]}},
{"type":"Feature","properties":{"highway":"footway","name":"Smock Walk","category":"Footpath (pedestrian only)"},"geometry":{"type":"MultiLineString","coordinates":[[[-0.0993668,51.3874639],[-0.0991341,51.3872558]]]}},
{"type":"Feature","properties":{"highway":"footway","name":"Smock Walk","category":"Footpath (pedestrian only)"},"geometry":{"type":"MultiLineString","coordinates":[[[-0.0986206,51.3874787],[-0.0989976,51.3873151],[-0.0991341,51.3872558],[-0.0994466,51.3871177]]]}},
{"type":"Feature","properties":{"highway":"path","name":null,"category":"Shared path"},"geometry":{"type":"MultiLineString","coordinates":[[[-0.0993668,51.3874639],[-0.0994852,51.3874123]]]}},
{"type":"Feature","properties":{"highway":"footway","name":null,"category":"Footpath (pedestrian only)"},"geometry":{"type":"MultiLineString","coordinates":[[[-0.0994466,51.3871177],[-0.0995995,51.3872524]]]}},
{"type":"Feature","properties":{"highway":"footway","name":null,"category":"Footpath (pedestrian only)"},"geometry":{"type":"MultiLineString","coordinates":[[[-0.0994466,51.3871177],[-0.0992432,51.3869431],[-0.099057,51.3867782],[-0.0990993,51.3867595],[-0.0988536,51.3865494]]]}},
{"type":"Feature","properties":{"highway":"footway","name":null,"category":"Footpath (pedestrian only)"},"geometry":{"type":"MultiLineString","coordinates":[[[-0.0989976,51.3873151],[-0.0987981,51.3871366],[-0.0987065,51.3870546]]]}},
{"type":"Feature","properties":{"highway":"footway","name":"Ashby Walk","category":"Footpath (pedestrian only)"},"geometry":{"type":"MultiLineString","coordinates":[[[-0.0989414,51.3870715],[-0.0988536,51.3869926],[-0.0987501,51.3869005],[-0.0988064,51.3868779],[-0.0985748,51.3866763]]]}},
{"type":"Feature","properties":{"highway":"footway","name":"Ashby Walk","category":"Footpath (pedestrian only)"},"geometry":{"type":"MultiLineString","coordinates":[[[-0.0987981,51.3871366],[-0.0989414,51.3870715],[-0.0992432,51.3869431]]]}},
{"type":"Feature","properties":{"highway":"footway","name":null,"category":"Footpath (pedestrian only)"},"geometry":{"type":"MultiLineString","coordinates":[[[-0.0983283,51.386783],[-0.0985748,51.3866763]]]}},
{"type":"Feature","properties":{"highway":"footway","name":null,"category":"Footpath (pedestrian only)"},"geometry":{"type":"MultiLineString","coordinates":[[[-0.0985748,51.3866763],[-0.0987519,51.3865956],[-0.0988536,51.3865494]]]}},
{"type":"Feature","properties":{"highway":"footway","name":null,"category":"Footpath (pedestrian only)"},"geometry":{"type":"MultiLineString","coordinates":[[[-0.0988064,51.3868779],[-0.099057,51.3867782]]]}},
{"type":"Feature","properties":{"highway":"path","name":null,"category":"Shared path"},"geometry":{"type":"MultiLineString","coordinates":[[[-0.0961875,51.3862636],[-0.0961202,51.3862495]]]}},
{"type":"Feature","properties":{"highway":"footway","name":null,"category":"Footpath (pedestrian only)"},"geometry":{"type":"MultiLineString","coordinates":[[[-0.0960216,51.3851337],[-0.0963039,51.384592]]]}},
{"type":"Feature","properties":{"highway":"footway","name":null,"category":"Footpath (pedestrian only)"},"geometry":{"type":"MultiLineString","coordinates":[[[-0.0957077,51.3857347],[-0.0958437,51.385468],[-0.0958895,51.3853783],[-0.0959965,51.3851819],[-0.0960216,51.3851337]]]}},
{"type":"Feature","properties":{"highway":"footway","name":null,"category":"Footpath (pedestrian only)"},"geometry":{"type":"MultiLineString","coordinates":[[[-0.0961183,51.3839784],[-0.0960212,51.384162],[-0.0958075,51.3845515]]]}},
{"type":"Feature","properties":{"highway":"footway","name":null,"category":"Footpath (pedestrian only)"},"geometry":{"type":"MultiLineString","coordinates":[[[-0.0923212,51.3857728],[-0.0932724,51.3859411],[-0.0932975,51.3858774],[-0.0933471,51.3858867]]]}},
{"type":"Feature","properties":{"highway":"footway","name":null,"category":"Footpath (pedestrian only)"},"geometry":{"type":"MultiLineString","coordinates":[[[-0.0940681,51.384801],[-0.093969,51.3848212],[-0.0936995,51.3847614],[-0.0936401,51.3847791],[-0.093518,51.3846198]]]}},
{"type":"Feature","properties":{"highway":"footway","name":null,"category":"Footpath (pedestrian only)"},"geometry":{"type":"MultiLineString","coordinates":[[[-0.0960212,51.384162],[-0.0958946,51.3842032],[-0.095311,51.384393],[-0.0952757,51.3843587],[-0.0949921,51.3844447],[-0.0949745,51.38445],[-0.0948104,51.3845008],[-0.0948028,51.3845032],[-0.094593,51.3845681],[-0.094315,51.3845139],[-0.094156,51.3845709]]]}},
{"type":"Feature","properties":{"highway":"path","name":null,"category":"Shared path"},"geometry":{"type":"MultiLineString","coordinates":[[[-0.0986701,51.3820939],[-0.098298,51.382304]]]}},
{"type":"Feature","properties":{"highway":"footway","name":null,"category":"Footpath (pedestrian only)"},"geometry":{"type":"MultiLineString","coordinates":[[[-0.0932155,51.3816725],[-0.0930976,51.3819137]]]}},
{"type":"Feature","properties":{"highway":"footway","name":null,"category":"Footpath (pedestrian only)"},"geometry":{"type":"MultiLineString","coordinates":[[[-0.0905469,51.3815534],[-0.0907299,51.381571]]]}},
{"type":"Feature","properties":{"highway":"footway","name":null,"category":"Footpath (pedestrian only)"},"geometry":{"type":"MultiLineString","coordinates":[[[-0.0928617,51.3845534],[-0.089317,51.3856994]]]}},
{"type":"Feature","properties":{"highway":"footway","name":null,"category":"Footpath (pedestrian only)"},"geometry":{"type":"MultiLineString","coordinates":[[[-0.098235,51.3827588],[-0.0981444,51.3827373],[-0.0980428,51.3827157],[-0.0965524,51.3824034]]]}},
{"type":"Feature","properties":{"highway":"footway","name":null,"category":"Footpath (pedestrian only)"},"geometry":{"type":"MultiLineString","coordinates":[[[-0.0954329,51.3936386],[-0.0953913,51.3936035],[-0.0953463,51.3935658]]]}},
{"type":"Feature","properties":{"highway":"footway","name":null,"category":"Footpath (pedestrian only)"},"geometry":{"type":"MultiLineString","coordinates":[[[-0.093759,51.393799],[-0.0936804,51.3937967],[-0.0935969,51.3937924]]]}},
{"type":"Feature","properties":{"highway":"footway","name":null,"category":"Footpath (pedestrian only)"},"geometry":{"type":"MultiLineString","coordinates":[[[-0.0876968,51.3921207],[-0.0879189,51.3921041],[-0.0881824,51.3921643],[-0.0882171,51.3921651]]]}},
{"type":"Feature","properties":{"highway":"footway","name":null,"category":"Footpath (pedestrian only)"},"geometry":{"type":"MultiLineString","coordinates":[[[-0.0960279,51.3852061],[-0.0960346,51.3851894],[-0.0959965,51.3851819]]]}},
{"type":"Feature","properties":{"highway":"footway","name":null,"category":"Footpath (pedestrian only)"},"geometry":{"type":"MultiLineString","coordinates":[[[-0.0958895,51.3853783],[-0.0954806,51.3852944]]]}},
{"type":"Feature","properties":{"highway":"footway","name":null,"category":"Footpath (pedestrian only)"},"geometry":{"type":"MultiLineString","coordinates":[[[-0.0958437,51.385468],[-0.0962127,51.3855425],[-0.0966347,51.3856305]]]}},
{"type":"Feature","properties":{"highway":"footway","name":null,"category":"Footpath (pedestrian only)"},"geometry":{"type":"MultiLineString","coordinates":[[[-0.0970256,51.3847374],[-0.0969109,51.3849627],[-0.0968194,51.3849894],[-0.0968011,51.38503],[-0.096793,51.385068],[-0.0967117,51.3851898],[-0.096642,51.3852095]]]}},
{"type":"Feature","properties":{"highway":"footway","name":null,"category":"Footpath (pedestrian only)"},"geometry":{"type":"MultiLineString","coordinates":[[[-0.0972735,51.3842614],[-0.0970256,51.3847374]]]}},
{"type":"Feature","properties":{"highway":"footway","name":null,"category":"Footpath (pedestrian only)"},"geometry":{"type":"MultiLineString","coordinates":[[[-0.098563,51.3826868],[-0.0985035,51.3826962]]]}},
{"type":"Feature","properties":{"highway":"footway","name":null,"category":"Footpath (pedestrian only)"},"geometry":{"type":"MultiLineString","coordinates":[[[-0.0985035,51.3826962],[-0.0984723,51.3827057],[-0.0985469,51.3828015],[-0.0985196,51.3828098]]]}},
{"type":"Feature","properties":{"highway":"footway","name":null,"category":"Footpath (pedestrian only)"},"geometry":{"type":"MultiLineString","coordinates":[[[-0.0985196,51.3828098],[-0.0984681,51.3828243],[-0.0984167,51.3828387]]]}},
{"type":"Feature","properties":{"highway":"footway","name":null,"category":"Footpath (pedestrian only)"},"geometry":{"type":"MultiLineString","coordinates":[[[-0.0988313,51.3820051],[-0.098778,51.3820345]]]}},
{"type":"Feature","properties":{"highway":"footway","name":null,"category":"Footpath (pedestrian only)"},"geometry":{"type":"MultiLineString","coordinates":[[[-0.098778,51.3820345],[-0.0986701,51.3820939]]]}},
{"type":"Feature","properties":{"highway":"path","name":null,"category":"Shared path"},"geometry":{"type":"MultiLineString","coordinates":[[[-0.0864705,51.3925412],[-0.0863584,51.3925511],[-0.0862144,51.3925696],[-0.0861013,51.3926194],[-0.0859201,51.3926681],[-0.0857771,51.3926754],[-0.0856756,51.3926671],[-0.0855376,51.3926277],[-0.0853796,51.3925469],[-0.084693,51.3922556]]]}},
{"type":"Feature","properties":{"highway":"footway","name":null,"category":"Footpath (pedestrian only)"},"geometry":{"type":"MultiLineString","coordinates":[[[-0.0866647,51.3906012],[-0.0866756,51.3905789],[-0.0867103,51.3905081],[-0.0866752,51.3904282],[-0.0863804,51.3902617],[-0.0859434,51.3900427],[-0.0857118,51.3899551],[-0.0853924,51.3898609],[-0.0851502,51.3898171],[-0.0849536,51.3898292],[-0.0845886,51.3898226],[-0.0843184,51.3898237],[-0.0841449,51.3898431],[-0.0840148,51.3898576],[-0.0836936,51.3899398],[-0.0834356,51.3900197],[-0.0832338,51.3901029],[-0.0829435,51.3902359]]]}},
{"type":"Feature","properties":{"highway":"footway","name":null,"category":"Footpath (pedestrian only)"},"geometry":{"type":"MultiLineString","coordinates":[[[-0.0982647,51.3827653],[-0.098235,51.3827588]]]}},
{"type":"Feature","properties":{"highway":"footway","name":null,"category":"Footpath (pedestrian only)"},"geometry":{"type":"MultiLineString","coordinates":[[[-0.0984167,51.3828387],[-0.0983967,51.3828458]]]}},
{"type":"Feature","properties":{"highway":"path","name":null,"category":"Shared path"},"geometry":{"type":"MultiLineString","coordinates":[[[-0.0950215,51.3844614],[-0.0949921,51.3844447]]]}},
{"type":"Feature","properties":{"highway":"path","name":null,"category":"Shared path"},"geometry":{"type":"MultiLineString","coordinates":[[[-0.0948028,51.3845032],[-0.0947888,51.3845344],[-0.0946231,51.3848389]]]}},
{"type":"Feature","properties":{"highway":"path","name":null,"category":"Shared path"},"geometry":{"type":"MultiLineString","coordinates":[[[-0.0940681,51.384801],[-0.094058,51.3848219],[-0.0939363,51.3850729],[-0.0936178,51.3850091]]]}},
{"type":"Feature","properties":{"highway":"path","name":null,"category":"Shared path"},"geometry":{"type":"MultiLineString","coordinates":[[[-0.094058,51.3848219],[-0.0943932,51.3848879],[-0.0947665,51.3849614]]]}},
{"type":"Feature","properties":{"highway":"path","name":null,"category":"Shared path"},"geometry":{"type":"MultiLineString","coordinates":[[[-0.0943932,51.3848879],[-0.0942549,51.3851423]]]}},
{"type":"Feature","properties":{"highway":"path","name":null,"category":"Shared path"},"geometry":{"type":"MultiLineString","coordinates":[[[-0.0947245,51.3850411],[-0.0947492,51.3850935],[-0.0946485,51.3852745]]]}},
{"type":"Feature","properties":{"highway":"path","name":null,"category":"Shared path"},"geometry":{"type":"MultiLineString","coordinates":[[[-0.0949702,51.3853382],[-0.0951867,51.3849564]]]}},
{"type":"Feature","properties":{"highway":"path","name":null,"category":"Shared path"},"geometry":{"type":"MultiLineString","coordinates":[[[-0.0924413,51.3945198],[-0.0924753,51.3945292],[-0.0925627,51.3944038],[-0.0926123,51.394368],[-0.0926501,51.3943656],[-0.0927717,51.3943866]]]}},
{"type":"Feature","properties":{"highway":"path","name":null,"category":"Shared path"},"geometry":{"type":"MultiLineString","coordinates":[[[-0.092909,51.3942833],[-0.0927558,51.394311],[-0.0926279,51.3943135],[-0.0921597,51.3943029],[-0.0920937,51.3943458]]]}},
{"type":"Feature","properties":{"highway":"path","name":null,"category":"Shared path"},"geometry":{"type":"MultiLineString","coordinates":[[[-0.0930325,51.394118],[-0.0929288,51.3940906],[-0.0928088,51.3940631],[-0.0927136,51.3940284],[-0.0926321,51.3939924],[-0.0926526,51.3938517]]]}},
{"type":"Feature","properties":{"highway":"path","name":null,"category":"Shared path"},"geometry":{"type":"MultiLineString","coordinates":[[[-0.0916536,51.3940229],[-0.0916899,51.3940793],[-0.0917601,51.39421]]]}},
{"type":"Feature","properties":{"highway":"footway","name":null,"category":"Footpath (pedestrian only)"},"geometry":{"type":"MultiLineString","coordinates":[[[-0.093759,51.393799],[-0.0937614,51.3938613],[-0.0937783,51.3939075],[-0.0938052,51.3939349],[-0.0938124,51.3940147]]]}},
{"type":"Feature","properties":{"highway":"footway","name":null,"category":"Footpath (pedestrian only)"},"geometry":{"type":"MultiLineString","coordinates":[[[-0.0935969,51.3937924],[-0.0935823,51.3938599],[-0.0935684,51.3939096],[-0.0935268,51.3939356],[-0.0935279,51.393997]]]}},
{"type":"Feature","properties":{"highway":"pedestrian","name":"Smock Walk","category":"Pedestrian area/street"},"geometry":{"type":"MultiLineString","coordinates":[[[-0.0988602,51.3876882],[-0.0993668,51.3874639]]]}}
]
}
