{
"type": "FeatureCollection",
"name": "NEWHA_19",
"crs": { "type": "name", "properties": { "name": "urn:ogc:def:crs:OGC:1.3:CRS84" } },
"features": [
{ "type": "Feature", "properties": { "osm_id": 9095040436, "name": null, "amenity": "bench", "man_made": null, "leisure": null, "playground": null, "memorial": null }, "geometry": { "type": "Point", "coordinates": [ 0.0394426, 51.5123966 ] } },
{ "type": "Feature", "properties": { "osm_id": 9095040435, "name": null, "amenity": "bench", "man_made": null, "leisure": null, "playground": null, "memorial": null }, "geometry": { "type": "Point", "coordinates": [ 0.0386908, 51.5127435 ] } },
{ "type": "Feature", "properties": { "osm_id": 9095040459, "name": null, "amenity": null, "man_made": null, "leisure": "picnic_table", "playground": null, "memorial": null }, "geometry": { "type": "Point", "coordinates": [ 0.0382826, 51.5131007 ] } },
{ "type": "Feature", "properties": { "osm_id": 9095040458, "name": null, "amenity": null, "man_made": null, "leisure": "picnic_table", "playground": null, "memorial": null }, "geometry": { "type": "Point", "coordinates": [ 0.0382758, 51.5131316 ] } }
]
}
