{
"type": "FeatureCollection",
"name": "04225c835bad_visibility",
"crs": { "type": "name", "properties": { "name": "urn:ogc:def:crs:OGC:1.3:CRS84" } },
"features": [
{ "type": "Feature", "properties": { "visible_points": 0, "total_points": 60, "visibility_pct": 0.0 }, "geometry": { "type": "Point", "coordinates": [ -0.099322337705204, 51.386068384695669 ] } },
{ "type": "Feature", "properties": { "visible_points": 5, "total_points": 57, "visibility_pct": 8.7719298245614024 }, "geometry": { "type": "Point", "coordinates": [ -0.099123324844604, 51.386065156998505 ] } },
{ "type": "Feature", "properties": { "visible_points": 0, "total_points": 64, "visibility_pct": 0.0 }, "geometry": { "type": "Point", "coordinates": [ -0.099815399741467, 51.386184293960447 ] } },
{ "type": "Feature", "properties": { "visible_points": 0, "total_points": 68, "visibility_pct": 0.0 }, "geometry": { "type": "Point", "coordinates": [ -0.099616386358217, 51.386181067078581 ] } },
{ "type": "Feature", "properties": { "visible_points": 0, "total_points": 69, "visibility_pct": 0.0 }, "geometry": { "type": "Point", "coordinates": [ -0.099417373010024, 51.386177839859748 ] } },
{ "type": "Feature", "properties": { "visible_points": 5, "total_points": 67, "visibility_pct": 7.4626865671641784 }, "geometry": { "type": "Point", "coordinates": [ -0.099218359696894, 51.386174612303925 ] } },
{ "type": "Feature", "properties": { "visible_points": 0, "total_points": 62, "visibility_pct": 0.0 }, "geometry": { "type": "Point", "coordinates": [ -0.099019346418824, 51.386171384411163 ] } },
{ "type": "Feature", "properties": { "visible_points": 0, "total_points": 68, "visibility_pct": 0.0 }, "geometry": { "type": "Point", "coordinates": [ -0.099910436368835, 51.386293748781789 ] } },
{ "type": "Feature", "properties": { "visible_points": 0, "total_points": 76, "visibility_pct": 0.0 }, "geometry": { "type": "Point", "coordinates": [ -0.099711422533053, 51.386290522041271 ] } },
{ "type": "Feature", "properties": { "visible_points": 4, "total_points": 78, "visibility_pct": 5.1282051282051277 }, "geometry": { "type": "Point", "coordinates": [ -0.099512408732318, 51.386287294963786 ] } },
{ "type": "Feature", "properties": { "visible_points": 4, "total_points": 76, "visibility_pct": 5.2631578947368416 }, "geometry": { "type": "Point", "coordinates": [ -0.099313394966651, 51.386284067549319 ] } },
{ "type": "Feature", "properties": { "visible_points": 1, "total_points": 72, "visibility_pct": 1.3888888888888888 }, "geometry": { "type": "Point", "coordinates": [ -0.099114381236037, 51.386280839797884 ] } },
{ "type": "Feature", "properties": { "visible_points": 0, "total_points": 70, "visibility_pct": 0.0 }, "geometry": { "type": "Point", "coordinates": [ -0.100005473413686, 51.386403203543104 ] } },
{ "type": "Feature", "properties": { "visible_points": 0, "total_points": 81, "visibility_pct": 0.0 }, "geometry": { "type": "Point", "coordinates": [ -0.099806459125364, 51.386399976943935 ] } },
{ "type": "Feature", "properties": { "visible_points": 0, "total_points": 87, "visibility_pct": 0.0 }, "geometry": { "type": "Point", "coordinates": [ -0.099607444872091, 51.386396750007776 ] } },
{ "type": "Feature", "properties": { "visible_points": 2, "total_points": 85, "visibility_pct": 2.3529411764705883 }, "geometry": { "type": "Point", "coordinates": [ -0.099408430653883, 51.386393522734679 ] } },
{ "type": "Feature", "properties": { "visible_points": 0, "total_points": 81, "visibility_pct": 0.0 }, "geometry": { "type": "Point", "coordinates": [ -0.09920941647073, 51.386390295124578 ] } },
{ "type": "Feature", "properties": { "visible_points": 7, "total_points": 82, "visibility_pct": 8.536585365853659 }, "geometry": { "type": "Point", "coordinates": [ -0.099901496135158, 51.386509431786557 ] } },
{ "type": "Feature", "properties": { "visible_points": 4, "total_points": 92, "visibility_pct": 4.3478260869565215 }, "geometry": { "type": "Point", "coordinates": [ -0.099702481429348, 51.38650620499174 ] } },
{ "type": "Feature", "properties": { "visible_points": 4, "total_points": 94, "visibility_pct": 4.2553191489361701 }, "geometry": { "type": "Point", "coordinates": [ -0.099503466758588, 51.38650297785999 ] } },
{ "type": "Feature", "properties": { "visible_points": 11, "total_points": 90, "visibility_pct": 12.222222222222221 }, "geometry": { "type": "Point", "coordinates": [ -0.099304452122897, 51.386499750391238 ] } },
{ "type": "Feature", "properties": { "visible_points": 12, "total_points": 84, "visibility_pct": 14.285714285714285 }, "geometry": { "type": "Point", "coordinates": [ -0.09910543752226, 51.386496522585524 ] } },
{ "type": "Feature", "properties": { "visible_points": 0, "total_points": 72, "visibility_pct": 0.0 }, "geometry": { "type": "Point", "coordinates": [ -0.098906422956698, 51.386493294442843 ] } },
{ "type": "Feature", "properties": { "visible_points": 13, "total_points": 96, "visibility_pct": 13.541666666666666 }, "geometry": { "type": "Point", "coordinates": [ -0.099598503280782, 51.386612432925261 ] } },
{ "type": "Feature", "properties": { "visible_points": 18, "total_points": 95, "visibility_pct": 18.947368421052634 }, "geometry": { "type": "Point", "coordinates": [ -0.099399488192541, 51.386609205597871 ] } },
{ "type": "Feature", "properties": { "visible_points": 17, "total_points": 90, "visibility_pct": 18.888888888888889 }, "geometry": { "type": "Point", "coordinates": [ -0.099200473139361, 51.386605977933499 ] } },
{ "type": "Feature", "properties": { "visible_points": 14, "total_points": 78, "visibility_pct": 17.948717948717949 }, "geometry": { "type": "Point", "coordinates": [ -0.099001458121242, 51.386602749932159 ] } },
{ "type": "Feature", "properties": { "visible_points": 8, "total_points": 65, "visibility_pct": 12.307692307692308 }, "geometry": { "type": "Point", "coordinates": [ -0.098802443138195, 51.386599521593844 ] } },
{ "type": "Feature", "properties": { "visible_points": 9, "total_points": 92, "visibility_pct": 9.7826086956521738 }, "geometry": { "type": "Point", "coordinates": [ -0.09989255579631, 51.386725114779559 ] } },
{ "type": "Feature", "properties": { "visible_points": 17, "total_points": 97, "visibility_pct": 17.525773195876287 }, "geometry": { "type": "Point", "coordinates": [ -0.099693540220461, 51.386721887930506 ] } },
{ "type": "Feature", "properties": { "visible_points": 21, "total_points": 97, "visibility_pct": 21.649484536082475 }, "geometry": { "type": "Point", "coordinates": [ -0.099494524679669, 51.386718660744464 ] } },
{ "type": "Feature", "properties": { "visible_points": 16, "total_points": 93, "visibility_pct": 17.20430107526882 }, "geometry": { "type": "Point", "coordinates": [ -0.099295509173938, 51.38671543322144 ] } },
{ "type": "Feature", "properties": { "visible_points": 13, "total_points": 82, "visibility_pct": 15.853658536585366 }, "geometry": { "type": "Point", "coordinates": [ -0.099096493703271, 51.386712205361455 ] } },
{ "type": "Feature", "properties": { "visible_points": 16, "total_points": 91, "visibility_pct": 17.582417582417584 }, "geometry": { "type": "Point", "coordinates": [ -0.099987593606025, 51.386834569583414 ] } },
{ "type": "Feature", "properties": { "visible_points": 0, "total_points": 97, "visibility_pct": 0.0 }, "geometry": { "type": "Point", "coordinates": [ -0.09978857757763, 51.386831342875709 ] } },
{ "type": "Feature", "properties": { "visible_points": 21, "total_points": 99, "visibility_pct": 21.212121212121211 }, "geometry": { "type": "Point", "coordinates": [ -0.099589561584285, 51.386828115831015 ] } },
{ "type": "Feature", "properties": { "visible_points": 22, "total_points": 95, "visibility_pct": 23.157894736842106 }, "geometry": { "type": "Point", "coordinates": [ -0.099390545626003, 51.386824888449354 ] } },
{ "type": "Feature", "properties": { "visible_points": 0, "total_points": 85, "visibility_pct": 0.0 }, "geometry": { "type": "Point", "coordinates": [ -0.09919152970278, 51.386821660730703 ] } },
{ "type": "Feature", "properties": { "visible_points": 0, "total_points": 74, "visibility_pct": 0.0 }, "geometry": { "type": "Point", "coordinates": [ -0.098992513814623, 51.386818432675078 ] } },
{ "type": "Feature", "properties": { "visible_points": 6, "total_points": 90, "visibility_pct": 6.666666666666667 }, "geometry": { "type": "Point", "coordinates": [ -0.100082631833239, 51.386944024327214 ] } },
{ "type": "Feature", "properties": { "visible_points": 25, "total_points": 97, "visibility_pct": 25.773195876288657 }, "geometry": { "type": "Point", "coordinates": [ -0.099883615352291, 51.386940797760872 ] } },
{ "type": "Feature", "properties": { "visible_points": 26, "total_points": 99, "visibility_pct": 26.262626262626267 }, "geometry": { "type": "Point", "coordinates": [ -0.099684598906394, 51.386937570857526 ] } },
{ "type": "Feature", "properties": { "visible_points": 24, "total_points": 97, "visibility_pct": 24.742268041237114 }, "geometry": { "type": "Point", "coordinates": [ -0.099485582495554, 51.386934343617213 ] } },
{ "type": "Feature", "properties": { "visible_points": 20, "total_points": 88, "visibility_pct": 22.727272727272727 }, "geometry": { "type": "Point", "coordinates": [ -0.099286566119778, 51.386931116039925 ] } },
{ "type": "Feature", "properties": { "visible_points": 10, "total_points": 89, "visibility_pct": 11.235955056179774 }, "geometry": { "type": "Point", "coordinates": [ -0.100177670477952, 51.387053479010973 ] } },
{ "type": "Feature", "properties": { "visible_points": 24, "total_points": 97, "visibility_pct": 24.742268041237114 }, "geometry": { "type": "Point", "coordinates": [ -0.099978653544448, 51.387050252586 ] } },
{ "type": "Feature", "properties": { "visible_points": 32, "total_points": 99, "visibility_pct": 32.323232323232325 }, "geometry": { "type": "Point", "coordinates": [ -0.099779636645999, 51.38704702582401 ] } },
{ "type": "Feature", "properties": { "visible_points": 29, "total_points": 97, "visibility_pct": 29.896907216494846 }, "geometry": { "type": "Point", "coordinates": [ -0.099580619782598, 51.387043798725053 ] } },
{ "type": "Feature", "properties": { "visible_points": 24, "total_points": 91, "visibility_pct": 26.373626373626376 }, "geometry": { "type": "Point", "coordinates": [ -0.099381602954265, 51.387040571289113 ] } },
{ "type": "Feature", "properties": { "visible_points": 28, "total_points": 88, "visibility_pct": 31.818181818181817 }, "geometry": { "type": "Point", "coordinates": [ -0.100272709540166, 51.387162933634713 ] } },
{ "type": "Feature", "properties": { "visible_points": 34, "total_points": 97, "visibility_pct": 35.051546391752574 }, "geometry": { "type": "Point", "coordinates": [ -0.100073692154108, 51.387159707351081 ] } },
{ "type": "Feature", "properties": { "visible_points": 39, "total_points": 99, "visibility_pct": 39.393939393939391 }, "geometry": { "type": "Point", "coordinates": [ -0.099874674803096, 51.38715648073044 ] } },
{ "type": "Feature", "properties": { "visible_points": 33, "total_points": 97, "visibility_pct": 34.020618556701031 }, "geometry": { "type": "Point", "coordinates": [ -0.099675657487144, 51.387153253772844 ] } },
{ "type": "Feature", "properties": { "visible_points": 25, "total_points": 92, "visibility_pct": 27.173913043478258 }, "geometry": { "type": "Point", "coordinates": [ -0.099476640206248, 51.387150026478238 ] } },
{ "type": "Feature", "properties": { "visible_points": 21, "total_points": 72, "visibility_pct": 29.166666666666668 }, "geometry": { "type": "Point", "coordinates": [ -0.10056676689355, 51.387275614003691 ] } },
{ "type": "Feature", "properties": { "visible_points": 30, "total_points": 85, "visibility_pct": 35.294117647058826 }, "geometry": { "type": "Point", "coordinates": [ -0.100367749019888, 51.387272388198397 ] } },
{ "type": "Feature", "properties": { "visible_points": 37, "total_points": 97, "visibility_pct": 38.144329896907216 }, "geometry": { "type": "Point", "coordinates": [ -0.10016873118127, 51.387269162056114 ] } },
{ "type": "Feature", "properties": { "visible_points": 36, "total_points": 99, "visibility_pct": 36.363636363636367 }, "geometry": { "type": "Point", "coordinates": [ -0.099969713377697, 51.387265935576842 ] } },
{ "type": "Feature", "properties": { "visible_points": 38, "total_points": 98, "visibility_pct": 38.775510204081634 }, "geometry": { "type": "Point", "coordinates": [ -0.099770695609188, 51.387262708760588 ] } },
{ "type": "Feature", "properties": { "visible_points": 1, "total_points": 94, "visibility_pct": 1.0638297872340425 }, "geometry": { "type": "Point", "coordinates": [ -0.099571677875723, 51.387259481607337 ] } },
{ "type": "Feature", "properties": { "visible_points": 16, "total_points": 69, "visibility_pct": 23.188405797101449 }, "geometry": { "type": "Point", "coordinates": [ -0.10066180724334, 51.387385068365965 ] } },
{ "type": "Feature", "properties": { "visible_points": 29, "total_points": 82, "visibility_pct": 35.365853658536587 }, "geometry": { "type": "Point", "coordinates": [ -0.100462788917117, 51.387381842702041 ] } },
{ "type": "Feature", "properties": { "visible_points": 36, "total_points": 95, "visibility_pct": 37.894736842105267 }, "geometry": { "type": "Point", "coordinates": [ -0.100263770625941, 51.387378616701106 ] } },
{ "type": "Feature", "properties": { "visible_points": 37, "total_points": 101, "visibility_pct": 36.633663366336634 }, "geometry": { "type": "Point", "coordinates": [ -0.100064752369808, 51.387375390363196 ] } },
{ "type": "Feature", "properties": { "visible_points": 36, "total_points": 100, "visibility_pct": 36.0 }, "geometry": { "type": "Point", "coordinates": [ -0.099865734148731, 51.387372163688291 ] } },
{ "type": "Feature", "properties": { "visible_points": 29, "total_points": 95, "visibility_pct": 30.526315789473685 }, "geometry": { "type": "Point", "coordinates": [ -0.099666715962705, 51.38736893667641 ] } },
{ "type": "Feature", "properties": { "visible_points": 0, "total_points": 84, "visibility_pct": 0.0 }, "geometry": { "type": "Point", "coordinates": [ -0.099467697811741, 51.38736570932754 ] } },
{ "type": "Feature", "properties": { "visible_points": 22, "total_points": 63, "visibility_pct": 34.920634920634917 }, "geometry": { "type": "Point", "coordinates": [ -0.100756848010644, 51.387494522668185 ] } },
{ "type": "Feature", "properties": { "visible_points": 28, "total_points": 76, "visibility_pct": 36.84210526315789 }, "geometry": { "type": "Point", "coordinates": [ -0.100557829231865, 51.387491297145623 ] } },
{ "type": "Feature", "properties": { "visible_points": 30, "total_points": 89, "visibility_pct": 33.707865168539328 }, "geometry": { "type": "Point", "coordinates": [ -0.100358810488122, 51.38748807128605 ] } },
{ "type": "Feature", "properties": { "visible_points": 34, "total_points": 97, "visibility_pct": 35.051546391752574 }, "geometry": { "type": "Point", "coordinates": [ -0.100159791779429, 51.38748484508951 ] } },
{ "type": "Feature", "properties": { "visible_points": 35, "total_points": 101, "visibility_pct": 34.653465346534652 }, "geometry": { "type": "Point", "coordinates": [ -0.09996077310578, 51.387481618555967 ] } },
{ "type": "Feature", "properties": { "visible_points": 32, "total_points": 96, "visibility_pct": 33.333333333333329 }, "geometry": { "type": "Point", "coordinates": [ -0.099761754467193, 51.387478391685434 ] } },
{ "type": "Feature", "properties": { "visible_points": 26, "total_points": 85, "visibility_pct": 30.588235294117649 }, "geometry": { "type": "Point", "coordinates": [ -0.099562735863658, 51.387475164477934 ] } },
{ "type": "Feature", "properties": { "visible_points": 11, "total_points": 56, "visibility_pct": 19.642857142857142 }, "geometry": { "type": "Point", "coordinates": [ -0.100851889195469, 51.387603976910377 ] } },
{ "type": "Feature", "properties": { "visible_points": 21, "total_points": 68, "visibility_pct": 30.882352941176471 }, "geometry": { "type": "Point", "coordinates": [ -0.100652869964124, 51.387600751529178 ] } },
{ "type": "Feature", "properties": { "visible_points": 24, "total_points": 80, "visibility_pct": 30.0 }, "geometry": { "type": "Point", "coordinates": [ -0.100453850767819, 51.387597525810975 ] } },
{ "type": "Feature", "properties": { "visible_points": 30, "total_points": 87, "visibility_pct": 34.482758620689658 }, "geometry": { "type": "Point", "coordinates": [ -0.10025483160656, 51.387594299755769 ] } },
{ "type": "Feature", "properties": { "visible_points": 32, "total_points": 92, "visibility_pct": 34.782608695652172 }, "geometry": { "type": "Point", "coordinates": [ -0.100055812480348, 51.387591073363588 ] } },
{ "type": "Feature", "properties": { "visible_points": 33, "total_points": 93, "visibility_pct": 35.483870967741936 }, "geometry": { "type": "Point", "coordinates": [ -0.099856793389184, 51.38758784663441 ] } },
{ "type": "Feature", "properties": { "visible_points": 28, "total_points": 84, "visibility_pct": 33.333333333333329 }, "geometry": { "type": "Point", "coordinates": [ -0.099657774333084, 51.387584619568251 ] } },
{ "type": "Feature", "properties": { "visible_points": 1, "total_points": 59, "visibility_pct": 1.6949152542372881 }, "geometry": { "type": "Point", "coordinates": [ -0.100747911113906, 51.387710205852663 ] } },
{ "type": "Feature", "properties": { "visible_points": 22, "total_points": 70, "visibility_pct": 31.428571428571427 }, "geometry": { "type": "Point", "coordinates": [ -0.100548891465035, 51.387706980275823 ] } },
{ "type": "Feature", "properties": { "visible_points": 26, "total_points": 77, "visibility_pct": 33.766233766233768 }, "geometry": { "type": "Point", "coordinates": [ -0.100349871851207, 51.387703754362008 ] } },
{ "type": "Feature", "properties": { "visible_points": 28, "total_points": 82, "visibility_pct": 34.146341463414636 }, "geometry": { "type": "Point", "coordinates": [ -0.100150852272425, 51.387700528111182 ] } },
{ "type": "Feature", "properties": { "visible_points": 29, "total_points": 85, "visibility_pct": 34.117647058823529 }, "geometry": { "type": "Point", "coordinates": [ -0.099951832728691, 51.38769730152336 ] } },
{ "type": "Feature", "properties": { "visible_points": 0, "total_points": 80, "visibility_pct": 0.0 }, "geometry": { "type": "Point", "coordinates": [ -0.099752813220019, 51.387694074598564 ] } },
{ "type": "Feature", "properties": { "visible_points": 3, "total_points": 67, "visibility_pct": 4.4776119402985071 }, "geometry": { "type": "Point", "coordinates": [ -0.100444912513376, 51.387813208908184 ] } },
{ "type": "Feature", "properties": { "visible_points": 27, "total_points": 72, "visibility_pct": 37.5 }, "geometry": { "type": "Point", "coordinates": [ -0.100245892482021, 51.387809982798721 ] } },
{ "type": "Feature", "properties": { "visible_points": 27, "total_points": 75, "visibility_pct": 36.0 }, "geometry": { "type": "Point", "coordinates": [ -0.100046872485718, 51.387806756352269 ] } },
{ "type": "Feature", "properties": { "visible_points": 24, "total_points": 73, "visibility_pct": 32.87671232876712 }, "geometry": { "type": "Point", "coordinates": [ -0.099847852524464, 51.387803529568835 ] } },
{ "type": "Feature", "properties": { "visible_points": 1, "total_points": 62, "visibility_pct": 1.6129032258064515 }, "geometry": { "type": "Point", "coordinates": [ -0.100340933109141, 51.38791943742622 ] } },
{ "type": "Feature", "properties": { "visible_points": 23, "total_points": 65, "visibility_pct": 35.384615384615387 }, "geometry": { "type": "Point", "coordinates": [ -0.10014191266026, 51.387916211121123 ] } },
{ "type": "Feature", "properties": { "visible_points": 20, "total_points": 64, "visibility_pct": 31.25 }, "geometry": { "type": "Point", "coordinates": [ -0.099942892246431, 51.387912984479051 ] } },
{ "type": "Feature", "properties": { "visible_points": 1, "total_points": 55, "visibility_pct": 1.8181818181818181 }, "geometry": { "type": "Point", "coordinates": [ -0.100236953252324, 51.38802566582995 ] } },
{ "type": "Feature", "properties": { "visible_points": 0, "total_points": 55, "visibility_pct": 0.0 }, "geometry": { "type": "Point", "coordinates": [ -0.100037932385917, 51.38802243932922 ] } }
]
}
