{
"type": "FeatureCollection",
"name": "744f13c89977_foliage",
"crs": { "type": "name", "properties": { "name": "urn:ogc:def:crs:OGC:1.3:CRS84" } },
"features": [
{ "type": "Feature", "properties": { "max_height": 2.9874954223632812, "mean_height": 0.70127904415130615, "std_height": 0.81992709636688232, "count_pixels": 43, "percent_cover": 0.64915458937198067, "percent_above_0.1m": 58.139534883720934, "low_level_<0.5": 13.953488372093023, "mid_level_0.5-2": 37.209302325581397, "tall_2+": 6.9767441860465116 }, "geometry": { "type": "Point", "coordinates": [ -0.134591560982547, 51.320534546418656 ] } },
{ "type": "Feature", "properties": { "max_height": 0.18999481201171875, "mean_height": 0.0033547005150467157, "std_height": 0.034253362566232681, "count_pixels": 41, "percent_cover": 0.6189613526570048, "percent_above_0.1m": 2.4390243902439024, "low_level_<0.5": 2.4390243902439024, "mid_level_0.5-2": 0.0, "tall_2+": 0.0 }, "geometry": { "type": "Point", "coordinates": [ -0.134686555596833, 51.320643972586105 ] } },
{ "type": "Feature", "properties": { "max_height": 3.3175048828125, "mean_height": 1.221280574798584, "std_height": 0.96379697322845459, "count_pixels": 41, "percent_cover": 0.6189613526570048, "percent_above_0.1m": 78.048780487804876, "low_level_<0.5": 9.7560975609756095, "mid_level_0.5-2": 43.902439024390247, "tall_2+": 24.390243902439025 }, "geometry": { "type": "Point", "coordinates": [ -0.134487820866385, 51.320640811155876 ] } },
{ "type": "Feature", "properties": { "max_height": 2.2075042724609375, "mean_height": 0.095873281359672546, "std_height": 0.39521393179893494, "count_pixels": 43, "percent_cover": 0.64915458937198067, "percent_above_0.1m": 6.9767441860465116, "low_level_<0.5": 2.3255813953488373, "mid_level_0.5-2": 2.3255813953488373, "tall_2+": 2.3255813953488373 }, "geometry": { "type": "Point", "coordinates": [ -0.134582815442542, 51.320750237406614 ] } },
{ "type": "Feature", "properties": { "max_height": 3.7324981689453125, "mean_height": 1.4344514608383179, "std_height": 1.0193185806274414, "count_pixels": 41, "percent_cover": 0.6189613526570048, "percent_above_0.1m": 85.365853658536579, "low_level_<0.5": 9.7560975609756095, "mid_level_0.5-2": 41.463414634146339, "tall_2+": 31.707317073170731 }, "geometry": { "type": "Point", "coordinates": [ -0.134384080232457, 51.32074707581662 ] } },
{ "type": "Feature", "properties": { "max_height": 3.222503662109375, "mean_height": 0.31085389852523804, "std_height": 0.67512869834899902, "count_pixels": 41, "percent_cover": 0.6189613526570048, "percent_above_0.1m": 26.829268292682929, "low_level_<0.5": 2.4390243902439024, "mid_level_0.5-2": 19.512195121951219, "tall_2+": 2.4390243902439024 }, "geometry": { "type": "Point", "coordinates": [ -0.13447907477048, 51.320856502150626 ] } },
{ "type": "Feature", "properties": { "max_height": 3.272491455078125, "mean_height": 1.4765689373016357, "std_height": 0.86355692148208618, "count_pixels": 43, "percent_cover": 0.64915458937198067, "percent_above_0.1m": 86.04651162790698, "low_level_<0.5": 2.3255813953488373, "mid_level_0.5-2": 58.139534883720934, "tall_2+": 25.581395348837212 }, "geometry": { "type": "Point", "coordinates": [ -0.134280339080747, 51.320853340400866 ] } },
{ "type": "Feature", "properties": { "max_height": 2.9574966430664062, "mean_height": 1.2517677545547485, "std_height": 1.0549865961074829, "count_pixels": 41, "percent_cover": 0.6189613526570048, "percent_above_0.1m": 65.853658536585371, "low_level_<0.5": 0.0, "mid_level_0.5-2": 29.268292682926827, "tall_2+": 34.146341463414636 }, "geometry": { "type": "Point", "coordinates": [ -0.134375333580636, 51.320962766818162 ] } },
{ "type": "Feature", "properties": { "max_height": 3.1349945068359375, "mean_height": 1.7537192106246948, "std_height": 0.99198454618453979, "count_pixels": 41, "percent_cover": 0.6189613526570048, "percent_above_0.1m": 85.365853658536579, "low_level_<0.5": 4.8780487804878048, "mid_level_0.5-2": 36.585365853658537, "tall_2+": 43.902439024390247 }, "geometry": { "type": "Point", "coordinates": [ -0.134176597411262, 51.320959604908623 ] } },
{ "type": "Feature", "properties": { "max_height": 7.5824966430664062, "mean_height": 2.1714024543762207, "std_height": 2.4952049255371094, "count_pixels": 41, "percent_cover": 0.6189613526570048, "percent_above_0.1m": 68.292682926829272, "low_level_<0.5": 4.8780487804878048, "mid_level_0.5-2": 19.512195121951219, "tall_2+": 41.463414634146339 }, "geometry": { "type": "Point", "coordinates": [ -0.134669065285408, 51.321075354532717 ] } },
{ "type": "Feature", "properties": { "max_height": 3.4099960327148438, "mean_height": 0.32311064004898071, "std_height": 0.74758154153823853, "count_pixels": 41, "percent_cover": 0.6189613526570048, "percent_above_0.1m": 31.707317073170731, "low_level_<0.5": 9.7560975609756095, "mid_level_0.5-2": 9.7560975609756095, "tall_2+": 7.3170731707317067 }, "geometry": { "type": "Point", "coordinates": [ -0.134470328560148, 51.321072193140132 ] } },
{ "type": "Feature", "properties": { "max_height": 3.4600067138671875, "mean_height": 0.61779254674911499, "std_height": 0.85920566320419312, "count_pixels": 43, "percent_cover": 0.64915458937198067, "percent_above_0.1m": 46.511627906976742, "low_level_<0.5": 0.0, "mid_level_0.5-2": 32.558139534883722, "tall_2+": 9.3023255813953494 }, "geometry": { "type": "Point", "coordinates": [ -0.134271591873011, 51.321069031409195 ] } },
{ "type": "Feature", "properties": { "max_height": 6.8300018310546875, "mean_height": 1.9970347881317139, "std_height": 2.0683145523071289, "count_pixels": 43, "percent_cover": 0.64915458937198067, "percent_above_0.1m": 72.093023255813947, "low_level_<0.5": 6.9767441860465116, "mid_level_0.5-2": 20.930232558139537, "tall_2+": 44.186046511627907 }, "geometry": { "type": "Point", "coordinates": [ -0.134072855223991, 51.321065869339897 ] } },
{ "type": "Feature", "properties": { "max_height": 2.7650070190429688, "mean_height": 0.73552489280700684, "std_height": 0.77908599376678467, "count_pixels": 43, "percent_cover": 0.64915458937198067, "percent_above_0.1m": 65.116279069767444, "low_level_<0.5": 13.953488372093023, "mid_level_0.5-2": 41.860465116279073, "tall_2+": 9.3023255813953494 }, "geometry": { "type": "Point", "coordinates": [ -0.134565324019298, 51.321181619366818 ] } },
{ "type": "Feature", "properties": { "max_height": 0.25749969482421875, "mean_height": 0.011707771569490433, "std_height": 0.048622909933328629, "count_pixels": 41, "percent_cover": 0.6189613526570048, "percent_above_0.1m": 7.3170731707317067, "low_level_<0.5": 4.8780487804878048, "mid_level_0.5-2": 0.0, "tall_2+": 0.0 }, "geometry": { "type": "Point", "coordinates": [ -0.134366586814386, 51.321178457814455 ] } },
{ "type": "Feature", "properties": { "max_height": 0.30999755859375, "mean_height": 0.024573348462581635, "std_height": 0.073704198002815247, "count_pixels": 41, "percent_cover": 0.6189613526570048, "percent_above_0.1m": 9.7560975609756095, "low_level_<0.5": 7.3170731707317067, "mid_level_0.5-2": 0.0, "tall_2+": 0.0 }, "geometry": { "type": "Point", "coordinates": [ -0.1341678496476, 51.321175295923744 ] } },
{ "type": "Feature", "properties": { "max_height": 3.1124954223632812, "mean_height": 0.7653045654296875, "std_height": 1.0232269763946533, "count_pixels": 41, "percent_cover": 0.6189613526570048, "percent_above_0.1m": 43.902439024390247, "low_level_<0.5": 2.4390243902439024, "mid_level_0.5-2": 26.829268292682929, "tall_2+": 14.634146341463413 }, "geometry": { "type": "Point", "coordinates": [ -0.133969112518932, 51.321172133694667 ] } },
{ "type": "Feature", "properties": { "max_height": 0.68499755859375, "mean_height": 0.069728955626487732, "std_height": 0.15393327176570892, "count_pixels": 37, "percent_cover": 0.55857487922705307, "percent_above_0.1m": 8.1081081081081088, "low_level_<0.5": 2.7027027027027026, "mid_level_0.5-2": 5.4054054054054053, "tall_2+": 0.0 }, "geometry": { "type": "Point", "coordinates": [ -0.133770375428403, 51.321168971127214 ] } },
{ "type": "Feature", "properties": { "max_height": 0.6074981689453125, "mean_height": 0.12317043542861938, "std_height": 0.17606930434703827, "count_pixels": 41, "percent_cover": 0.6189613526570048, "percent_above_0.1m": 36.585365853658537, "low_level_<0.5": 19.512195121951219, "mid_level_0.5-2": 7.3170731707317067, "tall_2+": 0.0 }, "geometry": { "type": "Point", "coordinates": [ -0.134461582235401, 51.321287884124423 ] } },
{ "type": "Feature", "properties": { "max_height": 1.2600021362304688, "mean_height": 0.15691907703876495, "std_height": 0.2993546724319458, "count_pixels": 43, "percent_cover": 0.64915458937198067, "percent_above_0.1m": 27.906976744186046, "low_level_<0.5": 13.953488372093023, "mid_level_0.5-2": 11.627906976744185, "tall_2+": 0.0 }, "geometry": { "type": "Point", "coordinates": [ -0.134262844550837, 51.321284722412287 ] } },
{ "type": "Feature", "properties": { "max_height": 1.1125030517578125, "mean_height": 0.10436053574085236, "std_height": 0.26467069983482361, "count_pixels": 43, "percent_cover": 0.64915458937198067, "percent_above_0.1m": 18.604651162790699, "low_level_<0.5": 6.9767441860465116, "mid_level_0.5-2": 9.3023255813953494, "tall_2+": 0.0 }, "geometry": { "type": "Point", "coordinates": [ -0.134064106904398, 51.321281560361783 ] } },
{ "type": "Feature", "properties": { "max_height": 2.0550003051757812, "mean_height": 0.4060463011264801, "std_height": 0.60518461465835571, "count_pixels": 43, "percent_cover": 0.64915458937198067, "percent_above_0.1m": 41.860465116279073, "low_level_<0.5": 11.627906976744185, "mid_level_0.5-2": 25.581395348837212, "tall_2+": 2.3255813953488373 }, "geometry": { "type": "Point", "coordinates": [ -0.133865369296087, 51.321278397972947 ] } },
{ "type": "Feature", "properties": { "max_height": 0.4250030517578125, "mean_height": 0.047380901873111725, "std_height": 0.08558306097984314, "count_pixels": 42, "percent_cover": 0.63405797101449279, "percent_above_0.1m": 14.285714285714285, "low_level_<0.5": 9.5238095238095237, "mid_level_0.5-2": 0.0, "tall_2+": 0.0 }, "geometry": { "type": "Point", "coordinates": [ -0.133666631725908, 51.321275235245714 ] } },
{ "type": "Feature", "properties": { "max_height": 2.0500030517578125, "mean_height": 0.51220971345901489, "std_height": 0.53165191411972046, "count_pixels": 43, "percent_cover": 0.64915458937198067, "percent_above_0.1m": 72.093023255813947, "low_level_<0.5": 34.883720930232556, "mid_level_0.5-2": 32.558139534883722, "tall_2+": 2.3255813953488373 }, "geometry": { "type": "Point", "coordinates": [ -0.134556578136053, 51.321397310339066 ] } },
{ "type": "Feature", "properties": { "max_height": 0.9225006103515625, "mean_height": 0.18067151308059692, "std_height": 0.25256091356277466, "count_pixels": 41, "percent_cover": 0.6189613526570048, "percent_above_0.1m": 41.463414634146339, "low_level_<0.5": 29.268292682926827, "mid_level_0.5-2": 9.7560975609756095, "tall_2+": 0.0 }, "geometry": { "type": "Point", "coordinates": [ -0.134357839933711, 51.321394148805524 ] } },
{ "type": "Feature", "properties": { "max_height": 0.95999908447265625, "mean_height": 0.098659053444862366, "std_height": 0.19967754185199738, "count_pixels": 41, "percent_cover": 0.6189613526570048, "percent_above_0.1m": 17.073170731707318, "low_level_<0.5": 14.634146341463413, "mid_level_0.5-2": 2.4390243902439024, "tall_2+": 0.0 }, "geometry": { "type": "Point", "coordinates": [ -0.134159101769496, 51.321390986933636 ] } },
{ "type": "Feature", "properties": { "max_height": 0.35500335693359375, "mean_height": 0.039268679916858673, "std_height": 0.07159145176410675, "count_pixels": 41, "percent_cover": 0.6189613526570048, "percent_above_0.1m": 17.073170731707318, "low_level_<0.5": 7.3170731707317067, "mid_level_0.5-2": 0.0, "tall_2+": 0.0 }, "geometry": { "type": "Point", "coordinates": [ -0.133960363643402, 51.321387824723352 ] } },
{ "type": "Feature", "properties": { "max_height": 0.06499481201171875, "mean_height": 0.004864460788667202, "std_height": 0.016994418576359749, "count_pixels": 37, "percent_cover": 0.55857487922705307, "percent_above_0.1m": 0.0, "low_level_<0.5": 0.0, "mid_level_0.5-2": 0.0, "tall_2+": 0.0 }, "geometry": { "type": "Point", "coordinates": [ -0.133761625555441, 51.321384662174729 ] } },
{ "type": "Feature", "properties": { "max_height": 0.11499786376953125, "mean_height": 0.031646914780139923, "std_height": 0.035781629383563995, "count_pixels": 41, "percent_cover": 0.6189613526570048, "percent_above_0.1m": 7.3170731707317067, "low_level_<0.5": 0.0, "mid_level_0.5-2": 0.0, "tall_2+": 0.0 }, "geometry": { "type": "Point", "coordinates": [ -0.133562887505619, 51.321381499287725 ] } },
{ "type": "Feature", "properties": { "max_height": 1.1149978637695312, "mean_height": 0.1971965879201889, "std_height": 0.27135780453681946, "count_pixels": 41, "percent_cover": 0.6189613526570048, "percent_above_0.1m": 41.463414634146339, "low_level_<0.5": 21.951219512195124, "mid_level_0.5-2": 14.634146341463413, "tall_2+": 0.0 }, "geometry": { "type": "Point", "coordinates": [ -0.134452835796227, 51.321503575103463 ] } },
{ "type": "Feature", "properties": { "max_height": 6.5875015258789062, "mean_height": 1.735174298286438, "std_height": 2.0064141750335693, "count_pixels": 43, "percent_cover": 0.64915458937198067, "percent_above_0.1m": 62.790697674418603, "low_level_<0.5": 2.3255813953488373, "mid_level_0.5-2": 16.279069767441861, "tall_2+": 39.534883720930232 }, "geometry": { "type": "Point", "coordinates": [ -0.134254097114229, 51.321500413410156 ] } },
{ "type": "Feature", "properties": { "max_height": 5.1599960327148438, "mean_height": 0.41907057166099548, "std_height": 0.96107500791549683, "count_pixels": 43, "percent_cover": 0.64915458937198067, "percent_above_0.1m": 32.558139534883722, "low_level_<0.5": 16.279069767441861, "mid_level_0.5-2": 9.3023255813953494, "tall_2+": 4.6511627906976747 }, "geometry": { "type": "Point", "coordinates": [ -0.134055358470356, 51.321497251378482 ] } },
{ "type": "Feature", "properties": { "max_height": 3.9124984741210938, "mean_height": 0.3397674560546875, "std_height": 0.79775506258010864, "count_pixels": 43, "percent_cover": 0.64915458937198067, "percent_above_0.1m": 32.558139534883722, "low_level_<0.5": 13.953488372093023, "mid_level_0.5-2": 6.9767441860465116, "tall_2+": 6.9767441860465116 }, "geometry": { "type": "Point", "coordinates": [ -0.133856619864608, 51.321494089008446 ] } },
{ "type": "Feature", "properties": { "max_height": 1.1100006103515625, "mean_height": 0.11654771864414215, "std_height": 0.27815070748329163, "count_pixels": 42, "percent_cover": 0.63405797101449279, "percent_above_0.1m": 21.428571428571427, "low_level_<0.5": 4.7619047619047619, "mid_level_0.5-2": 11.904761904761903, "tall_2+": 0.0 }, "geometry": { "type": "Point", "coordinates": [ -0.133657881297, 51.321490926300022 ] } },
{ "type": "Feature", "properties": { "max_height": 0.45499420166015625, "mean_height": 0.042035657912492752, "std_height": 0.072179362177848816, "count_pixels": 43, "percent_cover": 0.64915458937198067, "percent_above_0.1m": 9.3023255813953494, "low_level_<0.5": 2.3255813953488373, "mid_level_0.5-2": 0.0, "tall_2+": 0.0 }, "geometry": { "type": "Point", "coordinates": [ -0.133459142767525, 51.321487763253245 ] } },
{ "type": "Feature", "properties": { "max_height": 8.3075027465820312, "mean_height": 1.8664624691009521, "std_height": 2.4897301197052002, "count_pixels": 41, "percent_cover": 0.6189613526570048, "percent_above_0.1m": 63.414634146341463, "low_level_<0.5": 12.195121951219512, "mid_level_0.5-2": 14.634146341463413, "tall_2+": 31.707317073170731 }, "geometry": { "type": "Point", "coordinates": [ -0.133951614653417, 51.321603515746844 ] } },
{ "type": "Feature", "properties": { "max_height": 2.5649948120117188, "mean_height": 0.81696033477783203, "std_height": 0.77616643905639648, "count_pixels": 37, "percent_cover": 0.55857487922705307, "percent_above_0.1m": 67.567567567567565, "low_level_<0.5": 5.4054054054054053, "mid_level_0.5-2": 51.351351351351347, "tall_2+": 8.1081081081081088 }, "geometry": { "type": "Point", "coordinates": [ -0.133752875568016, 51.321600353217015 ] } },
{ "type": "Feature", "properties": { "max_height": 0.9425048828125, "mean_height": 0.098233290016651154, "std_height": 0.21248874068260193, "count_pixels": 41, "percent_cover": 0.6189613526570048, "percent_above_0.1m": 19.512195121951219, "low_level_<0.5": 12.195121951219512, "mid_level_0.5-2": 7.3170731707317067, "tall_2+": 0.0 }, "geometry": { "type": "Point", "coordinates": [ -0.13355413652075, 51.321597190348832 ] } },
{ "type": "Feature", "properties": { "max_height": 1.06500244140625, "mean_height": 0.055549807846546173, "std_height": 0.16799527406692505, "count_pixels": 41, "percent_cover": 0.6189613526570048, "percent_above_0.1m": 12.195121951219512, "low_level_<0.5": 4.8780487804878048, "mid_level_0.5-2": 2.4390243902439024, "tall_2+": 0.0 }, "geometry": { "type": "Point", "coordinates": [ -0.133355397511625, 51.321594027142268 ] } },
{ "type": "Feature", "properties": { "max_height": 9.2700042724609375, "mean_height": 2.6681749820709229, "std_height": 2.0965414047241211, "count_pixels": 42, "percent_cover": 0.63405797101449279, "percent_above_0.1m": 88.095238095238088, "low_level_<0.5": 2.3809523809523809, "mid_level_0.5-2": 28.571428571428569, "tall_2+": 57.142857142857139 }, "geometry": { "type": "Point", "coordinates": [ -0.133649130753613, 51.321706617349122 ] } },
{ "type": "Feature", "properties": { "max_height": 1.2509994506835938, "mean_height": 0.10558745265007019, "std_height": 0.29748994112014771, "count_pixels": 43, "percent_cover": 0.64915458937198067, "percent_above_0.1m": 13.953488372093023, "low_level_<0.5": 6.9767441860465116, "mid_level_0.5-2": 6.9767441860465116, "tall_2+": 0.0 }, "geometry": { "type": "Point", "coordinates": [ -0.133450391226698, 51.321703454321138 ] } },
{ "type": "Feature", "properties": { "max_height": 0.70801544189453125, "mean_height": 0.034367229789495468, "std_height": 0.11268366128206253, "count_pixels": 43, "percent_cover": 0.64915458937198067, "percent_above_0.1m": 11.627906976744185, "low_level_<0.5": 2.3255813953488373, "mid_level_0.5-2": 2.3255813953488373, "tall_2+": 0.0 }, "geometry": { "type": "Point", "coordinates": [ -0.133251651737915, 51.321700290954794 ] } },
{ "type": "Feature", "properties": { "max_height": 3.6572418212890625, "mean_height": 0.84612536430358887, "std_height": 0.87502521276473999, "count_pixels": 41, "percent_cover": 0.6189613526570048, "percent_above_0.1m": 75.609756097560975, "low_level_<0.5": 14.634146341463413, "mid_level_0.5-2": 46.341463414634148, "tall_2+": 12.195121951219512 }, "geometry": { "type": "Point", "coordinates": [ -0.133545385421404, 51.321812881404696 ] } },
{ "type": "Feature", "properties": { "max_height": 1.7399978637695312, "mean_height": 0.32455852627754211, "std_height": 0.44922924041748047, "count_pixels": 41, "percent_cover": 0.6189613526570048, "percent_above_0.1m": 53.658536585365859, "low_level_<0.5": 26.829268292682929, "mid_level_0.5-2": 21.951219512195124, "tall_2+": 0.0 }, "geometry": { "type": "Point", "coordinates": [ -0.133346645414827, 51.321809718216947 ] } }
]
}
