{
"type": "FeatureCollection",
"name": "7c1866e94492_foliage",
"crs": { "type": "name", "properties": { "name": "urn:ogc:def:crs:OGC:1.3:CRS84" } },
"features": [
{ "type": "Feature", "properties": { "max_height": 2.337493896484375, "mean_height": 0.20174248516559601, "std_height": 0.45854198932647705, "count_pixels": 43, "percent_cover": 0.26848151848151852, "percent_above_0.1m": 23.255813953488371, "low_level_<0.5": 4.6511627906976747, "mid_level_0.5-2": 13.953488372093023, "tall_2+": 2.3255813953488373 }, "geometry": { "type": "Point", "coordinates": [ -0.066652822506477, 51.325882289002656 ] } },
{ "type": "Feature", "properties": { "max_height": 0.1724853515625, "mean_height": 0.0060682753100991249, "std_height": 0.026941174641251564, "count_pixels": 42, "percent_cover": 0.26223776223776224, "percent_above_0.1m": 2.3809523809523809, "low_level_<0.5": 2.3809523809523809, "mid_level_0.5-2": 0.0, "tall_2+": 0.0 }, "geometry": { "type": "Point", "coordinates": [ -0.06645407462575, 51.325879006203721 ] } },
{ "type": "Feature", "properties": { "max_height": 0.024993896484375, "mean_height": 0.0033903575967997313, "std_height": 0.0071503664366900921, "count_pixels": 42, "percent_cover": 0.26223776223776224, "percent_above_0.1m": 0.0, "low_level_<0.5": 0.0, "mid_level_0.5-2": 0.0, "tall_2+": 0.0 }, "geometry": { "type": "Point", "coordinates": [ -0.066255326782207, 51.325875723067362 ] } },
{ "type": "Feature", "properties": { "max_height": 14.635009765625, "mean_height": 7.0213384628295898, "std_height": 5.1614513397216797, "count_pixels": 41, "percent_cover": 0.25599400599400601, "percent_above_0.1m": 90.243902439024396, "low_level_<0.5": 4.8780487804878048, "mid_level_0.5-2": 9.7560975609756095, "tall_2+": 70.731707317073173 }, "geometry": { "type": "Point", "coordinates": [ -0.066056578975847, 51.32587243959351 ] } },
{ "type": "Feature", "properties": { "max_height": 7.717498779296875, "mean_height": 1.9438964128494263, "std_height": 2.3181495666503906, "count_pixels": 41, "percent_cover": 0.25599400599400601, "percent_above_0.1m": 70.731707317073173, "low_level_<0.5": 4.8780487804878048, "mid_level_0.5-2": 26.829268292682929, "tall_2+": 34.146341463414636 }, "geometry": { "type": "Point", "coordinates": [ -0.06654891767468, 51.325988489837442 ] } },
{ "type": "Feature", "properties": { "max_height": 5.80999755859375, "mean_height": 1.0642238855361938, "std_height": 1.8188543319702148, "count_pixels": 42, "percent_cover": 0.26223776223776224, "percent_above_0.1m": 35.714285714285715, "low_level_<0.5": 2.3809523809523809, "mid_level_0.5-2": 11.904761904761903, "tall_2+": 21.428571428571427 }, "geometry": { "type": "Point", "coordinates": [ -0.066350169351942, 51.325985206862832 ] } },
{ "type": "Feature", "properties": { "max_height": 11.722488403320312, "mean_height": 1.9760669469833374, "std_height": 3.6463384628295898, "count_pixels": 42, "percent_cover": 0.26223776223776224, "percent_above_0.1m": 28.571428571428569, "low_level_<0.5": 2.3809523809523809, "mid_level_0.5-2": 2.3809523809523809, "tall_2+": 23.809523809523807 }, "geometry": { "type": "Point", "coordinates": [ -0.066151421066398, 51.325981923550742 ] } },
{ "type": "Feature", "properties": { "max_height": 13.064987182617188, "mean_height": 3.1335403919219971, "std_height": 4.523613452911377, "count_pixels": 43, "percent_cover": 0.26848151848151852, "percent_above_0.1m": 51.162790697674424, "low_level_<0.5": 0.0, "mid_level_0.5-2": 11.627906976744185, "tall_2+": 34.883720930232556 }, "geometry": { "type": "Point", "coordinates": [ -0.065952672818034, 51.32597863990118 ] } },
{ "type": "Feature", "properties": { "max_height": 1.44000244140625, "mean_height": 0.26400864124298096, "std_height": 0.41402050852775574, "count_pixels": 43, "percent_cover": 0.26848151848151852, "percent_above_0.1m": 34.883720930232556, "low_level_<0.5": 9.3023255813953494, "mid_level_0.5-2": 25.581395348837212, "tall_2+": 0.0 }, "geometry": { "type": "Point", "coordinates": [ -0.065753924606868, 51.325975355914181 ] } },
{ "type": "Feature", "properties": { "max_height": 19.395004272460938, "mean_height": 8.4879121780395508, "std_height": 7.1214790344238281, "count_pixels": 42, "percent_cover": 0.26223776223776224, "percent_above_0.1m": 85.714285714285708, "low_level_<0.5": 0.0, "mid_level_0.5-2": 11.904761904761903, "tall_2+": 73.80952380952381 }, "geometry": { "type": "Point", "coordinates": [ -0.066246263598923, 51.326091407428557 ] } },
{ "type": "Feature", "properties": { "max_height": 18.939987182617188, "mean_height": 12.334752082824707, "std_height": 3.6236720085144043, "count_pixels": 41, "percent_cover": 0.25599400599400601, "percent_above_0.1m": 100.0, "low_level_<0.5": 0.0, "mid_level_0.5-2": 0.0, "tall_2+": 100.0 }, "geometry": { "type": "Point", "coordinates": [ -0.06604751487137, 51.32608812394075 ] } },
{ "type": "Feature", "properties": { "max_height": 4.0225067138671875, "mean_height": 0.20286150276660919, "std_height": 0.70481646060943604, "count_pixels": 41, "percent_cover": 0.25599400599400601, "percent_above_0.1m": 12.195121951219512, "low_level_<0.5": 0.0, "mid_level_0.5-2": 7.3170731707317067, "tall_2+": 4.8780487804878048 }, "geometry": { "type": "Point", "coordinates": [ -0.065848766181009, 51.326084840115485 ] } },
{ "type": "Feature", "properties": { "max_height": 19.0675048828125, "mean_height": 10.08319091796875, "std_height": 5.7268252372741699, "count_pixels": 36, "percent_cover": 0.2247752247752248, "percent_above_0.1m": 91.666666666666657, "low_level_<0.5": 5.5555555555555554, "mid_level_0.5-2": 0.0, "tall_2+": 86.111111111111114 }, "geometry": { "type": "Point", "coordinates": [ -0.065650017527837, 51.326081555952754 ] } },
{ "type": "Feature", "properties": { "max_height": 16.69500732421875, "mean_height": 5.534996509552002, "std_height": 5.1683530807495117, "count_pixels": 40, "percent_cover": 0.24975024975024976, "percent_above_0.1m": 87.5, "low_level_<0.5": 5.0, "mid_level_0.5-2": 20.0, "tall_2+": 62.5 }, "geometry": { "type": "Point", "coordinates": [ -0.065451268911863, 51.326078271452573 ] } },
{ "type": "Feature", "properties": { "max_height": 17.475006103515625, "mean_height": 7.5171408653259277, "std_height": 6.2176694869995117, "count_pixels": 42, "percent_cover": 0.26223776223776224, "percent_above_0.1m": 90.476190476190482, "low_level_<0.5": 14.285714285714285, "mid_level_0.5-2": 7.1428571428571423, "tall_2+": 69.047619047619051 }, "geometry": { "type": "Point", "coordinates": [ -0.066341106573441, 51.326200891226968 ] } },
{ "type": "Feature", "properties": { "max_height": 20.192489624023438, "mean_height": 17.005056381225586, "std_height": 2.7560214996337891, "count_pixels": 42, "percent_cover": 0.26223776223776224, "percent_above_0.1m": 100.0, "low_level_<0.5": 0.0, "mid_level_0.5-2": 0.0, "tall_2+": 100.0 }, "geometry": { "type": "Point", "coordinates": [ -0.066142357366689, 51.326197607900916 ] } },
{ "type": "Feature", "properties": { "max_height": 16.529998779296875, "mean_height": 9.614415168762207, "std_height": 6.1474571228027344, "count_pixels": 43, "percent_cover": 0.26848151848151852, "percent_above_0.1m": 79.069767441860463, "low_level_<0.5": 0.0, "mid_level_0.5-2": 2.3255813953488373, "tall_2+": 76.744186046511629 }, "geometry": { "type": "Point", "coordinates": [ -0.065943608197129, 51.326194324237406 ] } },
{ "type": "Feature", "properties": { "max_height": 16.022506713867188, "mean_height": 1.9416830539703369, "std_height": 4.3499670028686523, "count_pixels": 43, "percent_cover": 0.26848151848151852, "percent_above_0.1m": 25.581395348837212, "low_level_<0.5": 6.9767441860465116, "mid_level_0.5-2": 0.0, "tall_2+": 18.604651162790699 }, "geometry": { "type": "Point", "coordinates": [ -0.065744859064758, 51.326191040236431 ] } },
{ "type": "Feature", "properties": { "max_height": 18.295013427734375, "mean_height": 12.826077461242676, "std_height": 4.2819375991821289, "count_pixels": 44, "percent_cover": 0.27472527472527475, "percent_above_0.1m": 97.727272727272734, "low_level_<0.5": 0.0, "mid_level_0.5-2": 2.2727272727272729, "tall_2+": 95.454545454545453 }, "geometry": { "type": "Point", "coordinates": [ -0.065546109969584, 51.326187755897983 ] } },
{ "type": "Feature", "properties": { "max_height": 16.222503662109375, "mean_height": 6.5098819732666016, "std_height": 5.0215039253234863, "count_pixels": 43, "percent_cover": 0.26848151848151852, "percent_above_0.1m": 81.395348837209298, "low_level_<0.5": 2.3255813953488373, "mid_level_0.5-2": 9.3023255813953494, "tall_2+": 69.767441860465112 }, "geometry": { "type": "Point", "coordinates": [ -0.065347360911616, 51.326184471222078 ] } },
{ "type": "Feature", "properties": { "max_height": 15.465011596679688, "mean_height": 10.207199096679688, "std_height": 4.3001995086669922, "count_pixels": 42, "percent_cover": 0.26223776223776224, "percent_above_0.1m": 97.61904761904762, "low_level_<0.5": 0.0, "mid_level_0.5-2": 7.1428571428571423, "tall_2+": 90.476190476190482 }, "geometry": { "type": "Point", "coordinates": [ -0.066435949989951, 51.326310374945955 ] } },
{ "type": "Feature", "properties": { "max_height": 18.785003662109375, "mean_height": 15.295173645019531, "std_height": 2.2815585136413574, "count_pixels": 42, "percent_cover": 0.26223776223776224, "percent_above_0.1m": 100.0, "low_level_<0.5": 0.0, "mid_level_0.5-2": 0.0, "tall_2+": 100.0 }, "geometry": { "type": "Point", "coordinates": [ -0.066237200303998, 51.326307091781672 ] } },
{ "type": "Feature", "properties": { "max_height": 19.9949951171875, "mean_height": 13.736458778381348, "std_height": 4.7034420967102051, "count_pixels": 41, "percent_cover": 0.25599400599400601, "percent_above_0.1m": 97.560975609756099, "low_level_<0.5": 0.0, "mid_level_0.5-2": 2.4390243902439024, "tall_2+": 95.121951219512198 }, "geometry": { "type": "Point", "coordinates": [ -0.066038450655233, 51.326303808279917 ] } },
{ "type": "Feature", "properties": { "max_height": 18.830001831054688, "mean_height": 10.799447059631348, "std_height": 6.0748076438903809, "count_pixels": 41, "percent_cover": 0.25599400599400601, "percent_above_0.1m": 87.804878048780495, "low_level_<0.5": 4.8780487804878048, "mid_level_0.5-2": 0.0, "tall_2+": 82.926829268292678 }, "geometry": { "type": "Point", "coordinates": [ -0.065839701043664, 51.32630052444069 ] } },
{ "type": "Feature", "properties": { "max_height": 14.714981079101562, "mean_height": 5.3935379981994629, "std_height": 5.1173691749572754, "count_pixels": 36, "percent_cover": 0.2247752247752248, "percent_above_0.1m": 66.666666666666657, "low_level_<0.5": 2.7777777777777777, "mid_level_0.5-2": 2.7777777777777777, "tall_2+": 61.111111111111114 }, "geometry": { "type": "Point", "coordinates": [ -0.065640951469287, 51.32629724026399 ] } },
{ "type": "Feature", "properties": { "max_height": 9.4575042724609375, "mean_height": 3.594202995300293, "std_height": 2.8367609977722168, "count_pixels": 41, "percent_cover": 0.25599400599400601, "percent_above_0.1m": 85.365853658536579, "low_level_<0.5": 4.8780487804878048, "mid_level_0.5-2": 12.195121951219512, "tall_2+": 65.853658536585371 }, "geometry": { "type": "Point", "coordinates": [ -0.066530793848448, 51.326419858585552 ] } },
{ "type": "Feature", "properties": { "max_height": 17.254989624023438, "mean_height": 12.176544189453125, "std_height": 3.8525083065032959, "count_pixels": 42, "percent_cover": 0.26223776223776224, "percent_above_0.1m": 100.0, "low_level_<0.5": 0.0, "mid_level_0.5-2": 0.0, "tall_2+": 100.0 }, "geometry": { "type": "Point", "coordinates": [ -0.066332043683299, 51.326416575583018 ] } },
{ "type": "Feature", "properties": { "max_height": 19.504989624023438, "mean_height": 14.214640617370605, "std_height": 4.4452548027038574, "count_pixels": 42, "percent_cover": 0.26223776223776224, "percent_above_0.1m": 100.0, "low_level_<0.5": 0.0, "mid_level_0.5-2": 2.3809523809523809, "tall_2+": 97.61904761904762 }, "geometry": { "type": "Point", "coordinates": [ -0.066133293555328, 51.326413292242997 ] } },
{ "type": "Feature", "properties": { "max_height": 18.409988403320312, "mean_height": 12.159472465515137, "std_height": 3.2039806842803955, "count_pixels": 43, "percent_cover": 0.26848151848151852, "percent_above_0.1m": 100.0, "low_level_<0.5": 0.0, "mid_level_0.5-2": 0.0, "tall_2+": 100.0 }, "geometry": { "type": "Point", "coordinates": [ -0.065934543464558, 51.326410008565531 ] } },
{ "type": "Feature", "properties": { "max_height": 19.789993286132812, "mean_height": 16.786445617675781, "std_height": 2.0738282203674316, "count_pixels": 43, "percent_cover": 0.26848151848151852, "percent_above_0.1m": 100.0, "low_level_<0.5": 0.0, "mid_level_0.5-2": 0.0, "tall_2+": 100.0 }, "geometry": { "type": "Point", "coordinates": [ -0.06573579341097, 51.326406724550594 ] } },
{ "type": "Feature", "properties": { "max_height": 6.2050018310546875, "mean_height": 0.96790438890457153, "std_height": 1.6783126592636108, "count_pixels": 43, "percent_cover": 0.26848151848151852, "percent_above_0.1m": 44.186046511627907, "low_level_<0.5": 9.3023255813953494, "mid_level_0.5-2": 16.279069767441861, "tall_2+": 16.279069767441861 }, "geometry": { "type": "Point", "coordinates": [ -0.066625638148948, 51.32652934214574 ] } },
{ "type": "Feature", "properties": { "max_height": 18.874984741210938, "mean_height": 11.486780166625977, "std_height": 4.3572497367858887, "count_pixels": 42, "percent_cover": 0.26223776223776224, "percent_above_0.1m": 100.0, "low_level_<0.5": 0.0, "mid_level_0.5-2": 0.0, "tall_2+": 100.0 }, "geometry": { "type": "Point", "coordinates": [ -0.066426887504591, 51.326526059304953 ] } },
{ "type": "Feature", "properties": { "max_height": 22.902496337890625, "mean_height": 18.739398956298828, "std_height": 3.1117494106292725, "count_pixels": 42, "percent_cover": 0.26223776223776224, "percent_above_0.1m": 100.0, "low_level_<0.5": 0.0, "mid_level_0.5-2": 0.0, "tall_2+": 100.0 }, "geometry": { "type": "Point", "coordinates": [ -0.06622813689742, 51.326522776126694 ] } },
{ "type": "Feature", "properties": { "max_height": 19.152496337890625, "mean_height": 12.514264106750488, "std_height": 4.4817986488342285, "count_pixels": 41, "percent_cover": 0.25599400599400601, "percent_above_0.1m": 100.0, "low_level_<0.5": 2.4390243902439024, "mid_level_0.5-2": 2.4390243902439024, "tall_2+": 95.121951219512198 }, "geometry": { "type": "Point", "coordinates": [ -0.066029386327439, 51.326519492610977 ] } },
{ "type": "Feature", "properties": { "max_height": 17.385009765625, "mean_height": 9.6434106826782227, "std_height": 5.7982101440429688, "count_pixels": 41, "percent_cover": 0.25599400599400601, "percent_above_0.1m": 92.682926829268297, "low_level_<0.5": 2.4390243902439024, "mid_level_0.5-2": 7.3170731707317067, "tall_2+": 80.487804878048792 }, "geometry": { "type": "Point", "coordinates": [ -0.065830635794646, 51.326516208757788 ] } },
{ "type": "Feature", "properties": { "max_height": 13.2650146484375, "mean_height": 4.5418872833251953, "std_height": 4.4834761619567871, "count_pixels": 41, "percent_cover": 0.25599400599400601, "percent_above_0.1m": 70.731707317073173, "low_level_<0.5": 0.0, "mid_level_0.5-2": 9.7560975609756095, "tall_2+": 60.975609756097562 }, "geometry": { "type": "Point", "coordinates": [ -0.066720482891448, 51.32663882562651 ] } },
{ "type": "Feature", "properties": { "max_height": 11.365005493164062, "mean_height": 6.6402416229248047, "std_height": 3.1527631282806396, "count_pixels": 41, "percent_cover": 0.25599400599400601, "percent_above_0.1m": 95.121951219512198, "low_level_<0.5": 2.4390243902439024, "mid_level_0.5-2": 4.8780487804878048, "tall_2+": 85.365853658536579 }, "geometry": { "type": "Point", "coordinates": [ -0.066521731767885, 51.326635542947493 ] } },
{ "type": "Feature", "properties": { "max_height": 19.664993286132812, "mean_height": 13.847794532775879, "std_height": 5.3534011840820312, "count_pixels": 42, "percent_cover": 0.26223776223776224, "percent_above_0.1m": 95.238095238095227, "low_level_<0.5": 0.0, "mid_level_0.5-2": 2.3809523809523809, "tall_2+": 92.857142857142861 }, "geometry": { "type": "Point", "coordinates": [ -0.066322980681508, 51.326632259930996 ] } },
{ "type": "Feature", "properties": { "max_height": 21.047500610351562, "mean_height": 15.543745994567871, "std_height": 3.5337109565734863, "count_pixels": 42, "percent_cover": 0.26223776223776224, "percent_above_0.1m": 100.0, "low_level_<0.5": 0.0, "mid_level_0.5-2": 0.0, "tall_2+": 100.0 }, "geometry": { "type": "Point", "coordinates": [ -0.066124229632312, 51.32662897657702 ] } },
{ "type": "Feature", "properties": { "max_height": 19.032501220703125, "mean_height": 13.837032318115234, "std_height": 4.1558122634887695, "count_pixels": 43, "percent_cover": 0.26848151848151852, "percent_above_0.1m": 100.0, "low_level_<0.5": 2.3255813953488373, "mid_level_0.5-2": 0.0, "tall_2+": 97.674418604651152 }, "geometry": { "type": "Point", "coordinates": [ -0.065925478620318, 51.326625692885585 ] } },
{ "type": "Feature", "properties": { "max_height": 12.852493286132812, "mean_height": 2.9412164688110352, "std_height": 3.2000715732574463, "count_pixels": 43, "percent_cover": 0.26848151848151852, "percent_above_0.1m": 81.395348837209298, "low_level_<0.5": 9.3023255813953494, "mid_level_0.5-2": 30.232558139534881, "tall_2+": 41.860465116279073 }, "geometry": { "type": "Point", "coordinates": [ -0.066815328075953, 51.326748309027877 ] } },
{ "type": "Feature", "properties": { "max_height": 14.05499267578125, "mean_height": 8.9835433959960938, "std_height": 3.9355542659759521, "count_pixels": 43, "percent_cover": 0.26848151848151852, "percent_above_0.1m": 100.0, "low_level_<0.5": 0.0, "mid_level_0.5-2": 2.3255813953488373, "tall_2+": 97.674418604651152 }, "geometry": { "type": "Point", "coordinates": [ -0.066616576473184, 51.326745026510601 ] } },
{ "type": "Feature", "properties": { "max_height": 11.789993286132812, "mean_height": 1.6048181056976318, "std_height": 2.9268290996551514, "count_pixels": 42, "percent_cover": 0.26223776223776224, "percent_above_0.1m": 61.904761904761905, "low_level_<0.5": 19.047619047619047, "mid_level_0.5-2": 21.428571428571427, "tall_2+": 19.047619047619047 }, "geometry": { "type": "Point", "coordinates": [ -0.066417824907594, 51.326741743655859 ] } },
{ "type": "Feature", "properties": { "max_height": 13.907485961914062, "mean_height": 3.4835078716278076, "std_height": 4.7879328727722168, "count_pixels": 42, "percent_cover": 0.26223776223776224, "percent_above_0.1m": 42.857142857142854, "low_level_<0.5": 0.0, "mid_level_0.5-2": 2.3809523809523809, "tall_2+": 40.476190476190474 }, "geometry": { "type": "Point", "coordinates": [ -0.066219073379193, 51.326738460463652 ] } },
{ "type": "Feature", "properties": { "max_height": 17.729995727539062, "mean_height": 5.739689826965332, "std_height": 5.9034519195556641, "count_pixels": 41, "percent_cover": 0.25599400599400601, "percent_above_0.1m": 70.731707317073173, "low_level_<0.5": 7.3170731707317067, "mid_level_0.5-2": 7.3170731707317067, "tall_2+": 56.09756097560976 }, "geometry": { "type": "Point", "coordinates": [ -0.066020321887978, 51.326735176933958 ] } },
{ "type": "Feature", "properties": { "max_height": 14.147491455078125, "mean_height": 5.6511082649230957, "std_height": 4.15264892578125, "count_pixels": 36, "percent_cover": 0.2247752247752248, "percent_above_0.1m": 94.444444444444443, "low_level_<0.5": 5.5555555555555554, "mid_level_0.5-2": 16.666666666666664, "tall_2+": 72.222222222222214 }, "geometry": { "type": "Point", "coordinates": [ -0.066910173702467, 51.32685779234982 ] } },
{ "type": "Feature", "properties": { "max_height": 14.317489624023438, "mean_height": 9.4246330261230469, "std_height": 3.2907900810241699, "count_pixels": 41, "percent_cover": 0.25599400599400601, "percent_above_0.1m": 100.0, "low_level_<0.5": 2.4390243902439024, "mid_level_0.5-2": 2.4390243902439024, "tall_2+": 95.121951219512198 }, "geometry": { "type": "Point", "coordinates": [ -0.066711421620489, 51.326854509994298 ] } },
{ "type": "Feature", "properties": { "max_height": 18.30499267578125, "mean_height": 10.223105430603027, "std_height": 4.0167207717895508, "count_pixels": 41, "percent_cover": 0.25599400599400601, "percent_above_0.1m": 100.0, "low_level_<0.5": 0.0, "mid_level_0.5-2": 4.8780487804878048, "tall_2+": 95.121951219512198 }, "geometry": { "type": "Point", "coordinates": [ -0.066512669575686, 51.326851227301326 ] } },
{ "type": "Feature", "properties": { "max_height": 14.4375, "mean_height": 5.8395199775695801, "std_height": 4.8860259056091309, "count_pixels": 42, "percent_cover": 0.26223776223776224, "percent_above_0.1m": 71.428571428571431, "low_level_<0.5": 0.0, "mid_level_0.5-2": 7.1428571428571423, "tall_2+": 64.285714285714292 }, "geometry": { "type": "Point", "coordinates": [ -0.066313917568072, 51.32684794427086 ] } },
{ "type": "Feature", "properties": { "max_height": 17.637496948242188, "mean_height": 5.2350554466247559, "std_height": 6.0718069076538086, "count_pixels": 42, "percent_cover": 0.26223776223776224, "percent_above_0.1m": 57.142857142857139, "low_level_<0.5": 2.3809523809523809, "mid_level_0.5-2": 7.1428571428571423, "tall_2+": 47.619047619047613 }, "geometry": { "type": "Point", "coordinates": [ -0.066115165597641, 51.32684466090295 ] } },
{ "type": "Feature", "properties": { "max_height": 10.634994506835938, "mean_height": 2.2300543785095215, "std_height": 2.7969188690185547, "count_pixels": 43, "percent_cover": 0.26848151848151852, "percent_above_0.1m": 79.069767441860463, "low_level_<0.5": 9.3023255813953494, "mid_level_0.5-2": 34.883720930232556, "tall_2+": 30.232558139534881 }, "geometry": { "type": "Point", "coordinates": [ -0.067005019770992, 51.326967275592345 ] } },
{ "type": "Feature", "properties": { "max_height": 17.55999755859375, "mean_height": 13.268310546875, "std_height": 3.0715906620025635, "count_pixels": 43, "percent_cover": 0.26848151848151852, "percent_above_0.1m": 100.0, "low_level_<0.5": 0.0, "mid_level_0.5-2": 0.0, "tall_2+": 100.0 }, "geometry": { "type": "Point", "coordinates": [ -0.066806267209804, 51.3269639933986 ] } },
{ "type": "Feature", "properties": { "max_height": 18.407501220703125, "mean_height": 11.589999198913574, "std_height": 4.8305292129516602, "count_pixels": 43, "percent_cover": 0.26848151848151852, "percent_above_0.1m": 100.0, "low_level_<0.5": 4.6511627906976747, "mid_level_0.5-2": 2.3255813953488373, "tall_2+": 93.023255813953483 }, "geometry": { "type": "Point", "coordinates": [ -0.066607514685788, 51.326960710867375 ] } },
{ "type": "Feature", "properties": { "max_height": 18.399993896484375, "mean_height": 12.944283485412598, "std_height": 4.6337981224060059, "count_pixels": 42, "percent_cover": 0.26223776223776224, "percent_above_0.1m": 97.61904761904762, "low_level_<0.5": 0.0, "mid_level_0.5-2": 2.3809523809523809, "tall_2+": 95.238095238095227 }, "geometry": { "type": "Point", "coordinates": [ -0.066408762198957, 51.326957427998686 ] } },
{ "type": "Feature", "properties": { "max_height": 18.884979248046875, "mean_height": 14.639162063598633, "std_height": 3.4892494678497314, "count_pixels": 42, "percent_cover": 0.26223776223776224, "percent_above_0.1m": 100.0, "low_level_<0.5": 0.0, "mid_level_0.5-2": 0.0, "tall_2+": 100.0 }, "geometry": { "type": "Point", "coordinates": [ -0.066210009749312, 51.326954144792502 ] } },
{ "type": "Feature", "properties": { "max_height": 17.399993896484375, "mean_height": 6.0699973106384277, "std_height": 6.0623736381530762, "count_pixels": 41, "percent_cover": 0.25599400599400601, "percent_above_0.1m": 78.048780487804876, "low_level_<0.5": 7.3170731707317067, "mid_level_0.5-2": 17.073170731707318, "tall_2+": 53.658536585365859 }, "geometry": { "type": "Point", "coordinates": [ -0.067099866281537, 51.327076758755467 ] } },
{ "type": "Feature", "properties": { "max_height": 18.589996337890625, "mean_height": 15.80819034576416, "std_height": 1.8242073059082031, "count_pixels": 36, "percent_cover": 0.2247752247752248, "percent_above_0.1m": 100.0, "low_level_<0.5": 0.0, "mid_level_0.5-2": 0.0, "tall_2+": 100.0 }, "geometry": { "type": "Point", "coordinates": [ -0.066901113241133, 51.327073476723484 ] } },
{ "type": "Feature", "properties": { "max_height": 16.9949951171875, "mean_height": 11.482556343078613, "std_height": 4.2275638580322266, "count_pixels": 41, "percent_cover": 0.25599400599400601, "percent_above_0.1m": 100.0, "low_level_<0.5": 0.0, "mid_level_0.5-2": 4.8780487804878048, "tall_2+": 95.121951219512198 }, "geometry": { "type": "Point", "coordinates": [ -0.066702360237902, 51.327070194354022 ] } },
{ "type": "Feature", "properties": { "max_height": 18.705001831054688, "mean_height": 15.37176513671875, "std_height": 2.200796365737915, "count_pixels": 41, "percent_cover": 0.25599400599400601, "percent_above_0.1m": 100.0, "low_level_<0.5": 0.0, "mid_level_0.5-2": 0.0, "tall_2+": 100.0 }, "geometry": { "type": "Point", "coordinates": [ -0.06650360727185, 51.327066911647066 ] } },
{ "type": "Feature", "properties": { "max_height": 19.627487182617188, "mean_height": 12.823746681213379, "std_height": 4.7953667640686035, "count_pixels": 42, "percent_cover": 0.26223776223776224, "percent_above_0.1m": 97.61904761904762, "low_level_<0.5": 0.0, "mid_level_0.5-2": 4.7619047619047619, "tall_2+": 92.857142857142861 }, "geometry": { "type": "Point", "coordinates": [ -0.066304854342987, 51.327063628602673 ] } },
{ "type": "Feature", "properties": { "max_height": 18.769989013671875, "mean_height": 15.481901168823242, "std_height": 2.5031330585479736, "count_pixels": 42, "percent_cover": 0.26223776223776224, "percent_above_0.1m": 100.0, "low_level_<0.5": 0.0, "mid_level_0.5-2": 0.0, "tall_2+": 100.0 }, "geometry": { "type": "Point", "coordinates": [ -0.066106101451311, 51.327060345220772 ] } },
{ "type": "Feature", "properties": { "max_height": 18.360000610351562, "mean_height": 11.698079109191895, "std_height": 4.4244909286499023, "count_pixels": 43, "percent_cover": 0.26848151848151852, "percent_above_0.1m": 100.0, "low_level_<0.5": 0.0, "mid_level_0.5-2": 2.3255813953488373, "tall_2+": 97.674418604651152 }, "geometry": { "type": "Point", "coordinates": [ -0.066995959714481, 51.32718295996893 ] } },
{ "type": "Feature", "properties": { "max_height": 18.365005493164062, "mean_height": 13.05429744720459, "std_height": 3.174445629119873, "count_pixels": 43, "percent_cover": 0.26848151848151852, "percent_above_0.1m": 100.0, "low_level_<0.5": 0.0, "mid_level_0.5-2": 0.0, "tall_2+": 100.0 }, "geometry": { "type": "Point", "coordinates": [ -0.06679720623203, 51.327179677761237 ] } },
{ "type": "Feature", "properties": { "max_height": 18.725006103515625, "mean_height": 14.042786598205566, "std_height": 3.983478307723999, "count_pixels": 43, "percent_cover": 0.26848151848151852, "percent_above_0.1m": 100.0, "low_level_<0.5": 0.0, "mid_level_0.5-2": 0.0, "tall_2+": 100.0 }, "geometry": { "type": "Point", "coordinates": [ -0.066598452786762, 51.327176395216057 ] } },
{ "type": "Feature", "properties": { "max_height": 18.469985961914062, "mean_height": 13.202020645141602, "std_height": 3.3605399131774902, "count_pixels": 42, "percent_cover": 0.26223776223776224, "percent_above_0.1m": 100.0, "low_level_<0.5": 0.0, "mid_level_0.5-2": 0.0, "tall_2+": 100.0 }, "geometry": { "type": "Point", "coordinates": [ -0.066399699378675, 51.327173112333405 ] } },
{ "type": "Feature", "properties": { "max_height": 19.577499389648438, "mean_height": 14.912434577941895, "std_height": 4.8156232833862305, "count_pixels": 42, "percent_cover": 0.26223776223776224, "percent_above_0.1m": 100.0, "low_level_<0.5": 0.0, "mid_level_0.5-2": 2.3809523809523809, "tall_2+": 97.61904761904762 }, "geometry": { "type": "Point", "coordinates": [ -0.066200946007775, 51.327169829113288 ] } },
{ "type": "Feature", "properties": { "max_height": 17.342498779296875, "mean_height": 11.326277732849121, "std_height": 5.0151567459106445, "count_pixels": 41, "percent_cover": 0.25599400599400601, "percent_above_0.1m": 100.0, "low_level_<0.5": 2.4390243902439024, "mid_level_0.5-2": 4.8780487804878048, "tall_2+": 92.682926829268297 }, "geometry": { "type": "Point", "coordinates": [ -0.06709080662985, 51.327292443134986 ] } },
{ "type": "Feature", "properties": { "max_height": 18.319992065429688, "mean_height": 10.55034351348877, "std_height": 4.7938456535339355, "count_pixels": 36, "percent_cover": 0.2247752247752248, "percent_above_0.1m": 100.0, "low_level_<0.5": 0.0, "mid_level_0.5-2": 8.3333333333333321, "tall_2+": 91.666666666666657 }, "geometry": { "type": "Point", "coordinates": [ -0.066892052668179, 51.327289161089048 ] } },
{ "type": "Feature", "properties": { "max_height": 20.832489013671875, "mean_height": 13.300545692443848, "std_height": 4.0795488357543945, "count_pixels": 41, "percent_cover": 0.25599400599400601, "percent_above_0.1m": 100.0, "low_level_<0.5": 0.0, "mid_level_0.5-2": 0.0, "tall_2+": 100.0 }, "geometry": { "type": "Point", "coordinates": [ -0.066693298743689, 51.327285878705631 ] } },
{ "type": "Feature", "properties": { "max_height": 19.585006713867188, "mean_height": 8.583775520324707, "std_height": 5.5149049758911133, "count_pixels": 41, "percent_cover": 0.25599400599400601, "percent_above_0.1m": 97.560975609756099, "low_level_<0.5": 2.4390243902439024, "mid_level_0.5-2": 9.7560975609756095, "tall_2+": 85.365853658536579 }, "geometry": { "type": "Point", "coordinates": [ -0.066494544856378, 51.327282595984741 ] } },
{ "type": "Feature", "properties": { "max_height": 21.292495727539062, "mean_height": 19.725234985351562, "std_height": 1.0081025362014771, "count_pixels": 42, "percent_cover": 0.26223776223776224, "percent_above_0.1m": 100.0, "low_level_<0.5": 0.0, "mid_level_0.5-2": 0.0, "tall_2+": 100.0 }, "geometry": { "type": "Point", "coordinates": [ -0.066295791006253, 51.327279312926372 ] } },
{ "type": "Feature", "properties": { "max_height": 16.722488403320312, "mean_height": 10.468252182006836, "std_height": 2.9665911197662354, "count_pixels": 43, "percent_cover": 0.26848151848151852, "percent_above_0.1m": 100.0, "low_level_<0.5": 0.0, "mid_level_0.5-2": 0.0, "tall_2+": 100.0 }, "geometry": { "type": "Point", "coordinates": [ -0.067185653987248, 51.327401926221604 ] } },
{ "type": "Feature", "properties": { "max_height": 18.092498779296875, "mean_height": 12.603602409362793, "std_height": 3.6858997344970703, "count_pixels": 43, "percent_cover": 0.26848151848151852, "percent_above_0.1m": 100.0, "low_level_<0.5": 0.0, "mid_level_0.5-2": 2.3255813953488373, "tall_2+": 97.674418604651152 }, "geometry": { "type": "Point", "coordinates": [ -0.066986899546355, 51.327398644337435 ] } },
{ "type": "Feature", "properties": { "max_height": 20.740005493164062, "mean_height": 14.21151065826416, "std_height": 4.7629184722900391, "count_pixels": 43, "percent_cover": 0.26848151848151852, "percent_above_0.1m": 100.0, "low_level_<0.5": 0.0, "mid_level_0.5-2": 0.0, "tall_2+": 100.0 }, "geometry": { "type": "Point", "coordinates": [ -0.066788145142639, 51.327395362115794 ] } },
{ "type": "Feature", "properties": { "max_height": 20.824996948242188, "mean_height": 13.134705543518066, "std_height": 5.7398238182067871, "count_pixels": 43, "percent_cover": 0.26848151848151852, "percent_above_0.1m": 95.348837209302332, "low_level_<0.5": 0.0, "mid_level_0.5-2": 4.6511627906976747, "tall_2+": 90.697674418604649 }, "geometry": { "type": "Point", "coordinates": [ -0.066589390776097, 51.32739207955666 ] } },
{ "type": "Feature", "properties": { "max_height": 17.642501831054688, "mean_height": 7.9530320167541504, "std_height": 6.2200760841369629, "count_pixels": 42, "percent_cover": 0.26223776223776224, "percent_above_0.1m": 83.333333333333343, "low_level_<0.5": 4.7619047619047619, "mid_level_0.5-2": 2.3809523809523809, "tall_2+": 76.19047619047619 }, "geometry": { "type": "Point", "coordinates": [ -0.066390636446749, 51.327388796660053 ] } },
{ "type": "Feature", "properties": { "max_height": 19.889999389648438, "mean_height": 15.445792198181152, "std_height": 1.9945584535598755, "count_pixels": 41, "percent_cover": 0.25599400599400601, "percent_above_0.1m": 100.0, "low_level_<0.5": 0.0, "mid_level_0.5-2": 0.0, "tall_2+": 100.0 }, "geometry": { "type": "Point", "coordinates": [ -0.067280501786673, 51.327511409228833 ] } },
{ "type": "Feature", "properties": { "max_height": 20.732498168945312, "mean_height": 13.99786376953125, "std_height": 5.2992496490478516, "count_pixels": 41, "percent_cover": 0.25599400599400601, "percent_above_0.1m": 100.0, "low_level_<0.5": 0.0, "mid_level_0.5-2": 0.0, "tall_2+": 100.0 }, "geometry": { "type": "Point", "coordinates": [ -0.067081746866555, 51.32750812750642 ] } },
{ "type": "Feature", "properties": { "max_height": 17.582489013671875, "mean_height": 12.488536834716797, "std_height": 3.74342942237854, "count_pixels": 36, "percent_cover": 0.2247752247752248, "percent_above_0.1m": 100.0, "low_level_<0.5": 0.0, "mid_level_0.5-2": 0.0, "tall_2+": 100.0 }, "geometry": { "type": "Point", "coordinates": [ -0.066882991983613, 51.327504845446519 ] } },
{ "type": "Feature", "properties": { "max_height": 20.842498779296875, "mean_height": 14.752253532409668, "std_height": 5.4422669410705566, "count_pixels": 41, "percent_cover": 0.25599400599400601, "percent_above_0.1m": 97.560975609756099, "low_level_<0.5": 0.0, "mid_level_0.5-2": 2.4390243902439024, "tall_2+": 95.121951219512198 }, "geometry": { "type": "Point", "coordinates": [ -0.066684237137849, 51.327501563049161 ] } },
{ "type": "Feature", "properties": { "max_height": 17.5625, "mean_height": 10.806093215942383, "std_height": 4.0544371604919434, "count_pixels": 41, "percent_cover": 0.25599400599400601, "percent_above_0.1m": 100.0, "low_level_<0.5": 0.0, "mid_level_0.5-2": 2.4390243902439024, "tall_2+": 97.560975609756099 }, "geometry": { "type": "Point", "coordinates": [ -0.066485482329263, 51.32749828031433 ] } },
{ "type": "Feature", "properties": { "max_height": 15.274993896484375, "mean_height": 10.543716430664062, "std_height": 4.3915138244628906, "count_pixels": 43, "percent_cover": 0.26848151848151852, "percent_above_0.1m": 97.674418604651152, "low_level_<0.5": 0.0, "mid_level_0.5-2": 4.6511627906976747, "tall_2+": 93.023255813953483 }, "geometry": { "type": "Point", "coordinates": [ -0.067375350028131, 51.327620892156631 ] } },
{ "type": "Feature", "properties": { "max_height": 19.665008544921875, "mean_height": 14.967032432556152, "std_height": 2.9223716259002686, "count_pixels": 43, "percent_cover": 0.26848151848151852, "percent_above_0.1m": 100.0, "low_level_<0.5": 0.0, "mid_level_0.5-2": 0.0, "tall_2+": 100.0 }, "geometry": { "type": "Point", "coordinates": [ -0.067176594628788, 51.327617610595993 ] } },
{ "type": "Feature", "properties": { "max_height": 18.11248779296875, "mean_height": 6.3072075843811035, "std_height": 6.7394833564758301, "count_pixels": 43, "percent_cover": 0.26848151848151852, "percent_above_0.1m": 58.139534883720934, "low_level_<0.5": 0.0, "mid_level_0.5-2": 4.6511627906976747, "tall_2+": 53.488372093023251 }, "geometry": { "type": "Point", "coordinates": [ -0.066977839266614, 51.327614328697869 ] } },
{ "type": "Feature", "properties": { "max_height": 0.7675018310546875, "mean_height": 0.017846750095486641, "std_height": 0.11567427963018417, "count_pixels": 43, "percent_cover": 0.26848151848151852, "percent_above_0.1m": 2.3255813953488373, "low_level_<0.5": 0.0, "mid_level_0.5-2": 2.3255813953488373, "tall_2+": 0.0 }, "geometry": { "type": "Point", "coordinates": [ -0.066779083941622, 51.327611046462259 ] } },
{ "type": "Feature", "properties": { "max_height": 17.637496948242188, "mean_height": 8.0331382751464844, "std_height": 5.9399323463439941, "count_pixels": 43, "percent_cover": 0.26848151848151852, "percent_above_0.1m": 81.395348837209298, "low_level_<0.5": 2.3255813953488373, "mid_level_0.5-2": 6.9767441860465116, "tall_2+": 72.093023255813947 }, "geometry": { "type": "Point", "coordinates": [ -0.066580328653804, 51.327607763889183 ] } },
{ "type": "Feature", "properties": { "max_height": 15.024993896484375, "mean_height": 5.535057544708252, "std_height": 5.4469633102416992, "count_pixels": 41, "percent_cover": 0.25599400599400601, "percent_above_0.1m": 75.609756097560975, "low_level_<0.5": 4.8780487804878048, "mid_level_0.5-2": 14.634146341463413, "tall_2+": 56.09756097560976 }, "geometry": { "type": "Point", "coordinates": [ -0.067470198711628, 51.32773037500499 ] } },
{ "type": "Feature", "properties": { "max_height": 17.892501831054688, "mean_height": 12.556155204772949, "std_height": 4.3518400192260742, "count_pixels": 41, "percent_cover": 0.25599400599400601, "percent_above_0.1m": 97.560975609756099, "low_level_<0.5": 0.0, "mid_level_0.5-2": 0.0, "tall_2+": 97.560975609756099 }, "geometry": { "type": "Point", "coordinates": [ -0.067271442833056, 51.327727093606129 ] } },
{ "type": "Feature", "properties": { "max_height": 12.735000610351562, "mean_height": 1.8668249845504761, "std_height": 3.7748546600341797, "count_pixels": 41, "percent_cover": 0.25599400599400601, "percent_above_0.1m": 29.268292682926827, "low_level_<0.5": 2.4390243902439024, "mid_level_0.5-2": 7.3170731707317067, "tall_2+": 19.512195121951219 }, "geometry": { "type": "Point", "coordinates": [ -0.067072686991654, 51.327723811869781 ] } },
{ "type": "Feature", "properties": { "max_height": 16.509994506835938, "mean_height": 4.3623561859130859, "std_height": 5.7454462051391602, "count_pixels": 36, "percent_cover": 0.2247752247752248, "percent_above_0.1m": 50.0, "low_level_<0.5": 2.7777777777777777, "mid_level_0.5-2": 2.7777777777777777, "tall_2+": 41.666666666666671 }, "geometry": { "type": "Point", "coordinates": [ -0.066873931187422, 51.327720529795947 ] } },
{ "type": "Feature", "properties": { "max_height": 17.089996337890625, "mean_height": 4.457190990447998, "std_height": 5.2821416854858398, "count_pixels": 41, "percent_cover": 0.25599400599400601, "percent_above_0.1m": 60.975609756097562, "low_level_<0.5": 2.4390243902439024, "mid_level_0.5-2": 9.7560975609756095, "tall_2+": 48.780487804878049 }, "geometry": { "type": "Point", "coordinates": [ -0.066675175420377, 51.327717247384619 ] } },
{ "type": "Feature", "properties": { "max_height": 16.282501220703125, "mean_height": 3.3399968147277832, "std_height": 4.6340651512145996, "count_pixels": 42, "percent_cover": 0.26223776223776224, "percent_above_0.1m": 80.952380952380949, "low_level_<0.5": 9.5238095238095237, "mid_level_0.5-2": 40.476190476190474, "tall_2+": 26.190476190476193 }, "geometry": { "type": "Point", "coordinates": [ -0.067565047837165, 51.327839857773959 ] } },
{ "type": "Feature", "properties": { "max_height": 8.5175018310546875, "mean_height": 0.67935711145401001, "std_height": 1.8197287321090698, "count_pixels": 43, "percent_cover": 0.26848151848151852, "percent_above_0.1m": 18.604651162790699, "low_level_<0.5": 0.0, "mid_level_0.5-2": 9.3023255813953494, "tall_2+": 9.3023255813953494 }, "geometry": { "type": "Point", "coordinates": [ -0.067366291479365, 51.32783657653686 ] } },
{ "type": "Feature", "properties": { "max_height": 14.535003662109375, "mean_height": 3.375577449798584, "std_height": 4.9762616157531738, "count_pixels": 43, "percent_cover": 0.26848151848151852, "percent_above_0.1m": 44.186046511627907, "low_level_<0.5": 0.0, "mid_level_0.5-2": 9.3023255813953494, "tall_2+": 34.883720930232556 }, "geometry": { "type": "Point", "coordinates": [ -0.067167535158723, 51.327833294962268 ] } },
{ "type": "Feature", "properties": { "max_height": 18.289993286132812, "mean_height": 9.9970884323120117, "std_height": 5.8167281150817871, "count_pixels": 43, "percent_cover": 0.26848151848151852, "percent_above_0.1m": 90.697674418604649, "low_level_<0.5": 0.0, "mid_level_0.5-2": 6.9767441860465116, "tall_2+": 83.720930232558146 }, "geometry": { "type": "Point", "coordinates": [ -0.066968778875266, 51.327830013050196 ] } },
{ "type": "Feature", "properties": { "max_height": 18.544998168945312, "mean_height": 12.720868110656738, "std_height": 4.4322519302368164, "count_pixels": 43, "percent_cover": 0.26848151848151852, "percent_above_0.1m": 100.0, "low_level_<0.5": 0.0, "mid_level_0.5-2": 2.3255813953488373, "tall_2+": 97.674418604651152 }, "geometry": { "type": "Point", "coordinates": [ -0.066770022628978, 51.327826730800652 ] } },
{ "type": "Feature", "properties": { "max_height": 19.017501831054688, "mean_height": 7.9065437316894531, "std_height": 7.415186882019043, "count_pixels": 42, "percent_cover": 0.26223776223776224, "percent_above_0.1m": 92.857142857142861, "low_level_<0.5": 4.7619047619047619, "mid_level_0.5-2": 30.952380952380953, "tall_2+": 57.142857142857139 }, "geometry": { "type": "Point", "coordinates": [ -0.067659897404751, 51.327949340463491 ] } },
{ "type": "Feature", "properties": { "max_height": 19.720001220703125, "mean_height": 13.235360145568848, "std_height": 4.2215175628662109, "count_pixels": 41, "percent_cover": 0.25599400599400601, "percent_above_0.1m": 100.0, "low_level_<0.5": 0.0, "mid_level_0.5-2": 0.0, "tall_2+": 100.0 }, "geometry": { "type": "Point", "coordinates": [ -0.06746114056771, 51.327946059388154 ] } },
{ "type": "Feature", "properties": { "max_height": 18.150009155273438, "mean_height": 7.7024359703063965, "std_height": 5.2740378379821777, "count_pixels": 41, "percent_cover": 0.25599400599400601, "percent_above_0.1m": 90.243902439024396, "low_level_<0.5": 2.4390243902439024, "mid_level_0.5-2": 12.195121951219512, "tall_2+": 75.609756097560975 }, "geometry": { "type": "Point", "coordinates": [ -0.067262383767841, 51.327942777975345 ] } },
{ "type": "Feature", "properties": { "max_height": 18.23248291015625, "mean_height": 14.926092147827148, "std_height": 2.2482664585113525, "count_pixels": 41, "percent_cover": 0.25599400599400601, "percent_above_0.1m": 100.0, "low_level_<0.5": 0.0, "mid_level_0.5-2": 0.0, "tall_2+": 100.0 }, "geometry": { "type": "Point", "coordinates": [ -0.06706362700514, 51.327939496225042 ] } },
{ "type": "Feature", "properties": { "max_height": 19.732498168945312, "mean_height": 15.177915573120117, "std_height": 3.5049664974212646, "count_pixels": 36, "percent_cover": 0.2247752247752248, "percent_above_0.1m": 100.0, "low_level_<0.5": 0.0, "mid_level_0.5-2": 0.0, "tall_2+": 100.0 }, "geometry": { "type": "Point", "coordinates": [ -0.066864870279615, 51.327936214137246 ] } },
{ "type": "Feature", "properties": { "max_height": 19.117507934570312, "mean_height": 6.2417211532592773, "std_height": 6.4195685386657715, "count_pixels": 42, "percent_cover": 0.26223776223776224, "percent_above_0.1m": 90.476190476190482, "low_level_<0.5": 7.1428571428571423, "mid_level_0.5-2": 23.809523809523807, "tall_2+": 59.523809523809526 }, "geometry": { "type": "Point", "coordinates": [ -0.067555990098107, 51.328055542160044 ] } },
{ "type": "Feature", "properties": { "max_height": 10.742507934570312, "mean_height": 6.1784286499023438, "std_height": 2.818594217300415, "count_pixels": 43, "percent_cover": 0.26848151848151852, "percent_above_0.1m": 100.0, "low_level_<0.5": 4.6511627906976747, "mid_level_0.5-2": 6.9767441860465116, "tall_2+": 88.372093023255815 }, "geometry": { "type": "Point", "coordinates": [ -0.067357232818997, 51.328052260909004 ] } },
{ "type": "Feature", "properties": { "max_height": 18.522491455078125, "mean_height": 13.076566696166992, "std_height": 3.2873461246490479, "count_pixels": 43, "percent_cover": 0.26848151848151852, "percent_above_0.1m": 100.0, "low_level_<0.5": 0.0, "mid_level_0.5-2": 0.0, "tall_2+": 100.0 }, "geometry": { "type": "Point", "coordinates": [ -0.067158475577059, 51.32804897932045 ] } },
{ "type": "Feature", "properties": { "max_height": 19.157501220703125, "mean_height": 11.981100082397461, "std_height": 4.5033941268920898, "count_pixels": 43, "percent_cover": 0.26848151848151852, "percent_above_0.1m": 100.0, "low_level_<0.5": 0.0, "mid_level_0.5-2": 0.0, "tall_2+": 100.0 }, "geometry": { "type": "Point", "coordinates": [ -0.066959718372296, 51.328045697394444 ] } },
{ "type": "Feature", "properties": { "max_height": 14.094985961914062, "mean_height": 5.2941417694091797, "std_height": 3.5808558464050293, "count_pixels": 41, "percent_cover": 0.25599400599400601, "percent_above_0.1m": 90.243902439024396, "low_level_<0.5": 0.0, "mid_level_0.5-2": 9.7560975609756095, "tall_2+": 80.487804878048792 }, "geometry": { "type": "Point", "coordinates": [ -0.067452082312203, 51.328161743763232 ] } },
{ "type": "Feature", "properties": { "max_height": 19.324996948242188, "mean_height": 12.59761905670166, "std_height": 3.0197012424468994, "count_pixels": 41, "percent_cover": 0.25599400599400601, "percent_above_0.1m": 100.0, "low_level_<0.5": 0.0, "mid_level_0.5-2": 0.0, "tall_2+": 100.0 }, "geometry": { "type": "Point", "coordinates": [ -0.067253324591024, 51.328158462336468 ] } },
{ "type": "Feature", "properties": { "max_height": 21.5050048828125, "mean_height": 18.238468170166016, "std_height": 2.4472784996032715, "count_pixels": 41, "percent_cover": 0.25599400599400601, "percent_above_0.1m": 100.0, "low_level_<0.5": 0.0, "mid_level_0.5-2": 0.0, "tall_2+": 100.0 }, "geometry": { "type": "Point", "coordinates": [ -0.067054566907019, 51.328155180572217 ] } },
{ "type": "Feature", "properties": { "max_height": 18.829986572265625, "mean_height": 10.511099815368652, "std_height": 5.1175355911254883, "count_pixels": 43, "percent_cover": 0.26848151848151852, "percent_above_0.1m": 100.0, "low_level_<0.5": 2.3255813953488373, "mid_level_0.5-2": 0.0, "tall_2+": 95.348837209302332 }, "geometry": { "type": "Point", "coordinates": [ -0.067149415883784, 51.328264663670581 ] } }
]
}
