{
"type": "FeatureCollection",
"name": "dd321d62d1e7_foliage",
"crs": { "type": "name", "properties": { "name": "urn:ogc:def:crs:OGC:1.3:CRS84" } },
"features": [
{ "type": "Feature", "properties": { "max_height": 18.6199951171875, "mean_height": 9.7462444305419922, "std_height": 6.4012594223022461, "count_pixels": 42, "percent_cover": 1.7135862913096693, "percent_above_0.1m": 83.333333333333343, "low_level_<0.5": 0.0, "mid_level_0.5-2": 7.1428571428571423, "tall_2+": 76.19047619047619 }, "geometry": { "type": "Point", "coordinates": [ -0.124386057869014, 51.30512145167274 ] } },
{ "type": "Feature", "properties": { "max_height": 21.800003051757812, "mean_height": 8.5309476852416992, "std_height": 7.3642826080322266, "count_pixels": 42, "percent_cover": 1.7135862913096693, "percent_above_0.1m": 71.428571428571431, "low_level_<0.5": 0.0, "mid_level_0.5-2": 7.1428571428571423, "tall_2+": 64.285714285714292 }, "geometry": { "type": "Point", "coordinates": [ -0.124187390757528, 51.305118272361412 ] } },
{ "type": "Feature", "properties": { "max_height": 10.809982299804688, "mean_height": 0.69582951068878174, "std_height": 2.2420318126678467, "count_pixels": 42, "percent_cover": 1.7135862913096693, "percent_above_0.1m": 14.285714285714285, "low_level_<0.5": 4.7619047619047619, "mid_level_0.5-2": 0.0, "tall_2+": 9.5238095238095237 }, "geometry": { "type": "Point", "coordinates": [ -0.124481005524234, 51.305230885098759 ] } },
{ "type": "Feature", "properties": { "max_height": 22.279998779296875, "mean_height": 13.594579696655273, "std_height": 5.7175006866455078, "count_pixels": 42, "percent_cover": 1.7135862913096693, "percent_above_0.1m": 100.0, "low_level_<0.5": 0.0, "mid_level_0.5-2": 7.1428571428571423, "tall_2+": 92.857142857142861 }, "geometry": { "type": "Point", "coordinates": [ -0.124282337964621, 51.305227705946976 ] } },
{ "type": "Feature", "properties": { "max_height": 22.3125, "mean_height": 12.635683059692383, "std_height": 7.5700206756591797, "count_pixels": 40, "percent_cover": 1.6319869441044472, "percent_above_0.1m": 85.0, "low_level_<0.5": 0.0, "mid_level_0.5-2": 5.0, "tall_2+": 80.0 }, "geometry": { "type": "Point", "coordinates": [ -0.124083670439299, 51.305224526458098 ] } },
{ "type": "Feature", "properties": { "max_height": 19.284988403320312, "mean_height": 12.157139778137207, "std_height": 5.496976375579834, "count_pixels": 42, "percent_cover": 1.7135862913096693, "percent_above_0.1m": 92.857142857142861, "low_level_<0.5": 0.0, "mid_level_0.5-2": 2.3809523809523809, "tall_2+": 90.476190476190482 }, "geometry": { "type": "Point", "coordinates": [ -0.124377285585512, 51.305337139455133 ] } },
{ "type": "Feature", "properties": { "max_height": 19.637496948242188, "mean_height": 7.633148193359375, "std_height": 5.9394612312316895, "count_pixels": 42, "percent_cover": 1.7135862913096693, "percent_above_0.1m": 90.476190476190482, "low_level_<0.5": 9.5238095238095237, "mid_level_0.5-2": 9.5238095238095237, "tall_2+": 71.428571428571431 }, "geometry": { "type": "Point", "coordinates": [ -0.124178617612067, 51.305333960125822 ] } },
{ "type": "Feature", "properties": { "max_height": 15.55999755859375, "mean_height": 4.4492573738098145, "std_height": 5.4630203247070312, "count_pixels": 44, "percent_cover": 1.7951856385148919, "percent_above_0.1m": 56.81818181818182, "low_level_<0.5": 4.5454545454545459, "mid_level_0.5-2": 9.0909090909090917, "tall_2+": 43.18181818181818 }, "geometry": { "type": "Point", "coordinates": [ -0.123979949672911, 51.305330780459428 ] } },
{ "type": "Feature", "properties": { "max_height": 13.672500610351562, "mean_height": 4.5271992683410645, "std_height": 4.7578253746032715, "count_pixels": 42, "percent_cover": 1.7135862913096693, "percent_above_0.1m": 66.666666666666657, "low_level_<0.5": 0.0, "mid_level_0.5-2": 7.1428571428571423, "tall_2+": 52.380952380952387 }, "geometry": { "type": "Point", "coordinates": [ -0.124472233620206, 51.305446572885877 ] } },
{ "type": "Feature", "properties": { "max_height": 18.714996337890625, "mean_height": 10.71178150177002, "std_height": 3.5799860954284668, "count_pixels": 42, "percent_cover": 1.7135862913096693, "percent_above_0.1m": 100.0, "low_level_<0.5": 0.0, "mid_level_0.5-2": 2.3809523809523809, "tall_2+": 97.61904761904762 }, "geometry": { "type": "Point", "coordinates": [ -0.12427356519863, 51.305443393716139 ] } },
{ "type": "Feature", "properties": { "max_height": 19.444992065429688, "mean_height": 14.120061874389648, "std_height": 4.9095296859741211, "count_pixels": 40, "percent_cover": 1.6319869441044472, "percent_above_0.1m": 97.5, "low_level_<0.5": 0.0, "mid_level_0.5-2": 2.5, "tall_2+": 95.0 }, "geometry": { "type": "Point", "coordinates": [ -0.124074896811346, 51.305440214209277 ] } },
{ "type": "Feature", "properties": { "max_height": 16.88250732421875, "mean_height": 4.6304340362548828, "std_height": 6.343472957611084, "count_pixels": 40, "percent_cover": 1.6319869441044472, "percent_above_0.1m": 45.0, "low_level_<0.5": 2.5, "mid_level_0.5-2": 0.0, "tall_2+": 42.5 }, "geometry": { "type": "Point", "coordinates": [ -0.123876228458353, 51.305437034365362 ] } },
{ "type": "Feature", "properties": { "max_height": 11.287506103515625, "mean_height": 1.1441047191619873, "std_height": 2.4401628971099854, "count_pixels": 42, "percent_cover": 1.7135862913096693, "percent_above_0.1m": 35.714285714285715, "low_level_<0.5": 7.1428571428571423, "mid_level_0.5-2": 4.7619047619047619, "tall_2+": 19.047619047619047 }, "geometry": { "type": "Point", "coordinates": [ -0.124567182068704, 51.305556006239222 ] } },
{ "type": "Feature", "properties": { "max_height": 17.232513427734375, "mean_height": 13.887553215026855, "std_height": 2.6545438766479492, "count_pixels": 42, "percent_cover": 1.7135862913096693, "percent_above_0.1m": 100.0, "low_level_<0.5": 0.0, "mid_level_0.5-2": 0.0, "tall_2+": 100.0 }, "geometry": { "type": "Point", "coordinates": [ -0.124368513198998, 51.305552827229029 ] } },
{ "type": "Feature", "properties": { "max_height": 19.0625, "mean_height": 12.505234718322754, "std_height": 4.4003310203552246, "count_pixels": 42, "percent_cover": 1.7135862913096693, "percent_above_0.1m": 100.0, "low_level_<0.5": 0.0, "mid_level_0.5-2": 0.0, "tall_2+": 100.0 }, "geometry": { "type": "Point", "coordinates": [ -0.12416984436358, 51.305549647881755 ] } },
{ "type": "Feature", "properties": { "max_height": 17.592498779296875, "mean_height": 8.3795967102050781, "std_height": 5.5050568580627441, "count_pixels": 44, "percent_cover": 1.7951856385148919, "percent_above_0.1m": 90.909090909090907, "low_level_<0.5": 0.0, "mid_level_0.5-2": 11.363636363636363, "tall_2+": 79.545454545454547 }, "geometry": { "type": "Point", "coordinates": [ -0.123971175562459, 51.305546468197385 ] } },
{ "type": "Feature", "properties": { "max_height": 0.1824951171875, "mean_height": 0.01607513427734375, "std_height": 0.043287083506584167, "count_pixels": 44, "percent_cover": 1.7951856385148919, "percent_above_0.1m": 9.0909090909090917, "low_level_<0.5": 4.5454545454545459, "mid_level_0.5-2": 0.0, "tall_2+": 0.0 }, "geometry": { "type": "Point", "coordinates": [ -0.123772506795631, 51.305543288175954 ] } },
{ "type": "Feature", "properties": { "max_height": 14.6824951171875, "mean_height": 3.0004723072052002, "std_height": 4.2920060157775879, "count_pixels": 42, "percent_cover": 1.7135862913096693, "percent_above_0.1m": 59.523809523809526, "low_level_<0.5": 4.7619047619047619, "mid_level_0.5-2": 19.047619047619047, "tall_2+": 33.333333333333329 }, "geometry": { "type": "Point", "coordinates": [ -0.12446346161317, 51.305662260664533 ] } },
{ "type": "Feature", "properties": { "max_height": 19.61749267578125, "mean_height": 14.996129035949707, "std_height": 3.5128059387207031, "count_pixels": 42, "percent_cover": 1.7135862913096693, "percent_above_0.1m": 100.0, "low_level_<0.5": 0.0, "mid_level_0.5-2": 0.0, "tall_2+": 100.0 }, "geometry": { "type": "Point", "coordinates": [ -0.124264792329623, 51.305659081476819 ] } },
{ "type": "Feature", "properties": { "max_height": 16.294998168945312, "mean_height": 8.5393705368041992, "std_height": 4.0612425804138184, "count_pixels": 40, "percent_cover": 1.6319869441044472, "percent_above_0.1m": 95.0, "low_level_<0.5": 2.5, "mid_level_0.5-2": 2.5, "tall_2+": 90.0 }, "geometry": { "type": "Point", "coordinates": [ -0.124066123080362, 51.305655901952008 ] } },
{ "type": "Feature", "properties": { "max_height": 6.7299957275390625, "mean_height": 0.78212052583694458, "std_height": 1.8577795028686523, "count_pixels": 40, "percent_cover": 1.6319869441044472, "percent_above_0.1m": 20.0, "low_level_<0.5": 0.0, "mid_level_0.5-2": 7.5, "tall_2+": 12.5 }, "geometry": { "type": "Point", "coordinates": [ -0.123867453865399, 51.305652722090116 ] } },
{ "type": "Feature", "properties": { "max_height": 9.44000244140625, "mean_height": 0.88809096813201904, "std_height": 1.9314738512039185, "count_pixels": 42, "percent_cover": 1.7135862913096693, "percent_above_0.1m": 33.333333333333329, "low_level_<0.5": 2.3809523809523809, "mid_level_0.5-2": 11.904761904761903, "tall_2+": 16.666666666666664 }, "geometry": { "type": "Point", "coordinates": [ -0.124359740709469, 51.305768514994469 ] } },
{ "type": "Feature", "properties": { "max_height": 12.35748291015625, "mean_height": 2.2645180225372314, "std_height": 3.2028467655181885, "count_pixels": 42, "percent_cover": 1.7135862913096693, "percent_above_0.1m": 54.761904761904766, "low_level_<0.5": 4.7619047619047619, "mid_level_0.5-2": 11.904761904761903, "tall_2+": 38.095238095238095 }, "geometry": { "type": "Point", "coordinates": [ -0.124161071012075, 51.305765335629225 ] } },
{ "type": "Feature", "properties": { "max_height": 2.7249908447265625, "mean_height": 0.48511087894439697, "std_height": 0.79283243417739868, "count_pixels": 44, "percent_cover": 1.7951856385148919, "percent_above_0.1m": 38.636363636363633, "low_level_<0.5": 6.8181818181818175, "mid_level_0.5-2": 20.454545454545457, "tall_2+": 9.0909090909090917 }, "geometry": { "type": "Point", "coordinates": [ -0.123962401348973, 51.305762155926892 ] } }
]
}
