{
"type": "FeatureCollection",
"name": "EALIN_35_cycling",
"crs": { "type": "name", "properties": { "name": "urn:ogc:def:crs:OGC:1.3:CRS84" } },
"features": [
{"type":"Feature","properties":{"highway":"cycleway","name":"Marigold Close","category":"Dedicated cycleway"},"geometry":{"type":"MultiLineString","coordinates":[[[-0.382259,51.5162793],[-0.3824648,51.5162957],[-0.3825936,51.5163574],[-0.382688,51.5163628]]]}},
{"type":"Feature","properties":{"highway":"path","name":null,"category":"Shared path"},"geometry":{"type":"MultiLineString","coordinates":[[[-0.3936195,51.5220661],[-0.3926576,51.5213881],[-0.3925108,51.5212846],[-0.3922286,51.5211157],[-0.3913631,51.5205458],[-0.3910252,51.5205078],[-0.3898772,51.5202725],[-0.3889493,51.5200229],[-0.3887614,51.5199802],[-0.3885731,51.5199417],[-0.3880532,51.5198191],[-0.3872824,51.519652],[-0.3860355,51.5193816],[-0.3859833,51.5193701]]]}},
{"type":"Feature","properties":{"highway":"track","name":null,"category":"Track"},"geometry":{"type":"MultiLineString","coordinates":[[[-0.3850949,51.5175568],[-0.3852234,51.5179522],[-0.385218,51.5180226],[-0.3853446,51.5188733]]]}},
{"type":"Feature","properties":{"highway":"cycleway","name":null,"category":"Dedicated cycleway"},"geometry":{"type":"MultiLineString","coordinates":[[[-0.3831705,51.5175798],[-0.3830314,51.5176533],[-0.3821851,51.5183217],[-0.3819086,51.5185564],[-0.3813624,51.5192199],[-0.3809557,51.5196733],[-0.3807595,51.5198646],[-0.380569,51.5200521],[-0.3802366,51.5203846],[-0.3798551,51.5207496],[-0.3797181,51.5209118],[-0.3793797,51.5212958],[-0.3792666,51.5214265],[-0.3788013,51.5220115],[-0.3783374,51.5225982],[-0.3781516,51.5228514],[-0.3779061,51.5231859],[-0.3777417,51.5233989],[-0.3775283,51.523626],[-0.377291,51.5239107],[-0.3769972,51.5242188],[-0.3766513,51.5245365],[-0.3765512,51.5246293],[-0.3763269,51.5248453],[-0.3762286,51.5249575],[-0.3761465,51.5250692],[-0.3760811,51.5251876],[-0.376039,51.5252745],[-0.3760107,51.5253608],[-0.3759797,51.5255595],[-0.3759761,51.5256642],[-0.375989,51.5257531],[-0.376039,51.5260131],[-0.3761073,51.5262722],[-0.376229,51.5267866],[-0.3762708,51.5270553],[-0.3762969,51.5273165],[-0.3762899,51.5277071],[-0.3762839,51.5280166],[-0.3762648,51.5283736],[-0.3762435,51.5287258],[-0.3762381,51.5288381],[-0.3762325,51.5289628],[-0.3762026,51.5291433],[-0.376154,51.5293146],[-0.376066,51.5295429],[-0.3759192,51.5298514],[-0.3758794,51.529931],[-0.3757124,51.5303244],[-0.3756193,51.530524],[-0.3755242,51.5307289],[-0.3752145,51.5314642],[-0.3748604,51.5323586],[-0.3747359,51.5326842],[-0.3747195,51.5327185]]]}},
{"type":"Feature","properties":{"highway":"path","name":null,"category":"Shared path"},"geometry":{"type":"MultiLineString","coordinates":[[[-0.3838856,51.5175856],[-0.3838174,51.51758],[-0.3836532,51.5175727],[-0.3835906,51.5175557],[-0.3835051,51.5175138]]]}},
{"type":"Feature","properties":{"highway":"cycleway","name":null,"category":"Dedicated cycleway"},"geometry":{"type":"MultiLineString","coordinates":[[[-0.3902894,51.5132958],[-0.3902592,51.5133378],[-0.3899516,51.5137659],[-0.3897446,51.5139905],[-0.3895396,51.5141904],[-0.3893117,51.5143827],[-0.3890919,51.5145232],[-0.388631,51.5147874],[-0.3883645,51.5149036],[-0.3881173,51.5149969],[-0.3873036,51.5153175],[-0.3865007,51.5156396],[-0.3858515,51.5158982],[-0.3851927,51.5161568],[-0.3847837,51.5163396],[-0.3844609,51.5165274],[-0.3841476,51.5167339],[-0.3838439,51.5169754],[-0.3836403,51.5171565],[-0.3834792,51.5173227],[-0.3834131,51.5174323],[-0.3833462,51.5174909],[-0.3832945,51.5175171]]]}},
{"type":"Feature","properties":{"highway":"path","name":null,"category":"Shared path"},"geometry":{"type":"MultiLineString","coordinates":[[[-0.3859833,51.5193701],[-0.3859081,51.5193717],[-0.385542,51.5192737],[-0.3852448,51.5191617],[-0.3850453,51.5190644],[-0.3849482,51.5190128],[-0.3848772,51.5189452],[-0.3847888,51.5188352],[-0.3847638,51.518729],[-0.3847664,51.5185275],[-0.3847629,51.518358],[-0.3846699,51.5181373],[-0.3846696,51.5180658],[-0.3846493,51.5179895]]]}},
{"type":"Feature","properties":{"highway":"cycleway","name":null,"category":"Dedicated cycleway"},"geometry":{"type":"MultiLineString","coordinates":[[[-0.3787276,51.5179949],[-0.3786445,51.5181445],[-0.3785228,51.5182348],[-0.3784364,51.5182765],[-0.3782772,51.5183155],[-0.3780786,51.518328],[-0.377937,51.5183092],[-0.3778094,51.5182651],[-0.3777256,51.5182148],[-0.3776589,51.5181631],[-0.3776055,51.5180898],[-0.3775734,51.518037],[-0.3775734,51.5179774],[-0.3776194,51.5178756],[-0.3777243,51.5176908],[-0.3779848,51.5172017],[-0.37809,51.5170112],[-0.3781613,51.5169452],[-0.3782942,51.5168679],[-0.3784031,51.516827],[-0.3785842,51.5167963],[-0.378754,51.5168033],[-0.3789437,51.5168675],[-0.3790739,51.5169686],[-0.3791496,51.5170729],[-0.3791558,51.5171777],[-0.3791284,51.5172584],[-0.3790521,51.5173997],[-0.3789597,51.5175707],[-0.3788037,51.5178552],[-0.3787276,51.5179949]]]}},
{"type":"Feature","properties":{"highway":"cycleway","name":null,"category":"Dedicated cycleway"},"geometry":{"type":"MultiLineString","coordinates":[[[-0.3832945,51.5175171],[-0.3831705,51.5175798]]]}},
{"type":"Feature","properties":{"highway":"path","name":null,"category":"Shared path"},"geometry":{"type":"MultiLineString","coordinates":[[[-0.3860012,51.5193494],[-0.3875322,51.5190971],[-0.387996,51.5190207],[-0.3901595,51.5185958],[-0.3902641,51.5185366]]]}},
{"type":"Feature","properties":{"highway":"path","name":null,"category":"Shared path"},"geometry":{"type":"MultiLineString","coordinates":[[[-0.3751434,51.523519],[-0.3751341,51.5236746],[-0.3751677,51.5239143],[-0.3752015,51.5240931],[-0.3752204,51.5241596],[-0.3752787,51.5242731],[-0.3753754,51.5243306],[-0.3755649,51.5243608],[-0.3759296,51.5244356],[-0.3762,51.5244702],[-0.3765283,51.5245223],[-0.3765755,51.5245233],[-0.3766081,51.5245264],[-0.3766513,51.5245365]]]}}
]
}
