{
"type": "FeatureCollection",
"name": "EALIN_55_cycling",
"crs": { "type": "name", "properties": { "name": "urn:ogc:def:crs:OGC:1.3:CRS84" } },
"features": [
{"type":"Feature","properties":{"highway":"cycleway","name":null,"category":"Dedicated cycleway"},"geometry":{"type":"MultiLineString","coordinates":[[[-0.3226784,51.5312134],[-0.3223491,51.5308205],[-0.3220139,51.5304582],[-0.3218071,51.5302316],[-0.3216766,51.5300643],[-0.3214156,51.5299171],[-0.3206795,51.5295724],[-0.3202293,51.5293842],[-0.320083,51.529292],[-0.3199065,51.5291809],[-0.3198195,51.5290036],[-0.3197426,51.5287092],[-0.3197493,51.5282575],[-0.3196686,51.5281795]]]}},
{"type":"Feature","properties":{"highway":"cycleway","name":null,"category":"Dedicated cycleway"},"geometry":{"type":"MultiLineString","coordinates":[[[-0.3279376,51.529993],[-0.3280091,51.5301417],[-0.3280363,51.530337],[-0.327882,51.5308287]]]}},
{"type":"Feature","properties":{"highway":"cycleway","name":null,"category":"Dedicated cycleway"},"geometry":{"type":"MultiLineString","coordinates":[[[-0.3195638,51.5273784],[-0.3190963,51.527428]]]}},
{"type":"Feature","properties":{"highway":"cycleway","name":null,"category":"Dedicated cycleway"},"geometry":{"type":"MultiLineString","coordinates":[[[-0.3234872,51.5292264],[-0.3225142,51.527577],[-0.322332,51.5272113],[-0.3223103,51.5271867],[-0.3223027,51.527174]]]}},
{"type":"Feature","properties":{"highway":"path","name":null,"category":"Shared path"},"geometry":{"type":"MultiLineString","coordinates":[[[-0.3156989,51.5194107],[-0.315695,51.5194734],[-0.3156924,51.5201465]]]}},
{"type":"Feature","properties":{"highway":"cycleway","name":null,"category":"Dedicated cycleway"},"geometry":{"type":"MultiLineString","coordinates":[[[-0.3190963,51.527428],[-0.3187429,51.5259256]]]}},
{"type":"Feature","properties":{"highway":"cycleway","name":null,"category":"Dedicated cycleway"},"geometry":{"type":"MultiLineString","coordinates":[[[-0.3226784,51.5312134],[-0.322865,51.530965],[-0.3230111,51.5306082],[-0.323141,51.5301268],[-0.3232384,51.5297498],[-0.3234872,51.5292264]]]}},
{"type":"Feature","properties":{"highway":"path","name":null,"category":"Shared path"},"geometry":{"type":"MultiLineString","coordinates":[[[-0.3254812,51.5197106],[-0.3257561,51.5196819],[-0.3259178,51.519674],[-0.3263576,51.5196001]]]}},
{"type":"Feature","properties":{"highway":"cycleway","name":null,"category":"Dedicated cycleway"},"geometry":{"type":"MultiLineString","coordinates":[[[-0.3275438,51.5286987],[-0.3275456,51.5287514],[-0.3275474,51.5288048]]]}},
{"type":"Feature","properties":{"highway":"cycleway","name":null,"category":"Dedicated cycleway"},"geometry":{"type":"MultiLineString","coordinates":[[[-0.3306826,51.5286556],[-0.3306833,51.5286264],[-0.3306841,51.5285918]]]}},
{"type":"Feature","properties":{"highway":"cycleway","name":null,"category":"Dedicated cycleway"},"geometry":{"type":"MultiLineString","coordinates":[[[-0.3275474,51.5288152],[-0.3275106,51.5288191],[-0.3273608,51.5288455],[-0.3272354,51.5288913],[-0.3271662,51.5289317],[-0.3271064,51.5289769],[-0.327052,51.5290459],[-0.3270341,51.5291156],[-0.3270394,51.5291675]]]}},
{"type":"Feature","properties":{"highway":"cycleway","name":null,"category":"Dedicated cycleway"},"geometry":{"type":"MultiLineString","coordinates":[[[-0.3223027,51.527174],[-0.3222395,51.5271799],[-0.3211108,51.5273165],[-0.3205656,51.5273824],[-0.3205642,51.5273256]]]}},
{"type":"Feature","properties":{"highway":"cycleway","name":null,"category":"Dedicated cycleway"},"geometry":{"type":"MultiLineString","coordinates":[[[-0.3209217,51.5249493],[-0.3209346,51.5249693],[-0.3210108,51.5249952],[-0.3217812,51.5255629],[-0.3219362,51.5261299],[-0.3223294,51.5271465],[-0.3223027,51.527174]]]}},
{"type":"Feature","properties":{"highway":"cycleway","name":null,"category":"Dedicated cycleway"},"geometry":{"type":"MultiLineString","coordinates":[[[-0.3313896,51.5285291],[-0.3319875,51.5284615],[-0.332141,51.5284386],[-0.3321701,51.5284343],[-0.3324964,51.5283798],[-0.3327495,51.5283077],[-0.3331275,51.5282324],[-0.3334009,51.5281499],[-0.3334237,51.528143],[-0.3334437,51.5281379],[-0.3339958,51.5279978],[-0.334486,51.5278942],[-0.334591,51.5278791],[-0.3347737,51.5278509],[-0.3348127,51.5278449],[-0.3349986,51.5278113]]]}},
{"type":"Feature","properties":{"highway":"cycleway","name":null,"category":"Dedicated cycleway"},"geometry":{"type":"MultiLineString","coordinates":[[[-0.3299943,51.5286015],[-0.3300615,51.5285989],[-0.3306845,51.5285773],[-0.3313896,51.5285291]]]}},
{"type":"Feature","properties":{"highway":"cycleway","name":null,"category":"Dedicated cycleway"},"geometry":{"type":"MultiLineString","coordinates":[[[-0.3267576,51.5286532],[-0.3266909,51.5286695],[-0.3235518,51.5292152],[-0.3234872,51.5292264]]]}},
{"type":"Feature","properties":{"highway":"cycleway","name":"Ruislip Road East","category":"Dedicated cycleway"},"geometry":{"type":"MultiLineString","coordinates":[[[-0.3466442,51.5270965],[-0.3456589,51.5271091],[-0.3456143,51.5271072],[-0.3450152,51.5271231],[-0.3442468,51.5271545],[-0.3435889,51.5272066],[-0.342786,51.5272836],[-0.342745,51.5272889],[-0.3424887,51.527325],[-0.3424117,51.52733],[-0.3422985,51.5273436],[-0.3421855,51.5273536],[-0.3421802,51.5273541],[-0.3421345,51.527363],[-0.3419913,51.5273988],[-0.3418181,51.5274192],[-0.341732,51.5274262],[-0.3416239,51.5274148],[-0.3415955,51.5274142],[-0.3409341,51.5274837],[-0.3408852,51.527489],[-0.3395132,51.5276392],[-0.3390807,51.5276894],[-0.33889,51.5277102],[-0.3386744,51.5277598],[-0.3385598,51.5277639],[-0.3383967,51.5277413],[-0.3381275,51.5277382],[-0.3380939,51.5277371],[-0.3375132,51.5277195],[-0.3370905,51.5277162],[-0.3364133,51.5277682],[-0.3350317,51.5279041],[-0.3348495,51.5279366],[-0.3348147,51.5279424],[-0.3348094,51.5279433],[-0.334257,51.5280409],[-0.3337621,51.5281553],[-0.3335048,51.5282241],[-0.3334623,51.5282358],[-0.3331931,51.5283256],[-0.3327998,51.5284273],[-0.3325028,51.5284837],[-0.3322028,51.5285332],[-0.3321717,51.5285382],[-0.3320911,51.5285513]]]}},
{"type":"Feature","properties":{"highway":"cycleway","name":null,"category":"Dedicated cycleway"},"geometry":{"type":"MultiLineString","coordinates":[[[-0.3113646,51.5208117],[-0.3113706,51.5208804]]]}},
{"type":"Feature","properties":{"highway":"cycleway","name":null,"category":"Dedicated cycleway"},"geometry":{"type":"MultiLineString","coordinates":[[[-0.3106873,51.5189159],[-0.3107176,51.5189737],[-0.3107868,51.5193919]]]}},
{"type":"Feature","properties":{"highway":"cycleway","name":null,"category":"Dedicated cycleway"},"geometry":{"type":"MultiLineString","coordinates":[[[-0.3112845,51.5206105],[-0.3113646,51.5208117]]]}},
{"type":"Feature","properties":{"highway":"cycleway","name":null,"category":"Dedicated cycleway"},"geometry":{"type":"MultiLineString","coordinates":[[[-0.3108181,51.5195132],[-0.3110748,51.5201022],[-0.3112845,51.5206105]]]}},
{"type":"Feature","properties":{"highway":"cycleway","name":null,"category":"Dedicated cycleway"},"geometry":{"type":"MultiLineString","coordinates":[[[-0.3267222,51.5285589],[-0.3267544,51.5285525],[-0.3268625,51.5285308]]]}},
{"type":"Feature","properties":{"highway":"cycleway","name":null,"category":"Dedicated cycleway"},"geometry":{"type":"MultiLineString","coordinates":[[[-0.3268444,51.5291917],[-0.3268074,51.5291228],[-0.3268164,51.5290442],[-0.3268172,51.5289151],[-0.3268064,51.5288345],[-0.326806,51.5287622],[-0.3268013,51.528735],[-0.3267576,51.5286532]]]}},
{"type":"Feature","properties":{"highway":"cycleway","name":null,"category":"Dedicated cycleway"},"geometry":{"type":"MultiLineString","coordinates":[[[-0.3279295,51.5286608],[-0.3279047,51.5286779],[-0.3277382,51.5286855],[-0.327543,51.5286872]]]}},
{"type":"Feature","properties":{"highway":"cycleway","name":null,"category":"Dedicated cycleway"},"geometry":{"type":"MultiLineString","coordinates":[[[-0.3270157,51.5291703],[-0.3269552,51.5291779],[-0.3268795,51.5291874]]]}},
{"type":"Feature","properties":{"highway":"cycleway","name":null,"category":"Dedicated cycleway"},"geometry":{"type":"MultiLineString","coordinates":[[[-0.3267576,51.5286532],[-0.3267003,51.5285638]]]}},
{"type":"Feature","properties":{"highway":"cycleway","name":null,"category":"Dedicated cycleway"},"geometry":{"type":"MultiLineString","coordinates":[[[-0.3280139,51.5286412],[-0.3279589,51.528646],[-0.3279295,51.5286608]]]}},
{"type":"Feature","properties":{"highway":"cycleway","name":"Avalon Road","category":"Dedicated cycleway"},"geometry":{"type":"MultiLineString","coordinates":[[[-0.3279586,51.5284393],[-0.3280097,51.5284712],[-0.3280139,51.5286412],[-0.3280362,51.5286926],[-0.3280451,51.5287421]]]}},
{"type":"Feature","properties":{"highway":"cycleway","name":null,"category":"Dedicated cycleway"},"geometry":{"type":"MultiLineString","coordinates":[[[-0.3268883,51.5285251],[-0.3268742,51.5285004],[-0.3268247,51.5284167]]]}},
{"type":"Feature","properties":{"highway":"cycleway","name":null,"category":"Dedicated cycleway"},"geometry":{"type":"MultiLineString","coordinates":[[[-0.327543,51.5286872],[-0.3275092,51.528687],[-0.3272818,51.5286852],[-0.3271397,51.5286741],[-0.3270041,51.5286252],[-0.3269679,51.5285992],[-0.3269273,51.5285699],[-0.3269032,51.5285462],[-0.3268883,51.5285251]]]}},
{"type":"Feature","properties":{"highway":"cycleway","name":null,"category":"Dedicated cycleway"},"geometry":{"type":"MultiLineString","coordinates":[[[-0.3268281,51.5287366],[-0.3269563,51.5287433]]]}},
{"type":"Feature","properties":{"highway":"path","name":null,"category":"Shared path"},"geometry":{"type":"MultiLineString","coordinates":[[[-0.3315309,51.5262998],[-0.331407,51.526458],[-0.3312837,51.5266248],[-0.3312394,51.5266866]]]}},
{"type":"Feature","properties":{"highway":"cycleway","name":null,"category":"Dedicated cycleway"},"geometry":{"type":"MultiLineString","coordinates":[[[-0.3279191,51.5299655],[-0.3270453,51.5294172],[-0.3269739,51.5293733],[-0.3269169,51.5293181],[-0.326856,51.529212],[-0.3268444,51.5291917]]]}},
{"type":"Feature","properties":{"highway":"cycleway","name":null,"category":"Dedicated cycleway"},"geometry":{"type":"MultiLineString","coordinates":[[[-0.3279672,51.5299317],[-0.3279191,51.5299655]]]}},
{"type":"Feature","properties":{"highway":"cycleway","name":null,"category":"Dedicated cycleway"},"geometry":{"type":"MultiLineString","coordinates":[[[-0.3208735,51.5248152],[-0.3209566,51.5248011],[-0.3209719,51.5247868],[-0.3209726,51.5247737],[-0.3209733,51.5247606]]]}},
{"type":"Feature","properties":{"highway":"cycleway","name":null,"category":"Dedicated cycleway"},"geometry":{"type":"MultiLineString","coordinates":[[[-0.3209029,51.5249091],[-0.3208903,51.5248698]]]}},
{"type":"Feature","properties":{"highway":"cycleway","name":null,"category":"Dedicated cycleway"},"geometry":{"type":"MultiLineString","coordinates":[[[-0.3196686,51.5281795],[-0.3192903,51.5278305],[-0.3192193,51.5277625],[-0.3191611,51.5276895],[-0.3190963,51.527428]]]}},
{"type":"Feature","properties":{"highway":"cycleway","name":null,"category":"Dedicated cycleway"},"geometry":{"type":"MultiLineString","coordinates":[[[-0.3279376,51.529993],[-0.3279191,51.5299655]]]}},
{"type":"Feature","properties":{"highway":"cycleway","name":null,"category":"Dedicated cycleway"},"geometry":{"type":"MultiLineString","coordinates":[[[-0.3268795,51.5291874],[-0.3268444,51.5291917]]]}},
{"type":"Feature","properties":{"highway":"cycleway","name":null,"category":"Dedicated cycleway"},"geometry":{"type":"MultiLineString","coordinates":[[[-0.3270394,51.5291675],[-0.3270157,51.5291703]]]}},
{"type":"Feature","properties":{"highway":"cycleway","name":"Ruislip Road East","category":"Dedicated cycleway"},"geometry":{"type":"MultiLineString","coordinates":[[[-0.3302796,51.5287005],[-0.3306819,51.5286823],[-0.330973,51.5286606],[-0.3311844,51.528652],[-0.3314312,51.5286582],[-0.3316145,51.5286404],[-0.331827,51.5285839],[-0.3320023,51.5285634]]]}},
{"type":"Feature","properties":{"highway":"cycleway","name":"Ruislip Road East","category":"Dedicated cycleway"},"geometry":{"type":"MultiLineString","coordinates":[[[-0.3300316,51.5287113],[-0.3301476,51.5287065],[-0.3302796,51.5287005]]]}},
{"type":"Feature","properties":{"highway":"cycleway","name":"Ruislip Road East","category":"Dedicated cycleway"},"geometry":{"type":"MultiLineString","coordinates":[[[-0.3275474,51.5288152],[-0.3275869,51.5288123],[-0.3278757,51.5288073],[-0.3282285,51.5287861],[-0.3300316,51.5287113]]]}},
{"type":"Feature","properties":{"highway":"cycleway","name":null,"category":"Dedicated cycleway"},"geometry":{"type":"MultiLineString","coordinates":[[[-0.3306841,51.5285918],[-0.3306845,51.5285773]]]}},
{"type":"Feature","properties":{"highway":"cycleway","name":null,"category":"Dedicated cycleway"},"geometry":{"type":"MultiLineString","coordinates":[[[-0.3306819,51.5286823],[-0.3306826,51.5286556]]]}},
{"type":"Feature","properties":{"highway":"cycleway","name":null,"category":"Dedicated cycleway"},"geometry":{"type":"MultiLineString","coordinates":[[[-0.3298816,51.5286033],[-0.3299943,51.5286015]]]}},
{"type":"Feature","properties":{"highway":"cycleway","name":null,"category":"Dedicated cycleway"},"geometry":{"type":"MultiLineString","coordinates":[[[-0.3275474,51.5288048],[-0.3275474,51.5288152]]]}},
{"type":"Feature","properties":{"highway":"cycleway","name":null,"category":"Dedicated cycleway"},"geometry":{"type":"MultiLineString","coordinates":[[[-0.327543,51.5286872],[-0.3275438,51.5286987]]]}},
{"type":"Feature","properties":{"highway":"cycleway","name":null,"category":"Dedicated cycleway"},"geometry":{"type":"MultiLineString","coordinates":[[[-0.3321643,51.5285142],[-0.3321545,51.5284826],[-0.3321449,51.5284513]]]}},
{"type":"Feature","properties":{"highway":"cycleway","name":null,"category":"Dedicated cycleway"},"geometry":{"type":"MultiLineString","coordinates":[[[-0.3268625,51.5285308],[-0.3268883,51.5285251]]]}},
{"type":"Feature","properties":{"highway":"cycleway","name":null,"category":"Dedicated cycleway"},"geometry":{"type":"MultiLineString","coordinates":[[[-0.3268247,51.5284167],[-0.3268167,51.5284031],[-0.3268086,51.5283894]]]}},
{"type":"Feature","properties":{"highway":"cycleway","name":null,"category":"Dedicated cycleway"},"geometry":{"type":"MultiLineString","coordinates":[[[-0.3268013,51.528735],[-0.3268281,51.5287366]]]}},
{"type":"Feature","properties":{"highway":"cycleway","name":null,"category":"Dedicated cycleway"},"geometry":{"type":"MultiLineString","coordinates":[[[-0.3207499,51.5248376],[-0.3207574,51.5248267],[-0.3208368,51.5248197],[-0.3208735,51.5248152]]]}},
{"type":"Feature","properties":{"highway":"cycleway","name":null,"category":"Dedicated cycleway"},"geometry":{"type":"MultiLineString","coordinates":[[[-0.3207382,51.5248847],[-0.3207499,51.5248376]]]}},
{"type":"Feature","properties":{"highway":"cycleway","name":null,"category":"Dedicated cycleway"},"geometry":{"type":"MultiLineString","coordinates":[[[-0.3208782,51.5248323],[-0.3208735,51.5248152]]]}},
{"type":"Feature","properties":{"highway":"cycleway","name":null,"category":"Dedicated cycleway"},"geometry":{"type":"MultiLineString","coordinates":[[[-0.3208903,51.5248698],[-0.3208824,51.5248511],[-0.3208782,51.5248323]]]}},
{"type":"Feature","properties":{"highway":"cycleway","name":null,"category":"Dedicated cycleway"},"geometry":{"type":"MultiLineString","coordinates":[[[-0.3203157,51.5216644],[-0.3203593,51.5216308],[-0.3203545,51.521595],[-0.3203573,51.5215793],[-0.3203822,51.5215609],[-0.3204324,51.5215518],[-0.3204283,51.5215385]]]}},
{"type":"Feature","properties":{"highway":"cycleway","name":null,"category":"Dedicated cycleway"},"geometry":{"type":"MultiLineString","coordinates":[[[-0.3204283,51.5215385],[-0.3204155,51.5214907],[-0.3204049,51.5214437]]]}},
{"type":"Feature","properties":{"highway":"cycleway","name":null,"category":"Dedicated cycleway"},"geometry":{"type":"MultiLineString","coordinates":[[[-0.3204021,51.5214314],[-0.3204149,51.5214269],[-0.3204277,51.5214154],[-0.3204607,51.5213851],[-0.3205171,51.521369]]]}},
{"type":"Feature","properties":{"highway":"cycleway","name":null,"category":"Dedicated cycleway"},"geometry":{"type":"MultiLineString","coordinates":[[[-0.3203133,51.521452],[-0.3203145,51.5214389],[-0.3203523,51.5214349],[-0.3204021,51.5214314]]]}},
{"type":"Feature","properties":{"highway":"cycleway","name":null,"category":"Dedicated cycleway"},"geometry":{"type":"MultiLineString","coordinates":[[[-0.3203197,51.5214988],[-0.3203133,51.521452]]]}},
{"type":"Feature","properties":{"highway":"cycleway","name":null,"category":"Dedicated cycleway"},"geometry":{"type":"MultiLineString","coordinates":[[[-0.3204049,51.5214437],[-0.3204021,51.5214314]]]}},
{"type":"Feature","properties":{"highway":"cycleway","name":null,"category":"Dedicated cycleway"},"geometry":{"type":"MultiLineString","coordinates":[[[-0.3209029,51.5249091],[-0.3209096,51.5249232],[-0.3209217,51.5249493]]]}},
{"type":"Feature","properties":{"highway":"cycleway","name":null,"category":"Dedicated cycleway"},"geometry":{"type":"MultiLineString","coordinates":[[[-0.3107868,51.5193919],[-0.3107281,51.5194251]]]}},
{"type":"Feature","properties":{"highway":"cycleway","name":null,"category":"Dedicated cycleway"},"geometry":{"type":"MultiLineString","coordinates":[[[-0.3267003,51.5285638],[-0.3267222,51.5285589]]]}},
{"type":"Feature","properties":{"highway":"cycleway","name":null,"category":"Dedicated cycleway"},"geometry":{"type":"MultiLineString","coordinates":[[[-0.3107508,51.5194972],[-0.3108181,51.5195132]]]}},
{"type":"Feature","properties":{"highway":"cycleway","name":null,"category":"Dedicated cycleway"},"geometry":{"type":"MultiLineString","coordinates":[[[-0.3113706,51.5208804],[-0.311316,51.5209288]]]}},
{"type":"Feature","properties":{"highway":"cycleway","name":null,"category":"Dedicated cycleway"},"geometry":{"type":"MultiLineString","coordinates":[[[-0.3196392,51.5274024],[-0.3195638,51.5273784]]]}},
{"type":"Feature","properties":{"highway":"cycleway","name":null,"category":"Dedicated cycleway"},"geometry":{"type":"MultiLineString","coordinates":[[[-0.3187429,51.5259256],[-0.3187351,51.5258942]]]}},
{"type":"Feature","properties":{"highway":"cycleway","name":null,"category":"Dedicated cycleway"},"geometry":{"type":"MultiLineString","coordinates":[[[-0.3209733,51.5247606],[-0.3210435,51.5247359]]]}},
{"type":"Feature","properties":{"highway":"cycleway","name":null,"category":"Dedicated cycleway"},"geometry":{"type":"MultiLineString","coordinates":[[[-0.3321717,51.5285382],[-0.3321643,51.5285142]]]}},
{"type":"Feature","properties":{"highway":"cycleway","name":null,"category":"Dedicated cycleway"},"geometry":{"type":"MultiLineString","coordinates":[[[-0.3321449,51.5284513],[-0.332141,51.5284386]]]}}
]
}
