{
"type": "FeatureCollection",
"name": "TOWHA_46",
"crs": { "type": "name", "properties": { "name": "urn:ogc:def:crs:OGC:1.3:CRS84" } },
"features": [
{ "type": "Feature", "properties": { "osm_id": 13464310934, "name": null, "amenity": "bench", "man_made": null, "leisure": null, "playground": null, "memorial": null }, "geometry": { "type": "Point", "coordinates": [ -0.0275403, 51.5209681 ] } },
{ "type": "Feature", "properties": { "osm_id": 3995919370, "name": null, "amenity": "bench", "man_made": null, "leisure": null, "playground": null, "memorial": null }, "geometry": { "type": "Point", "coordinates": [ -0.0273112, 51.52103 ] } },
{ "type": "Feature", "properties": { "osm_id": 5269876311, "name": null, "amenity": "bench", "man_made": null, "leisure": null, "playground": null, "memorial": null }, "geometry": { "type": "Point", "coordinates": [ -0.0273187, 51.5215587 ] } },
{ "type": "Feature", "properties": { "osm_id": 5364729734, "name": null, "amenity": "bench", "man_made": null, "leisure": null, "playground": null, "memorial": null }, "geometry": { "type": "Point", "coordinates": [ -0.0269768, 51.5217702 ] } },
{ "type": "Feature", "properties": { "osm_id": 5223632065, "name": null, "amenity": "bench", "man_made": null, "leisure": null, "playground": null, "memorial": null }, "geometry": { "type": "Point", "coordinates": [ -0.0275188, 51.5218766 ] } },
{ "type": "Feature", "properties": { "osm_id": 5223632066, "name": null, "amenity": "bench", "man_made": null, "leisure": null, "playground": null, "memorial": null }, "geometry": { "type": "Point", "coordinates": [ -0.0273387, 51.5219551 ] } },
{ "type": "Feature", "properties": { "osm_id": 5269876318, "name": null, "amenity": "bench", "man_made": null, "leisure": null, "playground": null, "memorial": null }, "geometry": { "type": "Point", "coordinates": [ -0.0268759, 51.5220212 ] } },
{ "type": "Feature", "properties": { "osm_id": 5269876317, "name": null, "amenity": "bench", "man_made": null, "leisure": null, "playground": null, "memorial": null }, "geometry": { "type": "Point", "coordinates": [ -0.027127, 51.5220212 ] } },
{ "type": "Feature", "properties": { "osm_id": 4683342970, "name": "Gradient Fade - Adham Faramawy", "amenity": "bench", "man_made": null, "leisure": null, "playground": null, "memorial": null }, "geometry": { "type": "Point", "coordinates": [ -0.0254719, 51.5225614 ] } },
{ "type": "Feature", "properties": { "osm_id": 5294728217, "name": null, "amenity": "bench", "man_made": null, "leisure": null, "playground": null, "memorial": null }, "geometry": { "type": "Point", "coordinates": [ -0.0281011, 51.5227351 ] } },
{ "type": "Feature", "properties": { "osm_id": 12692831189, "name": null, "amenity": "bench", "man_made": null, "leisure": null, "playground": null, "memorial": null }, "geometry": { "type": "Point", "coordinates": [ -0.0247801, 51.5227782 ] } },
{ "type": "Feature", "properties": { "osm_id": 5294728215, "name": null, "amenity": "bench", "man_made": null, "leisure": null, "playground": null, "memorial": null }, "geometry": { "type": "Point", "coordinates": [ -0.0279982, 51.5229532 ] } },
{ "type": "Feature", "properties": { "osm_id": 5056851015, "name": null, "amenity": "bench", "man_made": null, "leisure": null, "playground": null, "memorial": null }, "geometry": { "type": "Point", "coordinates": [ -0.0294276, 51.5233341 ] } },
{ "type": "Feature", "properties": { "osm_id": 4389925691, "name": null, "amenity": "bench", "man_made": null, "leisure": null, "playground": null, "memorial": null }, "geometry": { "type": "Point", "coordinates": [ -0.0291383, 51.523393 ] } },
{ "type": "Feature", "properties": { "osm_id": 4389925693, "name": null, "amenity": "bench", "man_made": null, "leisure": null, "playground": null, "memorial": null }, "geometry": { "type": "Point", "coordinates": [ -0.0288154, 51.5234527 ] } },
{ "type": "Feature", "properties": { "osm_id": 5056850990, "name": null, "amenity": "bench", "man_made": null, "leisure": null, "playground": null, "memorial": null }, "geometry": { "type": "Point", "coordinates": [ -0.0245044, 51.5235051 ] } },
{ "type": "Feature", "properties": { "osm_id": 10637637305, "name": null, "amenity": "bench", "man_made": null, "leisure": null, "playground": null, "memorial": null }, "geometry": { "type": "Point", "coordinates": [ -0.0286433, 51.5235071 ] } },
{ "type": "Feature", "properties": { "osm_id": 10637540705, "name": null, "amenity": "bench", "man_made": null, "leisure": null, "playground": null, "memorial": null }, "geometry": { "type": "Point", "coordinates": [ -0.0300038, 51.5235374 ] } },
{ "type": "Feature", "properties": { "osm_id": 10637472206, "name": null, "amenity": "bench", "man_made": null, "leisure": null, "playground": null, "memorial": null }, "geometry": { "type": "Point", "coordinates": [ -0.0300541, 51.5235473 ] } },
{ "type": "Feature", "properties": { "osm_id": 5056851012, "name": null, "amenity": "bench", "man_made": null, "leisure": null, "playground": null, "memorial": null }, "geometry": { "type": "Point", "coordinates": [ -0.025808, 51.5241854 ] } },
{ "type": "Feature", "properties": { "osm_id": 12692825260, "name": null, "amenity": "bench", "man_made": null, "leisure": null, "playground": null, "memorial": null }, "geometry": { "type": "Point", "coordinates": [ -0.0249622, 51.5243676 ] } }
]
}
