{
"type": "FeatureCollection",
"name": "TOWHA_252",
"crs": { "type": "name", "properties": { "name": "urn:ogc:def:crs:OGC:1.3:CRS84" } },
"features": [
{ "type": "Feature", "properties": { "osm_id": 13078579701, "name": null, "amenity": "bench", "man_made": null, "leisure": null, "playground": null, "memorial": null }, "geometry": { "type": "Point", "coordinates": [ -0.0680302, 51.5141326 ] } },
{ "type": "Feature", "properties": { "osm_id": 13078579501, "name": null, "amenity": "bench", "man_made": null, "leisure": null, "playground": null, "memorial": null }, "geometry": { "type": "Point", "coordinates": [ -0.0680254, 51.5141991 ] } },
{ "type": "Feature", "properties": { "osm_id": 13078579601, "name": null, "amenity": "bench", "man_made": null, "leisure": null, "playground": null, "memorial": null }, "geometry": { "type": "Point", "coordinates": [ -0.0681582, 51.5142719 ] } }
]
}
