{
"type": "FeatureCollection",
"name": "WALFO_90_walking",
"crs": { "type": "name", "properties": { "name": "urn:ogc:def:crs:OGC:1.3:CRS84" } },
"features": [
{"type":"Feature","properties":{"highway":"footway","name":null,"category":"Footpath (pedestrian only)"},"geometry":{"type":"MultiLineString","coordinates":[[[-0.0463344,51.5621946],[-0.0463742,51.5622018],[-0.0465082,51.562225],[-0.0465905,51.5622411],[-0.0466956,51.5622654],[-0.0467279,51.5622784],[-0.0468038,51.5623106],[-0.0469125,51.5623635],[-0.0470148,51.5624172],[-0.0471108,51.5624718],[-0.0472322,51.5625419],[-0.0473023,51.5625854],[-0.0473636,51.5626298],[-0.0474005,51.5626668],[-0.0474332,51.5627064],[-0.0474496,51.5627347],[-0.047466,51.562763],[-0.0474901,51.5628124],[-0.0475019,51.5628472],[-0.0475142,51.5629038],[-0.0475196,51.5629541],[-0.0475242,51.5630358],[-0.0475238,51.5630714],[-0.0475224,51.5632116],[-0.0475224,51.5632159],[-0.0475256,51.5632402],[-0.0475288,51.5632539],[-0.047532,51.563258],[-0.0475624,51.563273]]]}},
{"type":"Feature","properties":{"highway":"footway","name":"Morris Court","category":"Footpath (pedestrian only)"},"geometry":{"type":"MultiLineString","coordinates":[[[-0.0481752,51.5641209],[-0.0478557,51.5641713],[-0.047782,51.5641816],[-0.0475102,51.5642198],[-0.0473927,51.5642457],[-0.0472027,51.5643215]]]}},
{"type":"Feature","properties":{"highway":"bridleway","name":null,"category":"Bridleway"},"geometry":{"type":"MultiLineString","coordinates":[[[-0.0463187,51.5646929],[-0.0462857,51.5646671],[-0.046225,51.5646174],[-0.0461442,51.5645488],[-0.0461162,51.564525],[-0.0459668,51.5644017],[-0.0458602,51.5643166],[-0.0458053,51.5642741],[-0.0457762,51.5642515]]]}},
{"type":"Feature","properties":{"highway":"bridleway","name":null,"category":"Bridleway"},"geometry":{"type":"MultiLineString","coordinates":[[[-0.0463187,51.5646929],[-0.0464385,51.5647934],[-0.0467941,51.5651045],[-0.046953,51.5652421],[-0.0469926,51.5652764],[-0.0471557,51.5654131],[-0.0472761,51.5655071],[-0.0474546,51.5656436],[-0.0475944,51.5657405],[-0.0476855,51.5658035],[-0.047799,51.5658759],[-0.0479205,51.5659448],[-0.0480608,51.5660189],[-0.0482103,51.5660963],[-0.0482854,51.5661415],[-0.0483095,51.566158],[-0.0483342,51.5661739],[-0.0485072,51.5662929],[-0.049175,51.5667791],[-0.0493537,51.5669146],[-0.0495629,51.567069],[-0.0498049,51.5672598],[-0.0499687,51.567387],[-0.0501004,51.5674855],[-0.0502,51.567553],[-0.0503104,51.567626],[-0.0504296,51.5676896],[-0.0505307,51.5677336],[-0.0507914,51.5678441],[-0.0509577,51.5679001]]]}},
{"type":"Feature","properties":{"highway":"footway","name":null,"category":"Footpath (pedestrian only)"},"geometry":{"type":"MultiLineString","coordinates":[[[-0.0410485,51.5684786],[-0.0408025,51.5686806]]]}},
{"type":"Feature","properties":{"highway":"track","name":null,"category":"Track"},"geometry":{"type":"MultiLineString","coordinates":[[[-0.0369138,51.5647877],[-0.0369405,51.5647946],[-0.0369784,51.564803],[-0.037375,51.5649005]]]}},
{"type":"Feature","properties":{"highway":"footway","name":null,"category":"Footpath (pedestrian only)"},"geometry":{"type":"MultiLineString","coordinates":[[[-0.0360261,51.5645724],[-0.0360397,51.5645498]]]}},
{"type":"Feature","properties":{"highway":"footway","name":null,"category":"Footpath (pedestrian only)"},"geometry":{"type":"MultiLineString","coordinates":[[[-0.0393082,51.5630971],[-0.0389622,51.5632477],[-0.0389409,51.563257],[-0.0388582,51.5632935]]]}},
{"type":"Feature","properties":{"highway":"footway","name":null,"category":"Footpath (pedestrian only)"},"geometry":{"type":"MultiLineString","coordinates":[[[-0.0362591,51.5642345],[-0.0362945,51.5641964],[-0.0364977,51.5638745],[-0.0369248,51.5631834],[-0.0369567,51.5631349],[-0.0369832,51.56312],[-0.0369683,51.5630469],[-0.0369253,51.5629697],[-0.0369193,51.5629588]]]}},
{"type":"Feature","properties":{"highway":"footway","name":null,"category":"Footpath (pedestrian only)"},"geometry":{"type":"MultiLineString","coordinates":[[[-0.0360397,51.5645498],[-0.0362591,51.5642345]]]}},
{"type":"Feature","properties":{"highway":"bridleway","name":null,"category":"Bridleway"},"geometry":{"type":"MultiLineString","coordinates":[[[-0.0423378,51.5651491],[-0.0421436,51.5652202],[-0.0419224,51.565297],[-0.0414437,51.5654698]]]}},
{"type":"Feature","properties":{"highway":"footway","name":null,"category":"Footpath (pedestrian only)"},"geometry":{"type":"MultiLineString","coordinates":[[[-0.0358564,51.5645427],[-0.0357347,51.5645551],[-0.0355795,51.5645965],[-0.0355434,51.5646189],[-0.0355099,51.5646403],[-0.0353965,51.5647083],[-0.0351581,51.5648364],[-0.0356049,51.5650553],[-0.0369446,51.5657334]]]}},
{"type":"Feature","properties":{"highway":"bridleway","name":null,"category":"Bridleway"},"geometry":{"type":"MultiLineString","coordinates":[[[-0.0445641,51.5667801],[-0.0444969,51.5666666],[-0.0440616,51.5661365]]]}},
{"type":"Feature","properties":{"highway":"bridleway","name":null,"category":"Bridleway"},"geometry":{"type":"MultiLineString","coordinates":[[[-0.0480608,51.5660189],[-0.0480389,51.5660296],[-0.0479453,51.5660721],[-0.0477345,51.5661364],[-0.0476651,51.5661557],[-0.0475126,51.5661988],[-0.0473794,51.5662109],[-0.0473205,51.5662164],[-0.047206,51.5662273],[-0.0470784,51.5662635],[-0.0468523,51.5663402],[-0.0465874,51.5664187],[-0.04637,51.5664771],[-0.0462586,51.5664894],[-0.0461964,51.5664937],[-0.0460089,51.5665066],[-0.0458245,51.5665236],[-0.0457288,51.5665325],[-0.0455151,51.5665713],[-0.0450699,51.5666825],[-0.0448313,51.5667334],[-0.0445641,51.5667801],[-0.0444817,51.5668218],[-0.0443497,51.5669301],[-0.0443526,51.5670054],[-0.0443915,51.567108],[-0.044396,51.5671364],[-0.0444026,51.5671778],[-0.0445237,51.5672968],[-0.0445871,51.5673589],[-0.0449768,51.5677978],[-0.0453888,51.5682849],[-0.0460429,51.5690597],[-0.0468217,51.5699386],[-0.0470221,51.5701558]]]}},
{"type":"Feature","properties":{"highway":"footway","name":null,"category":"Footpath (pedestrian only)"},"geometry":{"type":"MultiLineString","coordinates":[[[-0.0561857,51.5710479],[-0.0561181,51.5710758],[-0.0560308,51.5711189],[-0.0558401,51.571212],[-0.0557303,51.571292],[-0.0556228,51.5713754],[-0.0555877,51.571411],[-0.0555602,51.5714388],[-0.0555303,51.5715464],[-0.0555151,51.5716165],[-0.0554564,51.5717624],[-0.0553329,51.5718781],[-0.0552905,51.5719099],[-0.055229,51.571956],[-0.0551732,51.5719924],[-0.0550804,51.5720528],[-0.0548728,51.5721986],[-0.0548047,51.5722676],[-0.05476,51.5723433],[-0.0547331,51.5724746],[-0.0547528,51.5726114],[-0.0547503,51.572658],[-0.0547353,51.5726859],[-0.0547262,51.5727028],[-0.0546405,51.5727233],[-0.0544605,51.5728034],[-0.0543871,51.5728582],[-0.0543124,51.5729595],[-0.0541738,51.573153],[-0.0541579,51.5732112],[-0.0540586,51.5733297],[-0.053961,51.573431],[-0.0539121,51.5734641],[-0.0538714,51.5735128],[-0.0538034,51.5735834],[-0.0536526,51.573741]]]}},
{"type":"Feature","properties":{"highway":"footway","name":null,"category":"Footpath (pedestrian only)"},"geometry":{"type":"MultiLineString","coordinates":[[[-0.0526125,51.5681284],[-0.0526384,51.5681122],[-0.0526775,51.5680936],[-0.0527252,51.5681143],[-0.0527602,51.5681321],[-0.0527416,51.5681532],[-0.0527191,51.5681735]]]}},
{"type":"Feature","properties":{"highway":"footway","name":"Oulton Close","category":"Footpath (pedestrian only)"},"geometry":{"type":"MultiLineString","coordinates":[[[-0.0503234,51.5638248],[-0.0506955,51.5637943],[-0.0506758,51.563668],[-0.0506979,51.5636441]]]}},
{"type":"Feature","properties":{"highway":"footway","name":"Radley Square","category":"Footpath (pedestrian only)"},"geometry":{"type":"MultiLineString","coordinates":[[[-0.0502197,51.5632274],[-0.0501272,51.5632406],[-0.0499749,51.5632556],[-0.0499,51.5632868],[-0.0494654,51.5633235],[-0.0493634,51.5633735],[-0.0493693,51.5634181],[-0.049387,51.563503],[-0.0494076,51.5636224],[-0.0494295,51.5636533],[-0.0494133,51.563687],[-0.0493608,51.5637534],[-0.0493158,51.5637506],[-0.0491441,51.5637525],[-0.0491403,51.5638243],[-0.0491342,51.5638941],[-0.0491316,51.5639441]]]}},
{"type":"Feature","properties":{"highway":"footway","name":null,"category":"Footpath (pedestrian only)"},"geometry":{"type":"MultiLineString","coordinates":[[[-0.0491843,51.5661266],[-0.049181,51.5661281],[-0.0491736,51.5661312],[-0.0491534,51.5661399]]]}},
{"type":"Feature","properties":{"highway":"footway","name":null,"category":"Footpath (pedestrian only)"},"geometry":{"type":"MultiLineString","coordinates":[[[-0.0479156,51.5651013],[-0.0478682,51.5651177],[-0.0478294,51.5651611],[-0.0477449,51.5651978]]]}},
{"type":"Feature","properties":{"highway":"footway","name":null,"category":"Footpath (pedestrian only)"},"geometry":{"type":"MultiLineString","coordinates":[[[-0.0457073,51.5620161],[-0.045936,51.561925],[-0.0460276,51.5618979]]]}},
{"type":"Feature","properties":{"highway":"footway","name":null,"category":"Footpath (pedestrian only)"},"geometry":{"type":"MultiLineString","coordinates":[[[-0.0511736,51.5633436],[-0.0508059,51.5633701],[-0.050635,51.5635003],[-0.0502771,51.5635315]]]}},
{"type":"Feature","properties":{"highway":"bridleway","name":null,"category":"Bridleway"},"geometry":{"type":"MultiLineString","coordinates":[[[-0.0470221,51.5701558],[-0.0477017,51.5709715],[-0.0477312,51.5709876],[-0.0477654,51.5709964],[-0.0478079,51.5709957],[-0.0478456,51.5709832],[-0.0479258,51.5709348],[-0.0479636,51.5709209],[-0.0480084,51.5709238],[-0.0481771,51.570981],[-0.0483387,51.5710382],[-0.0484413,51.5710771],[-0.0484743,51.5710837],[-0.0485038,51.5710734],[-0.0485262,51.5710573],[-0.0485699,51.5710074],[-0.0493174,51.569998],[-0.0493281,51.5699013],[-0.0492745,51.5697979],[-0.0490545,51.5697012],[-0.0486898,51.5695445],[-0.048323,51.5692653]]]}},
{"type":"Feature","properties":{"highway":"footway","name":null,"category":"Footpath (pedestrian only)"},"geometry":{"type":"MultiLineString","coordinates":[[[-0.0355434,51.5646189],[-0.0356431,51.5646445]]]}},
{"type":"Feature","properties":{"highway":"path","name":null,"category":"Shared path"},"geometry":{"type":"MultiLineString","coordinates":[[[-0.0347954,51.5642181],[-0.0344487,51.56403],[-0.0334859,51.5634597],[-0.0328493,51.5630695],[-0.0327657,51.5630222],[-0.0327537,51.5630154],[-0.0327388,51.5630028],[-0.0325275,51.5628239],[-0.0324059,51.5626554],[-0.0322042,51.5624539],[-0.0320412,51.5623207],[-0.0319224,51.5622317],[-0.0317521,51.5621008],[-0.0315173,51.5619661],[-0.0312824,51.5618867],[-0.0311014,51.5616986],[-0.0309845,51.5616437],[-0.0308249,51.5615128]]]}},
{"type":"Feature","properties":{"highway":"footway","name":null,"category":"Footpath (pedestrian only)"},"geometry":{"type":"MultiLineString","coordinates":[[[-0.0364977,51.5638745],[-0.0367809,51.5637695],[-0.0368118,51.5637592],[-0.0368727,51.5637358],[-0.0369339,51.5637134],[-0.0369612,51.5637043],[-0.036995,51.5636938],[-0.0370405,51.5636846],[-0.0370768,51.5636803],[-0.0371099,51.5636792],[-0.0371429,51.5636803],[-0.0371741,51.5636853],[-0.0372108,51.5636967],[-0.0372358,51.563715],[-0.0372567,51.5637412],[-0.0372732,51.563775],[-0.037285,51.563822],[-0.0372846,51.5638585],[-0.0372769,51.5638822],[-0.0372659,51.5638952],[-0.0372431,51.5639119],[-0.0372265,51.5639192],[-0.037213,51.5639251],[-0.0371796,51.5639386],[-0.0371477,51.5639461],[-0.0370967,51.5639493],[-0.0370611,51.5639495],[-0.0370313,51.5639468],[-0.0369928,51.5639372],[-0.0369653,51.563926],[-0.036937,51.5639105],[-0.0369124,51.5638934],[-0.0368922,51.5638706],[-0.0368808,51.5638498],[-0.0368772,51.5638354],[-0.0368761,51.5638278],[-0.036875,51.5638192],[-0.0368747,51.5638032],[-0.0368741,51.5637824],[-0.0368727,51.5637358]]]}},
{"type":"Feature","properties":{"highway":"footway","name":null,"category":"Footpath (pedestrian only)"},"geometry":{"type":"MultiLineString","coordinates":[[[-0.047976,51.5715105],[-0.0479945,51.5715056],[-0.0480057,51.5715056],[-0.0480288,51.5715187],[-0.0480372,51.571527],[-0.0480747,51.5715638],[-0.0480914,51.5715802],[-0.0481688,51.5716615],[-0.0482363,51.5717126]]]}},
{"type":"Feature","properties":{"highway":"footway","name":null,"category":"Footpath (pedestrian only)"},"geometry":{"type":"MultiLineString","coordinates":[[[-0.0349611,51.5663931],[-0.0348638,51.5663927],[-0.034785,51.5663924],[-0.0347333,51.5663777],[-0.0347056,51.5663697],[-0.0346663,51.5663682]]]}},
{"type":"Feature","properties":{"highway":"footway","name":null,"category":"Footpath (pedestrian only)"},"geometry":{"type":"MultiLineString","coordinates":[[[-0.0451744,51.5632852],[-0.0452142,51.5632685],[-0.0454874,51.5631547],[-0.0457409,51.563049],[-0.0459117,51.5629778]]]}},
{"type":"Feature","properties":{"highway":"footway","name":null,"category":"Footpath (pedestrian only)"},"geometry":{"type":"MultiLineString","coordinates":[[[-0.0482656,51.5641252],[-0.0482602,51.5640954],[-0.0479712,51.5640012],[-0.0476554,51.5638983]]]}},
{"type":"Feature","properties":{"highway":"footway","name":null,"category":"Footpath (pedestrian only)"},"geometry":{"type":"MultiLineString","coordinates":[[[-0.047782,51.5641816],[-0.0477613,51.5640994]]]}},
{"type":"Feature","properties":{"highway":"footway","name":null,"category":"Footpath (pedestrian only)"},"geometry":{"type":"MultiLineString","coordinates":[[[-0.0479712,51.5640012],[-0.0479194,51.5640461],[-0.0478163,51.5640785],[-0.0477613,51.5640994],[-0.047703,51.5640909],[-0.047533,51.5640427]]]}},
{"type":"Feature","properties":{"highway":"footway","name":null,"category":"Footpath (pedestrian only)"},"geometry":{"type":"MultiLineString","coordinates":[[[-0.047406,51.5636691],[-0.0473708,51.5635634],[-0.0472796,51.5634994]]]}},
{"type":"Feature","properties":{"highway":"track","name":null,"category":"Track"},"geometry":{"type":"MultiLineString","coordinates":[[[-0.0414598,51.5680316],[-0.0415223,51.5680662],[-0.0415739,51.5681118],[-0.0416494,51.568167],[-0.041747,51.5682314],[-0.0417636,51.568237],[-0.0417921,51.568246],[-0.0423957,51.5685225],[-0.0427694,51.5687145],[-0.0430835,51.5688794],[-0.043703,51.569144],[-0.0443054,51.5694218],[-0.0447469,51.5696225],[-0.0450303,51.5697593],[-0.0452623,51.5699207],[-0.0454428,51.5700698],[-0.0456498,51.5702009],[-0.0457592,51.5702754],[-0.0459332,51.5703557],[-0.0460663,51.5704073],[-0.0461476,51.5704273],[-0.0463312,51.5704252],[-0.0465849,51.5704265],[-0.0467291,51.5704187],[-0.0468476,51.5704228],[-0.0469051,51.5704037]]]}},
{"type":"Feature","properties":{"highway":"footway","name":null,"category":"Footpath (pedestrian only)"},"geometry":{"type":"MultiLineString","coordinates":[[[-0.0477312,51.5709876],[-0.0477458,51.5710093],[-0.0477779,51.5710571],[-0.0478317,51.5711194],[-0.0479126,51.5712029],[-0.0480469,51.5713107],[-0.0480636,51.5713722],[-0.0481007,51.5714309],[-0.0481246,51.5714713],[-0.0481379,51.5715016],[-0.0481346,51.5715154],[-0.048131,51.571528]]]}},
{"type":"Feature","properties":{"highway":"footway","name":null,"category":"Footpath (pedestrian only)"},"geometry":{"type":"MultiLineString","coordinates":[[[-0.0480469,51.5713107],[-0.0482011,51.5712994],[-0.0482353,51.5712864],[-0.0483103,51.5712278],[-0.0484184,51.571158],[-0.0484585,51.5711155],[-0.0484641,51.5711043],[-0.0484743,51.5710837]]]}},
{"type":"Feature","properties":{"highway":"footway","name":null,"category":"Footpath (pedestrian only)"},"geometry":{"type":"MultiLineString","coordinates":[[[-0.0505307,51.5677336],[-0.0505147,51.5677486],[-0.0505038,51.5677589]]]}},
{"type":"Feature","properties":{"highway":"footway","name":null,"category":"Footpath (pedestrian only)"},"geometry":{"type":"MultiLineString","coordinates":[[[-0.0504612,51.5677993],[-0.0504496,51.5678102],[-0.0503892,51.5678644],[-0.0503659,51.5678777],[-0.0502889,51.567909],[-0.0500744,51.5679918],[-0.0500079,51.5680281],[-0.0498435,51.5681536],[-0.0497397,51.5682324],[-0.0496315,51.5683013],[-0.0494056,51.5684445],[-0.0490983,51.5686338],[-0.0489855,51.568714],[-0.0488898,51.5687951],[-0.0487315,51.5689405],[-0.0485911,51.569056],[-0.048483,51.5691434],[-0.0483825,51.5692272],[-0.0483439,51.5692543]]]}},
{"type":"Feature","properties":{"highway":"footway","name":null,"category":"Footpath (pedestrian only)"},"geometry":{"type":"MultiLineString","coordinates":[[[-0.0505038,51.5677589],[-0.0504612,51.5677993]]]}},
{"type":"Feature","properties":{"highway":"footway","name":null,"category":"Footpath (pedestrian only)"},"geometry":{"type":"MultiLineString","coordinates":[[[-0.0470138,51.5701598],[-0.0469446,51.5701932],[-0.0468295,51.5702304],[-0.0467669,51.5702551]]]}},
{"type":"Feature","properties":{"highway":"footway","name":null,"category":"Footpath (pedestrian only)"},"geometry":{"type":"MultiLineString","coordinates":[[[-0.0483439,51.5692543],[-0.048323,51.5692653]]]}},
{"type":"Feature","properties":{"highway":"bridleway","name":null,"category":"Bridleway"},"geometry":{"type":"MultiLineString","coordinates":[[[-0.048323,51.5692653],[-0.0482532,51.5693016],[-0.0481976,51.5693305],[-0.0480417,51.5694538],[-0.0475329,51.5698259],[-0.0470221,51.5701558],[-0.0470138,51.5701598]]]}},
{"type":"Feature","properties":{"highway":"footway","name":null,"category":"Footpath (pedestrian only)"},"geometry":{"type":"MultiLineString","coordinates":[[[-0.048323,51.5692653],[-0.0479709,51.5688276],[-0.0474345,51.5682941],[-0.0469463,51.5677173],[-0.0465923,51.5670737],[-0.0464053,51.5667789],[-0.0462248,51.5666946],[-0.0454675,51.5669119],[-0.0447101,51.5671197],[-0.0445798,51.5671541],[-0.0444757,51.5671524],[-0.044396,51.5671364]]]}},
{"type":"Feature","properties":{"highway":"bridleway","name":null,"category":"Bridleway"},"geometry":{"type":"MultiLineString","coordinates":[[[-0.04637,51.5664771],[-0.0463849,51.5665154],[-0.0463952,51.5665422],[-0.0464053,51.5667789],[-0.0463522,51.5669819]]]}},
{"type":"Feature","properties":{"highway":"footway","name":null,"category":"Footpath (pedestrian only)"},"geometry":{"type":"MultiLineString","coordinates":[[[-0.0445798,51.5671541],[-0.0445571,51.5671896],[-0.0445368,51.5672214],[-0.0445237,51.5672968]]]}},
{"type":"Feature","properties":{"highway":"footway","name":null,"category":"Footpath (pedestrian only)"},"geometry":{"type":"MultiLineString","coordinates":[[[-0.0442455,51.5667191],[-0.0443439,51.5667603],[-0.044441,51.5667776],[-0.0445641,51.5667801]]]}},
{"type":"Feature","properties":{"highway":"path","name":null,"category":"Shared path"},"geometry":{"type":"MultiLineString","coordinates":[[[-0.0455657,51.5656805],[-0.0458952,51.565887],[-0.0461322,51.5661491],[-0.046193,51.566321],[-0.0461964,51.5664937],[-0.0462038,51.5665462]]]}},
{"type":"Feature","properties":{"highway":"path","name":null,"category":"Shared path"},"geometry":{"type":"MultiLineString","coordinates":[[[-0.0473205,51.5662164],[-0.047215,51.5660991],[-0.0471189,51.566021],[-0.0470404,51.5659759],[-0.0469031,51.5659393],[-0.0467035,51.5659091],[-0.0455657,51.5656805]]]}},
{"type":"Feature","properties":{"highway":"path","name":null,"category":"Shared path"},"geometry":{"type":"MultiLineString","coordinates":[[[-0.0463187,51.5646929],[-0.0462651,51.5646807],[-0.0462198,51.564664],[-0.0461907,51.5646431],[-0.0461113,51.564586],[-0.0460224,51.5645221],[-0.0459482,51.5645288],[-0.0458771,51.564555],[-0.045459,51.5647094],[-0.0449063,51.5648586],[-0.0445265,51.5649065],[-0.0435944,51.5649659],[-0.0430606,51.5649545],[-0.0427623,51.5649147],[-0.0426392,51.56489],[-0.0425654,51.5648588],[-0.042546,51.5648513]]]}},
{"type":"Feature","properties":{"highway":"bridleway","name":null,"category":"Bridleway"},"geometry":{"type":"MultiLineString","coordinates":[[[-0.0453781,51.5644212],[-0.0454033,51.5644228],[-0.0454758,51.5644292],[-0.0455605,51.5644409],[-0.045628,51.5644596],[-0.0457259,51.5644909],[-0.0458104,51.5645181],[-0.0458771,51.564555],[-0.0459349,51.564596],[-0.0460033,51.564651],[-0.0460187,51.5646669],[-0.0461064,51.5647577],[-0.0461111,51.5648542],[-0.0464556,51.5651641],[-0.0468219,51.5654044],[-0.0468596,51.5654291],[-0.0469135,51.5654743],[-0.0471265,51.56566],[-0.0472413,51.5657383],[-0.0473991,51.5658529],[-0.0475758,51.5659781],[-0.0476927,51.5660738],[-0.0477164,51.5661063],[-0.0477345,51.5661364]]]}},
{"type":"Feature","properties":{"highway":"footway","name":null,"category":"Footpath (pedestrian only)"},"geometry":{"type":"MultiLineString","coordinates":[[[-0.0484328,51.5660455],[-0.0484246,51.5660264],[-0.0482988,51.5659279],[-0.0481061,51.5657977],[-0.0479304,51.5656932],[-0.0474932,51.5654652],[-0.0472789,51.5653386],[-0.047169,51.5652579],[-0.0470414,51.5651324],[-0.0467892,51.5648683],[-0.0466155,51.5646816],[-0.0465329,51.5645822],[-0.046513,51.5645733]]]}},
{"type":"Feature","properties":{"highway":"footway","name":null,"category":"Footpath (pedestrian only)"},"geometry":{"type":"MultiLineString","coordinates":[[[-0.0484328,51.5660455],[-0.0484246,51.5660677],[-0.0484042,51.5660815],[-0.048311,51.5661258],[-0.0482854,51.5661415]]]}},
{"type":"Feature","properties":{"highway":"path","name":null,"category":"Shared path"},"geometry":{"type":"MultiLineString","coordinates":[[[-0.0461907,51.5646431],[-0.0461111,51.5648542],[-0.0460765,51.5648954],[-0.0460106,51.5650056],[-0.0459582,51.5650733],[-0.0455657,51.5656805],[-0.045121,51.5659222],[-0.0448987,51.5664292],[-0.044631,51.5666871],[-0.0445641,51.5667801]]]}},
{"type":"Feature","properties":{"highway":"footway","name":null,"category":"Footpath (pedestrian only)"},"geometry":{"type":"MultiLineString","coordinates":[[[-0.0439926,51.5630944],[-0.0439832,51.5630875],[-0.0439738,51.5630807]]]}},
{"type":"Feature","properties":{"highway":"footway","name":null,"category":"Footpath (pedestrian only)"},"geometry":{"type":"MultiLineString","coordinates":[[[-0.0442065,51.5630821],[-0.0441847,51.563092],[-0.0441651,51.5631009],[-0.0439961,51.5630966]]]}},
{"type":"Feature","properties":{"highway":"footway","name":null,"category":"Footpath (pedestrian only)"},"geometry":{"type":"MultiLineString","coordinates":[[[-0.0448602,51.5638361],[-0.044812,51.5637881],[-0.0448097,51.5637698],[-0.0447079,51.5636749],[-0.0443047,51.563327],[-0.044198,51.5632593],[-0.044122,51.5631916],[-0.0440104,51.5631061],[-0.0439961,51.5630966],[-0.0439926,51.5630944]]]}},
{"type":"Feature","properties":{"highway":"footway","name":null,"category":"Footpath (pedestrian only)"},"geometry":{"type":"MultiLineString","coordinates":[[[-0.0426392,51.56489],[-0.0427318,51.5650019],[-0.0429467,51.5652606],[-0.0430245,51.5653543],[-0.0433671,51.5656834],[-0.0433995,51.5657172],[-0.0436661,51.5659955],[-0.0438861,51.5662199],[-0.0439128,51.5662471],[-0.0440511,51.5664368],[-0.0442455,51.5667191],[-0.0442605,51.5667438],[-0.0443497,51.5669301]]]}},
{"type":"Feature","properties":{"highway":"path","name":null,"category":"Shared path"},"geometry":{"type":"MultiLineString","coordinates":[[[-0.0435944,51.5649659],[-0.0435129,51.5650086],[-0.043252,51.5651506],[-0.0429467,51.5652606]]]}},
{"type":"Feature","properties":{"highway":"footway","name":null,"category":"Footpath (pedestrian only)"},"geometry":{"type":"MultiLineString","coordinates":[[[-0.0439128,51.5662471],[-0.0440616,51.5661365]]]}},
{"type":"Feature","properties":{"highway":"path","name":null,"category":"Shared path"},"geometry":{"type":"MultiLineString","coordinates":[[[-0.0437174,51.5657078],[-0.0440863,51.5656333],[-0.0444719,51.5655396],[-0.0455657,51.5656805]]]}},
{"type":"Feature","properties":{"highway":"footway","name":null,"category":"Footpath (pedestrian only)"},"geometry":{"type":"MultiLineString","coordinates":[[[-0.0462155,51.5666285],[-0.0462248,51.5666946],[-0.0463522,51.5669819]]]}},
{"type":"Feature","properties":{"highway":"footway","name":null,"category":"Footpath (pedestrian only)"},"geometry":{"type":"MultiLineString","coordinates":[[[-0.0462248,51.5666946],[-0.0463443,51.5666129],[-0.0463718,51.5665879],[-0.0463952,51.5665422]]]}},
{"type":"Feature","properties":{"highway":"bridleway","name":null,"category":"Bridleway"},"geometry":{"type":"MultiLineString","coordinates":[[[-0.0463522,51.5669819],[-0.0464648,51.5674897],[-0.0466668,51.5680969],[-0.0467301,51.5684403],[-0.0467904,51.5687676],[-0.0469061,51.5691724],[-0.0469002,51.5693455],[-0.0469238,51.5695577],[-0.0470474,51.5700551],[-0.0470221,51.5701558]]]}},
{"type":"Feature","properties":{"highway":"footway","name":null,"category":"Footpath (pedestrian only)"},"geometry":{"type":"MultiLineString","coordinates":[[[-0.0451469,51.5623127],[-0.044927,51.5624067],[-0.0449057,51.5624226]]]}},
{"type":"Feature","properties":{"highway":"footway","name":null,"category":"Footpath (pedestrian only)"},"geometry":{"type":"MultiLineString","coordinates":[[[-0.0445757,51.5616135],[-0.0445715,51.5617404]]]}},
{"type":"Feature","properties":{"highway":"footway","name":null,"category":"Footpath (pedestrian only)"},"geometry":{"type":"MultiLineString","coordinates":[[[-0.0444838,51.5617772],[-0.0444931,51.5618507]]]}},
{"type":"Feature","properties":{"highway":"footway","name":null,"category":"Footpath (pedestrian only)"},"geometry":{"type":"MultiLineString","coordinates":[[[-0.0445715,51.5617404],[-0.0445219,51.5617706],[-0.0444831,51.5617716],[-0.0444838,51.5617772]]]}},
{"type":"Feature","properties":{"highway":"footway","name":null,"category":"Footpath (pedestrian only)"},"geometry":{"type":"MultiLineString","coordinates":[[[-0.0388634,51.5632976],[-0.0388184,51.563318],[-0.0388051,51.5633295],[-0.0387613,51.5633462],[-0.0386794,51.5632747],[-0.0387163,51.5632613],[-0.0387432,51.5632578],[-0.0387707,51.5632579],[-0.0387929,51.5632609],[-0.038814,51.5632664],[-0.038834,51.5632746],[-0.0388582,51.5632935],[-0.0388634,51.5632976]]]}},
{"type":"Feature","properties":{"highway":"footway","name":null,"category":"Footpath (pedestrian only)"},"geometry":{"type":"MultiLineString","coordinates":[[[-0.0398452,51.5643863],[-0.0398171,51.5643978],[-0.0398087,51.5644012],[-0.039798,51.5644056],[-0.0391682,51.5646708],[-0.0391762,51.5646775],[-0.0391908,51.5646897]]]}},
{"type":"Feature","properties":{"highway":"footway","name":null,"category":"Footpath (pedestrian only)"},"geometry":{"type":"MultiLineString","coordinates":[[[-0.0349118,51.5638042],[-0.0350339,51.5637712],[-0.0361512,51.5632875],[-0.0363329,51.5632083],[-0.0368944,51.5629694],[-0.0369193,51.5629588],[-0.0370601,51.5628995],[-0.0374718,51.5627187],[-0.0381255,51.5624317],[-0.0382641,51.56245],[-0.0382981,51.5624719]]]}},
{"type":"Feature","properties":{"highway":"footway","name":null,"category":"Footpath (pedestrian only)"},"geometry":{"type":"MultiLineString","coordinates":[[[-0.0369564,51.5638325],[-0.0368761,51.5638278]]]}},
{"type":"Feature","properties":{"highway":"footway","name":null,"category":"Footpath (pedestrian only)"},"geometry":{"type":"MultiLineString","coordinates":[[[-0.0369683,51.5630469],[-0.0370596,51.5630129],[-0.0371389,51.5629719],[-0.0375735,51.5627821],[-0.0380128,51.5625915],[-0.0382981,51.5624719],[-0.0384487,51.5624087],[-0.0386107,51.5623245],[-0.0388085,51.5622386],[-0.0389842,51.5621893],[-0.0390652,51.5621692],[-0.0391657,51.5621663],[-0.0392134,51.562167],[-0.039294,51.5621757],[-0.0393513,51.5621845],[-0.0393871,51.5621936],[-0.0394215,51.5622065],[-0.0394506,51.5622212],[-0.0394722,51.5622418],[-0.0394968,51.562266],[-0.0397697,51.5625864],[-0.0399358,51.5627827],[-0.0399653,51.5628169],[-0.0399987,51.5628558],[-0.0400298,51.562896],[-0.0400551,51.5629325],[-0.0400774,51.5629789],[-0.0400821,51.563022],[-0.0400806,51.5630665]]]}},
{"type":"Feature","properties":{"highway":"track","name":null,"category":"Track"},"geometry":{"type":"MultiLineString","coordinates":[[[-0.0379568,51.5642903],[-0.037922,51.5642868],[-0.0377986,51.5642819],[-0.0377035,51.5642703],[-0.0372151,51.5642458]]]}},
{"type":"Feature","properties":{"highway":"track","name":null,"category":"Track"},"geometry":{"type":"MultiLineString","coordinates":[[[-0.0370299,51.5632168],[-0.0370558,51.5632558],[-0.0371055,51.5633201],[-0.0372915,51.5635432],[-0.0374674,51.5637472],[-0.0376398,51.5639337],[-0.0378287,51.5641324],[-0.0378855,51.5641952],[-0.0379161,51.5642543],[-0.0379568,51.5642903],[-0.0380176,51.5643368],[-0.038099,51.564369],[-0.0382011,51.5644002],[-0.0382981,51.5644168],[-0.0383905,51.5644237],[-0.0385614,51.5644221],[-0.0389624,51.5644046],[-0.0391444,51.5643943],[-0.0393007,51.5643818],[-0.039472,51.5643559],[-0.0395591,51.5643384],[-0.0396058,51.5643383],[-0.0396488,51.5643368],[-0.0396933,51.5643376],[-0.0397424,51.5643485],[-0.0397876,51.5643649],[-0.0398329,51.5643812]]]}},
{"type":"Feature","properties":{"highway":"footway","name":null,"category":"Footpath (pedestrian only)"},"geometry":{"type":"MultiLineString","coordinates":[[[-0.0489654,51.5632169],[-0.0488474,51.5632258],[-0.0484877,51.56326],[-0.0484305,51.5632684],[-0.0483787,51.5632825],[-0.0483303,51.5633031],[-0.0482877,51.5633272],[-0.0482543,51.5633558],[-0.048226,51.5633926],[-0.0482089,51.5634218],[-0.0482013,51.5634558],[-0.0481994,51.5634845],[-0.0482082,51.563518],[-0.0482236,51.563551],[-0.0482458,51.5635793],[-0.0482876,51.563618],[-0.0484702,51.5637824],[-0.0484966,51.5637993],[-0.0485215,51.5638093],[-0.0485637,51.5638249],[-0.0486586,51.5638625],[-0.0491342,51.5638941]]]}},
{"type":"Feature","properties":{"highway":"footway","name":null,"category":"Footpath (pedestrian only)"},"geometry":{"type":"MultiLineString","coordinates":[[[-0.0479796,51.5636997],[-0.0480058,51.5636684],[-0.0478138,51.5636034],[-0.0477521,51.5635845],[-0.0476994,51.563573],[-0.0476474,51.5635647],[-0.0475901,51.5635595],[-0.0475314,51.5635566],[-0.0474771,51.5635578],[-0.0474174,51.5635614],[-0.0473708,51.5635634]]]}},
{"type":"Feature","properties":{"highway":"footway","name":null,"category":"Footpath (pedestrian only)"},"geometry":{"type":"MultiLineString","coordinates":[[[-0.0476136,51.5631002],[-0.0476429,51.5631124],[-0.0476643,51.5631192],[-0.0477128,51.563144],[-0.0477678,51.5631829]]]}},
{"type":"Feature","properties":{"highway":"footway","name":null,"category":"Footpath (pedestrian only)"},"geometry":{"type":"MultiLineString","coordinates":[[[-0.0476153,51.5632163],[-0.0476432,51.5632199],[-0.0477001,51.5632142],[-0.0477341,51.5632481],[-0.0477415,51.5632712]]]}},
{"type":"Feature","properties":{"highway":"path","name":null,"category":"Shared path"},"geometry":{"type":"MultiLineString","coordinates":[[[-0.0482082,51.563518],[-0.0481855,51.5634919],[-0.0480399,51.5633732],[-0.0479615,51.5633207],[-0.0479017,51.5632889],[-0.0478716,51.5632735],[-0.0478415,51.5632598]]]}},
{"type":"Feature","properties":{"highway":"footway","name":null,"category":"Footpath (pedestrian only)"},"geometry":{"type":"MultiLineString","coordinates":[[[-0.0471604,51.5612505],[-0.0471428,51.5612523]]]}},
{"type":"Feature","properties":{"highway":"footway","name":"Lea Bridge Road","category":"Footpath (pedestrian only)"},"geometry":{"type":"MultiLineString","coordinates":[[[-0.0474993,51.5612922],[-0.047512,51.5612886],[-0.047532,51.5612839],[-0.0477116,51.5612088],[-0.0479328,51.5611142],[-0.0481347,51.5610318],[-0.0483066,51.5609575],[-0.0483271,51.5609466],[-0.048329,51.5609416]]]}},
{"type":"Feature","properties":{"highway":"path","name":null,"category":"Shared path"},"geometry":{"type":"MultiLineString","coordinates":[[[-0.0471428,51.5612523],[-0.0471451,51.5612588],[-0.047198,51.5614104],[-0.047203,51.5614247]]]}},
{"type":"Feature","properties":{"highway":"footway","name":null,"category":"Footpath (pedestrian only)"},"geometry":{"type":"MultiLineString","coordinates":[[[-0.0472453,51.5610971],[-0.0473307,51.5611683],[-0.0473427,51.5611732]]]}},
{"type":"Feature","properties":{"highway":"footway","name":"Lea Bridge Road","category":"Footpath (pedestrian only)"},"geometry":{"type":"MultiLineString","coordinates":[[[-0.0473609,51.5611729],[-0.0473705,51.5611711],[-0.0474411,51.5611458],[-0.0474752,51.5611362],[-0.0477206,51.5610448],[-0.0479831,51.5609544],[-0.0483052,51.560851],[-0.0483175,51.5608492],[-0.0483317,51.5608502],[-0.0483437,51.5608549],[-0.0483617,51.5608655],[-0.0483891,51.5608794],[-0.0484068,51.5608841],[-0.0484232,51.5608861],[-0.0484418,51.5608845],[-0.0487368,51.5607606],[-0.048749,51.5607536],[-0.0487617,51.5607463],[-0.0487718,51.5607339]]]}},
{"type":"Feature","properties":{"highway":"footway","name":"Hillstowe Street","category":"Footpath (pedestrian only)"},"geometry":{"type":"MultiLineString","coordinates":[[[-0.047512,51.5612886],[-0.047501,51.5612848],[-0.0474335,51.5612557],[-0.0474236,51.5612514],[-0.0474162,51.5612451],[-0.0474141,51.56124],[-0.0474151,51.5612335]]]}},
{"type":"Feature","properties":{"highway":"footway","name":null,"category":"Footpath (pedestrian only)"},"geometry":{"type":"MultiLineString","coordinates":[[[-0.0474231,51.561227],[-0.0474186,51.5612221]]]}},
{"type":"Feature","properties":{"highway":"footway","name":null,"category":"Footpath (pedestrian only)"},"geometry":{"type":"MultiLineString","coordinates":[[[-0.0483418,51.5609351],[-0.0483697,51.560921],[-0.048402,51.5609046]]]}},
{"type":"Feature","properties":{"highway":"footway","name":null,"category":"Footpath (pedestrian only)"},"geometry":{"type":"MultiLineString","coordinates":[[[-0.0471211,51.5611478],[-0.0471391,51.5611602],[-0.0471429,51.5611656],[-0.0471386,51.5611733],[-0.0471261,51.5611786]]]}},
{"type":"Feature","properties":{"highway":"footway","name":null,"category":"Footpath (pedestrian only)"},"geometry":{"type":"MultiLineString","coordinates":[[[-0.0471962,51.5612509],[-0.0471885,51.5612429]]]}},
{"type":"Feature","properties":{"highway":"footway","name":null,"category":"Footpath (pedestrian only)"},"geometry":{"type":"MultiLineString","coordinates":[[[-0.0471211,51.5611478],[-0.0471353,51.561142]]]}},
{"type":"Feature","properties":{"highway":"bridleway","name":null,"category":"Bridleway"},"geometry":{"type":"MultiLineString","coordinates":[[[-0.0509577,51.5679001],[-0.0510701,51.5679318]]]}},
{"type":"Feature","properties":{"highway":"track","name":null,"category":"Track"},"geometry":{"type":"MultiLineString","coordinates":[[[-0.0510701,51.5679318],[-0.0511469,51.56795],[-0.0512155,51.5679719],[-0.0513929,51.5680284],[-0.0516012,51.5681038],[-0.0517702,51.5681748],[-0.0519941,51.56827],[-0.0521781,51.5683505],[-0.0523464,51.5684313],[-0.0525174,51.5685232],[-0.0526298,51.5685898],[-0.0527297,51.5686606],[-0.0528263,51.5687383],[-0.0529208,51.5688257],[-0.0529896,51.5689056],[-0.0530553,51.5689983],[-0.0531689,51.5691746],[-0.0532971,51.5693792],[-0.0533996,51.5695333],[-0.0535303,51.5697147],[-0.0536637,51.5699323],[-0.053759,51.5700777],[-0.0538212,51.5701617],[-0.0538901,51.5702524],[-0.0539505,51.5703127],[-0.0540261,51.5703806],[-0.0540975,51.5704329],[-0.0541956,51.5704962],[-0.0543046,51.5705467],[-0.0544085,51.5705839],[-0.0545308,51.5706182],[-0.0546988,51.5706492],[-0.0548452,51.5706734],[-0.0550895,51.5707052],[-0.0552404,51.5707263],[-0.0553543,51.570744],[-0.0555034,51.570771],[-0.0556289,51.5708001],[-0.0557705,51.5708392],[-0.0558888,51.5708792],[-0.0559874,51.5709178],[-0.0560727,51.5709642],[-0.0561423,51.5710121],[-0.0561857,51.5710479]]]}},
{"type":"Feature","properties":{"highway":"footway","name":null,"category":"Footpath (pedestrian only)"},"geometry":{"type":"MultiLineString","coordinates":[[[-0.0512155,51.5679719],[-0.051202,51.5679891],[-0.0511726,51.5680231],[-0.0511712,51.5680327],[-0.0511717,51.5680655],[-0.0512548,51.5681205],[-0.0513363,51.5682019],[-0.0514376,51.5682819],[-0.0514857,51.5683845],[-0.0515601,51.5685497],[-0.0516101,51.5686679],[-0.0516585,51.5687823],[-0.051766,51.5689659],[-0.0519253,51.569233],[-0.052039,51.5694266],[-0.0521365,51.5696086],[-0.0522216,51.5697566],[-0.0522573,51.5698088],[-0.0522977,51.5699341],[-0.0523264,51.5700175],[-0.052321,51.5701199],[-0.0523407,51.5702112],[-0.0524051,51.5703503],[-0.0524982,51.5704671],[-0.0525143,51.5705116],[-0.0524964,51.5705472],[-0.0524445,51.5706285],[-0.052423,51.5706941],[-0.0524069,51.5708655],[-0.052423,51.5710992],[-0.0524049,51.5711788],[-0.0523677,51.5712491],[-0.0523156,51.5713473],[-0.0523089,51.5713741],[-0.0522888,51.5714541],[-0.052321,51.5716478],[-0.0523488,51.5717126],[-0.0523854,51.571798],[-0.0525144,51.5720161],[-0.0525297,51.5720862],[-0.0526021,51.5722976],[-0.0526773,51.572459],[-0.0528098,51.5726036],[-0.0529709,51.572755],[-0.0530177,51.5728126],[-0.0531681,51.5729977],[-0.0533379,51.5732067],[-0.0535026,51.5733981],[-0.0535569,51.5734607],[-0.053572,51.5735278],[-0.0536526,51.573741],[-0.0536844,51.573842],[-0.0538407,51.5742024],[-0.0538905,51.5743268],[-0.0538744,51.5743864],[-0.0538697,51.5744254]]]}},
{"type":"Feature","properties":{"highway":"footway","name":null,"category":"Footpath (pedestrian only)"},"geometry":{"type":"MultiLineString","coordinates":[[[-0.0523488,51.5717126],[-0.0518391,51.5718031],[-0.0515657,51.5718429],[-0.0511778,51.571964],[-0.0511069,51.5719703],[-0.0510411,51.5719578],[-0.0509651,51.5718869],[-0.0507249,51.5713918],[-0.0506666,51.5712788],[-0.0506388,51.571225],[-0.0506312,51.5709732],[-0.0507072,51.5706364],[-0.0507325,51.5704271],[-0.050773,51.5701517],[-0.0507528,51.5699991],[-0.0507274,51.5699487],[-0.0506819,51.5699424],[-0.0506135,51.5699125],[-0.0505907,51.5698873],[-0.0505831,51.5698181],[-0.0506287,51.5696396],[-0.0506414,51.5694083],[-0.0506565,51.5693406],[-0.0507426,51.5693374],[-0.0507983,51.5693374],[-0.0508439,51.5693186],[-0.0508996,51.5692666],[-0.0510667,51.5687882],[-0.0511047,51.5685427],[-0.051087,51.5683129],[-0.0510895,51.5681838],[-0.0511717,51.5680655]]]}},
{"type":"Feature","properties":{"highway":"footway","name":null,"category":"Footpath (pedestrian only)"},"geometry":{"type":"MultiLineString","coordinates":[[[-0.0518876,51.5687752],[-0.0520178,51.5688897],[-0.0521107,51.5689246],[-0.0522034,51.5689498],[-0.0523063,51.5689739],[-0.0524484,51.5690064],[-0.0529256,51.5698157],[-0.0531629,51.5702229],[-0.0534844,51.5707579],[-0.0534768,51.5707894],[-0.0529856,51.5710931],[-0.0529257,51.5711176],[-0.052778,51.5711781],[-0.0525417,51.5712323]]]}},
{"type":"Feature","properties":{"highway":"footway","name":null,"category":"Footpath (pedestrian only)"},"geometry":{"type":"MultiLineString","coordinates":[[[-0.05496,51.5711024],[-0.0547883,51.5709807],[-0.0545597,51.5708382],[-0.0544123,51.5707656],[-0.0543431,51.5707197],[-0.0542398,51.570679],[-0.0541413,51.5706469],[-0.0539402,51.5705719],[-0.0537038,51.5704754],[-0.0536146,51.5703963],[-0.0535682,51.5702662],[-0.0535085,51.5701168],[-0.0534376,51.5700115],[-0.0533453,51.5699153],[-0.0532477,51.5697963],[-0.0531402,51.569644],[-0.0529947,51.5695039],[-0.0528713,51.5693706],[-0.0527426,51.5692205],[-0.0526192,51.5691021],[-0.0525012,51.5689421],[-0.0524421,51.5688287],[-0.0523805,51.5687704],[-0.0521632,51.5686837],[-0.0519647,51.5686037],[-0.051836,51.5685203],[-0.0516992,51.5684303],[-0.0515382,51.5683519],[-0.0514376,51.5682819]]]}},
{"type":"Feature","properties":{"highway":"footway","name":null,"category":"Footpath (pedestrian only)"},"geometry":{"type":"MultiLineString","coordinates":[[[-0.0534844,51.5707579],[-0.0535609,51.5707697],[-0.0537672,51.5708099],[-0.0538913,51.5708059],[-0.0539269,51.5708137],[-0.0539596,51.5708209],[-0.0540445,51.5708705],[-0.0541002,51.5709153],[-0.0541711,51.5709303],[-0.0542622,51.5709429],[-0.0543711,51.5709869],[-0.0543951,51.5710027],[-0.0543863,51.5710318],[-0.054385,51.5710507],[-0.0544344,51.571079],[-0.0544635,51.5711073],[-0.054512,51.5711822]]]}},
{"type":"Feature","properties":{"highway":"footway","name":null,"category":"Footpath (pedestrian only)"},"geometry":{"type":"MultiLineString","coordinates":[[[-0.0555877,51.571411],[-0.0552612,51.5712875],[-0.055134,51.5712246],[-0.0550185,51.5711573],[-0.0549809,51.5711251],[-0.05496,51.5711024],[-0.0547885,51.5711406],[-0.054631,51.5711762],[-0.054512,51.5711822],[-0.0543808,51.571202],[-0.0542272,51.5712402],[-0.0540706,51.5712714],[-0.0538076,51.5713342],[-0.0535192,51.5714165],[-0.0532766,51.5714839],[-0.05317,51.5714834],[-0.0530966,51.5714845],[-0.0530035,51.5714422],[-0.0528238,51.5713827],[-0.0527469,51.5713512],[-0.0526562,51.5713142],[-0.0525417,51.5712323],[-0.0525255,51.5712207],[-0.05247,51.5711684],[-0.052423,51.5710992]]]}},
{"type":"Feature","properties":{"highway":"footway","name":null,"category":"Footpath (pedestrian only)"},"geometry":{"type":"MultiLineString","coordinates":[[[-0.054631,51.5711762],[-0.0544921,51.5712687],[-0.0544133,51.5713488],[-0.0543793,51.5714145],[-0.0543811,51.5715325],[-0.0543811,51.5716526],[-0.0543596,51.5717428],[-0.0542611,51.5718863],[-0.0541967,51.5720009],[-0.0541483,51.5721389],[-0.0541269,51.5721856],[-0.0540877,51.5722352],[-0.0540732,51.5722535],[-0.0539478,51.5723314],[-0.053887,51.5723604],[-0.053836,51.5723676],[-0.0537777,51.5723759],[-0.0536703,51.5723737],[-0.053579,51.5723437],[-0.0534984,51.5722991],[-0.0534677,51.5722677],[-0.0534206,51.5721829],[-0.0533443,51.5720241],[-0.0531815,51.5717294],[-0.0531278,51.5716137],[-0.0530966,51.5714845]]]}},
{"type":"Feature","properties":{"highway":"footway","name":null,"category":"Footpath (pedestrian only)"},"geometry":{"type":"MultiLineString","coordinates":[[[-0.0534677,51.5722677],[-0.0533901,51.5722885],[-0.0533006,51.5723463]]]}},
{"type":"Feature","properties":{"highway":"footway","name":null,"category":"Footpath (pedestrian only)"},"geometry":{"type":"MultiLineString","coordinates":[[[-0.0542398,51.570679],[-0.0540118,51.5707704],[-0.0539269,51.5708137]]]}},
{"type":"Feature","properties":{"highway":"footway","name":null,"category":"Footpath (pedestrian only)"},"geometry":{"type":"MultiLineString","coordinates":[[[-0.0525417,51.5712323],[-0.0524822,51.5712227],[-0.0524227,51.571229],[-0.0523677,51.5712491]]]}},
{"type":"Feature","properties":{"highway":"footway","name":null,"category":"Footpath (pedestrian only)"},"geometry":{"type":"MultiLineString","coordinates":[[[-0.0530177,51.5728126],[-0.0532159,51.5727961],[-0.0532746,51.5727599],[-0.0533158,51.5727277],[-0.053359,51.5726748],[-0.053408,51.5726089]]]}},
{"type":"Feature","properties":{"highway":"footway","name":null,"category":"Footpath (pedestrian only)"},"geometry":{"type":"MultiLineString","coordinates":[[[-0.053836,51.5723676],[-0.0539088,51.5723888],[-0.054013,51.572419],[-0.0541776,51.5724914],[-0.0542966,51.5725661],[-0.0544206,51.5726362],[-0.0545409,51.5726897],[-0.0546405,51.5727233]]]}},
{"type":"Feature","properties":{"highway":"footway","name":null,"category":"Footpath (pedestrian only)"},"geometry":{"type":"MultiLineString","coordinates":[[[-0.0540877,51.5722352],[-0.0541727,51.5722112],[-0.0542235,51.5721968],[-0.054433,51.5721133],[-0.0546676,51.5720443],[-0.0548824,51.572002],[-0.0550453,51.5719876],[-0.0551732,51.5719924]]]}},
{"type":"Feature","properties":{"highway":"footway","name":null,"category":"Footpath (pedestrian only)"},"geometry":{"type":"MultiLineString","coordinates":[[[-0.0516101,51.5686679],[-0.0517479,51.5687229],[-0.0518876,51.5687752],[-0.0521957,51.569329],[-0.0524286,51.5699113],[-0.0528088,51.5708855],[-0.0529257,51.5711176],[-0.0530966,51.5714845]]]}},
{"type":"Feature","properties":{"highway":"footway","name":null,"category":"Footpath (pedestrian only)"},"geometry":{"type":"MultiLineString","coordinates":[[[-0.0523089,51.5713741],[-0.0520744,51.5713918],[-0.0519605,51.5714123],[-0.0518744,51.5714501],[-0.0518061,51.5714689],[-0.0516744,51.5714611],[-0.0515908,51.5714296],[-0.05133,51.5712691],[-0.0511042,51.5711919]]]}},
{"type":"Feature","properties":{"highway":"footway","name":null,"category":"Footpath (pedestrian only)"},"geometry":{"type":"MultiLineString","coordinates":[[[-0.0555602,51.5714388],[-0.0553654,51.5714859],[-0.0553142,51.5715038],[-0.0552541,51.5715949],[-0.0552379,51.5716248],[-0.055218,51.5716569],[-0.0551708,51.5717225],[-0.0551567,51.5717468],[-0.0551614,51.5717785]]]}},
{"type":"Feature","properties":{"highway":"footway","name":null,"category":"Footpath (pedestrian only)"},"geometry":{"type":"MultiLineString","coordinates":[[[-0.0522573,51.5698088],[-0.0518928,51.5699176],[-0.0518016,51.5699459],[-0.0516244,51.5699301],[-0.0515307,51.569905],[-0.0513788,51.5699144],[-0.0512345,51.5699286],[-0.0510649,51.5699459],[-0.0507274,51.5699487]]]}},
{"type":"Feature","properties":{"highway":"path","name":null,"category":"Shared path"},"geometry":{"type":"MultiLineString","coordinates":[[[-0.0362447,51.5662946],[-0.036261,51.5663027],[-0.0362652,51.5663046]]]}},
{"type":"Feature","properties":{"highway":"path","name":null,"category":"Shared path"},"geometry":{"type":"MultiLineString","coordinates":[[[-0.0361097,51.5663258],[-0.0361301,51.5663368]]]}},
{"type":"Feature","properties":{"highway":"path","name":null,"category":"Shared path"},"geometry":{"type":"MultiLineString","coordinates":[[[-0.0362197,51.5662827],[-0.0362447,51.5662946]]]}},
{"type":"Feature","properties":{"highway":"path","name":null,"category":"Shared path"},"geometry":{"type":"MultiLineString","coordinates":[[[-0.0360954,51.5663514],[-0.0360702,51.5663402],[-0.0361097,51.5663258],[-0.0362197,51.5662827],[-0.0362486,51.5662707],[-0.0362551,51.5662738]]]}},
{"type":"Feature","properties":{"highway":"footway","name":null,"category":"Footpath (pedestrian only)"},"geometry":{"type":"MultiLineString","coordinates":[[[-0.0365424,51.5667851],[-0.036561,51.5667346]]]}},
{"type":"Feature","properties":{"highway":"footway","name":null,"category":"Footpath (pedestrian only)"},"geometry":{"type":"MultiLineString","coordinates":[[[-0.0365948,51.5667053],[-0.0366062,51.5666968]]]}},
{"type":"Feature","properties":{"highway":"footway","name":null,"category":"Footpath (pedestrian only)"},"geometry":{"type":"MultiLineString","coordinates":[[[-0.0367551,51.5668504],[-0.0367735,51.5667856]]]}},
{"type":"Feature","properties":{"highway":"footway","name":null,"category":"Footpath (pedestrian only)"},"geometry":{"type":"MultiLineString","coordinates":[[[-0.0363095,51.5648506],[-0.0363517,51.5647954],[-0.036391,51.5647793],[-0.0364731,51.5647769],[-0.0365874,51.5647801],[-0.0366601,51.564788],[-0.0367101,51.5647947],[-0.0367517,51.5648052],[-0.0369838,51.5649066],[-0.0371316,51.5649605],[-0.0371876,51.5649783],[-0.0372589,51.564988],[-0.0375684,51.5650184],[-0.0377148,51.5650561],[-0.0378045,51.5650797],[-0.0378327,51.5651008],[-0.0379078,51.565176]]]}},
{"type":"Feature","properties":{"highway":"track","name":null,"category":"Track"},"geometry":{"type":"MultiLineString","coordinates":[[[-0.037375,51.5649005],[-0.037758,51.5650072],[-0.0378596,51.5650848],[-0.0379455,51.5651646]]]}},
{"type":"Feature","properties":{"highway":"footway","name":null,"category":"Footpath (pedestrian only)"},"geometry":{"type":"MultiLineString","coordinates":[[[-0.0351581,51.5648364],[-0.0338131,51.564216]]]}},
{"type":"Feature","properties":{"highway":"footway","name":null,"category":"Footpath (pedestrian only)"},"geometry":{"type":"MultiLineString","coordinates":[[[-0.0367782,51.5667632],[-0.0367847,51.5667393],[-0.0368368,51.5667042]]]}},
{"type":"Feature","properties":{"highway":"footway","name":null,"category":"Footpath (pedestrian only)"},"geometry":{"type":"MultiLineString","coordinates":[[[-0.0410403,51.5643429],[-0.0409465,51.5643511],[-0.0406971,51.5644203],[-0.0406459,51.5644398],[-0.0405951,51.5644591],[-0.0402399,51.5646138],[-0.0401757,51.5646421],[-0.0401254,51.5646648],[-0.0400075,51.5647007],[-0.0399027,51.5647403],[-0.0397386,51.5648134],[-0.0396799,51.5648281],[-0.0396179,51.5648446],[-0.0394558,51.5648875],[-0.0394493,51.5648984]]]}},
{"type":"Feature","properties":{"highway":"path","name":null,"category":"Shared path"},"geometry":{"type":"MultiLineString","coordinates":[[[-0.0475153,51.5626931],[-0.0476922,51.5627993],[-0.0479174,51.5629096],[-0.0481271,51.5630064],[-0.0484628,51.5631119],[-0.0485266,51.5631209],[-0.0487441,51.5631354],[-0.0487582,51.5631534]]]}},
{"type":"Feature","properties":{"highway":"footway","name":null,"category":"Footpath (pedestrian only)"},"geometry":{"type":"MultiLineString","coordinates":[[[-0.051615,51.5639433],[-0.0514932,51.5640159],[-0.0512813,51.5640892],[-0.0510385,51.5641491],[-0.0507225,51.5642224],[-0.0504605,51.5642493],[-0.0502245,51.5642593],[-0.0499724,51.5642627],[-0.0498987,51.5642576],[-0.0496317,51.5642393],[-0.0493393,51.5641943],[-0.0492579,51.564179]]]}},
{"type":"Feature","properties":{"highway":"footway","name":null,"category":"Footpath (pedestrian only)"},"geometry":{"type":"MultiLineString","coordinates":[[[-0.0499135,51.5639851],[-0.0499078,51.5640482]]]}},
{"type":"Feature","properties":{"highway":"footway","name":null,"category":"Footpath (pedestrian only)"},"geometry":{"type":"MultiLineString","coordinates":[[[-0.0500557,51.5641462],[-0.0500468,51.5641754],[-0.0500239,51.5642015],[-0.0499892,51.5642219],[-0.0499461,51.5642347],[-0.0498987,51.5642386],[-0.0498505,51.564233],[-0.0498077,51.5642182],[-0.0497745,51.5641958],[-0.0497545,51.564168],[-0.0497494,51.5641386],[-0.0497591,51.5641097],[-0.0497826,51.5640841],[-0.0498176,51.5640641],[-0.0498607,51.5640517],[-0.0499078,51.5640482],[-0.0499548,51.5640538],[-0.0499966,51.5640682],[-0.0500293,51.5640899],[-0.0500496,51.5641167],[-0.0500557,51.5641462]]]}},
{"type":"Feature","properties":{"highway":"path","name":null,"category":"Shared path"},"geometry":{"type":"MultiLineString","coordinates":[[[-0.0497545,51.564168],[-0.0494407,51.5639522]]]}},
{"type":"Feature","properties":{"highway":"footway","name":null,"category":"Footpath (pedestrian only)"},"geometry":{"type":"MultiLineString","coordinates":[[[-0.0498689,51.5644069],[-0.0498987,51.5642576],[-0.0498987,51.5642386]]]}},
{"type":"Feature","properties":{"highway":"path","name":null,"category":"Shared path"},"geometry":{"type":"MultiLineString","coordinates":[[[-0.0361481,51.5663458],[-0.0361503,51.5663465]]]}},
{"type":"Feature","properties":{"highway":"footway","name":null,"category":"Footpath (pedestrian only)"},"geometry":{"type":"MultiLineString","coordinates":[[[-0.0465452,51.5611966],[-0.0465068,51.5612179],[-0.0463728,51.561292],[-0.0463655,51.561331],[-0.04615,51.5614424]]]}},
{"type":"Feature","properties":{"highway":"footway","name":null,"category":"Footpath (pedestrian only)"},"geometry":{"type":"MultiLineString","coordinates":[[[-0.0402924,51.5658432],[-0.0401916,51.5656874],[-0.0401331,51.5655697],[-0.0400608,51.5654841],[-0.0398977,51.5653409],[-0.0396642,51.5652418],[-0.0395468,51.5650787],[-0.0395026,51.5650427]]]}},
{"type":"Feature","properties":{"highway":"footway","name":null,"category":"Footpath (pedestrian only)"},"geometry":{"type":"MultiLineString","coordinates":[[[-0.0353965,51.5647083],[-0.0356739,51.5648475]]]}},
{"type":"Feature","properties":{"highway":"footway","name":null,"category":"Footpath (pedestrian only)"},"geometry":{"type":"MultiLineString","coordinates":[[[-0.0483272,51.5717794],[-0.0484225,51.5718519],[-0.048445,51.571861],[-0.0484526,51.571864]]]}},
{"type":"Feature","properties":{"highway":"footway","name":null,"category":"Footpath (pedestrian only)"},"geometry":{"type":"MultiLineString","coordinates":[[[-0.0482363,51.5717126],[-0.0483272,51.5717794]]]}},
{"type":"Feature","properties":{"highway":"path","name":null,"category":"Shared path"},"geometry":{"type":"MultiLineString","coordinates":[[[-0.0372265,51.5639192],[-0.0372379,51.5639452],[-0.0372603,51.5640062],[-0.0370513,51.564047],[-0.0370263,51.5639879],[-0.0370313,51.5639468]]]}},
{"type":"Feature","properties":{"highway":"path","name":null,"category":"Shared path"},"geometry":{"type":"MultiLineString","coordinates":[[[-0.0365956,51.5667534],[-0.0366207,51.5667296],[-0.0367393,51.5667753],[-0.0367461,51.5667542],[-0.0366062,51.5666968]]]}},
{"type":"Feature","properties":{"highway":"path","name":null,"category":"Shared path"},"geometry":{"type":"MultiLineString","coordinates":[[[-0.0366062,51.5666968],[-0.0366889,51.5666353]]]}},
{"type":"Feature","properties":{"highway":"footway","name":"Lea Bridge Road","category":"Footpath (pedestrian only)"},"geometry":{"type":"MultiLineString","coordinates":[[[-0.0490463,51.5607913],[-0.0488716,51.5608622],[-0.0483208,51.5610858],[-0.0465731,51.5618616],[-0.0464181,51.5619295],[-0.0463518,51.5619735]]]}},
{"type":"Feature","properties":{"highway":"footway","name":null,"category":"Footpath (pedestrian only)"},"geometry":{"type":"MultiLineString","coordinates":[[[-0.0519747,51.562452],[-0.051757,51.5624864],[-0.0516669,51.5624959],[-0.0507361,51.5625883],[-0.0500917,51.5626523],[-0.0499412,51.5626673],[-0.0489724,51.5627741],[-0.0487925,51.562803],[-0.0484373,51.5628631],[-0.0482679,51.5629341],[-0.0481271,51.5630064],[-0.0478688,51.5631391],[-0.0477988,51.5631732],[-0.0477678,51.5631829],[-0.0477001,51.5632142]]]}},
{"type":"Feature","properties":{"highway":"track","name":null,"category":"Track"},"geometry":{"type":"MultiLineString","coordinates":[[[-0.0423894,51.5669429],[-0.0424455,51.5668979],[-0.0424974,51.5668563],[-0.0425664,51.5668194],[-0.0426236,51.5667973],[-0.0426852,51.5667859],[-0.0427521,51.5667906],[-0.0428071,51.5668073],[-0.0428417,51.5668275],[-0.0430198,51.5669999],[-0.0433097,51.5673276],[-0.0433239,51.5673536],[-0.0433409,51.5673875],[-0.0433634,51.5674205],[-0.0433861,51.5674463],[-0.0450343,51.5690368]]]}},
{"type":"Feature","properties":{"highway":"footway","name":null,"category":"Footpath (pedestrian only)"},"geometry":{"type":"MultiLineString","coordinates":[[[-0.034673,51.5660985],[-0.0346038,51.5661582],[-0.0345615,51.5661946],[-0.0343694,51.5663236],[-0.0342119,51.5664197],[-0.0341276,51.5664879],[-0.0340171,51.5665772],[-0.0339179,51.5667274],[-0.0339203,51.5667827],[-0.0339226,51.5667958],[-0.0340557,51.5668976],[-0.0340605,51.5669022],[-0.034089,51.566922]]]}},
{"type":"Feature","properties":{"highway":"path","name":null,"category":"Shared path"},"geometry":{"type":"MultiLineString","coordinates":[[[-0.0360432,51.5645773],[-0.0369138,51.5647877]]]}},
{"type":"Feature","properties":{"highway":"footway","name":null,"category":"Footpath (pedestrian only)"},"geometry":{"type":"MultiLineString","coordinates":[[[-0.0320765,51.5635926],[-0.0322829,51.5637375],[-0.0328196,51.5640437],[-0.0330469,51.5641224],[-0.0338131,51.564216],[-0.0347954,51.5642181],[-0.0358564,51.5645427]]]}},
{"type":"Feature","properties":{"highway":"footway","name":null,"category":"Footpath (pedestrian only)"},"geometry":{"type":"MultiLineString","coordinates":[[[-0.0411976,51.5638318],[-0.0411996,51.5638639],[-0.0412182,51.5639306],[-0.0413962,51.5641073],[-0.041446,51.5641142]]]}},
{"type":"Feature","properties":{"highway":"bridleway","name":null,"category":"Bridleway"},"geometry":{"type":"MultiLineString","coordinates":[[[-0.0414437,51.5654698],[-0.0414313,51.5654738],[-0.04142,51.565478]]]}},
{"type":"Feature","properties":{"highway":"bridleway","name":null,"category":"Bridleway"},"geometry":{"type":"MultiLineString","coordinates":[[[-0.0406787,51.5657285],[-0.0403661,51.5658213],[-0.0402924,51.5658432],[-0.040449,51.5660688],[-0.0407211,51.56645],[-0.0408146,51.5666502],[-0.0409919,51.5670295],[-0.0412074,51.5675394],[-0.0412736,51.5677219],[-0.0413258,51.5678638],[-0.0413659,51.567931],[-0.0414045,51.5679833],[-0.0414598,51.5680316],[-0.0413857,51.5680646]]]}},
{"type":"Feature","properties":{"highway":"bridleway","name":null,"category":"Bridleway"},"geometry":{"type":"MultiLineString","coordinates":[[[-0.04142,51.565478],[-0.0412304,51.5655417]]]}},
{"type":"Feature","properties":{"highway":"footway","name":null,"category":"Footpath (pedestrian only)"},"geometry":{"type":"MultiLineString","coordinates":[[[-0.0401757,51.5646421],[-0.0402286,51.5646836],[-0.040304,51.564748]]]}},
{"type":"Feature","properties":{"highway":"path","name":null,"category":"Shared path"},"geometry":{"type":"MultiLineString","coordinates":[[[-0.041747,51.5682314],[-0.0417587,51.5682214],[-0.0417803,51.5682267],[-0.0417921,51.568246]]]}},
{"type":"Feature","properties":{"highway":"path","name":null,"category":"Shared path"},"geometry":{"type":"MultiLineString","coordinates":[[[-0.0461476,51.5704273],[-0.0462086,51.5704147],[-0.0465351,51.5703134],[-0.0466428,51.570291]]]}},
{"type":"Feature","properties":{"highway":"footway","name":null,"category":"Footpath (pedestrian only)"},"geometry":{"type":"MultiLineString","coordinates":[[[-0.0466428,51.570291],[-0.0466752,51.5702861],[-0.0467669,51.5702551]]]}},
{"type":"Feature","properties":{"highway":"footway","name":null,"category":"Footpath (pedestrian only)"},"geometry":{"type":"MultiLineString","coordinates":[[[-0.0416403,51.5659862],[-0.0416692,51.5660336],[-0.0416956,51.5660641],[-0.0419307,51.5663365],[-0.0419564,51.5663497],[-0.0420041,51.566403],[-0.0420325,51.5664321]]]}},
{"type":"Feature","properties":{"highway":"footway","name":"Lea Bridge Road","category":"Footpath (pedestrian only)"},"geometry":{"type":"MultiLineString","coordinates":[[[-0.0524232,51.5593409],[-0.052097,51.559474],[-0.0515894,51.5596902],[-0.0501811,51.560302],[-0.0495466,51.5605738],[-0.0491575,51.5607456],[-0.0490874,51.5607765],[-0.0490463,51.5607913]]]}},
{"type":"Feature","properties":{"highway":"path","name":null,"category":"Shared path"},"geometry":{"type":"MultiLineString","coordinates":[[[-0.0461442,51.5645488],[-0.0461281,51.5645661],[-0.0461113,51.564586],[-0.0460187,51.5646669],[-0.0459481,51.5647501],[-0.045694,51.5649689]]]}},
{"type":"Feature","properties":{"highway":"bridleway","name":null,"category":"Bridleway"},"geometry":{"type":"MultiLineString","coordinates":[[[-0.0440616,51.5661365],[-0.0437174,51.5657078],[-0.043252,51.5651506],[-0.0430606,51.5649545],[-0.0429613,51.5648211],[-0.0428999,51.5647439],[-0.0428489,51.5646962],[-0.0428391,51.5646856]]]}},
{"type":"Feature","properties":{"highway":"path","name":null,"category":"Shared path"},"geometry":{"type":"MultiLineString","coordinates":[[[-0.046953,51.5652421],[-0.0469436,51.5652656],[-0.0469183,51.565327],[-0.0468219,51.5654044],[-0.0464746,51.5655733],[-0.0463094,51.5656054],[-0.0455657,51.5656805]]]}},
{"type":"Feature","properties":{"highway":"footway","name":null,"category":"Footpath (pedestrian only)"},"geometry":{"type":"MultiLineString","coordinates":[[[-0.0468219,51.5631889],[-0.0470703,51.5630518],[-0.0470968,51.5630216],[-0.0471188,51.562975],[-0.0471365,51.562875],[-0.0471232,51.5628311],[-0.0471112,51.5628186],[-0.0470902,51.5627968],[-0.0470174,51.5627242],[-0.0469138,51.5626543],[-0.0466779,51.562546],[-0.0465346,51.5624981],[-0.0464927,51.5624926],[-0.0461334,51.562509],[-0.0459305,51.5625022],[-0.0457057,51.5624405],[-0.0454194,51.5624457],[-0.0452229,51.5625282],[-0.0451565,51.5625701]]]}},
{"type":"Feature","properties":{"highway":"footway","name":null,"category":"Footpath (pedestrian only)"},"geometry":{"type":"MultiLineString","coordinates":[[[-0.0471112,51.5628186],[-0.046769,51.5629266]]]}},
{"type":"Feature","properties":{"highway":"footway","name":null,"category":"Footpath (pedestrian only)"},"geometry":{"type":"MultiLineString","coordinates":[[[-0.046769,51.5629266],[-0.0465154,51.5630066],[-0.046481,51.562972]]]}},
{"type":"Feature","properties":{"highway":"footway","name":null,"category":"Footpath (pedestrian only)"},"geometry":{"type":"MultiLineString","coordinates":[[[-0.0524323,51.573436],[-0.0521115,51.5731097],[-0.0512252,51.5721087],[-0.0510411,51.5719578]]]}},
{"type":"Feature","properties":{"highway":"footway","name":null,"category":"Footpath (pedestrian only)"},"geometry":{"type":"MultiLineString","coordinates":[[[-0.0523854,51.571798],[-0.0526467,51.5716832],[-0.0528612,51.5715631],[-0.0530966,51.5714845]]]}},
{"type":"Feature","properties":{"highway":"footway","name":null,"category":"Footpath (pedestrian only)"},"geometry":{"type":"MultiLineString","coordinates":[[[-0.0511042,51.5711919],[-0.0506666,51.5712788]]]}},
{"type":"Feature","properties":{"highway":"footway","name":null,"category":"Footpath (pedestrian only)"},"geometry":{"type":"MultiLineString","coordinates":[[[-0.0406867,51.5687813],[-0.0406134,51.5688001],[-0.0405496,51.5688164]]]}},
{"type":"Feature","properties":{"highway":"footway","name":null,"category":"Footpath (pedestrian only)"},"geometry":{"type":"MultiLineString","coordinates":[[[-0.0405496,51.5688164],[-0.0405183,51.5688265],[-0.0404853,51.5688287]]]}},
{"type":"Feature","properties":{"highway":"footway","name":null,"category":"Footpath (pedestrian only)"},"geometry":{"type":"MultiLineString","coordinates":[[[-0.0349097,51.5665835],[-0.0348999,51.5665719],[-0.0348773,51.5665742],[-0.0345552,51.5666885]]]}},
{"type":"Feature","properties":{"highway":"footway","name":null,"category":"Footpath (pedestrian only)"},"geometry":{"type":"MultiLineString","coordinates":[[[-0.0349732,51.5664663],[-0.0349986,51.5664697]]]}},
{"type":"Feature","properties":{"highway":"footway","name":null,"category":"Footpath (pedestrian only)"},"geometry":{"type":"MultiLineString","coordinates":[[[-0.0352385,51.5663966],[-0.0352564,51.5663821]]]}},
{"type":"Feature","properties":{"highway":"footway","name":null,"category":"Footpath (pedestrian only)"},"geometry":{"type":"MultiLineString","coordinates":[[[-0.035211,51.5664071],[-0.0352385,51.5663966]]]}},
{"type":"Feature","properties":{"highway":"footway","name":null,"category":"Footpath (pedestrian only)"},"geometry":{"type":"MultiLineString","coordinates":[[[-0.0354894,51.5665292],[-0.0354975,51.5665351]]]}},
{"type":"Feature","properties":{"highway":"footway","name":null,"category":"Footpath (pedestrian only)"},"geometry":{"type":"MultiLineString","coordinates":[[[-0.0354781,51.5666125],[-0.0354394,51.5666238]]]}},
{"type":"Feature","properties":{"highway":"footway","name":null,"category":"Footpath (pedestrian only)"},"geometry":{"type":"MultiLineString","coordinates":[[[-0.0349986,51.5664697],[-0.0350371,51.5664611]]]}},
{"type":"Feature","properties":{"highway":"footway","name":null,"category":"Footpath (pedestrian only)"},"geometry":{"type":"MultiLineString","coordinates":[[[-0.0353922,51.5663987],[-0.0353921,51.5664165]]]}},
{"type":"Feature","properties":{"highway":"footway","name":null,"category":"Footpath (pedestrian only)"},"geometry":{"type":"MultiLineString","coordinates":[[[-0.0353979,51.5664414],[-0.0354354,51.5664779],[-0.0354816,51.5665228]]]}},
{"type":"Feature","properties":{"highway":"footway","name":null,"category":"Footpath (pedestrian only)"},"geometry":{"type":"MultiLineString","coordinates":[[[-0.034992,51.5666724],[-0.0349476,51.5666244],[-0.0349097,51.5665835]]]}},
{"type":"Feature","properties":{"highway":"footway","name":null,"category":"Footpath (pedestrian only)"},"geometry":{"type":"MultiLineString","coordinates":[[[-0.0348773,51.5665742],[-0.0348637,51.5665569]]]}},
{"type":"Feature","properties":{"highway":"footway","name":null,"category":"Footpath (pedestrian only)"},"geometry":{"type":"MultiLineString","coordinates":[[[-0.0354394,51.5666238],[-0.0353562,51.566654],[-0.0352445,51.566694]]]}},
{"type":"Feature","properties":{"highway":"footway","name":null,"category":"Footpath (pedestrian only)"},"geometry":{"type":"MultiLineString","coordinates":[[[-0.0352445,51.566694],[-0.0352331,51.5666982]]]}},
{"type":"Feature","properties":{"highway":"footway","name":null,"category":"Footpath (pedestrian only)"},"geometry":{"type":"MultiLineString","coordinates":[[[-0.0353921,51.5664165],[-0.0353979,51.5664414]]]}},
{"type":"Feature","properties":{"highway":"footway","name":null,"category":"Footpath (pedestrian only)"},"geometry":{"type":"MultiLineString","coordinates":[[[-0.0354816,51.5665228],[-0.0354894,51.5665292]]]}},
{"type":"Feature","properties":{"highway":"footway","name":null,"category":"Footpath (pedestrian only)"},"geometry":{"type":"MultiLineString","coordinates":[[[-0.0350131,51.5666956],[-0.034992,51.5666724]]]}},
{"type":"Feature","properties":{"highway":"footway","name":null,"category":"Footpath (pedestrian only)"},"geometry":{"type":"MultiLineString","coordinates":[[[-0.0350371,51.5664611],[-0.0351107,51.5664383],[-0.035211,51.5664071]]]}},
{"type":"Feature","properties":{"highway":"footway","name":null,"category":"Footpath (pedestrian only)"},"geometry":{"type":"MultiLineString","coordinates":[[[-0.047231,51.5611029],[-0.0472453,51.5610971]]]}},
{"type":"Feature","properties":{"highway":"footway","name":null,"category":"Footpath (pedestrian only)"},"geometry":{"type":"MultiLineString","coordinates":[[[-0.0471316,51.5611842],[-0.0471261,51.5611786]]]}},
{"type":"Feature","properties":{"highway":"footway","name":null,"category":"Footpath (pedestrian only)"},"geometry":{"type":"MultiLineString","coordinates":[[[-0.0473765,51.5611774],[-0.0473705,51.5611711]]]}},
{"type":"Feature","properties":{"highway":"footway","name":null,"category":"Footpath (pedestrian only)"},"geometry":{"type":"MultiLineString","coordinates":[[[-0.0474186,51.5612221],[-0.0473986,51.5612009],[-0.0473765,51.5611774]]]}},
{"type":"Feature","properties":{"highway":"footway","name":null,"category":"Footpath (pedestrian only)"},"geometry":{"type":"MultiLineString","coordinates":[[[-0.0471885,51.5612429],[-0.0471564,51.5612098],[-0.0471316,51.5611842]]]}},
{"type":"Feature","properties":{"highway":"footway","name":null,"category":"Footpath (pedestrian only)"},"geometry":{"type":"MultiLineString","coordinates":[[[-0.0471353,51.561142],[-0.0471798,51.5611239],[-0.047231,51.5611029]]]}},
{"type":"Feature","properties":{"highway":"footway","name":null,"category":"Footpath (pedestrian only)"},"geometry":{"type":"MultiLineString","coordinates":[[[-0.0426804,51.5633747],[-0.0426653,51.5633605]]]}},
{"type":"Feature","properties":{"highway":"footway","name":null,"category":"Footpath (pedestrian only)"},"geometry":{"type":"MultiLineString","coordinates":[[[-0.0426155,51.5633121],[-0.0426653,51.5633605]]]}},
{"type":"Feature","properties":{"highway":"footway","name":null,"category":"Footpath (pedestrian only)"},"geometry":{"type":"MultiLineString","coordinates":[[[-0.0472027,51.5643215],[-0.0470472,51.5643389],[-0.0470056,51.5643408],[-0.0469404,51.5643504]]]}},
{"type":"Feature","properties":{"highway":"footway","name":null,"category":"Footpath (pedestrian only)"},"geometry":{"type":"MultiLineString","coordinates":[[[-0.0490542,51.5639384],[-0.0490435,51.5639877],[-0.0489727,51.5640331],[-0.048876,51.5640762],[-0.0484983,51.5641364],[-0.0482656,51.5641252],[-0.0481752,51.5641209]]]}},
{"type":"Feature","properties":{"highway":"footway","name":null,"category":"Footpath (pedestrian only)"},"geometry":{"type":"MultiLineString","coordinates":[[[-0.0464908,51.5646031],[-0.0464769,51.5646103],[-0.0464047,51.564648],[-0.0463187,51.5646929]]]}},
{"type":"Feature","properties":{"highway":"footway","name":null,"category":"Footpath (pedestrian only)"},"geometry":{"type":"MultiLineString","coordinates":[[[-0.0465156,51.5645639],[-0.046513,51.5645733],[-0.0464908,51.5646031]]]}},
{"type":"Feature","properties":{"highway":"path","name":null,"category":"Shared path"},"geometry":{"type":"MultiLineString","coordinates":[[[-0.0348814,51.5659976],[-0.0348252,51.5660217],[-0.0347413,51.5660577]]]}},
{"type":"Feature","properties":{"highway":"footway","name":null,"category":"Footpath (pedestrian only)"},"geometry":{"type":"MultiLineString","coordinates":[[[-0.0491532,51.5608576],[-0.049124,51.5608184],[-0.0491157,51.5608009],[-0.0491095,51.5607955]]]}},
{"type":"Feature","properties":{"highway":"footway","name":null,"category":"Footpath (pedestrian only)"},"geometry":{"type":"MultiLineString","coordinates":[[[-0.0500423,51.5637955],[-0.0500343,51.5638508]]]}},
{"type":"Feature","properties":{"highway":"footway","name":null,"category":"Footpath (pedestrian only)"},"geometry":{"type":"MultiLineString","coordinates":[[[-0.0503157,51.5637775],[-0.0500423,51.5637955],[-0.0499882,51.5637399],[-0.0498012,51.5637887],[-0.0497904,51.5638349]]]}},
{"type":"Feature","properties":{"highway":"footway","name":null,"category":"Footpath (pedestrian only)"},"geometry":{"type":"MultiLineString","coordinates":[[[-0.0493158,51.5637506],[-0.0493059,51.5638034]]]}},
{"type":"Feature","properties":{"highway":"footway","name":null,"category":"Footpath (pedestrian only)"},"geometry":{"type":"MultiLineString","coordinates":[[[-0.0493608,51.5637534],[-0.0495531,51.5637733],[-0.0495439,51.5638189]]]}},
{"type":"Feature","properties":{"highway":"footway","name":null,"category":"Footpath (pedestrian only)"},"geometry":{"type":"MultiLineString","coordinates":[[[-0.0494295,51.5636533],[-0.049465,51.5636358],[-0.0498991,51.5636057],[-0.049873,51.5634699],[-0.049387,51.563503]]]}},
{"type":"Feature","properties":{"highway":"footway","name":null,"category":"Footpath (pedestrian only)"},"geometry":{"type":"MultiLineString","coordinates":[[[-0.0511349,51.5631194],[-0.0507917,51.563148],[-0.0507662,51.5631593],[-0.0506066,51.563231],[-0.0502257,51.5632569]]]}},
{"type":"Feature","properties":{"highway":"footway","name":null,"category":"Footpath (pedestrian only)"},"geometry":{"type":"MultiLineString","coordinates":[[[-0.0497694,51.5652623],[-0.0496289,51.5649767]]]}},
{"type":"Feature","properties":{"highway":"footway","name":null,"category":"Footpath (pedestrian only)"},"geometry":{"type":"MultiLineString","coordinates":[[[-0.0498636,51.5653444],[-0.0501887,51.5656246]]]}},
{"type":"Feature","properties":{"highway":"footway","name":null,"category":"Footpath (pedestrian only)"},"geometry":{"type":"MultiLineString","coordinates":[[[-0.0518152,51.5650127],[-0.0515232,51.5649235],[-0.051217,51.5648332]]]}},
{"type":"Feature","properties":{"highway":"footway","name":null,"category":"Footpath (pedestrian only)"},"geometry":{"type":"MultiLineString","coordinates":[[[-0.0506844,51.5646704],[-0.0506696,51.5646945],[-0.0506012,51.5647229],[-0.0505181,51.5647391],[-0.0504254,51.5647369]]]}},
{"type":"Feature","properties":{"highway":"footway","name":null,"category":"Footpath (pedestrian only)"},"geometry":{"type":"MultiLineString","coordinates":[[[-0.050447,51.5646549],[-0.0504254,51.5647369],[-0.0504034,51.5648204],[-0.0504425,51.5648671]]]}},
{"type":"Feature","properties":{"highway":"footway","name":null,"category":"Footpath (pedestrian only)"},"geometry":{"type":"MultiLineString","coordinates":[[[-0.0507426,51.5647198],[-0.0506844,51.5646704],[-0.05056,51.564618]]]}},
{"type":"Feature","properties":{"highway":"footway","name":null,"category":"Footpath (pedestrian only)"},"geometry":{"type":"MultiLineString","coordinates":[[[-0.05087,51.5643988],[-0.0507219,51.5644619],[-0.0505657,51.5644815],[-0.050567,51.5645015],[-0.0505255,51.5645406]]]}},
{"type":"Feature","properties":{"highway":"footway","name":null,"category":"Footpath (pedestrian only)"},"geometry":{"type":"MultiLineString","coordinates":[[[-0.0505536,51.5645582],[-0.0505686,51.5645812],[-0.0505682,51.564606],[-0.05056,51.564618],[-0.0505526,51.5646289],[-0.050524,51.5646462],[-0.0504869,51.5646553],[-0.050447,51.5646549],[-0.050411,51.5646453],[-0.0503836,51.564628],[-0.0503687,51.5646055],[-0.0503685,51.5645812],[-0.0503836,51.5645581],[-0.0503907,51.5645537],[-0.0504118,51.5645405],[-0.0504487,51.564531],[-0.0504886,51.564531],[-0.0505255,51.5645406],[-0.0505536,51.5645582]]]}},
{"type":"Feature","properties":{"highway":"footway","name":null,"category":"Footpath (pedestrian only)"},"geometry":{"type":"MultiLineString","coordinates":[[[-0.0498767,51.5645241],[-0.0502539,51.5644995],[-0.0503471,51.5645349],[-0.0503907,51.5645537]]]}},
{"type":"Feature","properties":{"highway":"path","name":null,"category":"Shared path"},"geometry":{"type":"MultiLineString","coordinates":[[[-0.0482532,51.5693016],[-0.0480502,51.5692095],[-0.0475549,51.5689039],[-0.0469702,51.5685816],[-0.0467301,51.5684403],[-0.0460868,51.5680925],[-0.0459188,51.5680025],[-0.0455933,51.5677868],[-0.0452035,51.5675312],[-0.0448101,51.5673045],[-0.0445571,51.5671896]]]}},
{"type":"Feature","properties":{"highway":"footway","name":null,"category":"Footpath (pedestrian only)"},"geometry":{"type":"MultiLineString","coordinates":[[[-0.0481986,51.5654463],[-0.0482647,51.5653716]]]}},
{"type":"Feature","properties":{"highway":"footway","name":null,"category":"Footpath (pedestrian only)"},"geometry":{"type":"MultiLineString","coordinates":[[[-0.0470105,51.564442],[-0.0470385,51.5644326],[-0.0470825,51.5644237],[-0.0471455,51.5644364]]]}},
{"type":"Feature","properties":{"highway":"footway","name":null,"category":"Footpath (pedestrian only)"},"geometry":{"type":"MultiLineString","coordinates":[[[-0.0474887,51.5648613],[-0.0475779,51.5648371]]]}},
{"type":"Feature","properties":{"highway":"footway","name":null,"category":"Footpath (pedestrian only)"},"geometry":{"type":"MultiLineString","coordinates":[[[-0.0474138,51.564883],[-0.0474887,51.5648613]]]}},
{"type":"Feature","properties":{"highway":"footway","name":null,"category":"Footpath (pedestrian only)"},"geometry":{"type":"MultiLineString","coordinates":[[[-0.0448534,51.5626687],[-0.0448342,51.5626626],[-0.044796,51.5626627],[-0.0445507,51.562776],[-0.0444966,51.5627906],[-0.0444764,51.5628139]]]}},
{"type":"Feature","properties":{"highway":"footway","name":null,"category":"Footpath (pedestrian only)"},"geometry":{"type":"MultiLineString","coordinates":[[[-0.044456,51.5627651],[-0.0444123,51.5627259],[-0.0443747,51.5626923]]]}},
{"type":"Feature","properties":{"highway":"footway","name":null,"category":"Footpath (pedestrian only)"},"geometry":{"type":"MultiLineString","coordinates":[[[-0.0443747,51.5626923],[-0.0443556,51.562675]]]}},
{"type":"Feature","properties":{"highway":"footway","name":null,"category":"Footpath (pedestrian only)"},"geometry":{"type":"MultiLineString","coordinates":[[[-0.0444966,51.5627906],[-0.044456,51.5627651]]]}},
{"type":"Feature","properties":{"highway":"footway","name":null,"category":"Footpath (pedestrian only)"},"geometry":{"type":"MultiLineString","coordinates":[[[-0.0419482,51.5639458],[-0.0419554,51.5639533]]]}},
{"type":"Feature","properties":{"highway":"footway","name":null,"category":"Footpath (pedestrian only)"},"geometry":{"type":"MultiLineString","coordinates":[[[-0.0406076,51.5644056],[-0.0405554,51.5643584],[-0.0405184,51.5643249]]]}},
{"type":"Feature","properties":{"highway":"footway","name":null,"category":"Footpath (pedestrian only)"},"geometry":{"type":"MultiLineString","coordinates":[[[-0.0405184,51.5643249],[-0.0405012,51.5643086]]]}},
{"type":"Feature","properties":{"highway":"footway","name":null,"category":"Footpath (pedestrian only)"},"geometry":{"type":"MultiLineString","coordinates":[[[-0.0406459,51.5644398],[-0.0406076,51.5644056]]]}},
{"type":"Feature","properties":{"highway":"footway","name":null,"category":"Footpath (pedestrian only)"},"geometry":{"type":"MultiLineString","coordinates":[[[-0.0491095,51.5607955],[-0.0490874,51.5607765]]]}},
{"type":"Feature","properties":{"highway":"footway","name":null,"category":"Footpath (pedestrian only)"},"geometry":{"type":"MultiLineString","coordinates":[[[-0.0451292,51.5634917],[-0.0451138,51.5634992],[-0.0447079,51.5636749]]]}},
{"type":"Feature","properties":{"highway":"footway","name":null,"category":"Footpath (pedestrian only)"},"geometry":{"type":"MultiLineString","coordinates":[[[-0.0443047,51.563327],[-0.0444464,51.5632917]]]}},
{"type":"Feature","properties":{"highway":"footway","name":null,"category":"Footpath (pedestrian only)"},"geometry":{"type":"MultiLineString","coordinates":[[[-0.0452421,51.563461],[-0.045173,51.5634873]]]}},
{"type":"Feature","properties":{"highway":"footway","name":null,"category":"Footpath (pedestrian only)"},"geometry":{"type":"MultiLineString","coordinates":[[[-0.0452142,51.5632685],[-0.0453535,51.5633964]]]}},
{"type":"Feature","properties":{"highway":"path","name":null,"category":"Shared path"},"geometry":{"type":"MultiLineString","coordinates":[[[-0.0459733,51.5640738],[-0.0459184,51.5641031],[-0.0458213,51.5641436],[-0.0457316,51.5641712]]]}},
{"type":"Feature","properties":{"highway":"path","name":null,"category":"Shared path"},"geometry":{"type":"MultiLineString","coordinates":[[[-0.0456939,51.564182],[-0.0457316,51.5641712]]]}},
{"type":"Feature","properties":{"highway":"bridleway","name":null,"category":"Bridleway"},"geometry":{"type":"MultiLineString","coordinates":[[[-0.0457479,51.5642557],[-0.0457762,51.5642515]]]}},
{"type":"Feature","properties":{"highway":"footway","name":null,"category":"Footpath (pedestrian only)"},"geometry":{"type":"MultiLineString","coordinates":[[[-0.0500917,51.5626523],[-0.0500982,51.5626693]]]}},
{"type":"Feature","properties":{"highway":"footway","name":null,"category":"Footpath (pedestrian only)"},"geometry":{"type":"MultiLineString","coordinates":[[[-0.0441361,51.563021],[-0.0441286,51.5630142]]]}},
{"type":"Feature","properties":{"highway":"track","name":null,"category":"Track"},"geometry":{"type":"MultiLineString","coordinates":[[[-0.0457762,51.5642515],[-0.0456939,51.564182],[-0.0456861,51.5641743]]]}},
{"type":"Feature","properties":{"highway":"path","name":null,"category":"Shared path"},"geometry":{"type":"MultiLineString","coordinates":[[[-0.0456693,51.5641939],[-0.0456939,51.564182]]]}},
{"type":"Feature","properties":{"highway":"footway","name":null,"category":"Footpath (pedestrian only)"},"geometry":{"type":"MultiLineString","coordinates":[[[-0.045173,51.5634873],[-0.045155,51.5634939],[-0.0451428,51.5634987]]]}},
{"type":"Feature","properties":{"highway":"bridleway","name":null,"category":"Bridleway"},"geometry":{"type":"MultiLineString","coordinates":[[[-0.0455734,51.5642905],[-0.0456489,51.564273],[-0.0456931,51.564263],[-0.0457325,51.564258],[-0.0457479,51.5642557]]]}},
{"type":"Feature","properties":{"highway":"footway","name":null,"category":"Footpath (pedestrian only)"},"geometry":{"type":"MultiLineString","coordinates":[[[-0.0442589,51.5629471],[-0.0441951,51.562974],[-0.0441343,51.5629998]]]}},
{"type":"Feature","properties":{"highway":"footway","name":null,"category":"Footpath (pedestrian only)"},"geometry":{"type":"MultiLineString","coordinates":[[[-0.0441343,51.5629998],[-0.0441198,51.5630061],[-0.0439658,51.5630732],[-0.0439643,51.5630738],[-0.0437381,51.5631676],[-0.0436887,51.5631921],[-0.0432597,51.5633746],[-0.0429912,51.5634876],[-0.042731,51.5635987],[-0.0421288,51.5638631],[-0.0419418,51.5639386],[-0.0419482,51.5639458]]]}},
{"type":"Feature","properties":{"highway":"footway","name":null,"category":"Footpath (pedestrian only)"},"geometry":{"type":"MultiLineString","coordinates":[[[-0.0441286,51.5630142],[-0.0441198,51.5630061]]]}},
{"type":"Feature","properties":{"highway":"footway","name":null,"category":"Footpath (pedestrian only)"},"geometry":{"type":"MultiLineString","coordinates":[[[-0.0463728,51.561292],[-0.0465518,51.5614161],[-0.0465753,51.5614324],[-0.046605,51.561453]]]}},
{"type":"Feature","properties":{"highway":"footway","name":null,"category":"Footpath (pedestrian only)"},"geometry":{"type":"MultiLineString","coordinates":[[[-0.0432597,51.5633746],[-0.043257,51.5633591],[-0.0432872,51.5632776]]]}},
{"type":"Feature","properties":{"highway":"footway","name":null,"category":"Footpath (pedestrian only)"},"geometry":{"type":"MultiLineString","coordinates":[[[-0.0435892,51.5631561],[-0.0437381,51.5631676]]]}},
{"type":"Feature","properties":{"highway":"footway","name":null,"category":"Footpath (pedestrian only)"},"geometry":{"type":"MultiLineString","coordinates":[[[-0.0488038,51.5607185],[-0.0488667,51.5606885],[-0.0489285,51.5606591]]]}},
{"type":"Feature","properties":{"highway":"footway","name":null,"category":"Footpath (pedestrian only)"},"geometry":{"type":"MultiLineString","coordinates":[[[-0.0481162,51.5715466],[-0.0480862,51.5715545],[-0.0480747,51.5715638]]]}},
{"type":"Feature","properties":{"highway":"footway","name":null,"category":"Footpath (pedestrian only)"},"geometry":{"type":"MultiLineString","coordinates":[[[-0.048131,51.571528],[-0.0481162,51.5715466]]]}},
{"type":"Feature","properties":{"highway":"footway","name":null,"category":"Footpath (pedestrian only)"},"geometry":{"type":"MultiLineString","coordinates":[[[-0.0551614,51.5717785],[-0.0551708,51.5718683],[-0.0552905,51.5719099]]]}},
{"type":"Feature","properties":{"highway":"footway","name":null,"category":"Footpath (pedestrian only)"},"geometry":{"type":"MultiLineString","coordinates":[[[-0.040304,51.564748],[-0.0403989,51.5647513]]]}},
{"type":"Feature","properties":{"highway":"footway","name":null,"category":"Footpath (pedestrian only)"},"geometry":{"type":"MultiLineString","coordinates":[[[-0.0360432,51.5645773],[-0.0361123,51.5646167]]]}},
{"type":"Feature","properties":{"highway":"footway","name":null,"category":"Footpath (pedestrian only)"},"geometry":{"type":"MultiLineString","coordinates":[[[-0.0358564,51.5645427],[-0.0360261,51.5645724],[-0.0360432,51.5645773]]]}},
{"type":"Feature","properties":{"highway":"footway","name":"Hillstowe Street","category":"Footpath (pedestrian only)"},"geometry":{"type":"MultiLineString","coordinates":[[[-0.0474008,51.5613377],[-0.0473876,51.561326],[-0.0472835,51.5612712],[-0.0472676,51.5612646],[-0.0472509,51.5612595],[-0.0472295,51.5612546],[-0.047209,51.561252],[-0.0471962,51.5612509],[-0.0471831,51.5612498],[-0.0471656,51.56125],[-0.0471604,51.5612505]]]}},
{"type":"Feature","properties":{"highway":"footway","name":"Lea Bridge Road","category":"Footpath (pedestrian only)"},"geometry":{"type":"MultiLineString","coordinates":[[[-0.048329,51.5609416],[-0.0483269,51.5609366],[-0.04832,51.5609327],[-0.0483041,51.5609277],[-0.0482868,51.5609258],[-0.0482739,51.5609263],[-0.0481382,51.5609687],[-0.0479324,51.5610371],[-0.0476681,51.5611331],[-0.0474294,51.5612239],[-0.0474231,51.561227],[-0.0474151,51.5612335]]]}},
{"type":"Feature","properties":{"highway":"footway","name":null,"category":"Footpath (pedestrian only)"},"geometry":{"type":"MultiLineString","coordinates":[[[-0.0461946,51.5618565],[-0.0462726,51.5618261],[-0.0463441,51.5617983],[-0.0466734,51.5616538],[-0.0467377,51.5616259],[-0.0467521,51.5616254]]]}},
{"type":"Feature","properties":{"highway":"footway","name":null,"category":"Footpath (pedestrian only)"},"geometry":{"type":"MultiLineString","coordinates":[[[-0.0467521,51.5616254],[-0.0467897,51.5616242],[-0.0468151,51.5616234]]]}},
{"type":"Feature","properties":{"highway":"footway","name":null,"category":"Footpath (pedestrian only)"},"geometry":{"type":"MultiLineString","coordinates":[[[-0.0468151,51.5616234],[-0.0468243,51.5616231],[-0.0471377,51.5614786],[-0.0471399,51.5614742]]]}},
{"type":"Feature","properties":{"highway":"footway","name":null,"category":"Footpath (pedestrian only)"},"geometry":{"type":"MultiLineString","coordinates":[[[-0.0471399,51.5614742],[-0.0471439,51.5614666],[-0.0471517,51.5614511]]]}},
{"type":"Feature","properties":{"highway":"footway","name":null,"category":"Footpath (pedestrian only)"},"geometry":{"type":"MultiLineString","coordinates":[[[-0.0471517,51.5614511],[-0.0471546,51.5614455],[-0.047203,51.5614247],[-0.0474008,51.5613377],[-0.0474085,51.5613339]]]}},
{"type":"Feature","properties":{"highway":"footway","name":null,"category":"Footpath (pedestrian only)"},"geometry":{"type":"MultiLineString","coordinates":[[[-0.0474085,51.5613339],[-0.0474554,51.5613128],[-0.0474993,51.5612922]]]}},
{"type":"Feature","properties":{"highway":"footway","name":null,"category":"Footpath (pedestrian only)"},"geometry":{"type":"MultiLineString","coordinates":[[[-0.0439643,51.5630738],[-0.0439738,51.5630807]]]}},
{"type":"Feature","properties":{"highway":"footway","name":"Lea Bridge Road","category":"Footpath (pedestrian only)"},"geometry":{"type":"MultiLineString","coordinates":[[[-0.0487718,51.5607339],[-0.0488038,51.5607185]]]}},
{"type":"Feature","properties":{"highway":"footway","name":null,"category":"Footpath (pedestrian only)"},"geometry":{"type":"MultiLineString","coordinates":[[[-0.0487659,51.5607675],[-0.048749,51.5607536]]]}},
{"type":"Feature","properties":{"highway":"footway","name":null,"category":"Footpath (pedestrian only)"},"geometry":{"type":"MultiLineString","coordinates":[[[-0.0490466,51.5606516],[-0.0490895,51.5606879],[-0.0491438,51.5607339]]]}},
{"type":"Feature","properties":{"highway":"footway","name":null,"category":"Footpath (pedestrian only)"},"geometry":{"type":"MultiLineString","coordinates":[[[-0.0488716,51.5608622],[-0.0488608,51.5608525]]]}},
{"type":"Feature","properties":{"highway":"footway","name":null,"category":"Footpath (pedestrian only)"},"geometry":{"type":"MultiLineString","coordinates":[[[-0.0488608,51.5608525],[-0.0488127,51.5608094],[-0.0487659,51.5607675]]]}},
{"type":"Feature","properties":{"highway":"footway","name":null,"category":"Footpath (pedestrian only)"},"geometry":{"type":"MultiLineString","coordinates":[[[-0.0356431,51.5646445],[-0.0358136,51.5646432]]]}},
{"type":"Feature","properties":{"highway":"footway","name":null,"category":"Footpath (pedestrian only)"},"geometry":{"type":"MultiLineString","coordinates":[[[-0.0356049,51.5650553],[-0.035716,51.5650501],[-0.0358563,51.565042],[-0.0359992,51.5650227],[-0.0361041,51.5649961],[-0.0361934,51.564954],[-0.036263,51.5649072]]]}},
{"type":"Feature","properties":{"highway":"footway","name":null,"category":"Footpath (pedestrian only)"},"geometry":{"type":"MultiLineString","coordinates":[[[-0.036263,51.5649072],[-0.036286,51.5648809],[-0.0363095,51.5648506]]]}},
{"type":"Feature","properties":{"highway":"footway","name":null,"category":"Footpath (pedestrian only)"},"geometry":{"type":"MultiLineString","coordinates":[[[-0.044436,51.5628393],[-0.0443006,51.5629292],[-0.0442589,51.5629471]]]}},
{"type":"Feature","properties":{"highway":"footway","name":null,"category":"Footpath (pedestrian only)"},"geometry":{"type":"MultiLineString","coordinates":[[[-0.0444764,51.5628139],[-0.0444545,51.5628277],[-0.044436,51.5628393]]]}},
{"type":"Feature","properties":{"highway":"path","name":null,"category":"Shared path"},"geometry":{"type":"MultiLineString","coordinates":[[[-0.0461387,51.5639471],[-0.0461858,51.5638592],[-0.0461998,51.5638204],[-0.0462591,51.5636557],[-0.0462624,51.5636324],[-0.046446,51.5636655]]]}},
{"type":"Feature","properties":{"highway":"path","name":null,"category":"Shared path"},"geometry":{"type":"MultiLineString","coordinates":[[[-0.0459733,51.5640738],[-0.0460427,51.56403],[-0.0461207,51.5639807]]]}},
{"type":"Feature","properties":{"highway":"path","name":null,"category":"Shared path"},"geometry":{"type":"MultiLineString","coordinates":[[[-0.0464822,51.5636679],[-0.0464838,51.5637003],[-0.0464545,51.5637731],[-0.0464203,51.5637944],[-0.0461998,51.5638204]]]}},
{"type":"Feature","properties":{"highway":"footway","name":null,"category":"Footpath (pedestrian only)"},"geometry":{"type":"MultiLineString","coordinates":[[[-0.0416852,51.5666056],[-0.0416232,51.566534],[-0.0420041,51.566403]]]}},
{"type":"Feature","properties":{"highway":"path","name":null,"category":"Shared path"},"geometry":{"type":"MultiLineString","coordinates":[[[-0.0408146,51.5666502],[-0.0408979,51.5666189],[-0.0410379,51.5665829],[-0.0414213,51.5664602],[-0.0416232,51.566534]]]}},
{"type":"Feature","properties":{"highway":"footway","name":null,"category":"Footpath (pedestrian only)"},"geometry":{"type":"MultiLineString","coordinates":[[[-0.0435106,51.5630398],[-0.0434986,51.5630291]]]}},
{"type":"Feature","properties":{"highway":"footway","name":null,"category":"Footpath (pedestrian only)"},"geometry":{"type":"MultiLineString","coordinates":[[[-0.048402,51.5609046],[-0.0484418,51.5608845]]]}},
{"type":"Feature","properties":{"highway":"footway","name":null,"category":"Footpath (pedestrian only)"},"geometry":{"type":"MultiLineString","coordinates":[[[-0.048329,51.5609416],[-0.0483418,51.5609351]]]}},
{"type":"Feature","properties":{"highway":"footway","name":"Lea Bridge Road","category":"Footpath (pedestrian only)"},"geometry":{"type":"MultiLineString","coordinates":[[[-0.0473427,51.5611732],[-0.0473534,51.561174],[-0.0473609,51.5611729]]]}},
{"type":"Feature","properties":{"highway":"track","name":null,"category":"Track"},"geometry":{"type":"MultiLineString","coordinates":[[[-0.052966,51.5649406],[-0.0529949,51.5650185],[-0.0529974,51.5650538],[-0.0529811,51.5650857],[-0.0527519,51.5654001],[-0.0525628,51.5656318],[-0.0521806,51.5660987],[-0.0520089,51.5663171],[-0.0518372,51.566523],[-0.0517474,51.5665947]]]}},
{"type":"Feature","properties":{"highway":"footway","name":null,"category":"Footpath (pedestrian only)"},"geometry":{"type":"MultiLineString","coordinates":[[[-0.0346663,51.5663682],[-0.0343694,51.5663236]]]}},
{"type":"Feature","properties":{"highway":"footway","name":null,"category":"Footpath (pedestrian only)"},"geometry":{"type":"MultiLineString","coordinates":[[[-0.0385021,51.5633331],[-0.0385085,51.5633008],[-0.0385256,51.56327],[-0.0385525,51.563242],[-0.0385882,51.5632181]]]}},
{"type":"Feature","properties":{"highway":"footway","name":null,"category":"Footpath (pedestrian only)"},"geometry":{"type":"MultiLineString","coordinates":[[[-0.0399653,51.5628169],[-0.0399083,51.5628405],[-0.0398547,51.5628604],[-0.0396116,51.5629659]]]}},
{"type":"Feature","properties":{"highway":"footway","name":null,"category":"Footpath (pedestrian only)"},"geometry":{"type":"MultiLineString","coordinates":[[[-0.0396116,51.5629659],[-0.0395397,51.562997]]]}},
{"type":"Feature","properties":{"highway":"footway","name":null,"category":"Footpath (pedestrian only)"},"geometry":{"type":"MultiLineString","coordinates":[[[-0.0395397,51.562997],[-0.0393818,51.5630652]]]}},
{"type":"Feature","properties":{"highway":"footway","name":null,"category":"Footpath (pedestrian only)"},"geometry":{"type":"MultiLineString","coordinates":[[[-0.0393818,51.5630652],[-0.0393082,51.5630971]]]}},
{"type":"Feature","properties":{"highway":"footway","name":null,"category":"Footpath (pedestrian only)"},"geometry":{"type":"MultiLineString","coordinates":[[[-0.0390014,51.563306],[-0.0390057,51.563344]]]}},
{"type":"Feature","properties":{"highway":"footway","name":null,"category":"Footpath (pedestrian only)"},"geometry":{"type":"MultiLineString","coordinates":[[[-0.0390057,51.563344],[-0.0389933,51.5633852],[-0.0389637,51.5634229],[-0.0389191,51.5634544]]]}},
{"type":"Feature","properties":{"highway":"footway","name":null,"category":"Footpath (pedestrian only)"},"geometry":{"type":"MultiLineString","coordinates":[[[-0.0386578,51.5634808],[-0.0386309,51.5634727],[-0.0386057,51.5634627]]]}},
{"type":"Feature","properties":{"highway":"footway","name":null,"category":"Footpath (pedestrian only)"},"geometry":{"type":"MultiLineString","coordinates":[[[-0.0389269,51.563222],[-0.0389622,51.5632477],[-0.0389866,51.5632756],[-0.0390014,51.563306]]]}},
{"type":"Feature","properties":{"highway":"footway","name":null,"category":"Footpath (pedestrian only)"},"geometry":{"type":"MultiLineString","coordinates":[[[-0.0385882,51.5632181],[-0.0386393,51.5631966],[-0.0386973,51.5631834],[-0.0387587,51.5631794],[-0.0388199,51.5631848],[-0.0388771,51.5631993],[-0.0389269,51.563222]]]}},
{"type":"Feature","properties":{"highway":"footway","name":null,"category":"Footpath (pedestrian only)"},"geometry":{"type":"MultiLineString","coordinates":[[[-0.0388727,51.5634742],[-0.0388032,51.5634897],[-0.0387294,51.5634919],[-0.0386578,51.5634808]]]}},
{"type":"Feature","properties":{"highway":"footway","name":null,"category":"Footpath (pedestrian only)"},"geometry":{"type":"MultiLineString","coordinates":[[[-0.0389191,51.5634544],[-0.0388727,51.5634742]]]}},
{"type":"Feature","properties":{"highway":"footway","name":null,"category":"Footpath (pedestrian only)"},"geometry":{"type":"MultiLineString","coordinates":[[[-0.0386057,51.5634627],[-0.0385603,51.5634361],[-0.0385266,51.5634035],[-0.038507,51.5633667]]]}},
{"type":"Feature","properties":{"highway":"footway","name":null,"category":"Footpath (pedestrian only)"},"geometry":{"type":"MultiLineString","coordinates":[[[-0.038507,51.5633667],[-0.0385031,51.56335],[-0.0385021,51.5633331]]]}},
{"type":"Feature","properties":{"highway":"footway","name":null,"category":"Footpath (pedestrian only)"},"geometry":{"type":"MultiLineString","coordinates":[[[-0.0400806,51.5630665],[-0.0400794,51.5631071],[-0.0403635,51.5634544]]]}},
{"type":"Feature","properties":{"highway":"footway","name":null,"category":"Footpath (pedestrian only)"},"geometry":{"type":"MultiLineString","coordinates":[[[-0.0468115,51.5640902],[-0.0470112,51.5640939]]]}},
{"type":"Feature","properties":{"highway":"footway","name":null,"category":"Footpath (pedestrian only)"},"geometry":{"type":"MultiLineString","coordinates":[[[-0.0500982,51.5626693],[-0.0501424,51.5627844]]]}}
]
}
