{
"type": "FeatureCollection",
"name": "496133f12ed3_foliage",
"crs": { "type": "name", "properties": { "name": "urn:ogc:def:crs:OGC:1.3:CRS84" } },
"features": [
{ "type": "Feature", "properties": { "max_height": 5.0152511596679688, "mean_height": 1.7789340019226074, "std_height": 1.2351176738739014, "count_pixels": 41, "percent_cover": 1.5168331483536812, "percent_above_0.1m": 92.682926829268297, "low_level_<0.5": 12.195121951219512, "mid_level_0.5-2": 34.146341463414636, "tall_2+": 43.902439024390247 }, "geometry": { "type": "Point", "coordinates": [ -0.205887331446379, 51.520410764882364 ] } },
{ "type": "Feature", "properties": { "max_height": 5.1435012817382812, "mean_height": 1.7815011739730835, "std_height": 1.4634525775909424, "count_pixels": 41, "percent_cover": 1.5168331483536812, "percent_above_0.1m": 80.487804878048792, "low_level_<0.5": 7.3170731707317067, "mid_level_0.5-2": 26.829268292682929, "tall_2+": 46.341463414634148 }, "geometry": { "type": "Point", "coordinates": [ -0.205687720043526, 51.520407711789971 ] } },
{ "type": "Feature", "properties": { "max_height": 14.112249374389648, "mean_height": 9.0465078353881836, "std_height": 4.7266240119934082, "count_pixels": 43, "percent_cover": 1.5908250092489826, "percent_above_0.1m": 100.0, "low_level_<0.5": 9.3023255813953494, "mid_level_0.5-2": 4.6511627906976747, "tall_2+": 86.04651162790698 }, "geometry": { "type": "Point", "coordinates": [ -0.20548810867588, 51.520404658357975 ] } },
{ "type": "Feature", "properties": { "max_height": 4.7687511444091797, "mean_height": 1.2134952545166016, "std_height": 1.3241959810256958, "count_pixels": 43, "percent_cover": 1.5908250092489826, "percent_above_0.1m": 69.767441860465112, "low_level_<0.5": 16.279069767441861, "mid_level_0.5-2": 27.906976744186046, "tall_2+": 25.581395348837212 }, "geometry": { "type": "Point", "coordinates": [ -0.205982896690652, 51.520520137967239 ] } },
{ "type": "Feature", "properties": { "max_height": 7.1427516937255859, "mean_height": 0.78448945283889771, "std_height": 1.6692571640014648, "count_pixels": 43, "percent_cover": 1.5908250092489826, "percent_above_0.1m": 39.534883720930232, "low_level_<0.5": 6.9767441860465116, "mid_level_0.5-2": 23.255813953488371, "tall_2+": 9.3023255813953494 }, "geometry": { "type": "Point", "coordinates": [ -0.205783284798818, 51.520517085034143 ] } },
{ "type": "Feature", "properties": { "max_height": 11.05474853515625, "mean_height": 1.3072386980056763, "std_height": 2.6010479927062988, "count_pixels": 41, "percent_cover": 1.5168331483536812, "percent_above_0.1m": 53.658536585365859, "low_level_<0.5": 9.7560975609756095, "mid_level_0.5-2": 29.268292682926827, "tall_2+": 14.634146341463413 }, "geometry": { "type": "Point", "coordinates": [ -0.205583672942181, 51.520514031761429 ] } },
{ "type": "Feature", "properties": { "max_height": 13.620752334594727, "mean_height": 5.0848307609558105, "std_height": 4.3072447776794434, "count_pixels": 41, "percent_cover": 1.5168331483536812, "percent_above_0.1m": 97.560975609756099, "low_level_<0.5": 12.195121951219512, "mid_level_0.5-2": 17.073170731707318, "tall_2+": 68.292682926829272 }, "geometry": { "type": "Point", "coordinates": [ -0.205384061120757, 51.520510978149119 ] } },
{ "type": "Feature", "properties": { "max_height": 1.4477500915527344, "mean_height": 0.3257325291633606, "std_height": 0.41380855441093445, "count_pixels": 41, "percent_cover": 1.5168331483536812, "percent_above_0.1m": 53.658536585365859, "low_level_<0.5": 12.195121951219512, "mid_level_0.5-2": 31.707317073170731, "tall_2+": 0.0 }, "geometry": { "type": "Point", "coordinates": [ -0.205878850007884, 51.520626458201747 ] } },
{ "type": "Feature", "properties": { "max_height": 5.5285015106201172, "mean_height": 0.76326960325241089, "std_height": 1.5026934146881104, "count_pixels": 41, "percent_cover": 1.5168331483536812, "percent_above_0.1m": 34.146341463414636, "low_level_<0.5": 12.195121951219512, "mid_level_0.5-2": 7.3170731707317067, "tall_2+": 14.634146341463413 }, "geometry": { "type": "Point", "coordinates": [ -0.205679237662262, 51.52062340508833 ] } },
{ "type": "Feature", "properties": { "max_height": 2.3500022888183594, "mean_height": 0.15230369567871094, "std_height": 0.43913590908050537, "count_pixels": 43, "percent_cover": 1.5908250092489826, "percent_above_0.1m": 18.604651162790699, "low_level_<0.5": 6.9767441860465116, "mid_level_0.5-2": 6.9767441860465116, "tall_2+": 2.3255813953488373 }, "geometry": { "type": "Point", "coordinates": [ -0.205479625351844, 51.520620351635287 ] } },
{ "type": "Feature", "properties": { "max_height": 13.056503295898438, "mean_height": 4.4418330192565918, "std_height": 3.6022713184356689, "count_pixels": 43, "percent_cover": 1.5908250092489826, "percent_above_0.1m": 100.0, "low_level_<0.5": 4.6511627906976747, "mid_level_0.5-2": 25.581395348837212, "tall_2+": 67.441860465116278 }, "geometry": { "type": "Point", "coordinates": [ -0.205280013076642, 51.520617297842648 ] } },
{ "type": "Feature", "properties": { "max_height": 8.8630008697509766, "mean_height": 1.2881737947463989, "std_height": 2.1890044212341309, "count_pixels": 43, "percent_cover": 1.5908250092489826, "percent_above_0.1m": 62.790697674418603, "low_level_<0.5": 9.3023255813953494, "mid_level_0.5-2": 30.232558139534881, "tall_2+": 16.279069767441861 }, "geometry": { "type": "Point", "coordinates": [ -0.205774802836121, 51.52073277833864 ] } },
{ "type": "Feature", "properties": { "max_height": 0.9947509765625, "mean_height": 0.050977382808923721, "std_height": 0.20134842395782471, "count_pixels": 41, "percent_cover": 1.5168331483536812, "percent_above_0.1m": 4.8780487804878048, "low_level_<0.5": 0.0, "mid_level_0.5-2": 4.8780487804878048, "tall_2+": 0.0 }, "geometry": { "type": "Point", "coordinates": [ -0.205575190036714, 51.52072972504488 ] } },
{ "type": "Feature", "properties": { "max_height": 16.81483268737793, "mean_height": 4.3489274978637695, "std_height": 5.7553706169128418, "count_pixels": 41, "percent_cover": 1.5168331483536812, "percent_above_0.1m": 53.658536585365859, "low_level_<0.5": 4.8780487804878048, "mid_level_0.5-2": 2.4390243902439024, "tall_2+": 43.902439024390247 }, "geometry": { "type": "Point", "coordinates": [ -0.205375577272516, 51.520726671411531 ] } },
{ "type": "Feature", "properties": { "max_height": 15.653148651123047, "mean_height": 5.7145137786865234, "std_height": 4.6797122955322266, "count_pixels": 41, "percent_cover": 1.5168331483536812, "percent_above_0.1m": 100.0, "low_level_<0.5": 2.4390243902439024, "mid_level_0.5-2": 26.829268292682929, "tall_2+": 70.731707317073173 }, "geometry": { "type": "Point", "coordinates": [ -0.205175964543525, 51.520723617438577 ] } },
{ "type": "Feature", "properties": { "max_height": 5.6912574768066406, "mean_height": 1.0734521150588989, "std_height": 1.514171838760376, "count_pixels": 41, "percent_cover": 1.5168331483536812, "percent_above_0.1m": 68.292682926829272, "low_level_<0.5": 12.195121951219512, "mid_level_0.5-2": 39.024390243902438, "tall_2+": 14.634146341463413 }, "geometry": { "type": "Point", "coordinates": [ -0.205670755175365, 51.520839098377913 ] } },
{ "type": "Feature", "properties": { "max_height": 2.0212516784667969, "mean_height": 0.25098374485969543, "std_height": 0.39723220467567444, "count_pixels": 43, "percent_cover": 1.5908250092489826, "percent_above_0.1m": 46.511627906976742, "low_level_<0.5": 23.255813953488371, "mid_level_0.5-2": 16.279069767441861, "tall_2+": 2.3255813953488373 }, "geometry": { "type": "Point", "coordinates": [ -0.205471141922163, 51.520836044903845 ] } },
{ "type": "Feature", "properties": { "max_height": 8.4084281921386719, "mean_height": 1.0158556699752808, "std_height": 2.0836784839630127, "count_pixels": 43, "percent_cover": 1.5908250092489826, "percent_above_0.1m": 51.162790697674424, "low_level_<0.5": 9.3023255813953494, "mid_level_0.5-2": 27.906976744186046, "tall_2+": 13.953488372093023 }, "geometry": { "type": "Point", "coordinates": [ -0.205271528704185, 51.520832991090181 ] } },
{ "type": "Feature", "properties": { "max_height": 4.9942512512207031, "mean_height": 0.87828212976455688, "std_height": 1.3218177556991577, "count_pixels": 41, "percent_cover": 1.5168331483536812, "percent_above_0.1m": 60.975609756097562, "low_level_<0.5": 21.951219512195124, "mid_level_0.5-2": 21.951219512195124, "tall_2+": 17.073170731707318 }, "geometry": { "type": "Point", "coordinates": [ -0.205566707025601, 51.520945418319592 ] } },
{ "type": "Feature", "properties": { "max_height": 3.1487503051757812, "mean_height": 0.2955089807510376, "std_height": 0.63857150077819824, "count_pixels": 41, "percent_cover": 1.5168331483536812, "percent_above_0.1m": 34.146341463414636, "low_level_<0.5": 12.195121951219512, "mid_level_0.5-2": 12.195121951219512, "tall_2+": 4.8780487804878048 }, "geometry": { "type": "Point", "coordinates": [ -0.205367093318618, 51.520942364665217 ] } }
]
}
