{
"type": "FeatureCollection",
"name": "5b597d36e836_foliage",
"crs": { "type": "name", "properties": { "name": "urn:ogc:def:crs:OGC:1.3:CRS84" } },
"features": [
{ "type": "Feature", "properties": { "max_height": 23.623502731323242, "mean_height": 3.3572866916656494, "std_height": 5.795285701751709, "count_pixels": 41, "percent_cover": 0.39047619047619048, "percent_above_0.1m": 56.09756097560976, "low_level_<0.5": 14.634146341463413, "mid_level_0.5-2": 4.8780487804878048, "tall_2+": 31.707317073170731 }, "geometry": { "type": "Point", "coordinates": [ -0.186834344347632, 51.49165913160487 ] } },
{ "type": "Feature", "properties": { "max_height": 19.248250961303711, "mean_height": 9.7504024505615234, "std_height": 5.8655695915222168, "count_pixels": 41, "percent_cover": 0.39047619047619048, "percent_above_0.1m": 100.0, "low_level_<0.5": 0.0, "mid_level_0.5-2": 7.3170731707317067, "tall_2+": 92.682926829268297 }, "geometry": { "type": "Point", "coordinates": [ -0.186634859879054, 51.491656047471402 ] } },
{ "type": "Feature", "properties": { "max_height": 19.858251571655273, "mean_height": 12.074464797973633, "std_height": 5.6800084114074707, "count_pixels": 42, "percent_cover": 0.4, "percent_above_0.1m": 100.0, "low_level_<0.5": 0.0, "mid_level_0.5-2": 2.3809523809523809, "tall_2+": 97.61904761904762 }, "geometry": { "type": "Point", "coordinates": [ -0.186435375446104, 51.491652962998749 ] } },
{ "type": "Feature", "properties": { "max_height": 20.106498718261719, "mean_height": 7.3578610420227051, "std_height": 5.1627812385559082, "count_pixels": 43, "percent_cover": 0.40952380952380951, "percent_above_0.1m": 90.697674418604649, "low_level_<0.5": 2.3255813953488373, "mid_level_0.5-2": 9.3023255813953494, "tall_2+": 79.069767441860463 }, "geometry": { "type": "Point", "coordinates": [ -0.186730322757018, 51.491765435081767 ] } },
{ "type": "Feature", "properties": { "max_height": 20.881752014160156, "mean_height": 10.842756271362305, "std_height": 5.7001786231994629, "count_pixels": 42, "percent_cover": 0.4, "percent_above_0.1m": 97.61904761904762, "low_level_<0.5": 0.0, "mid_level_0.5-2": 7.1428571428571423, "tall_2+": 90.476190476190482 }, "geometry": { "type": "Point", "coordinates": [ -0.186530837833683, 51.491762350766699 ] } },
{ "type": "Feature", "properties": { "max_height": 18.132499694824219, "mean_height": 9.9383964538574219, "std_height": 5.0566396713256836, "count_pixels": 41, "percent_cover": 0.39047619047619048, "percent_above_0.1m": 100.0, "low_level_<0.5": 0.0, "mid_level_0.5-2": 7.3170731707317067, "tall_2+": 92.682926829268297 }, "geometry": { "type": "Point", "coordinates": [ -0.186331352945984, 51.491759266112439 ] } },
{ "type": "Feature", "properties": { "max_height": 17.825252532958984, "mean_height": 9.8346405029296875, "std_height": 6.052276611328125, "count_pixels": 41, "percent_cover": 0.39047619047619048, "percent_above_0.1m": 95.121951219512198, "low_level_<0.5": 2.4390243902439024, "mid_level_0.5-2": 9.7560975609756095, "tall_2+": 82.926829268292678 }, "geometry": { "type": "Point", "coordinates": [ -0.186131868093921, 51.491756181119044 ] } },
{ "type": "Feature", "properties": { "max_height": 21.166501998901367, "mean_height": 7.4090366363525391, "std_height": 5.4370923042297363, "count_pixels": 41, "percent_cover": 0.39047619047619048, "percent_above_0.1m": 97.560975609756099, "low_level_<0.5": 2.4390243902439024, "mid_level_0.5-2": 9.7560975609756095, "tall_2+": 80.487804878048792 }, "geometry": { "type": "Point", "coordinates": [ -0.18682578608973, 51.49187482261712 ] } },
{ "type": "Feature", "properties": { "max_height": 16.376251220703125, "mean_height": 5.0109758377075195, "std_height": 3.713097095489502, "count_pixels": 41, "percent_cover": 0.39047619047619048, "percent_above_0.1m": 97.560975609756099, "low_level_<0.5": 0.0, "mid_level_0.5-2": 9.7560975609756095, "tall_2+": 87.804878048780495 }, "geometry": { "type": "Point", "coordinates": [ -0.186626300676009, 51.491871738459608 ] } },
{ "type": "Feature", "properties": { "max_height": 22.74799919128418, "mean_height": 5.8388509750366211, "std_height": 6.1723804473876953, "count_pixels": 42, "percent_cover": 0.4, "percent_above_0.1m": 92.857142857142861, "low_level_<0.5": 16.666666666666664, "mid_level_0.5-2": 19.047619047619047, "tall_2+": 57.142857142857139 }, "geometry": { "type": "Point", "coordinates": [ -0.186426815297918, 51.491868653962918 ] } },
{ "type": "Feature", "properties": { "max_height": 11.705500602722168, "mean_height": 1.7336223125457764, "std_height": 2.6211848258972168, "count_pixels": 43, "percent_cover": 0.40952380952380951, "percent_above_0.1m": 55.813953488372093, "low_level_<0.5": 9.3023255813953494, "mid_level_0.5-2": 16.279069767441861, "tall_2+": 30.232558139534881 }, "geometry": { "type": "Point", "coordinates": [ -0.186227329955468, 51.491865569127057 ] } },
{ "type": "Feature", "properties": { "max_height": 23.612751007080078, "mean_height": 11.559804916381836, "std_height": 4.6624231338500977, "count_pixels": 42, "percent_cover": 0.4, "percent_above_0.1m": 100.0, "low_level_<0.5": 0.0, "mid_level_0.5-2": 0.0, "tall_2+": 100.0 }, "geometry": { "type": "Point", "coordinates": [ -0.186027844648648, 51.491862483952048 ] } },
{ "type": "Feature", "properties": { "max_height": 17.326499938964844, "mean_height": 9.0402870178222656, "std_height": 5.6517648696899414, "count_pixels": 42, "percent_cover": 0.4, "percent_above_0.1m": 95.238095238095227, "low_level_<0.5": 0.0, "mid_level_0.5-2": 9.5238095238095237, "tall_2+": 85.714285714285708 }, "geometry": { "type": "Point", "coordinates": [ -0.185828359377472, 51.491859398437853 ] } },
{ "type": "Feature", "properties": { "max_height": 9.2327499389648438, "mean_height": 2.1208217144012451, "std_height": 3.0957062244415283, "count_pixels": 42, "percent_cover": 0.4, "percent_above_0.1m": 57.142857142857139, "low_level_<0.5": 4.7619047619047619, "mid_level_0.5-2": 21.428571428571427, "tall_2+": 28.571428571428569 }, "geometry": { "type": "Point", "coordinates": [ -0.185030418649279, 51.491847052989428 ] } },
{ "type": "Feature", "properties": { "max_height": 20.132501602172852, "mean_height": 10.56016731262207, "std_height": 6.1763801574707031, "count_pixels": 42, "percent_cover": 0.4, "percent_above_0.1m": 97.61904761904762, "low_level_<0.5": 4.7619047619047619, "mid_level_0.5-2": 2.3809523809523809, "tall_2+": 90.476190476190482 }, "geometry": { "type": "Point", "coordinates": [ -0.186921249877189, 51.491984210077455 ] } },
{ "type": "Feature", "properties": { "max_height": 18.522750854492188, "mean_height": 5.9704594612121582, "std_height": 5.1096906661987305, "count_pixels": 43, "percent_cover": 0.40952380952380951, "percent_above_0.1m": 90.697674418604649, "low_level_<0.5": 4.6511627906976747, "mid_level_0.5-2": 16.279069767441861, "tall_2+": 69.767441860465112 }, "geometry": { "type": "Point", "coordinates": [ -0.18672176397308, 51.491981126077498 ] } },
{ "type": "Feature", "properties": { "max_height": 6.8824996948242188, "mean_height": 1.4452142715454102, "std_height": 2.0160753726959229, "count_pixels": 42, "percent_cover": 0.4, "percent_above_0.1m": 50.0, "low_level_<0.5": 7.1428571428571423, "mid_level_0.5-2": 11.904761904761903, "tall_2+": 30.952380952380953 }, "geometry": { "type": "Point", "coordinates": [ -0.186522278104601, 51.491978041738378 ] } },
{ "type": "Feature", "properties": { "max_height": 24.249250411987305, "mean_height": 5.1818046569824219, "std_height": 6.2238831520080566, "count_pixels": 41, "percent_cover": 0.39047619047619048, "percent_above_0.1m": 68.292682926829272, "low_level_<0.5": 7.3170731707317067, "mid_level_0.5-2": 12.195121951219512, "tall_2+": 48.780487804878049 }, "geometry": { "type": "Point", "coordinates": [ -0.186322792271754, 51.49197495706008 ] } },
{ "type": "Feature", "properties": { "max_height": 21.018501281738281, "mean_height": 4.1925978660583496, "std_height": 5.3936715126037598, "count_pixels": 41, "percent_cover": 0.39047619047619048, "percent_above_0.1m": 58.536585365853654, "low_level_<0.5": 4.8780487804878048, "mid_level_0.5-2": 9.7560975609756095, "tall_2+": 43.902439024390247 }, "geometry": { "type": "Point", "coordinates": [ -0.186123306474548, 51.491971872042605 ] } },
{ "type": "Feature", "properties": { "max_height": 16.803749084472656, "mean_height": 3.8812801837921143, "std_height": 4.158322811126709, "count_pixels": 42, "percent_cover": 0.4, "percent_above_0.1m": 73.80952380952381, "low_level_<0.5": 4.7619047619047619, "mid_level_0.5-2": 14.285714285714285, "tall_2+": 54.761904761904766 }, "geometry": { "type": "Point", "coordinates": [ -0.185923820712971, 51.491968786685973 ] } },
{ "type": "Feature", "properties": { "max_height": 15.03800106048584, "mean_height": 4.1139016151428223, "std_height": 3.3095810413360596, "count_pixels": 38, "percent_cover": 0.3619047619047619, "percent_above_0.1m": 94.73684210526315, "low_level_<0.5": 5.2631578947368416, "mid_level_0.5-2": 21.052631578947366, "tall_2+": 68.421052631578945 }, "geometry": { "type": "Point", "coordinates": [ -0.185724334987049, 51.491965700990185 ] } },
{ "type": "Feature", "properties": { "max_height": 17.967502593994141, "mean_height": 9.0239038467407227, "std_height": 5.9434118270874023, "count_pixels": 41, "percent_cover": 0.39047619047619048, "percent_above_0.1m": 97.560975609756099, "low_level_<0.5": 2.4390243902439024, "mid_level_0.5-2": 12.195121951219512, "tall_2+": 82.926829268292678 }, "geometry": { "type": "Point", "coordinates": [ -0.185524849296775, 51.491962614955206 ] } },
{ "type": "Feature", "properties": { "max_height": 24.295251846313477, "mean_height": 8.1198587417602539, "std_height": 5.9584369659423828, "count_pixels": 42, "percent_cover": 0.4, "percent_above_0.1m": 92.857142857142861, "low_level_<0.5": 2.3809523809523809, "mid_level_0.5-2": 4.7619047619047619, "tall_2+": 85.714285714285708 }, "geometry": { "type": "Point", "coordinates": [ -0.185125878023182, 51.491956441867757 ] } },
{ "type": "Feature", "properties": { "max_height": 24.640251159667969, "mean_height": 8.7281322479248047, "std_height": 9.6850709915161133, "count_pixels": 42, "percent_cover": 0.4, "percent_above_0.1m": 95.238095238095227, "low_level_<0.5": 21.428571428571427, "mid_level_0.5-2": 21.428571428571427, "tall_2+": 52.380952380952387 }, "geometry": { "type": "Point", "coordinates": [ -0.18492639245705, 51.491953354810455 ] } },
{ "type": "Feature", "properties": { "max_height": 23.108249664306641, "mean_height": 6.2122015953063965, "std_height": 7.7596793174743652, "count_pixels": 41, "percent_cover": 0.39047619047619048, "percent_above_0.1m": 95.121951219512198, "low_level_<0.5": 4.8780487804878048, "mid_level_0.5-2": 31.707317073170731, "tall_2+": 56.09756097560976 }, "geometry": { "type": "Point", "coordinates": [ -0.186617741366032, 51.492087429438811 ] } },
{ "type": "Feature", "properties": { "max_height": 28.075752258300781, "mean_height": 5.9158096313476562, "std_height": 7.3288216590881348, "count_pixels": 42, "percent_cover": 0.4, "percent_above_0.1m": 83.333333333333343, "low_level_<0.5": 9.5238095238095237, "mid_level_0.5-2": 26.190476190476193, "tall_2+": 47.619047619047613 }, "geometry": { "type": "Point", "coordinates": [ -0.186418255042794, 51.492084344918069 ] } },
{ "type": "Feature", "properties": { "max_height": 12.893251419067383, "mean_height": 4.1228375434875488, "std_height": 4.491302490234375, "count_pixels": 43, "percent_cover": 0.40952380952380951, "percent_above_0.1m": 62.790697674418603, "low_level_<0.5": 0.0, "mid_level_0.5-2": 13.953488372093023, "tall_2+": 48.837209302325576 }, "geometry": { "type": "Point", "coordinates": [ -0.186218768755184, 51.492081260058164 ] } },
{ "type": "Feature", "properties": { "max_height": 17.790752410888672, "mean_height": 7.5797262191772461, "std_height": 4.7727370262145996, "count_pixels": 42, "percent_cover": 0.4, "percent_above_0.1m": 97.61904761904762, "low_level_<0.5": 2.3809523809523809, "mid_level_0.5-2": 9.5238095238095237, "tall_2+": 85.714285714285708 }, "geometry": { "type": "Point", "coordinates": [ -0.186019282503217, 51.492078174859095 ] } },
{ "type": "Feature", "properties": { "max_height": 12.18649959564209, "mean_height": 1.6818333864212036, "std_height": 3.0413253307342529, "count_pixels": 42, "percent_cover": 0.4, "percent_above_0.1m": 47.619047619047613, "low_level_<0.5": 11.904761904761903, "mid_level_0.5-2": 4.7619047619047619, "tall_2+": 28.571428571428569 }, "geometry": { "type": "Point", "coordinates": [ -0.185819796286894, 51.492075089320856 ] } },
{ "type": "Feature", "properties": { "max_height": 12.677750587463379, "mean_height": 1.2660535573959351, "std_height": 2.1812236309051514, "count_pixels": 42, "percent_cover": 0.4, "percent_above_0.1m": 59.523809523809526, "low_level_<0.5": 14.285714285714285, "mid_level_0.5-2": 23.809523809523807, "tall_2+": 21.428571428571427 }, "geometry": { "type": "Point", "coordinates": [ -0.185620310106213, 51.49207200344344 ] } },
{ "type": "Feature", "properties": { "max_height": 17.921499252319336, "mean_height": 8.6666402816772461, "std_height": 4.3729186058044434, "count_pixels": 43, "percent_cover": 0.40952380952380951, "percent_above_0.1m": 97.674418604651152, "low_level_<0.5": 0.0, "mid_level_0.5-2": 9.3023255813953494, "tall_2+": 88.372093023255815 }, "geometry": { "type": "Point", "coordinates": [ -0.185420823961187, 51.492068917226845 ] } },
{ "type": "Feature", "properties": { "max_height": 17.797000885009766, "mean_height": 6.3782086372375488, "std_height": 4.8243198394775391, "count_pixels": 42, "percent_cover": 0.4, "percent_above_0.1m": 100.0, "low_level_<0.5": 0.0, "mid_level_0.5-2": 11.904761904761903, "tall_2+": 88.095238095238088 }, "geometry": { "type": "Point", "coordinates": [ -0.185221337851816, 51.492065830671081 ] } },
{ "type": "Feature", "properties": { "max_height": 24.794754028320312, "mean_height": 19.995115280151367, "std_height": 4.8322358131408691, "count_pixels": 42, "percent_cover": 0.4, "percent_above_0.1m": 100.0, "low_level_<0.5": 0.0, "mid_level_0.5-2": 0.0, "tall_2+": 100.0 }, "geometry": { "type": "Point", "coordinates": [ -0.185021851778102, 51.492062743776174 ] } },
{ "type": "Feature", "properties": { "max_height": 24.006999969482422, "mean_height": 7.9318394660949707, "std_height": 8.1952095031738281, "count_pixels": 41, "percent_cover": 0.39047619047619048, "percent_above_0.1m": 95.121951219512198, "low_level_<0.5": 4.8780487804878048, "mid_level_0.5-2": 12.195121951219512, "tall_2+": 73.170731707317074 }, "geometry": { "type": "Point", "coordinates": [ -0.186314231046887, 51.492190648130318 ] } },
{ "type": "Feature", "properties": { "max_height": 18.02800178527832, "mean_height": 4.7197384834289551, "std_height": 5.068845272064209, "count_pixels": 41, "percent_cover": 0.39047619047619048, "percent_above_0.1m": 90.243902439024396, "low_level_<0.5": 14.634146341463413, "mid_level_0.5-2": 17.073170731707318, "tall_2+": 56.09756097560976 }, "geometry": { "type": "Point", "coordinates": [ -0.186114744332081, 51.492187563082354 ] } },
{ "type": "Feature", "properties": { "max_height": 21.554752349853516, "mean_height": 2.9663212299346924, "std_height": 5.2965574264526367, "count_pixels": 42, "percent_cover": 0.4, "percent_above_0.1m": 61.904761904761905, "low_level_<0.5": 4.7619047619047619, "mid_level_0.5-2": 16.666666666666664, "tall_2+": 35.714285714285715 }, "geometry": { "type": "Point", "coordinates": [ -0.185915257652791, 51.49218447769529 ] } },
{ "type": "Feature", "properties": { "max_height": 16.714752197265625, "mean_height": 4.9560332298278809, "std_height": 5.067023754119873, "count_pixels": 38, "percent_cover": 0.3619047619047619, "percent_above_0.1m": 71.05263157894737, "low_level_<0.5": 7.8947368421052628, "mid_level_0.5-2": 5.2631578947368416, "tall_2+": 57.894736842105267 }, "geometry": { "type": "Point", "coordinates": [ -0.185715771009026, 51.492181391969062 ] } },
{ "type": "Feature", "properties": { "max_height": 13.418001174926758, "mean_height": 2.1765429973602295, "std_height": 3.4111239910125732, "count_pixels": 41, "percent_cover": 0.39047619047619048, "percent_above_0.1m": 65.853658536585371, "low_level_<0.5": 9.7560975609756095, "mid_level_0.5-2": 29.268292682926827, "tall_2+": 26.829268292682929 }, "geometry": { "type": "Point", "coordinates": [ -0.185516284400782, 51.4921783059037 ] } },
{ "type": "Feature", "properties": { "max_height": 16.493499755859375, "mean_height": 6.3346467018127441, "std_height": 5.1712198257446289, "count_pixels": 41, "percent_cover": 0.39047619047619048, "percent_above_0.1m": 90.243902439024396, "low_level_<0.5": 9.7560975609756095, "mid_level_0.5-2": 14.634146341463413, "tall_2+": 65.853658536585371 }, "geometry": { "type": "Point", "coordinates": [ -0.185316797828065, 51.492175219499217 ] } },
{ "type": "Feature", "properties": { "max_height": 27.33375358581543, "mean_height": 9.8966379165649414, "std_height": 5.7006216049194336, "count_pixels": 42, "percent_cover": 0.4, "percent_above_0.1m": 100.0, "low_level_<0.5": 0.0, "mid_level_0.5-2": 7.1428571428571423, "tall_2+": 92.857142857142861 }, "geometry": { "type": "Point", "coordinates": [ -0.185117311290881, 51.492172132755591 ] } },
{ "type": "Feature", "properties": { "max_height": 21.998001098632812, "mean_height": 12.201255798339844, "std_height": 4.9789185523986816, "count_pixels": 42, "percent_cover": 0.4, "percent_above_0.1m": 100.0, "low_level_<0.5": 0.0, "mid_level_0.5-2": 2.3809523809523809, "tall_2+": 97.61904761904762 }, "geometry": { "type": "Point", "coordinates": [ -0.184917824809826, 51.492169045667573 ] } },
{ "type": "Feature", "properties": { "max_height": 24.9720458984375, "mean_height": 14.946184158325195, "std_height": 7.297736644744873, "count_pixels": 42, "percent_cover": 0.4, "percent_above_0.1m": 100.0, "low_level_<0.5": 0.0, "mid_level_0.5-2": 0.0, "tall_2+": 100.0 }, "geometry": { "type": "Point", "coordinates": [ -0.186409692594632, 51.49230003634004 ] } },
{ "type": "Feature", "properties": { "max_height": 25.02509880065918, "mean_height": 18.628217697143555, "std_height": 7.1460728645324707, "count_pixels": 43, "percent_cover": 0.40952380952380951, "percent_above_0.1m": 100.0, "low_level_<0.5": 0.0, "mid_level_0.5-2": 0.0, "tall_2+": 100.0 }, "geometry": { "type": "Point", "coordinates": [ -0.18621020541995, 51.49229695144254 ] } },
{ "type": "Feature", "properties": { "max_height": 25.162252426147461, "mean_height": 11.804096221923828, "std_height": 9.8957242965698242, "count_pixels": 42, "percent_cover": 0.4, "percent_above_0.1m": 100.0, "low_level_<0.5": 2.3809523809523809, "mid_level_0.5-2": 23.809523809523807, "tall_2+": 73.80952380952381 }, "geometry": { "type": "Point", "coordinates": [ -0.186010718280653, 51.492293866205927 ] } },
{ "type": "Feature", "properties": { "max_height": 15.207500457763672, "mean_height": 4.6543574333190918, "std_height": 4.1802716255187988, "count_pixels": 42, "percent_cover": 0.4, "percent_above_0.1m": 92.857142857142861, "low_level_<0.5": 2.3809523809523809, "mid_level_0.5-2": 26.190476190476193, "tall_2+": 64.285714285714292 }, "geometry": { "type": "Point", "coordinates": [ -0.185811231176749, 51.492290780630249 ] } },
{ "type": "Feature", "properties": { "max_height": 16.165000915527344, "mean_height": 6.640357494354248, "std_height": 4.5683722496032715, "count_pixels": 42, "percent_cover": 0.4, "percent_above_0.1m": 100.0, "low_level_<0.5": 7.1428571428571423, "mid_level_0.5-2": 7.1428571428571423, "tall_2+": 83.333333333333343 }, "geometry": { "type": "Point", "coordinates": [ -0.185611744108247, 51.492287694715451 ] } },
{ "type": "Feature", "properties": { "max_height": 2.5017499923706055, "mean_height": 0.17743015289306641, "std_height": 0.52717757225036621, "count_pixels": 43, "percent_cover": 0.40952380952380951, "percent_above_0.1m": 16.279069767441861, "low_level_<0.5": 4.6511627906976747, "mid_level_0.5-2": 6.9767441860465116, "tall_2+": 2.3255813953488373 }, "geometry": { "type": "Point", "coordinates": [ -0.18541225707514, 51.492284608461546 ] } },
{ "type": "Feature", "properties": { "max_height": 11.729500770568848, "mean_height": 3.3898870944976807, "std_height": 3.3355231285095215, "count_pixels": 42, "percent_cover": 0.4, "percent_above_0.1m": 76.19047619047619, "low_level_<0.5": 4.7619047619047619, "mid_level_0.5-2": 11.904761904761903, "tall_2+": 59.523809523809526 }, "geometry": { "type": "Point", "coordinates": [ -0.185212770077438, 51.492281521868534 ] } },
{ "type": "Feature", "properties": { "max_height": 17.3385009765625, "mean_height": 5.6295661926269531, "std_height": 5.3727350234985352, "count_pixels": 42, "percent_cover": 0.4, "percent_above_0.1m": 73.80952380952381, "low_level_<0.5": 4.7619047619047619, "mid_level_0.5-2": 4.7619047619047619, "tall_2+": 64.285714285714292 }, "geometry": { "type": "Point", "coordinates": [ -0.185013283115149, 51.492278434936452 ] } },
{ "type": "Feature", "properties": { "max_height": 22.792751312255859, "mean_height": 10.547304153442383, "std_height": 5.2859373092651367, "count_pixels": 41, "percent_cover": 0.39047619047619048, "percent_above_0.1m": 97.560975609756099, "low_level_<0.5": 0.0, "mid_level_0.5-2": 4.8780487804878048, "tall_2+": 92.682926829268297 }, "geometry": { "type": "Point", "coordinates": [ -0.18481379623845, 51.492275347641147 ] } },
{ "type": "Feature", "properties": { "max_height": 16.384750366210938, "mean_height": 7.1756038665771484, "std_height": 5.8514852523803711, "count_pixels": 41, "percent_cover": 0.39047619047619048, "percent_above_0.1m": 92.682926829268297, "low_level_<0.5": 9.7560975609756095, "mid_level_0.5-2": 12.195121951219512, "tall_2+": 70.731707317073173 }, "geometry": { "type": "Point", "coordinates": [ -0.184614309449228, 51.492272259981171 ] } },
{ "type": "Feature", "properties": { "max_height": 25.264499664306641, "mean_height": 11.572677612304688, "std_height": 9.5027875900268555, "count_pixels": 41, "percent_cover": 0.39047619047619048, "percent_above_0.1m": 97.560975609756099, "low_level_<0.5": 9.7560975609756095, "mid_level_0.5-2": 17.073170731707318, "tall_2+": 70.731707317073173 }, "geometry": { "type": "Point", "coordinates": [ -0.18401584929777, 51.492262994964669 ] } },
{ "type": "Feature", "properties": { "max_height": 5.5777502059936523, "mean_height": 0.56778579950332642, "std_height": 1.2916111946105957, "count_pixels": 42, "percent_cover": 0.4, "percent_above_0.1m": 35.714285714285715, "low_level_<0.5": 7.1428571428571423, "mid_level_0.5-2": 16.666666666666664, "tall_2+": 9.5238095238095237 }, "geometry": { "type": "Point", "coordinates": [ -0.183816362651485, 51.492259905947321 ] } },
{ "type": "Feature", "properties": { "max_height": 12.859499931335449, "mean_height": 1.3408918380737305, "std_height": 2.7877357006072998, "count_pixels": 42, "percent_cover": 0.4, "percent_above_0.1m": 47.619047619047613, "low_level_<0.5": 9.5238095238095237, "mid_level_0.5-2": 19.047619047619047, "tall_2+": 16.666666666666664 }, "geometry": { "type": "Point", "coordinates": [ -0.186505154351012, 51.492409424561693 ] } },
{ "type": "Feature", "properties": { "max_height": 19.819717407226562, "mean_height": 6.3083481788635254, "std_height": 6.147648811340332, "count_pixels": 41, "percent_cover": 0.39047619047619048, "percent_above_0.1m": 90.243902439024396, "low_level_<0.5": 7.3170731707317067, "mid_level_0.5-2": 17.073170731707318, "tall_2+": 65.853658536585371 }, "geometry": { "type": "Point", "coordinates": [ -0.186305666690516, 51.492406339820441 ] } },
{ "type": "Feature", "properties": { "max_height": 22.374250411987305, "mean_height": 3.6183662414550781, "std_height": 5.5442156791687012, "count_pixels": 41, "percent_cover": 0.39047619047619048, "percent_above_0.1m": 85.365853658536579, "low_level_<0.5": 0.0, "mid_level_0.5-2": 46.341463414634148, "tall_2+": 39.024390243902438 }, "geometry": { "type": "Point", "coordinates": [ -0.185507716402452, 51.492393997464411 ] } },
{ "type": "Feature", "properties": { "max_height": 7.6114997863769531, "mean_height": 2.3672256469726562, "std_height": 2.0962529182434082, "count_pixels": 41, "percent_cover": 0.39047619047619048, "percent_above_0.1m": 87.804878048780495, "low_level_<0.5": 17.073170731707318, "mid_level_0.5-2": 21.951219512195124, "tall_2+": 48.780487804878049 }, "geometry": { "type": "Point", "coordinates": [ -0.185308228918933, 51.492390911027648 ] } },
{ "type": "Feature", "properties": { "max_height": 21.626501083374023, "mean_height": 10.299280166625977, "std_height": 4.9507026672363281, "count_pixels": 42, "percent_cover": 0.4, "percent_above_0.1m": 97.61904761904762, "low_level_<0.5": 2.3809523809523809, "mid_level_0.5-2": 2.3809523809523809, "tall_2+": 92.857142857142861 }, "geometry": { "type": "Point", "coordinates": [ -0.185108741470821, 51.492387824251772 ] } },
{ "type": "Feature", "properties": { "max_height": 20.744499206542969, "mean_height": 3.2760295867919922, "std_height": 5.9065108299255371, "count_pixels": 42, "percent_cover": 0.4, "percent_above_0.1m": 47.619047619047613, "low_level_<0.5": 2.3809523809523809, "mid_level_0.5-2": 11.904761904761903, "tall_2+": 28.571428571428569 }, "geometry": { "type": "Point", "coordinates": [ -0.184909254080809, 51.49238473713153 ] } },
{ "type": "Feature", "properties": { "max_height": 17.56500244140625, "mean_height": 4.6139187812805176, "std_height": 4.5398244857788086, "count_pixels": 43, "percent_cover": 0.40952380952380951, "percent_above_0.1m": 83.720930232558146, "low_level_<0.5": 4.6511627906976747, "mid_level_0.5-2": 11.627906976744185, "tall_2+": 67.441860465116278 }, "geometry": { "type": "Point", "coordinates": [ -0.184709766783648, 51.492381649635711 ] } },
{ "type": "Feature", "properties": { "max_height": 6.6467509269714355, "mean_height": 1.0845774412155151, "std_height": 1.4561812877655029, "count_pixels": 42, "percent_cover": 0.4, "percent_above_0.1m": 54.761904761904766, "low_level_<0.5": 7.1428571428571423, "mid_level_0.5-2": 23.809523809523807, "tall_2+": 23.809523809523807 }, "geometry": { "type": "Point", "coordinates": [ -0.184510279545121, 51.492378561795221 ] } },
{ "type": "Feature", "properties": { "max_height": 20.069252014160156, "mean_height": 7.1931552886962891, "std_height": 6.6039600372314453, "count_pixels": 42, "percent_cover": 0.4, "percent_above_0.1m": 100.0, "low_level_<0.5": 9.5238095238095237, "mid_level_0.5-2": 21.428571428571427, "tall_2+": 69.047619047619051 }, "geometry": { "type": "Point", "coordinates": [ -0.184310792342024, 51.492375473615489 ] } },
{ "type": "Feature", "properties": { "max_height": 24.337253570556641, "mean_height": 16.710458755493164, "std_height": 7.2281885147094727, "count_pixels": 43, "percent_cover": 0.40952380952380951, "percent_above_0.1m": 100.0, "low_level_<0.5": 0.0, "mid_level_0.5-2": 2.3255813953488373, "tall_2+": 97.674418604651152 }, "geometry": { "type": "Point", "coordinates": [ -0.184111305174359, 51.492372385096502 ] } },
{ "type": "Feature", "properties": { "max_height": 23.607501983642578, "mean_height": 16.778341293334961, "std_height": 6.8818416595458984, "count_pixels": 42, "percent_cover": 0.4, "percent_above_0.1m": 100.0, "low_level_<0.5": 0.0, "mid_level_0.5-2": 4.7619047619047619, "tall_2+": 95.238095238095227 }, "geometry": { "type": "Point", "coordinates": [ -0.183911818042135, 51.492369296238245 ] } },
{ "type": "Feature", "properties": { "max_height": 16.943500518798828, "mean_height": 10.823605537414551, "std_height": 4.7296156883239746, "count_pixels": 43, "percent_cover": 0.40952380952380951, "percent_above_0.1m": 100.0, "low_level_<0.5": 0.0, "mid_level_0.5-2": 4.6511627906976747, "tall_2+": 95.348837209302332 }, "geometry": { "type": "Point", "coordinates": [ -0.185403688210835, 51.492500300112958 ] } },
{ "type": "Feature", "properties": { "max_height": 18.624502182006836, "mean_height": 10.453507423400879, "std_height": 5.2759833335876465, "count_pixels": 42, "percent_cover": 0.4, "percent_above_0.1m": 100.0, "low_level_<0.5": 0.0, "mid_level_0.5-2": 2.3809523809523809, "tall_2+": 97.61904761904762 }, "geometry": { "type": "Point", "coordinates": [ -0.185204200276904, 51.49249721349333 ] } },
{ "type": "Feature", "properties": { "max_height": 17.833751678466797, "mean_height": 3.2552802562713623, "std_height": 4.0938577651977539, "count_pixels": 42, "percent_cover": 0.4, "percent_above_0.1m": 78.571428571428569, "low_level_<0.5": 9.5238095238095237, "mid_level_0.5-2": 21.428571428571427, "tall_2+": 45.238095238095241 }, "geometry": { "type": "Point", "coordinates": [ -0.18500471237935, 51.492494126534325 ] } },
{ "type": "Feature", "properties": { "max_height": 25.366001129150391, "mean_height": 10.703768730163574, "std_height": 6.2378387451171875, "count_pixels": 41, "percent_cover": 0.39047619047619048, "percent_above_0.1m": 92.682926829268297, "low_level_<0.5": 0.0, "mid_level_0.5-2": 4.8780487804878048, "tall_2+": 87.804878048780495 }, "geometry": { "type": "Point", "coordinates": [ -0.184805224568576, 51.49249103921376 ] } },
{ "type": "Feature", "properties": { "max_height": 14.115250587463379, "mean_height": 4.9787502288818359, "std_height": 4.1066169738769531, "count_pixels": 41, "percent_cover": 0.39047619047619048, "percent_above_0.1m": 97.560975609756099, "low_level_<0.5": 2.4390243902439024, "mid_level_0.5-2": 17.073170731707318, "tall_2+": 78.048780487804876 }, "geometry": { "type": "Point", "coordinates": [ -0.184605736844106, 51.492487951532382 ] } },
{ "type": "Feature", "properties": { "max_height": 20.056001663208008, "mean_height": 6.0375919342041016, "std_height": 6.9221282005310059, "count_pixels": 38, "percent_cover": 0.3619047619047619, "percent_above_0.1m": 60.526315789473685, "low_level_<0.5": 2.6315789473684208, "mid_level_0.5-2": 7.8947368421052628, "tall_2+": 47.368421052631575 }, "geometry": { "type": "Point", "coordinates": [ -0.184406249155065, 51.492484863511756 ] } },
{ "type": "Feature", "properties": { "max_height": 6.5905008316040039, "mean_height": 2.3499755859375, "std_height": 1.9771139621734619, "count_pixels": 41, "percent_cover": 0.39047619047619048, "percent_above_0.1m": 80.487804878048792, "low_level_<0.5": 7.3170731707317067, "mid_level_0.5-2": 19.512195121951219, "tall_2+": 51.219512195121951 }, "geometry": { "type": "Point", "coordinates": [ -0.184206761501456, 51.492481775151859 ] } },
{ "type": "Feature", "properties": { "max_height": 19.378002166748047, "mean_height": 5.2133173942565918, "std_height": 3.6306941509246826, "count_pixels": 41, "percent_cover": 0.39047619047619048, "percent_above_0.1m": 100.0, "low_level_<0.5": 2.4390243902439024, "mid_level_0.5-2": 17.073170731707318, "tall_2+": 80.487804878048792 }, "geometry": { "type": "Point", "coordinates": [ -0.18400727388328, 51.492478686452692 ] } },
{ "type": "Feature", "properties": { "max_height": 20.549001693725586, "mean_height": 11.116596221923828, "std_height": 6.2025012969970703, "count_pixels": 42, "percent_cover": 0.4, "percent_above_0.1m": 100.0, "low_level_<0.5": 0.0, "mid_level_0.5-2": 7.1428571428571423, "tall_2+": 92.857142857142861 }, "geometry": { "type": "Point", "coordinates": [ -0.18490068282512, 51.492600428711178 ] } },
{ "type": "Feature", "properties": { "max_height": 21.012502670288086, "mean_height": 8.3976335525512695, "std_height": 6.0488414764404297, "count_pixels": 43, "percent_cover": 0.40952380952380951, "percent_above_0.1m": 100.0, "low_level_<0.5": 4.6511627906976747, "mid_level_0.5-2": 11.627906976744185, "tall_2+": 83.720930232558146 }, "geometry": { "type": "Point", "coordinates": [ -0.184701194593601, 51.492597341193068 ] } },
{ "type": "Feature", "properties": { "max_height": 23.935249328613281, "mean_height": 10.325447082519531, "std_height": 5.467322826385498, "count_pixels": 42, "percent_cover": 0.4, "percent_above_0.1m": 97.61904761904762, "low_level_<0.5": 0.0, "mid_level_0.5-2": 2.3809523809523809, "tall_2+": 95.238095238095227 }, "geometry": { "type": "Point", "coordinates": [ -0.184501706418616, 51.492594253331532 ] } },
{ "type": "Feature", "properties": { "max_height": 7.6802511215209961, "mean_height": 3.3407502174377441, "std_height": 2.4301650524139404, "count_pixels": 42, "percent_cover": 0.4, "percent_above_0.1m": 92.857142857142861, "low_level_<0.5": 7.1428571428571423, "mid_level_0.5-2": 26.190476190476193, "tall_2+": 59.523809523809526 }, "geometry": { "type": "Point", "coordinates": [ -0.184302218279058, 51.49259116513074 ] } },
{ "type": "Feature", "properties": { "max_height": 12.097250938415527, "mean_height": 4.1035346984863281, "std_height": 2.714118480682373, "count_pixels": 43, "percent_cover": 0.40952380952380951, "percent_above_0.1m": 97.674418604651152, "low_level_<0.5": 6.9767441860465116, "mid_level_0.5-2": 11.627906976744185, "tall_2+": 79.069767441860463 }, "geometry": { "type": "Point", "coordinates": [ -0.184102730174933, 51.492588076590685 ] } },
{ "type": "Feature", "properties": { "max_height": 14.92650032043457, "mean_height": 8.5133743286132812, "std_height": 4.6064157485961914, "count_pixels": 42, "percent_cover": 0.4, "percent_above_0.1m": 100.0, "low_level_<0.5": 0.0, "mid_level_0.5-2": 2.3809523809523809, "tall_2+": 97.61904761904762 }, "geometry": { "type": "Point", "coordinates": [ -0.183903242106244, 51.492584987711361 ] } },
{ "type": "Feature", "properties": { "max_height": 28.735502243041992, "mean_height": 14.127692222595215, "std_height": 7.9371089935302734, "count_pixels": 38, "percent_cover": 0.3619047619047619, "percent_above_0.1m": 100.0, "low_level_<0.5": 0.0, "mid_level_0.5-2": 7.8947368421052628, "tall_2+": 92.10526315789474 }, "geometry": { "type": "Point", "coordinates": [ -0.18439767550717, 51.492700555033174 ] } },
{ "type": "Feature", "properties": { "max_height": 26.670253753662109, "mean_height": 13.046299934387207, "std_height": 10.951290130615234, "count_pixels": 41, "percent_cover": 0.39047619047619048, "percent_above_0.1m": 90.243902439024396, "low_level_<0.5": 4.8780487804878048, "mid_level_0.5-2": 17.073170731707318, "tall_2+": 68.292682926829272 }, "geometry": { "type": "Point", "coordinates": [ -0.184198186917097, 51.492697466652203 ] } },
{ "type": "Feature", "properties": { "max_height": 22.375253677368164, "mean_height": 8.9805488586425781, "std_height": 5.7345142364501953, "count_pixels": 41, "percent_cover": 0.39047619047619048, "percent_above_0.1m": 100.0, "low_level_<0.5": 4.8780487804878048, "mid_level_0.5-2": 2.4390243902439024, "tall_2+": 92.682926829268297 }, "geometry": { "type": "Point", "coordinates": [ -0.183998698362453, 51.492694377931983 ] } }
]
}
