{
"type": "FeatureCollection",
"name": "HOUNS_147_toilets",
"crs": { "type": "name", "properties": { "name": "urn:ogc:def:crs:OGC:1.3:CRS84" } },
"features": [
{ "type": "Feature", "properties": { "name": "Tesco Extra Osterley", "payment_info": "Cost unknown", "accessible": "True", "radar": "Unknown", "women": "True", "men": "True", "baby_change": "True", "Mon": "09:00-17:00", "Tue": "09:00-17:00", "Wed": "09:00-17:00", "Thu": "09:00-17:00", "Fri": "09:00-17:00", "Sat": "09:00-17:00", "Sun": "09:00-17:00", "index_right": 27, "park_offical_id": "HOUNS_147" }, "geometry": { "type": "Point", "coordinates": [ -0.330190659, 51.485682294 ] } },
{ "type": "Feature", "properties": { "name": "St Marys Church Osterley ", "payment_info": "Free", "accessible": "False", "radar": "False", "women": "True", "men": "True", "baby_change": "False", "Mon": "10:00-16:00", "Tue": "10:00-16:00", "Wed": "10:00-16:00", "Thu": "10:00-16:00", "Fri": "10:00-16:00", "Sat": "10:00-16:00", "Sun": "08:00-16:00", "index_right": 27, "park_offical_id": "HOUNS_147" }, "geometry": { "type": "Point", "coordinates": [ -0.343365669, 51.481289532 ] } }
]
}
