{
"type": "FeatureCollection",
"name": "BROML_386_NACH",
"crs": { "type": "name", "properties": { "name": "urn:ogc:def:crs:OGC:1.3:CRS84" } },
"features": [
{ "type": "Feature", "properties": { "id": 31975, "nach": 0.49966133535333618 }, "geometry": { "type": "LineString", "coordinates": [ [ 0.1185708, 51.4032091 ], [ 0.1184175, 51.4031898 ] ] } },
{ "type": "Feature", "properties": { "id": 67200, "nach": 0.55953328425329818 }, "geometry": { "type": "LineString", "coordinates": [ [ 0.118013, 51.4028789 ], [ 0.1180666, 51.4029517 ], [ 0.1181684, 51.403045400000011 ], [ 0.1183229, 51.4031526 ], [ 0.1184175, 51.4031898 ] ] } },
{ "type": "Feature", "properties": { "id": 39700, "nach": 0.5429005385808725 }, "geometry": { "type": "LineString", "coordinates": [ [ 0.1178932, 51.403584 ], [ 0.1180784, 51.4034666 ], [ 0.1182815, 51.4033145 ], [ 0.1183388, 51.4032628 ], [ 0.1184175, 51.4031898 ] ] } },
{ "type": "Feature", "properties": { "id": 78487, "nach": 0.48662816348917198 }, "geometry": { "type": "LineString", "coordinates": [ [ 0.1194656, 51.4037503 ], [ 0.1194271, 51.4037112 ], [ 0.1190295, 51.4034724 ], [ 0.118654, 51.4032438 ], [ 0.1185708, 51.4032091 ] ] } },
{ "type": "Feature", "properties": { "id": 78495, "nach": 0.33053055783243218 }, "geometry": { "type": "LineString", "coordinates": [ [ 0.1257186, 51.4014145 ], [ 0.1256021, 51.4014434 ], [ 0.1252446, 51.4015078 ], [ 0.1243239, 51.401714300000016 ], [ 0.1240883, 51.4017547 ], [ 0.1230007, 51.4018973 ], [ 0.122422, 51.4019721 ], [ 0.1219855, 51.402083299999987 ], [ 0.1216309, 51.40214850000001 ], [ 0.1212755, 51.4021867 ], [ 0.1207797, 51.402281 ], [ 0.1201467, 51.402485 ], [ 0.1199321, 51.4025824 ], [ 0.1192986, 51.4028699 ], [ 0.1185708, 51.4032091 ] ] } },
{ "type": "Feature", "properties": { "id": 67199, "nach": 0.55956167709258142 }, "geometry": { "type": "LineString", "coordinates": [ [ 0.118013, 51.4028789 ], [ 0.1179315, 51.402811 ] ] } },
{ "type": "Feature", "properties": { "id": 39699, "nach": 0.34236244610786554 }, "geometry": { "type": "LineString", "coordinates": [ [ 0.1178932, 51.403584 ], [ 0.1179529, 51.4036125 ], [ 0.1183092, 51.4038039 ], [ 0.118407, 51.403856499999989 ] ] } },
{ "type": "Feature", "properties": { "id": 39701, "nach": 0.54202103221387721 }, "geometry": { "type": "LineString", "coordinates": [ [ 0.1178932, 51.403584 ], [ 0.1176486, 51.4037325 ], [ 0.1174667, 51.4038371 ], [ 0.1173432, 51.4039097 ] ] } },
{ "type": "Feature", "properties": { "id": 31632, "nach": 0.22576240198599104 }, "geometry": { "type": "LineString", "coordinates": [ [ 0.1393363, 51.4008579 ], [ 0.1401414, 51.400857900000013 ], [ 0.1403663, 51.4008579 ], [ 0.1415336, 51.400724 ], [ 0.1423661, 51.40084190000001 ], [ 0.1449359, 51.3999524 ], [ 0.1450284, 51.3998906 ], [ 0.1451579, 51.399821 ], [ 0.145208, 51.399807399999986 ], [ 0.1453135, 51.3998207 ], [ 0.1454322, 51.3998741 ], [ 0.1455423, 51.399871400000016 ] ] } },
{ "type": "Feature", "properties": { "id": 31631, "nach": 0.10393731502508023 }, "geometry": { "type": "LineString", "coordinates": [ [ 0.1393363, 51.4008579 ], [ 0.139285, 51.4010311 ], [ 0.1392476, 51.4011575 ], [ 0.1395337, 51.40131310000001 ], [ 0.14101, 51.4017843 ], [ 0.1417653, 51.402293 ], [ 0.1421749, 51.4026507 ], [ 0.1428382, 51.40323 ], [ 0.1425378, 51.403562 ], [ 0.1431558, 51.4038832 ], [ 0.1450793, 51.4052061 ], [ 0.1450781, 51.4052165 ] ] } },
{ "type": "Feature", "properties": { "id": 31630, "nach": 0.14184393225095657 }, "geometry": { "type": "LineString", "coordinates": [ [ 0.1393363, 51.4008579 ], [ 0.1391303, 51.4001779 ], [ 0.1390187, 51.3996959 ], [ 0.1386325, 51.3988766 ], [ 0.1385295, 51.3984482 ], [ 0.1382033, 51.398164400000013 ], [ 0.1380317, 51.397912700000013 ], [ 0.138478, 51.3977146 ], [ 0.138993, 51.3975647 ], [ 0.1392294, 51.3974816 ] ] } },
{ "type": "Feature", "properties": { "id": 64773, "nach": 0.1748161979220515 }, "geometry": { "type": "LineString", "coordinates": [ [ 0.1331441, 51.4013872 ], [ 0.1336961, 51.4013773 ], [ 0.1351982, 51.4011525 ], [ 0.136727, 51.400938199999985 ], [ 0.1388728, 51.4008579 ], [ 0.1393363, 51.4008579 ] ] } },
{ "type": "Feature", "properties": { "id": 34196, "nach": 0.54452516475470913 }, "geometry": { "type": "LineString", "coordinates": [ [ 0.1171482, 51.4007297 ], [ 0.1164748, 51.400885 ] ] } },
{ "type": "Feature", "properties": { "id": 52072, "nach": 0.45228118152496394 }, "geometry": { "type": "LineString", "coordinates": [ [ 0.1171966, 51.4019288 ], [ 0.1172745, 51.401907700000017 ], [ 0.1172953, 51.4019016 ], [ 0.1175492, 51.4018294 ], [ 0.1180346, 51.40175 ], [ 0.118559, 51.4016437 ], [ 0.1194066, 51.401299 ], [ 0.120622, 51.4008162 ], [ 0.1207734, 51.4007545 ] ] } },
{ "type": "Feature", "properties": { "id": 58261, "nach": 0.56418607257574316 }, "geometry": { "type": "LineString", "coordinates": [ [ 0.1174231, 51.4023045 ], [ 0.1171966, 51.4019288 ] ] } },
{ "type": "Feature", "properties": { "id": 54587, "nach": 0.46209876102941194 }, "geometry": { "type": "LineString", "coordinates": [ [ 0.1205316, 51.3985477 ], [ 0.1205721, 51.398696200000018 ] ] } },
{ "type": "Feature", "properties": { "id": 9700, "nach": 0.45289327328143908 }, "geometry": { "type": "LineString", "coordinates": [ [ 0.119469, 51.3987271 ], [ 0.1198104, 51.398717499999982 ], [ 0.1205721, 51.398696200000018 ] ] } },
{ "type": "Feature", "properties": { "id": 9663, "nach": 0.49252391710140936 }, "geometry": { "type": "LineString", "coordinates": [ [ 0.1210746, 51.398798 ], [ 0.1207948, 51.39869 ], [ 0.1205721, 51.398696200000018 ] ] } },
{ "type": "Feature", "properties": { "id": 54589, "nach": 0.45283382342153666 }, "geometry": { "type": "LineString", "coordinates": [ [ 0.1205316, 51.3985477 ], [ 0.1204695, 51.398529 ], [ 0.1204372, 51.3985193 ], [ 0.1198593, 51.398345399999982 ], [ 0.1198428, 51.3983405 ], [ 0.1195897, 51.3982643 ], [ 0.1173404, 51.3984058 ] ] } },
{ "type": "Feature", "properties": { "id": 80762, "nach": 0.44348641425763119 }, "geometry": { "type": "LineString", "coordinates": [ [ 0.1211264, 51.3980741 ], [ 0.120433, 51.3981869 ], [ 0.1205316, 51.3985477 ] ] } },
{ "type": "Feature", "properties": { "id": 9698, "nach": 0.4580630095571126 }, "geometry": { "type": "LineString", "coordinates": [ [ 0.119469, 51.3987271 ], [ 0.1183017, 51.3987967 ] ] } },
{ "type": "Feature", "properties": { "id": 9907, "nach": 0.37209428054819688 }, "geometry": { "type": "LineString", "coordinates": [ [ 0.1194433, 51.3991662 ], [ 0.1195119, 51.3991126 ], [ 0.119469, 51.3987271 ] ] } },
{ "type": "Feature", "properties": { "id": 9661, "nach": 0.48372182807382319 }, "geometry": { "type": "LineString", "coordinates": [ [ 0.1210746, 51.398798 ], [ 0.1218918, 51.399113300000018 ] ] } },
{ "type": "Feature", "properties": { "id": 9731, "nach": 0.38736326339344529 }, "geometry": { "type": "LineString", "coordinates": [ [ 0.1196597, 51.4003638 ], [ 0.1196608, 51.400316400000015 ], [ 0.1196938, 51.399677 ], [ 0.1202243, 51.399674 ], [ 0.1210746, 51.398798 ] ] } },
{ "type": "Feature", "properties": { "id": 9657, "nach": 0.49761954979969425 }, "geometry": { "type": "LineString", "coordinates": [ [ 0.1218918, 51.399113300000018 ], [ 0.1233545, 51.3978367 ] ] } },
{ "type": "Feature", "properties": { "id": 80764, "nach": 0.50932468795831698 }, "geometry": { "type": "LineString", "coordinates": [ [ 0.1238885, 51.3973053 ], [ 0.1233545, 51.3978367 ] ] } },
{ "type": "Feature", "properties": { "id": 79270, "nach": 0.41855980012099403 }, "geometry": { "type": "LineString", "coordinates": [ [ 0.1225292, 51.397845699999984 ], [ 0.1230691, 51.3977578 ], [ 0.1232234, 51.3977816 ], [ 0.1233545, 51.3978367 ] ] } },
{ "type": "Feature", "properties": { "id": 9705, "nach": 0.47260928885008169 }, "geometry": { "type": "LineString", "coordinates": [ [ 0.1228557, 51.3994683 ], [ 0.1218918, 51.399113300000018 ] ] } },
{ "type": "Feature", "properties": { "id": 9724, "nach": 0.47871246763889347 }, "geometry": { "type": "LineString", "coordinates": [ [ 0.1214872, 51.3996856 ], [ 0.1217132, 51.399366 ], [ 0.1218918, 51.399113300000018 ] ] } },
{ "type": "Feature", "properties": { "id": 80765, "nach": 0.52164090812226704 }, "geometry": { "type": "LineString", "coordinates": [ [ 0.1238885, 51.3973053 ], [ 0.1240735, 51.397121200000015 ] ] } },
{ "type": "Feature", "properties": { "id": 80766, "nach": 0.39814405683321846 }, "geometry": { "type": "LineString", "coordinates": [ [ 0.1238885, 51.3973053 ], [ 0.1237263, 51.3972829 ], [ 0.1210052, 51.3977581 ], [ 0.1211264, 51.3980741 ] ] } },
{ "type": "Feature", "properties": { "id": 79272, "nach": 0.39477562470178501 }, "geometry": { "type": "LineString", "coordinates": [ [ 0.1219948, 51.397932699999984 ], [ 0.1219441, 51.3978115 ], [ 0.1224786, 51.39772450000001 ], [ 0.1225292, 51.397845699999984 ] ] } },
{ "type": "Feature", "properties": { "id": 9706, "nach": 0.35610471648632458 }, "geometry": { "type": "LineString", "coordinates": [ [ 0.1228557, 51.3994683 ], [ 0.1232292, 51.3990903 ], [ 0.123516, 51.3989191 ], [ 0.1244587, 51.3981354 ], [ 0.1246034, 51.39795980000001 ], [ 0.1246929, 51.39776 ], [ 0.1247625, 51.396925800000012 ] ] } },
{ "type": "Feature", "properties": { "id": 9709, "nach": 0.47289708383504647 }, "geometry": { "type": "LineString", "coordinates": [ [ 0.1237761, 51.39980730000002 ], [ 0.1228557, 51.3994683 ] ] } },
{ "type": "Feature", "properties": { "id": 9723, "nach": 0.46966892899626295 }, "geometry": { "type": "LineString", "coordinates": [ [ 0.1214872, 51.3996856 ], [ 0.1210003, 51.4003744 ], [ 0.1209694, 51.4004181 ] ] } },
{ "type": "Feature", "properties": { "id": 9725, "nach": 0.37920525908680025 }, "geometry": { "type": "LineString", "coordinates": [ [ 0.1219585, 51.399806200000015 ], [ 0.1214872, 51.3996856 ] ] } },
{ "type": "Feature", "properties": { "id": 9733, "nach": 0.48920453209781251 }, "geometry": { "type": "LineString", "coordinates": [ [ 0.1186236, 51.40031110000001 ], [ 0.1196597, 51.4003638 ] ] } },
{ "type": "Feature", "properties": { "id": 78491, "nach": 0.47711429180308695 }, "geometry": { "type": "LineString", "coordinates": [ [ 0.1197131, 51.400366 ], [ 0.1196597, 51.4003638 ] ] } },
{ "type": "Feature", "properties": { "id": 9673, "nach": 0.37653825067625368 }, "geometry": { "type": "LineString", "coordinates": [ [ 0.1232768, 51.3971277 ], [ 0.1232372, 51.39703140000001 ] ] } },
{ "type": "Feature", "properties": { "id": 9676, "nach": 0.49860701893081294 }, "geometry": { "type": "LineString", "coordinates": [ [ 0.1230086, 51.39647380000001 ], [ 0.1232372, 51.39703140000001 ] ] } },
{ "type": "Feature", "properties": { "id": 9667, "nach": 0.50223837045332576 }, "geometry": { "type": "LineString", "coordinates": [ [ 0.1237734, 51.3970155 ], [ 0.1232372, 51.39703140000001 ] ] } },
{ "type": "Feature", "properties": { "id": 9678, "nach": 0.40640712171494819 }, "geometry": { "type": "LineString", "coordinates": [ [ 0.1238515, 51.3964816 ], [ 0.1230086, 51.39647380000001 ] ] } },
{ "type": "Feature", "properties": { "id": 9684, "nach": 0.51216356593468126 }, "geometry": { "type": "LineString", "coordinates": [ [ 0.122803, 51.396200899999982 ], [ 0.1230086, 51.39647380000001 ] ] } },
{ "type": "Feature", "properties": { "id": 9672, "nach": 0.53136335475584962 }, "geometry": { "type": "LineString", "coordinates": [ [ 0.1240735, 51.397121200000015 ], [ 0.1238838, 51.3970458 ], [ 0.1237734, 51.3970155 ] ] } },
{ "type": "Feature", "properties": { "id": 9680, "nach": 0.46462047774958026 }, "geometry": { "type": "LineString", "coordinates": [ [ 0.1238515, 51.3964816 ], [ 0.1238676, 51.3965131 ], [ 0.1238619, 51.396572399999989 ], [ 0.1238273, 51.396669 ], [ 0.1238644, 51.3968422 ], [ 0.1238504, 51.3969014 ], [ 0.1237997, 51.3969367 ], [ 0.1237734, 51.3970155 ] ] } },
{ "type": "Feature", "properties": { "id": 117819, "nach": 0.51321943348920107 }, "geometry": { "type": "LineString", "coordinates": [ [ 0.1243533, 51.3969564 ], [ 0.1243027, 51.3969664 ], [ 0.1240735, 51.397121200000015 ] ] } },
{ "type": "Feature", "properties": { "id": 117835, "nach": 0.44352109506109755 }, "geometry": { "type": "LineString", "coordinates": [ [ 0.1240396, 51.3964833 ], [ 0.1238515, 51.3964816 ] ] } },
{ "type": "Feature", "properties": { "id": 28798, "nach": 0.41724312332532559 }, "geometry": { "type": "LineString", "coordinates": [ [ 0.1237986, 51.3961402 ], [ 0.1238105, 51.3962156 ], [ 0.1238583, 51.396231400000012 ], [ 0.1238778, 51.39629080000001 ], [ 0.1238727, 51.3963361 ], [ 0.123852, 51.3963764 ], [ 0.1238388, 51.3964496 ], [ 0.1238515, 51.3964816 ] ] } },
{ "type": "Feature", "properties": { "id": 117820, "nach": 0.51036648761245962 }, "geometry": { "type": "LineString", "coordinates": [ [ 0.1243533, 51.3969564 ], [ 0.1244899, 51.3969294 ], [ 0.1247625, 51.396925800000012 ] ] } },
{ "type": "Feature", "properties": { "id": 117822, "nach": 0.36728697483097178 }, "geometry": { "type": "LineString", "coordinates": [ [ 0.1242212, 51.3961001 ], [ 0.1241756, 51.3961352 ], [ 0.1241756, 51.3962022 ], [ 0.1242373, 51.396416400000014 ], [ 0.124299, 51.3966975 ], [ 0.1243533, 51.3969564 ] ] } },
{ "type": "Feature", "properties": { "id": 117836, "nach": 0.37336314155348066 }, "geometry": { "type": "LineString", "coordinates": [ [ 0.1240396, 51.3964833 ], [ 0.1241343, 51.39648420000001 ] ] } },
{ "type": "Feature", "properties": { "id": 117837, "nach": 0.37298393527754248 }, "geometry": { "type": "LineString", "coordinates": [ [ 0.1240396, 51.3964833 ], [ 0.1240416, 51.3965637 ] ] } },
{ "type": "Feature", "properties": { "id": 28799, "nach": 0.41135631893064167 }, "geometry": { "type": "LineString", "coordinates": [ [ 0.1237986, 51.3961402 ], [ 0.1236751, 51.3959748 ], [ 0.123472, 51.3958465 ] ] } },
{ "type": "Feature", "properties": { "id": 117823, "nach": 0.37118086705194886 }, "geometry": { "type": "LineString", "coordinates": [ [ 0.1240827, 51.3961151 ], [ 0.1239561, 51.3961246 ], [ 0.1237986, 51.3961402 ] ] } },
{ "type": "Feature", "properties": { "id": 9690, "nach": 0.48692756343361548 }, "geometry": { "type": "LineString", "coordinates": [ [ 0.1173404, 51.3984058 ], [ 0.1173233, 51.3980256 ] ] } },
{ "type": "Feature", "properties": { "id": 9692, "nach": 0.42437250720727382 }, "geometry": { "type": "LineString", "coordinates": [ [ 0.1173748, 51.3988609 ], [ 0.1173404, 51.3984058 ] ] } },
{ "type": "Feature", "properties": { "id": 9764, "nach": 0.48141622914027421 }, "geometry": { "type": "LineString", "coordinates": [ [ 0.1158208, 51.3989732 ], [ 0.1173748, 51.3988609 ] ] } },
{ "type": "Feature", "properties": { "id": 9696, "nach": 0.47320200665500245 }, "geometry": { "type": "LineString", "coordinates": [ [ 0.1183017, 51.3987967 ], [ 0.1173748, 51.3988609 ] ] } },
{ "type": "Feature", "properties": { "id": 9906, "nach": 0.37873373139841537 }, "geometry": { "type": "LineString", "coordinates": [ [ 0.1183704, 51.399359 ], [ 0.1183017, 51.3987967 ] ] } },
{ "type": "Feature", "properties": { "id": 117827, "nach": 0.5124917085484646 }, "geometry": { "type": "LineString", "coordinates": [ [ 0.1247878, 51.396498 ], [ 0.1247625, 51.396925800000012 ] ] } },
{ "type": "Feature", "properties": { "id": 117829, "nach": 0.51181329117012164 }, "geometry": { "type": "LineString", "coordinates": [ [ 0.1247878, 51.396498 ], [ 0.1246616, 51.396496100000014 ], [ 0.1246726, 51.3962729 ], [ 0.1247005, 51.3959924 ], [ 0.124818, 51.3959892 ] ] } },
{ "type": "Feature", "properties": { "id": 80759, "nach": 0.43074541615330841 }, "geometry": { "type": "LineString", "coordinates": [ [ 0.1241793, 51.3994555 ], [ 0.1237761, 51.39980730000002 ] ] } },
{ "type": "Feature", "properties": { "id": 9711, "nach": 0.47245870895889996 }, "geometry": { "type": "LineString", "coordinates": [ [ 0.1239456, 51.399873 ], [ 0.1237761, 51.39980730000002 ] ] } },
{ "type": "Feature", "properties": { "id": 80758, "nach": 0.35699434176527561 }, "geometry": { "type": "LineString", "coordinates": [ [ 0.1241793, 51.3994555 ], [ 0.1245845, 51.3991019 ] ] } },
{ "type": "Feature", "properties": { "id": 80760, "nach": 0.35846564880879211 }, "geometry": { "type": "LineString", "coordinates": [ [ 0.1241793, 51.3994555 ], [ 0.1246436, 51.399663300000014 ] ] } },
{ "type": "Feature", "properties": { "id": 9715, "nach": 0.43264213488949876 }, "geometry": { "type": "LineString", "coordinates": [ [ 0.1209694, 51.4004181 ], [ 0.1222245, 51.4004457 ], [ 0.1229933, 51.4003964 ], [ 0.1231324, 51.400376 ], [ 0.1232456, 51.4003121 ], [ 0.1239456, 51.399873 ] ] } },
{ "type": "Feature", "properties": { "id": 9721, "nach": 0.47520838174342073 }, "geometry": { "type": "LineString", "coordinates": [ [ 0.125334, 51.400242 ], [ 0.1251488, 51.4002553 ], [ 0.1249903, 51.4002252 ], [ 0.1249038, 51.400182500000014 ], [ 0.1246606, 51.4000937 ], [ 0.1244852, 51.4000349 ], [ 0.1243864, 51.4000615 ], [ 0.1239456, 51.399873 ] ] } },
{ "type": "Feature", "properties": { "id": 78492, "nach": 0.46310815058091076 }, "geometry": { "type": "LineString", "coordinates": [ [ 0.1197131, 51.400366 ], [ 0.1209694, 51.4004181 ] ] } },
{ "type": "Feature", "properties": { "id": 9727, "nach": 0.45940952477398356 }, "geometry": { "type": "LineString", "coordinates": [ [ 0.1207734, 51.4007545 ], [ 0.1209493, 51.4004526 ], [ 0.1209694, 51.4004181 ] ] } },
{ "type": "Feature", "properties": { "id": 49326, "nach": 0.32707836004512081 }, "geometry": { "type": "LineString", "coordinates": [ [ 0.1255924, 51.4002233 ], [ 0.125334, 51.400242 ] ] } },
{ "type": "Feature", "properties": { "id": 49330, "nach": 0.42338309934071855 }, "geometry": { "type": "LineString", "coordinates": [ [ 0.125501, 51.4001031 ], [ 0.125334, 51.400242 ] ] } },
{ "type": "Feature", "properties": { "id": 49335, "nach": 0.41742392932618766 }, "geometry": { "type": "LineString", "coordinates": [ [ 0.1256837, 51.4003398 ], [ 0.1255007, 51.40027820000001 ], [ 0.125334, 51.400242 ] ] } },
{ "type": "Feature", "properties": { "id": 78493, "nach": 0.37741786768831226 }, "geometry": { "type": "LineString", "coordinates": [ [ 0.1197131, 51.400366 ], [ 0.1197066, 51.400403 ], [ 0.1196777, 51.4007489 ] ] } },
{ "type": "Feature", "properties": { "id": 78490, "nach": 0.3861461484693125 }, "geometry": { "type": "LineString", "coordinates": [ [ 0.1207272, 51.4008243 ], [ 0.1207734, 51.4007545 ] ] } },
{ "type": "Feature", "properties": { "id": 49329, "nach": 0.0 }, "geometry": { "type": "LineString", "coordinates": [ [ 0.1255924, 51.4002233 ], [ 0.1257746, 51.4002116 ], [ 0.125952, 51.400159200000012 ], [ 0.1260875, 51.400092200000017 ], [ 0.1261482, 51.3999873 ], [ 0.1261342, 51.3997804 ], [ 0.1261201, 51.3996406 ], [ 0.1260688, 51.3995532 ], [ 0.1259474, 51.3994337 ], [ 0.1258353, 51.3993259 ] ] } },
{ "type": "Feature", "properties": { "id": 49333, "nach": 0.3825671325366809 }, "geometry": { "type": "LineString", "coordinates": [ [ 0.1256837, 51.4003398 ], [ 0.1255924, 51.4002233 ] ] } },
{ "type": "Feature", "properties": { "id": 49331, "nach": 0.3889553634420278 }, "geometry": { "type": "LineString", "coordinates": [ [ 0.125501, 51.4001031 ], [ 0.1255924, 51.4002233 ] ] } },
{ "type": "Feature", "properties": { "id": 49332, "nach": 0.4457970490920351 }, "geometry": { "type": "LineString", "coordinates": [ [ 0.125501, 51.4001031 ], [ 0.1255538, 51.3999433 ], [ 0.1255497, 51.399694700000012 ], [ 0.1255253, 51.39952730000001 ], [ 0.1256189, 51.3994208 ], [ 0.1258353, 51.3993259 ] ] } },
{ "type": "Feature", "properties": { "id": 49334, "nach": 0.43350673796886263 }, "geometry": { "type": "LineString", "coordinates": [ [ 0.1256837, 51.4003398 ], [ 0.1262926, 51.4005102 ], [ 0.1268908, 51.400763500000011 ], [ 0.12742, 51.4010005 ], [ 0.12752, 51.4010555 ] ] } },
{ "type": "Feature", "properties": { "id": 9737, "nach": 0.37749603953744831 }, "geometry": { "type": "LineString", "coordinates": [ [ 0.1184954, 51.401019 ], [ 0.1186392, 51.4007854 ], [ 0.1186646, 51.4006604 ], [ 0.1186631, 51.400564200000012 ], [ 0.1186236, 51.40031110000001 ] ] } },
{ "type": "Feature", "properties": { "id": 9738, "nach": 0.37749603953744831 }, "geometry": { "type": "LineString", "coordinates": [ [ 0.1184095, 51.3996215 ], [ 0.1183258, 51.3997485 ], [ 0.1186236, 51.40031110000001 ] ] } },
{ "type": "Feature", "properties": { "id": 42953, "nach": 0.50341223828703197 }, "geometry": { "type": "LineString", "coordinates": [ [ 0.1180888, 51.4003894 ], [ 0.1182548, 51.4003352 ], [ 0.1186236, 51.40031110000001 ] ] } },
{ "type": "Feature", "properties": { "id": 42954, "nach": 0.45283226315024949 }, "geometry": { "type": "LineString", "coordinates": [ [ 0.1180888, 51.4003894 ], [ 0.1181363, 51.4004827 ], [ 0.1181531, 51.400528 ], [ 0.1181636, 51.4006497 ], [ 0.1181154, 51.400771700000021 ], [ 0.118048, 51.4008481 ] ] } },
{ "type": "Feature", "properties": { "id": 42956, "nach": 0.52142089493205446 }, "geometry": { "type": "LineString", "coordinates": [ [ 0.1174181, 51.4006598 ], [ 0.1176349, 51.4005873 ], [ 0.1180888, 51.4003894 ] ] } },
{ "type": "Feature", "properties": { "id": 42955, "nach": 0.53154752114205872 }, "geometry": { "type": "LineString", "coordinates": [ [ 0.1174181, 51.4006598 ], [ 0.1171482, 51.4007297 ] ] } },
{ "type": "Feature", "properties": { "id": 34200, "nach": 0.37884787820292487 }, "geometry": { "type": "LineString", "coordinates": [ [ 0.1173577, 51.3996699 ], [ 0.1171804, 51.399692 ], [ 0.1173783, 51.4002963 ], [ 0.1171629, 51.4006381 ], [ 0.1171482, 51.4007297 ] ] } },
{ "type": "Feature", "properties": { "id": 77600, "nach": 0.39476396581231926 }, "geometry": { "type": "LineString", "coordinates": [ [ 0.1168187, 51.4003339 ], [ 0.1168805, 51.4004166 ], [ 0.1169843, 51.400434 ], [ 0.1171482, 51.4007297 ] ] } },
{ "type": "Feature", "properties": { "id": 64742, "nach": 0.45023570009200625 }, "geometry": { "type": "LineString", "coordinates": [ [ 0.1182971, 51.4026182 ], [ 0.118481, 51.4025433 ], [ 0.1185527, 51.4024663 ], [ 0.1185891, 51.4023849 ] ] } },
{ "type": "Feature", "properties": { "id": 76318, "nach": 0.37550808913549666 }, "geometry": { "type": "LineString", "coordinates": [ [ 0.1193085, 51.4023691 ], [ 0.1191586, 51.40242460000001 ], [ 0.1190822, 51.402424600000018 ], [ 0.1189353, 51.4023371 ], [ 0.1185891, 51.4023849 ] ] } },
{ "type": "Feature", "properties": { "id": 31981, "nach": 0.3769811697867736 }, "geometry": { "type": "LineString", "coordinates": [ [ 0.1185241, 51.4020694 ], [ 0.1184794, 51.4021071 ], [ 0.1184742, 51.4021677 ], [ 0.1185267, 51.4022839 ], [ 0.1185891, 51.4023849 ] ] } },
{ "type": "Feature", "properties": { "id": 64741, "nach": 0.48644345786173088 }, "geometry": { "type": "LineString", "coordinates": [ [ 0.1182971, 51.4026182 ], [ 0.118019, 51.402766300000017 ], [ 0.1179612, 51.4027931 ], [ 0.1179315, 51.402811 ] ] } },
{ "type": "Feature", "properties": { "id": 64744, "nach": 0.38109885664362081 }, "geometry": { "type": "LineString", "coordinates": [ [ 0.1188733, 51.4027264 ], [ 0.1186256, 51.4028483 ], [ 0.1184181, 51.402733 ], [ 0.1182971, 51.4026182 ] ] } },
{ "type": "Feature", "properties": { "id": 58263, "nach": 0.55973788811622205 }, "geometry": { "type": "LineString", "coordinates": [ [ 0.1174231, 51.4023045 ], [ 0.1175002, 51.402423200000015 ], [ 0.1175433, 51.40248110000001 ], [ 0.1175834, 51.4025265 ], [ 0.1176312, 51.4025737 ], [ 0.1176932, 51.4026256 ], [ 0.117796, 51.4027055 ], [ 0.1179315, 51.402811 ] ] } },
{ "type": "Feature", "properties": { "id": 9751, "nach": 0.45749689161781582 }, "geometry": { "type": "LineString", "coordinates": [ [ 0.1175641, 51.4031754 ], [ 0.1176401, 51.403001 ], [ 0.1179315, 51.402811 ] ] } },
{ "type": "Feature", "properties": { "id": 58264, "nach": 0.46669454156177187 }, "geometry": { "type": "LineString", "coordinates": [ [ 0.1178181, 51.4022083 ], [ 0.1174231, 51.4023045 ] ] } },
{ "type": "Feature", "properties": { "id": 9752, "nach": 0.38853873823294993 }, "geometry": { "type": "LineString", "coordinates": [ [ 0.1175333, 51.4033256 ], [ 0.1175641, 51.4031754 ] ] } },
{ "type": "Feature", "properties": { "id": 117267, "nach": 0.38178106941661066 }, "geometry": { "type": "LineString", "coordinates": [ [ 0.1170073, 51.4031472 ], [ 0.1175641, 51.4031754 ] ] } },
{ "type": "Feature", "properties": { "id": 49349, "nach": 0.51838594914147529 }, "geometry": { "type": "LineString", "coordinates": [ [ 0.1248321, 51.3957511 ], [ 0.1248506, 51.3954015 ], [ 0.1247905, 51.395267600000011 ], [ 0.1246766, 51.3951697 ] ] } },
{ "type": "Feature", "properties": { "id": 117826, "nach": 0.51465217867006108 }, "geometry": { "type": "LineString", "coordinates": [ [ 0.124818, 51.3959892 ], [ 0.1248321, 51.3957511 ] ] } },
{ "type": "Feature", "properties": { "id": 49353, "nach": 0.50854865109592651 }, "geometry": { "type": "LineString", "coordinates": [ [ 0.1256548, 51.3957681 ], [ 0.1256081, 51.395763200000012 ], [ 0.1255373, 51.3957753 ], [ 0.1254595, 51.3957952 ], [ 0.1254011, 51.3957974 ], [ 0.1251857, 51.3957779 ], [ 0.1249899, 51.3957635 ], [ 0.1249478, 51.3957602 ], [ 0.1248321, 51.3957511 ] ] } },
{ "type": "Feature", "properties": { "id": 49279, "nach": 0.29160362601643963 }, "geometry": { "type": "LineString", "coordinates": [ [ 0.1257714, 51.3956005 ], [ 0.1260128, 51.3947503 ], [ 0.1259377, 51.3946365 ], [ 0.1257393, 51.394516 ], [ 0.1254667, 51.3944546 ], [ 0.1248552, 51.3944612 ], [ 0.1247444, 51.3944677 ] ] } },
{ "type": "Feature", "properties": { "id": 49282, "nach": 0.43578286981102604 }, "geometry": { "type": "LineString", "coordinates": [ [ 0.1259968, 51.3958917 ], [ 0.1259896, 51.39579470000001 ], [ 0.1259896, 51.3957175 ], [ 0.1260427, 51.3955938 ], [ 0.1261595, 51.395384 ], [ 0.1262303, 51.395289100000014 ], [ 0.126255, 51.3952073 ], [ 0.1263258, 51.394909199999987 ], [ 0.1263895, 51.3948319 ], [ 0.1265382, 51.394748 ], [ 0.126662, 51.39469720000001 ], [ 0.1268425, 51.3946487 ], [ 0.1269381, 51.3946222 ], [ 0.1270514, 51.3945471 ], [ 0.1271823, 51.3944521 ], [ 0.127469, 51.3943969 ], [ 0.1275752, 51.3943285 ], [ 0.1278441, 51.39420040000001 ], [ 0.1280317, 51.3941562 ], [ 0.1281449, 51.3941156 ] ] } },
{ "type": "Feature", "properties": { "id": 49280, "nach": 0.40276429242965883 }, "geometry": { "type": "LineString", "coordinates": [ [ 0.1259968, 51.3958917 ], [ 0.1257714, 51.3956005 ] ] } },
{ "type": "Feature", "properties": { "id": 49284, "nach": 0.41534454406797394 }, "geometry": { "type": "LineString", "coordinates": [ [ 0.1259538, 51.3965444 ], [ 0.1260289, 51.3963904 ], [ 0.1261094, 51.396263200000014 ], [ 0.1261094, 51.3961193 ], [ 0.1259968, 51.3958917 ] ] } },
{ "type": "Feature", "properties": { "id": 55398, "nach": 0.52152132599634438 }, "geometry": { "type": "LineString", "coordinates": [ [ 0.1198059, 51.4041797 ], [ 0.1198146, 51.40419390000001 ], [ 0.119932, 51.4043756 ], [ 0.1200142, 51.40445840000001 ] ] } },
{ "type": "Feature", "properties": { "id": 55397, "nach": 0.4965893320264968 }, "geometry": { "type": "LineString", "coordinates": [ [ 0.1198059, 51.4041797 ], [ 0.1197193, 51.4041975 ], [ 0.1193742, 51.4042686 ] ] } },
{ "type": "Feature", "properties": { "id": 78486, "nach": 0.4735036195476573 }, "geometry": { "type": "LineString", "coordinates": [ [ 0.1194656, 51.4037503 ], [ 0.1196724, 51.4039606 ], [ 0.1198059, 51.4041797 ] ] } },
{ "type": "Feature", "properties": { "id": 49351, "nach": 0.40462912325047945 }, "geometry": { "type": "LineString", "coordinates": [ [ 0.1256548, 51.3957681 ], [ 0.1257714, 51.3956005 ] ] } },
{ "type": "Feature", "properties": { "id": 32788, "nach": 0.56696442507236544 }, "geometry": { "type": "LineString", "coordinates": [ [ 0.1173432, 51.4039097 ], [ 0.1171143, 51.4040141 ], [ 0.1169887, 51.4040595 ], [ 0.1164138, 51.4042273 ], [ 0.1162797, 51.4042756 ] ] } },
{ "type": "Feature", "properties": { "id": 32790, "nach": 0.57238382498660867 }, "geometry": { "type": "LineString", "coordinates": [ [ 0.1174876, 51.404024 ], [ 0.1173432, 51.4039097 ] ] } },
{ "type": "Feature", "properties": { "id": 79178, "nach": 0.41878763731237972 }, "geometry": { "type": "LineString", "coordinates": [ [ 0.1281541, 51.4010051 ], [ 0.1281053, 51.400998800000018 ], [ 0.1279942, 51.401001 ], [ 0.1277741, 51.4010056 ], [ 0.1276692, 51.401014 ], [ 0.12752, 51.4010555 ] ] } },
{ "type": "Feature", "properties": { "id": 78494, "nach": 0.34349683788275537 }, "geometry": { "type": "LineString", "coordinates": [ [ 0.1257186, 51.4014145 ], [ 0.1260114, 51.4013418 ], [ 0.127092, 51.401199 ], [ 0.127229, 51.401167 ], [ 0.12752, 51.4010555 ] ] } },
{ "type": "Feature", "properties": { "id": 79177, "nach": 0.39722052806774089 }, "geometry": { "type": "LineString", "coordinates": [ [ 0.1281541, 51.4010051 ], [ 0.1283501, 51.4010306 ] ] } },
{ "type": "Feature", "properties": { "id": 79180, "nach": 0.31383976538104569 }, "geometry": { "type": "LineString", "coordinates": [ [ 0.1279471, 51.4005952 ], [ 0.1280888, 51.4008392 ], [ 0.1281134, 51.4008931 ], [ 0.1281541, 51.4010051 ] ] } },
{ "type": "Feature", "properties": { "id": 78497, "nach": 0.29460388587215403 }, "geometry": { "type": "LineString", "coordinates": [ [ 0.1254182, 51.4023188 ], [ 0.1253308, 51.4022554 ], [ 0.1253085, 51.4022097 ], [ 0.1253369, 51.402159 ], [ 0.125463, 51.401981500000012 ], [ 0.1255402, 51.40187370000001 ], [ 0.1256561, 51.4016758 ], [ 0.1257232, 51.4015516 ], [ 0.1257374, 51.401478 ], [ 0.1257186, 51.4014145 ] ] } },
{ "type": "Feature", "properties": { "id": 64775, "nach": 0.32106791787168337 }, "geometry": { "type": "LineString", "coordinates": [ [ 0.1331441, 51.4013872 ], [ 0.1331019, 51.4013233 ], [ 0.1329343, 51.4011861 ], [ 0.132603, 51.40103460000001 ], [ 0.1324642, 51.4009409 ], [ 0.1324606, 51.4009148 ], [ 0.1324592, 51.4008746 ], [ 0.1324408, 51.4008326 ], [ 0.1323969, 51.400797199999985 ], [ 0.1323804, 51.4007992 ], [ 0.1323784, 51.4007744 ], [ 0.1323643, 51.4006675 ] ] } },
{ "type": "Feature", "properties": { "id": 132147, "nach": 0.32861324781619833 }, "geometry": { "type": "LineString", "coordinates": [ [ 0.1322631, 51.4013792 ], [ 0.1329836, 51.401402 ], [ 0.1331441, 51.4013872 ] ] } },
{ "type": "Feature", "properties": { "id": 78489, "nach": 0.37359926458307119 }, "geometry": { "type": "LineString", "coordinates": [ [ 0.1205987, 51.4034571 ], [ 0.1205881, 51.4035112 ], [ 0.1205881, 51.4035984 ], [ 0.1205315, 51.4036404 ], [ 0.1203545, 51.40368010000001 ], [ 0.1200926, 51.403711 ], [ 0.1199723, 51.4037243 ], [ 0.1197777, 51.4037386 ], [ 0.1196237, 51.4037463 ], [ 0.1194656, 51.4037503 ] ] } },
{ "type": "Feature", "properties": { "id": 132152, "nach": 0.33842516136519857 }, "geometry": { "type": "LineString", "coordinates": [ [ 0.1321337, 51.4013751 ], [ 0.131764, 51.4013634 ], [ 0.1314639, 51.4013389 ], [ 0.1304717, 51.4013064 ], [ 0.1293273, 51.401138900000014 ], [ 0.1283501, 51.4010306 ] ] } },
{ "type": "Feature", "properties": { "id": 56817, "nach": 0.35477854705686757 }, "geometry": { "type": "LineString", "coordinates": [ [ 0.1286991, 51.4018347 ], [ 0.1285638, 51.401544 ], [ 0.1284017, 51.4011258 ], [ 0.1283501, 51.4010306 ] ] } },
{ "type": "Feature", "properties": { "id": 132151, "nach": 0.33371918672662265 }, "geometry": { "type": "LineString", "coordinates": [ [ 0.1321337, 51.4013751 ], [ 0.1321806, 51.4013873 ], [ 0.1322631, 51.4013792 ] ] } },
{ "type": "Feature", "properties": { "id": 56820, "nach": 0.26455522520286939 }, "geometry": { "type": "LineString", "coordinates": [ [ 0.1302905, 51.4020337 ], [ 0.1298719, 51.4019086 ], [ 0.1295232, 51.4018487 ], [ 0.1288692, 51.4018732 ], [ 0.1286991, 51.4018347 ] ] } },
{ "type": "Feature", "properties": { "id": 65673, "nach": 0.29440545566322868 }, "geometry": { "type": "LineString", "coordinates": [ [ 0.1289155, 51.402105 ], [ 0.1288297, 51.402018 ], [ 0.1286991, 51.4018347 ] ] } },
{ "type": "Feature", "properties": { "id": 32791, "nach": 0.0 }, "geometry": { "type": "LineString", "coordinates": [ [ 0.1174876, 51.404024 ], [ 0.1164387, 51.404331099999986 ], [ 0.1167704, 51.4046807 ] ] } },
{ "type": "Feature", "properties": { "id": 32789, "nach": 0.57051477423441443 }, "geometry": { "type": "LineString", "coordinates": [ [ 0.1174876, 51.404024 ], [ 0.1175233, 51.4040864 ] ] } },
{ "type": "Feature", "properties": { "id": 55394, "nach": 0.47225082858340006 }, "geometry": { "type": "LineString", "coordinates": [ [ 0.1193742, 51.4042686 ], [ 0.1192862, 51.4041517 ], [ 0.1187611, 51.4042982 ], [ 0.118407, 51.403856499999989 ] ] } },
{ "type": "Feature", "properties": { "id": 32783, "nach": 0.47451381670844245 }, "geometry": { "type": "LineString", "coordinates": [ [ 0.1175233, 51.4040864 ], [ 0.118407, 51.403856499999989 ] ] } },
{ "type": "Feature", "properties": { "id": 42958, "nach": 0.38666198720288369 }, "geometry": { "type": "LineString", "coordinates": [ [ 0.1175609, 51.4012075 ], [ 0.1177709, 51.40114770000001 ], [ 0.1174865, 51.4007587 ], [ 0.1174181, 51.4006598 ] ] } },
{ "type": "Feature", "properties": { "id": 63695, "nach": 0.38181560467558395 }, "geometry": { "type": "LineString", "coordinates": [ [ 0.1178937, 51.400842600000011 ], [ 0.118048, 51.4008481 ] ] } },
{ "type": "Feature", "properties": { "id": 63696, "nach": 0.38248253939684462 }, "geometry": { "type": "LineString", "coordinates": [ [ 0.1180379, 51.4009266 ], [ 0.118048, 51.4008481 ] ] } },
{ "type": "Feature", "properties": { "id": 49352, "nach": 0.49121178150460471 }, "geometry": { "type": "LineString", "coordinates": [ [ 0.1256548, 51.3957681 ], [ 0.1256386, 51.3957914 ], [ 0.1256078, 51.3959183 ], [ 0.1256324, 51.3961182 ], [ 0.1256941, 51.396214300000011 ], [ 0.1258235, 51.3963527 ], [ 0.1259538, 51.3965444 ] ] } },
{ "type": "Feature", "properties": { "id": 49287, "nach": 0.50349772281307281 }, "geometry": { "type": "LineString", "coordinates": [ [ 0.1261845, 51.396869 ], [ 0.1259538, 51.3965444 ] ] } },
{ "type": "Feature", "properties": { "id": 49289, "nach": 0.47817735402251454 }, "geometry": { "type": "LineString", "coordinates": [ [ 0.1263401, 51.3969962 ], [ 0.1261845, 51.396869 ] ] } },
{ "type": "Feature", "properties": { "id": 49316, "nach": 0.41568157558640406 }, "geometry": { "type": "LineString", "coordinates": [ [ 0.1260081, 51.3971786 ], [ 0.1260174, 51.3971174 ], [ 0.1261061, 51.3970504 ], [ 0.1261622, 51.396963 ], [ 0.1261845, 51.396869 ] ] } },
{ "type": "Feature", "properties": { "id": 49347, "nach": 0.47242684101745785 }, "geometry": { "type": "LineString", "coordinates": [ [ 0.1267322, 51.3971168 ], [ 0.1266405, 51.3971033 ], [ 0.1263401, 51.3969962 ] ] } },
{ "type": "Feature", "properties": { "id": 49314, "nach": 0.31285689466506883 }, "geometry": { "type": "LineString", "coordinates": [ [ 0.1260081, 51.3971786 ], [ 0.1261715, 51.3970795 ], [ 0.1262836, 51.39702130000002 ], [ 0.1263401, 51.3969962 ] ] } },
{ "type": "Feature", "properties": { "id": 49315, "nach": 0.41169935328477997 }, "geometry": { "type": "LineString", "coordinates": [ [ 0.1260081, 51.3971786 ], [ 0.125966, 51.3972573 ], [ 0.1259333, 51.3974175 ], [ 0.125938, 51.397569 ], [ 0.125966, 51.3978167 ], [ 0.1259941, 51.397974 ], [ 0.1261108, 51.3982071 ], [ 0.1261201, 51.3983878 ], [ 0.1261155, 51.3985189 ], [ 0.1261295, 51.3985917 ], [ 0.1261902, 51.3986471 ] ] } },
{ "type": "Feature", "properties": { "id": 49346, "nach": 0.37048944803034539 }, "geometry": { "type": "LineString", "coordinates": [ [ 0.1267322, 51.3971168 ], [ 0.1268229, 51.3971301 ], [ 0.127075, 51.3970933 ], [ 0.1272359, 51.39711 ], [ 0.1275202, 51.39719370000001 ], [ 0.1276758, 51.3972238 ] ] } },
{ "type": "Feature", "properties": { "id": 49345, "nach": 0.44420801899659595 }, "geometry": { "type": "LineString", "coordinates": [ [ 0.1267322, 51.3971168 ], [ 0.1274407, 51.397475300000011 ] ] } },
{ "type": "Feature", "properties": { "id": 49343, "nach": 0.32863264613025173 }, "geometry": { "type": "LineString", "coordinates": [ [ 0.1284748, 51.3974324 ], [ 0.1283195, 51.3973209 ], [ 0.1280567, 51.3972573 ], [ 0.1276758, 51.3972238 ] ] } },
{ "type": "Feature", "properties": { "id": 49340, "nach": 0.25043086137044468 }, "geometry": { "type": "LineString", "coordinates": [ [ 0.1274407, 51.397475300000011 ], [ 0.127453, 51.3973946 ], [ 0.1275023, 51.3973331 ], [ 0.1275732, 51.3972677 ], [ 0.1276758, 51.3972238 ] ] } },
{ "type": "Feature", "properties": { "id": 49342, "nach": 0.22515886704469976 }, "geometry": { "type": "LineString", "coordinates": [ [ 0.1284748, 51.3974324 ], [ 0.1284966, 51.3974481 ], [ 0.1286682, 51.3976154 ], [ 0.1287809, 51.3977058 ] ] } },
{ "type": "Feature", "properties": { "id": 49344, "nach": 0.26027781745879419 }, "geometry": { "type": "LineString", "coordinates": [ [ 0.1284748, 51.3974324 ], [ 0.1285098, 51.3975099 ], [ 0.1285314, 51.397558 ], [ 0.1285375, 51.397611800000014 ], [ 0.1285345, 51.397653500000011 ] ] } },
{ "type": "Feature", "properties": { "id": 49338, "nach": 0.38758655194355768 }, "geometry": { "type": "LineString", "coordinates": [ [ 0.1274407, 51.397475300000011 ], [ 0.1284084, 51.39765060000002 ] ] } },
{ "type": "Feature", "properties": { "id": 49341, "nach": 0.35595403331511771 }, "geometry": { "type": "LineString", "coordinates": [ [ 0.1274468, 51.3975234 ], [ 0.1274407, 51.397475300000011 ] ] } },
{ "type": "Feature", "properties": { "id": 117831, "nach": 0.38516404032671142 }, "geometry": { "type": "LineString", "coordinates": [ [ 0.1281375, 51.3977383 ], [ 0.1274407, 51.397475300000011 ] ] } },
{ "type": "Feature", "properties": { "id": 49318, "nach": 0.34523539458337776 }, "geometry": { "type": "LineString", "coordinates": [ [ 0.1285345, 51.397653500000011 ], [ 0.1287809, 51.3977058 ] ] } },
{ "type": "Feature", "properties": { "id": 49300, "nach": 0.27465606962375216 }, "geometry": { "type": "LineString", "coordinates": [ [ 0.1312056, 51.3989809 ], [ 0.1311573, 51.398843699999986 ], [ 0.1310554, 51.3987132 ], [ 0.1309374, 51.398499 ], [ 0.1307228, 51.3983752 ], [ 0.1304385, 51.3982781 ], [ 0.13024, 51.3981978 ], [ 0.1300576, 51.3981007 ], [ 0.1299611, 51.3980806 ], [ 0.1298162, 51.3979735 ], [ 0.1296177, 51.397859700000012 ], [ 0.1294675, 51.3978095 ], [ 0.129269, 51.3977761 ], [ 0.1290759, 51.3977325 ], [ 0.1289365, 51.3977359 ], [ 0.1287809, 51.3977058 ] ] } },
{ "type": "Feature", "properties": { "id": 49321, "nach": 0.39247050714107495 }, "geometry": { "type": "LineString", "coordinates": [ [ 0.1284084, 51.39765060000002 ], [ 0.1285345, 51.397653500000011 ] ] } },
{ "type": "Feature", "properties": { "id": 49304, "nach": 0.31412924194163316 }, "geometry": { "type": "LineString", "coordinates": [ [ 0.1312385, 51.3990637 ], [ 0.1312056, 51.3989809 ] ] } },
{ "type": "Feature", "properties": { "id": 49302, "nach": 0.30127241438778724 }, "geometry": { "type": "LineString", "coordinates": [ [ 0.1323643, 51.4006675 ], [ 0.1325601, 51.4006224 ], [ 0.1326862, 51.4005729 ], [ 0.1327749, 51.4004943 ], [ 0.1328123, 51.4004389 ], [ 0.1328963, 51.4003835 ], [ 0.1329664, 51.4003078 ], [ 0.1329944, 51.4002175 ], [ 0.1329524, 51.4000747 ], [ 0.1329103, 51.4000048 ], [ 0.1328543, 51.3999261 ], [ 0.1328216, 51.3998504 ], [ 0.1327796, 51.3998067 ], [ 0.1326815, 51.3997863 ], [ 0.1326348, 51.3997455 ], [ 0.1325274, 51.3996872 ], [ 0.132434, 51.39962890000001 ], [ 0.1324293, 51.3995503 ], [ 0.1324293, 51.3994716 ], [ 0.1323499, 51.3994396 ], [ 0.1322087, 51.3994194 ], [ 0.132139, 51.3993825 ], [ 0.13208, 51.3992989 ], [ 0.1320425, 51.3992386 ], [ 0.1319191, 51.3992219 ], [ 0.1317689, 51.3992286 ], [ 0.1316669, 51.3992353 ], [ 0.1315811, 51.3991985 ], [ 0.1315114, 51.3991215 ], [ 0.1313558, 51.399078 ], [ 0.1312056, 51.3989809 ] ] } },
{ "type": "Feature", "properties": { "id": 49307, "nach": 0.20203936458874935 }, "geometry": { "type": "LineString", "coordinates": [ [ 0.1309072, 51.400469 ], [ 0.1308462, 51.4004447 ], [ 0.1306594, 51.4003544 ], [ 0.130552, 51.4002204 ], [ 0.1304773, 51.4000427 ], [ 0.1304539, 51.399923200000011 ], [ 0.1304773, 51.3998183 ], [ 0.1304586, 51.3997047 ], [ 0.1304913, 51.39962890000001 ], [ 0.1305987, 51.3995532 ], [ 0.1307481, 51.3995095 ], [ 0.1308695, 51.399527 ], [ 0.1309723, 51.399570700000019 ], [ 0.131075, 51.39963190000001 ], [ 0.1312058, 51.3996668 ], [ 0.1313552, 51.399661 ], [ 0.1314533, 51.3995998 ], [ 0.1315373, 51.399527 ], [ 0.1315654, 51.3994192 ], [ 0.1314906, 51.3993347 ], [ 0.1313926, 51.3992677 ], [ 0.1312992, 51.3991395 ], [ 0.1312385, 51.3990637 ] ] } },
{ "type": "Feature", "properties": { "id": 117833, "nach": 0.32643781464681282 }, "geometry": { "type": "LineString", "coordinates": [ [ 0.1281375, 51.3977383 ], [ 0.1291073, 51.3981044 ], [ 0.1312385, 51.3990637 ] ] } },
{ "type": "Feature", "properties": { "id": 49308, "nach": 0.23620928217288381 }, "geometry": { "type": "LineString", "coordinates": [ [ 0.1309072, 51.400469 ], [ 0.1310517, 51.4005263 ], [ 0.1311964, 51.4005467 ], [ 0.1313085, 51.4005584 ], [ 0.1314626, 51.4005904 ], [ 0.1316307, 51.4006166 ], [ 0.1319109, 51.4006603 ], [ 0.1321771, 51.400672 ], [ 0.1323643, 51.4006675 ] ] } },
{ "type": "Feature", "properties": { "id": 49311, "nach": 0.2453045555017698 }, "geometry": { "type": "LineString", "coordinates": [ [ 0.1261902, 51.3986471 ], [ 0.1263677, 51.39867910000001 ], [ 0.1266706, 51.3987189 ], [ 0.1269374, 51.398740300000014 ], [ 0.1271802, 51.39882770000002 ], [ 0.1276939, 51.3990695 ], [ 0.1280722, 51.39925310000001 ], [ 0.128259, 51.399358 ], [ 0.1286793, 51.3996814 ], [ 0.1288941, 51.3998183 ], [ 0.1290996, 51.399897 ], [ 0.129193, 51.3999902 ], [ 0.1292911, 51.4001417 ], [ 0.1293611, 51.4002553 ], [ 0.1294779, 51.4003457 ], [ 0.129702, 51.4003835 ], [ 0.1299169, 51.4003952 ], [ 0.1302204, 51.4004127 ], [ 0.1305893, 51.4004476 ], [ 0.1309072, 51.400469 ] ] } },
{ "type": "Feature", "properties": { "id": 117832, "nach": 0.38978278892862828 }, "geometry": { "type": "LineString", "coordinates": [ [ 0.1281375, 51.3977383 ], [ 0.1279134, 51.39781090000001 ], [ 0.1273484, 51.3979507 ], [ 0.1272316, 51.3979915 ], [ 0.1270121, 51.3981314 ], [ 0.1269, 51.3981634 ], [ 0.1267132, 51.3982071 ], [ 0.1264517, 51.3983178 ], [ 0.1263863, 51.3983907 ], [ 0.1262836, 51.3985859 ], [ 0.1261902, 51.3986471 ] ] } },
{ "type": "Feature", "properties": { "id": 117830, "nach": 0.34507576285433778 }, "geometry": { "type": "LineString", "coordinates": [ [ 0.1281375, 51.3977383 ], [ 0.1284084, 51.39765060000002 ] ] } },
{ "type": "Feature", "properties": { "id": 49324, "nach": 0.44328602134186823 }, "geometry": { "type": "LineString", "coordinates": [ [ 0.1258353, 51.3993259 ], [ 0.125868, 51.3992007 ], [ 0.1259427, 51.3990637 ], [ 0.1259847, 51.3989938 ], [ 0.1260174, 51.398824799999986 ], [ 0.1260781, 51.3987228 ], [ 0.1261902, 51.3986471 ] ] } },
{ "type": "Feature", "properties": { "id": 80761, "nach": 0.42395956001480728 }, "geometry": { "type": "LineString", "coordinates": [ [ 0.1211264, 51.3980741 ], [ 0.1212836, 51.3980485 ] ] } },
{ "type": "Feature", "properties": { "id": 58267, "nach": 0.39533842822654958 }, "geometry": { "type": "LineString", "coordinates": [ [ 0.1179466, 51.4023703 ], [ 0.1178334, 51.402215 ], [ 0.1178181, 51.4022083 ] ] } },
{ "type": "Feature", "properties": { "id": 58268, "nach": 0.39561194511356451 }, "geometry": { "type": "LineString", "coordinates": [ [ 0.1177226, 51.4020444 ], [ 0.1178226, 51.40219840000001 ], [ 0.1178181, 51.4022083 ] ] } },
{ "type": "Feature", "properties": { "id": 79274, "nach": 0.38328769599984219 }, "geometry": { "type": "LineString", "coordinates": [ [ 0.1218097, 51.3979628 ], [ 0.1219948, 51.397932699999984 ] ] } },
{ "type": "Feature", "properties": { "id": 79278, "nach": 0.38456834218711078 }, "geometry": { "type": "LineString", "coordinates": [ [ 0.1212836, 51.3980485 ], [ 0.1213401, 51.398183600000017 ], [ 0.1218662, 51.39809790000001 ], [ 0.1218097, 51.3979628 ] ] } }
]
}
