{
"type": "FeatureCollection",
"name": "REDBR_44_cycling",
"crs": { "type": "name", "properties": { "name": "urn:ogc:def:crs:OGC:1.3:CRS84" } },
"features": [
{"type":"Feature","properties":{"highway":"path","name":null,"category":"Shared path"},"geometry":{"type":"MultiLineString","coordinates":[[[0.1106,51.5655823],[0.110761,51.5656054]]]}},
{"type":"Feature","properties":{"highway":"cycleway","name":"Eccleston Crescent","category":"Dedicated cycleway"},"geometry":{"type":"MultiLineString","coordinates":[[[0.1155527,51.5677943],[0.1155621,51.5677801],[0.1155699,51.5677689],[0.1156021,51.5677192]]]}},
{"type":"Feature","properties":{"highway":"path","name":null,"category":"Shared path"},"geometry":{"type":"MultiLineString","coordinates":[[[0.1185564,51.5658538],[0.1182005,51.5650968],[0.1183282,51.5646729],[0.1182796,51.5646115]]]}},
{"type":"Feature","properties":{"highway":"track","name":null,"category":"Track"},"geometry":{"type":"MultiLineString","coordinates":[[[0.1186228,51.565495],[0.1186366,51.5656008],[0.1186996,51.5657648],[0.1187183,51.5659593],[0.1187207,51.566029],[0.1187323,51.5660667],[0.1187627,51.5661001],[0.1188164,51.5661248],[0.1188794,51.5661495],[0.1189565,51.5661727],[0.119155,51.5661945],[0.1193861,51.5662351],[0.1196733,51.5662961],[0.1199209,51.5663483],[0.1201053,51.5663759],[0.1201964,51.5663686],[0.1202501,51.5663382],[0.1202758,51.5662932],[0.1203155,51.5661756],[0.1203505,51.566074],[0.1203925,51.5660014]]]}},
{"type":"Feature","properties":{"highway":"cycle_lane_on_street","name":"High Road","category":"Cycle lane on street"},"geometry":{"type":"MultiLineString","coordinates":[[[0.1110188,51.5668673],[0.111244,51.566915],[0.1142329,51.5674584]]]}}
]
}
